<?xml version="1.0" encoding="UTF-8"?>
<gpx version="1.1" creator="USO Cyclisme" xmlns="http://www.topografix.com/GPX/1/1">
  <metadata><name>Brie-Comte-Robert – 55 km</name><desc>Gravel, 54.6 km, D+ 254 m. Départ et arrivée : centre culturel d'Ormesson-sur-Marne.</desc></metadata>
  <trk><name>Brie-Comte-Robert – 55 km (gravel)</name><trkseg>
    <trkpt lat="48.78667" lon="2.54444"><ele>97.9</ele></trkpt>
    <trkpt lat="48.78714" lon="2.54362"><ele>97.8</ele></trkpt>
    <trkpt lat="48.78439" lon="2.53722"><ele>91.6</ele></trkpt>
    <trkpt lat="48.78423" lon="2.53721"><ele>90.9</ele></trkpt>
    <trkpt lat="48.78391" lon="2.53746"><ele>89.3</ele></trkpt>
    <trkpt lat="48.78271" lon="2.53804"><ele>82.9</ele></trkpt>
    <trkpt lat="48.78236" lon="2.53812"><ele>81.1</ele></trkpt>
    <trkpt lat="48.782" lon="2.53804"><ele>79.2</ele></trkpt>
    <trkpt lat="48.77931" lon="2.53651"><ele>62.5</ele></trkpt>
    <trkpt lat="48.77905" lon="2.53614"><ele>60.7</ele></trkpt>
    <trkpt lat="48.77859" lon="2.53466"><ele>57.6</ele></trkpt>
    <trkpt lat="48.7785" lon="2.53442"><ele>57.5</ele></trkpt>
    <trkpt lat="48.77837" lon="2.53427"><ele>57.4</ele></trkpt>
    <trkpt lat="48.77801" lon="2.53427"><ele>57.2</ele></trkpt>
    <trkpt lat="48.77676" lon="2.53446"><ele>59.2</ele></trkpt>
    <trkpt lat="48.77659" lon="2.53438"><ele>60.3</ele></trkpt>
    <trkpt lat="48.77628" lon="2.5341"><ele>62.7</ele></trkpt>
    <trkpt lat="48.77594" lon="2.53403"><ele>65.1</ele></trkpt>
    <trkpt lat="48.77457" lon="2.5347"><ele>71.8</ele></trkpt>
    <trkpt lat="48.77441" lon="2.5348"><ele>72.6</ele></trkpt>
    <trkpt lat="48.77431" lon="2.53503"><ele>73.3</ele></trkpt>
    <trkpt lat="48.77417" lon="2.53513"><ele>74.2</ele></trkpt>
    <trkpt lat="48.77383" lon="2.53493"><ele>75.7</ele></trkpt>
    <trkpt lat="48.77382" lon="2.53441"><ele>77.5</ele></trkpt>
    <trkpt lat="48.77354" lon="2.53371"><ele>80.4</ele></trkpt>
    <trkpt lat="48.77342" lon="2.53354"><ele>81.3</ele></trkpt>
    <trkpt lat="48.77326" lon="2.5336"><ele>82.1</ele></trkpt>
    <trkpt lat="48.77278" lon="2.53396"><ele>84.3</ele></trkpt>
    <trkpt lat="48.77262" lon="2.53386"><ele>85.1</ele></trkpt>
    <trkpt lat="48.77206" lon="2.53318"><ele>88.3</ele></trkpt>
    <trkpt lat="48.77141" lon="2.53224"><ele>91.6</ele></trkpt>
    <trkpt lat="48.77078" lon="2.53351"><ele>93.4</ele></trkpt>
    <trkpt lat="48.77041" lon="2.53411"><ele>93.6</ele></trkpt>
    <trkpt lat="48.77026" lon="2.53426"><ele>93.6</ele></trkpt>
    <trkpt lat="48.77023" lon="2.53502"><ele>93.4</ele></trkpt>
    <trkpt lat="48.77017" lon="2.53528"><ele>93.3</ele></trkpt>
    <trkpt lat="48.76996" lon="2.53572"><ele>93.2</ele></trkpt>
    <trkpt lat="48.76942" lon="2.53645"><ele>93.0</ele></trkpt>
    <trkpt lat="48.76878" lon="2.53693"><ele>93.0</ele></trkpt>
    <trkpt lat="48.76826" lon="2.53711"><ele>93.0</ele></trkpt>
    <trkpt lat="48.7679" lon="2.53713"><ele>93.0</ele></trkpt>
    <trkpt lat="48.76754" lon="2.53709"><ele>93.1</ele></trkpt>
    <trkpt lat="48.76701" lon="2.53691"><ele>93.4</ele></trkpt>
    <trkpt lat="48.76636" lon="2.53647"><ele>94.1</ele></trkpt>
    <trkpt lat="48.76594" lon="2.53595"><ele>94.7</ele></trkpt>
    <trkpt lat="48.76571" lon="2.53553"><ele>95.1</ele></trkpt>
    <trkpt lat="48.76556" lon="2.53547"><ele>95.2</ele></trkpt>
    <trkpt lat="48.76522" lon="2.53558"><ele>95.6</ele></trkpt>
    <trkpt lat="48.76495" lon="2.53593"><ele>95.9</ele></trkpt>
    <trkpt lat="48.76463" lon="2.53618"><ele>96.3</ele></trkpt>
    <trkpt lat="48.76428" lon="2.53622"><ele>96.6</ele></trkpt>
    <trkpt lat="48.76375" lon="2.53608"><ele>97.0</ele></trkpt>
    <trkpt lat="48.76359" lon="2.5362"><ele>97.1</ele></trkpt>
    <trkpt lat="48.76345" lon="2.53613"><ele>97.2</ele></trkpt>
    <trkpt lat="48.76337" lon="2.53628"><ele>97.3</ele></trkpt>
    <trkpt lat="48.76317" lon="2.53584"><ele>97.5</ele></trkpt>
    <trkpt lat="48.76278" lon="2.53526"><ele>97.9</ele></trkpt>
    <trkpt lat="48.7617" lon="2.53382"><ele>98.7</ele></trkpt>
    <trkpt lat="48.76154" lon="2.53373"><ele>98.8</ele></trkpt>
    <trkpt lat="48.76139" lon="2.53383"><ele>98.8</ele></trkpt>
    <trkpt lat="48.76122" lon="2.53382"><ele>98.9</ele></trkpt>
    <trkpt lat="48.7611" lon="2.53363"><ele>99.0</ele></trkpt>
    <trkpt lat="48.76102" lon="2.5331"><ele>99.0</ele></trkpt>
    <trkpt lat="48.76079" lon="2.53268"><ele>99.1</ele></trkpt>
    <trkpt lat="48.76014" lon="2.53175"><ele>99.0</ele></trkpt>
    <trkpt lat="48.75998" lon="2.53163"><ele>99.0</ele></trkpt>
    <trkpt lat="48.75916" lon="2.53057"><ele>98.7</ele></trkpt>
    <trkpt lat="48.75906" lon="2.53035"><ele>98.6</ele></trkpt>
    <trkpt lat="48.7591" lon="2.53009"><ele>98.6</ele></trkpt>
    <trkpt lat="48.75899" lon="2.52957"><ele>98.5</ele></trkpt>
    <trkpt lat="48.75831" lon="2.52707"><ele>98.1</ele></trkpt>
    <trkpt lat="48.75742" lon="2.52702"><ele>97.7</ele></trkpt>
    <trkpt lat="48.75588" lon="2.52627"><ele>97.1</ele></trkpt>
    <trkpt lat="48.75558" lon="2.52598"><ele>97.1</ele></trkpt>
    <trkpt lat="48.75343" lon="2.52309"><ele>97.0</ele></trkpt>
    <trkpt lat="48.75276" lon="2.5227"><ele>96.7</ele></trkpt>
    <trkpt lat="48.7526" lon="2.52278"><ele>96.7</ele></trkpt>
    <trkpt lat="48.7525" lon="2.52356"><ele>96.4</ele></trkpt>
    <trkpt lat="48.75235" lon="2.52366"><ele>96.2</ele></trkpt>
    <trkpt lat="48.74853" lon="2.52523"><ele>92.1</ele></trkpt>
    <trkpt lat="48.74837" lon="2.52522"><ele>92.1</ele></trkpt>
    <trkpt lat="48.74722" lon="2.51611"><ele>90.7</ele></trkpt>
    <trkpt lat="48.74717" lon="2.51532"><ele>90.3</ele></trkpt>
    <trkpt lat="48.74664" lon="2.51518"><ele>89.8</ele></trkpt>
    <trkpt lat="48.74179" lon="2.51493"><ele>90.4</ele></trkpt>
    <trkpt lat="48.74145" lon="2.51479"><ele>90.8</ele></trkpt>
    <trkpt lat="48.74129" lon="2.51483"><ele>90.9</ele></trkpt>
    <trkpt lat="48.73438" lon="2.52068"><ele>90.2</ele></trkpt>
    <trkpt lat="48.73425" lon="2.52064"><ele>90.3</ele></trkpt>
    <trkpt lat="48.73277" lon="2.51335"><ele>92.1</ele></trkpt>
    <trkpt lat="48.73267" lon="2.5134"><ele>92.2</ele></trkpt>
    <trkpt lat="48.73207" lon="2.51538"><ele>92.4</ele></trkpt>
    <trkpt lat="48.73134" lon="2.51726"><ele>92.4</ele></trkpt>
    <trkpt lat="48.73087" lon="2.51842"><ele>92.4</ele></trkpt>
    <trkpt lat="48.72986" lon="2.52067"><ele>93.2</ele></trkpt>
    <trkpt lat="48.7285" lon="2.5242"><ele>92.3</ele></trkpt>
    <trkpt lat="48.72788" lon="2.52647"><ele>92.9</ele></trkpt>
    <trkpt lat="48.72763" lon="2.52686"><ele>92.5</ele></trkpt>
    <trkpt lat="48.72724" lon="2.52778"><ele>91.1</ele></trkpt>
    <trkpt lat="48.72695" lon="2.52807"><ele>90.6</ele></trkpt>
    <trkpt lat="48.72632" lon="2.53004"><ele>90.3</ele></trkpt>
    <trkpt lat="48.72618" lon="2.53083"><ele>89.8</ele></trkpt>
    <trkpt lat="48.72617" lon="2.53136"><ele>89.1</ele></trkpt>
    <trkpt lat="48.72606" lon="2.53158"><ele>88.7</ele></trkpt>
    <trkpt lat="48.72604" lon="2.53185"><ele>88.2</ele></trkpt>
    <trkpt lat="48.72602" lon="2.53321"><ele>84.8</ele></trkpt>
    <trkpt lat="48.72607" lon="2.53374"><ele>83.6</ele></trkpt>
    <trkpt lat="48.72632" lon="2.53477"><ele>81.4</ele></trkpt>
    <trkpt lat="48.72633" lon="2.53504"><ele>80.9</ele></trkpt>
    <trkpt lat="48.72624" lon="2.53556"><ele>80.0</ele></trkpt>
    <trkpt lat="48.72637" lon="2.53773"><ele>75.9</ele></trkpt>
    <trkpt lat="48.72635" lon="2.53855"><ele>74.0</ele></trkpt>
    <trkpt lat="48.72615" lon="2.54126"><ele>68.2</ele></trkpt>
    <trkpt lat="48.72566" lon="2.54359"><ele>62.4</ele></trkpt>
    <trkpt lat="48.72558" lon="2.54378"><ele>61.9</ele></trkpt>
    <trkpt lat="48.72496" lon="2.54324"><ele>60.0</ele></trkpt>
    <trkpt lat="48.72481" lon="2.54325"><ele>59.6</ele></trkpt>
    <trkpt lat="48.72472" lon="2.54348"><ele>59.4</ele></trkpt>
    <trkpt lat="48.72444" lon="2.54381"><ele>59.0</ele></trkpt>
    <trkpt lat="48.72328" lon="2.54454"><ele>57.9</ele></trkpt>
    <trkpt lat="48.72311" lon="2.54455"><ele>57.8</ele></trkpt>
    <trkpt lat="48.72294" lon="2.54446"><ele>57.7</ele></trkpt>
    <trkpt lat="48.7228" lon="2.54429"><ele>57.8</ele></trkpt>
    <trkpt lat="48.72252" lon="2.5436"><ele>58.3</ele></trkpt>
    <trkpt lat="48.72239" lon="2.54343"><ele>58.3</ele></trkpt>
    <trkpt lat="48.72188" lon="2.54317"><ele>57.8</ele></trkpt>
    <trkpt lat="48.72083" lon="2.54284"><ele>57.6</ele></trkpt>
    <trkpt lat="48.72066" lon="2.5429"><ele>57.5</ele></trkpt>
    <trkpt lat="48.72052" lon="2.54306"><ele>57.4</ele></trkpt>
    <trkpt lat="48.72043" lon="2.54329"><ele>57.3</ele></trkpt>
    <trkpt lat="48.7203" lon="2.5433"><ele>57.3</ele></trkpt>
    <trkpt lat="48.71967" lon="2.54276"><ele>56.6</ele></trkpt>
    <trkpt lat="48.71915" lon="2.54167"><ele>55.6</ele></trkpt>
    <trkpt lat="48.71885" lon="2.54068"><ele>55.0</ele></trkpt>
    <trkpt lat="48.71844" lon="2.54015"><ele>54.8</ele></trkpt>
    <trkpt lat="48.71822" lon="2.53972"><ele>54.8</ele></trkpt>
    <trkpt lat="48.71768" lon="2.53901"><ele>54.9</ele></trkpt>
    <trkpt lat="48.71705" lon="2.53803"><ele>55.7</ele></trkpt>
    <trkpt lat="48.71687" lon="2.53756"><ele>56.1</ele></trkpt>
    <trkpt lat="48.71678" lon="2.53704"><ele>56.3</ele></trkpt>
    <trkpt lat="48.71678" lon="2.53677"><ele>56.3</ele></trkpt>
    <trkpt lat="48.71665" lon="2.53627"><ele>56.2</ele></trkpt>
    <trkpt lat="48.71672" lon="2.53574"><ele>56.0</ele></trkpt>
    <trkpt lat="48.71671" lon="2.53547"><ele>55.9</ele></trkpt>
    <trkpt lat="48.71666" lon="2.53493"><ele>55.7</ele></trkpt>
    <trkpt lat="48.71659" lon="2.53468"><ele>55.6</ele></trkpt>
    <trkpt lat="48.71555" lon="2.53213"><ele>54.3</ele></trkpt>
    <trkpt lat="48.71534" lon="2.53138"><ele>54.1</ele></trkpt>
    <trkpt lat="48.71475" lon="2.53036"><ele>53.9</ele></trkpt>
    <trkpt lat="48.71424" lon="2.52923"><ele>53.8</ele></trkpt>
    <trkpt lat="48.71408" lon="2.52875"><ele>53.8</ele></trkpt>
    <trkpt lat="48.71392" lon="2.52797"><ele>53.8</ele></trkpt>
    <trkpt lat="48.71392" lon="2.5277"><ele>53.8</ele></trkpt>
    <trkpt lat="48.71395" lon="2.52743"><ele>53.7</ele></trkpt>
    <trkpt lat="48.7142" lon="2.52715"><ele>53.4</ele></trkpt>
    <trkpt lat="48.71414" lon="2.52636"><ele>52.7</ele></trkpt>
    <trkpt lat="48.71377" lon="2.52578"><ele>52.1</ele></trkpt>
    <trkpt lat="48.71345" lon="2.52512"><ele>51.4</ele></trkpt>
    <trkpt lat="48.71338" lon="2.52487"><ele>51.2</ele></trkpt>
    <trkpt lat="48.71334" lon="2.52434"><ele>50.7</ele></trkpt>
    <trkpt lat="48.71339" lon="2.52408"><ele>50.4</ele></trkpt>
    <trkpt lat="48.71429" lon="2.52172"><ele>49.3</ele></trkpt>
    <trkpt lat="48.71434" lon="2.52146"><ele>49.3</ele></trkpt>
    <trkpt lat="48.71432" lon="2.52119"><ele>49.3</ele></trkpt>
    <trkpt lat="48.71407" lon="2.52047"><ele>49.5</ele></trkpt>
    <trkpt lat="48.71392" lon="2.52035"><ele>49.6</ele></trkpt>
    <trkpt lat="48.71374" lon="2.52037"><ele>49.7</ele></trkpt>
    <trkpt lat="48.71322" lon="2.52057"><ele>50.2</ele></trkpt>
    <trkpt lat="48.71305" lon="2.52047"><ele>50.4</ele></trkpt>
    <trkpt lat="48.71292" lon="2.52028"><ele>50.5</ele></trkpt>
    <trkpt lat="48.71286" lon="2.52003"><ele>50.7</ele></trkpt>
    <trkpt lat="48.71287" lon="2.51895"><ele>51.2</ele></trkpt>
    <trkpt lat="48.71297" lon="2.51872"><ele>51.3</ele></trkpt>
    <trkpt lat="48.71328" lon="2.51845"><ele>51.5</ele></trkpt>
    <trkpt lat="48.71354" lon="2.51807"><ele>51.9</ele></trkpt>
    <trkpt lat="48.71363" lon="2.51784"><ele>52.0</ele></trkpt>
    <trkpt lat="48.71362" lon="2.51757"><ele>52.1</ele></trkpt>
    <trkpt lat="48.71351" lon="2.51705"><ele>52.2</ele></trkpt>
    <trkpt lat="48.71303" lon="2.5159"><ele>52.6</ele></trkpt>
    <trkpt lat="48.71275" lon="2.51461"><ele>52.3</ele></trkpt>
    <trkpt lat="48.71249" lon="2.51389"><ele>51.8</ele></trkpt>
    <trkpt lat="48.71248" lon="2.51335"><ele>51.3</ele></trkpt>
    <trkpt lat="48.71274" lon="2.51264"><ele>50.7</ele></trkpt>
    <trkpt lat="48.71276" lon="2.51182"><ele>50.1</ele></trkpt>
    <trkpt lat="48.71253" lon="2.51023"><ele>49.4</ele></trkpt>
    <trkpt lat="48.71238" lon="2.50861"><ele>49.0</ele></trkpt>
    <trkpt lat="48.71221" lon="2.50784"><ele>48.9</ele></trkpt>
    <trkpt lat="48.71184" lon="2.50724"><ele>48.8</ele></trkpt>
    <trkpt lat="48.71176" lon="2.50701"><ele>48.7</ele></trkpt>
    <trkpt lat="48.71194" lon="2.50596"><ele>48.1</ele></trkpt>
    <trkpt lat="48.71194" lon="2.50569"><ele>47.9</ele></trkpt>
    <trkpt lat="48.71181" lon="2.50519"><ele>47.5</ele></trkpt>
    <trkpt lat="48.7116" lon="2.50475"><ele>46.9</ele></trkpt>
    <trkpt lat="48.71145" lon="2.5046"><ele>46.6</ele></trkpt>
    <trkpt lat="48.71093" lon="2.5044"><ele>45.4</ele></trkpt>
    <trkpt lat="48.71081" lon="2.50421"><ele>44.9</ele></trkpt>
    <trkpt lat="48.71073" lon="2.50397"><ele>44.5</ele></trkpt>
    <trkpt lat="48.71057" lon="2.50321"><ele>43.2</ele></trkpt>
    <trkpt lat="48.71026" lon="2.50305"><ele>42.5</ele></trkpt>
    <trkpt lat="48.71012" lon="2.50288"><ele>42.2</ele></trkpt>
    <trkpt lat="48.70984" lon="2.50219"><ele>41.4</ele></trkpt>
    <trkpt lat="48.70958" lon="2.50208"><ele>41.0</ele></trkpt>
    <trkpt lat="48.70939" lon="2.50162"><ele>40.7</ele></trkpt>
    <trkpt lat="48.70933" lon="2.50136"><ele>40.6</ele></trkpt>
    <trkpt lat="48.70942" lon="2.50114"><ele>40.6</ele></trkpt>
    <trkpt lat="48.70939" lon="2.50089"><ele>40.6</ele></trkpt>
    <trkpt lat="48.70915" lon="2.50015"><ele>40.7</ele></trkpt>
    <trkpt lat="48.70915" lon="2.49988"><ele>40.8</ele></trkpt>
    <trkpt lat="48.70933" lon="2.49941"><ele>40.7</ele></trkpt>
    <trkpt lat="48.70978" lon="2.49895"><ele>41.3</ele></trkpt>
    <trkpt lat="48.70978" lon="2.49876"><ele>41.5</ele></trkpt>
    <trkpt lat="48.70886" lon="2.49791"><ele>39.6</ele></trkpt>
    <trkpt lat="48.70851" lon="2.49782"><ele>39.0</ele></trkpt>
    <trkpt lat="48.70817" lon="2.49796"><ele>38.6</ele></trkpt>
    <trkpt lat="48.70768" lon="2.49828"><ele>38.3</ele></trkpt>
    <trkpt lat="48.7075" lon="2.49824"><ele>38.3</ele></trkpt>
    <trkpt lat="48.70734" lon="2.49812"><ele>38.3</ele></trkpt>
    <trkpt lat="48.70723" lon="2.49822"><ele>38.4</ele></trkpt>
    <trkpt lat="48.7072" lon="2.49849"><ele>38.4</ele></trkpt>
    <trkpt lat="48.70722" lon="2.49876"><ele>38.5</ele></trkpt>
    <trkpt lat="48.70699" lon="2.49779"><ele>38.9</ele></trkpt>
    <trkpt lat="48.70687" lon="2.49769"><ele>39.1</ele></trkpt>
    <trkpt lat="48.70671" lon="2.4978"><ele>39.3</ele></trkpt>
    <trkpt lat="48.70657" lon="2.49767"><ele>39.5</ele></trkpt>
    <trkpt lat="48.70639" lon="2.49763"><ele>39.6</ele></trkpt>
    <trkpt lat="48.70619" lon="2.4972"><ele>39.8</ele></trkpt>
    <trkpt lat="48.70585" lon="2.4971"><ele>39.8</ele></trkpt>
    <trkpt lat="48.70537" lon="2.49673"><ele>39.7</ele></trkpt>
    <trkpt lat="48.70484" lon="2.49673"><ele>39.3</ele></trkpt>
    <trkpt lat="48.70448" lon="2.49666"><ele>39.1</ele></trkpt>
    <trkpt lat="48.70432" lon="2.49655"><ele>38.9</ele></trkpt>
    <trkpt lat="48.70405" lon="2.49619"><ele>38.7</ele></trkpt>
    <trkpt lat="48.70402" lon="2.49595"><ele>38.6</ele></trkpt>
    <trkpt lat="48.70406" lon="2.49541"><ele>38.4</ele></trkpt>
    <trkpt lat="48.70402" lon="2.49515"><ele>38.4</ele></trkpt>
    <trkpt lat="48.70394" lon="2.49491"><ele>38.4</ele></trkpt>
    <trkpt lat="48.70381" lon="2.49472"><ele>38.4</ele></trkpt>
    <trkpt lat="48.70365" lon="2.49461"><ele>38.4</ele></trkpt>
    <trkpt lat="48.7033" lon="2.4945"><ele>38.4</ele></trkpt>
    <trkpt lat="48.70294" lon="2.49453"><ele>38.5</ele></trkpt>
    <trkpt lat="48.70241" lon="2.49446"><ele>38.6</ele></trkpt>
    <trkpt lat="48.70205" lon="2.4945"><ele>38.6</ele></trkpt>
    <trkpt lat="48.70191" lon="2.49467"><ele>38.6</ele></trkpt>
    <trkpt lat="48.70176" lon="2.49461"><ele>38.5</ele></trkpt>
    <trkpt lat="48.70159" lon="2.49413"><ele>38.4</ele></trkpt>
    <trkpt lat="48.70147" lon="2.49409"><ele>38.4</ele></trkpt>
    <trkpt lat="48.70063" lon="2.4951"><ele>38.2</ele></trkpt>
    <trkpt lat="48.70044" lon="2.49555"><ele>38.1</ele></trkpt>
    <trkpt lat="48.7003" lon="2.49571"><ele>38.1</ele></trkpt>
    <trkpt lat="48.70013" lon="2.49574"><ele>38.1</ele></trkpt>
    <trkpt lat="48.69981" lon="2.49512"><ele>38.2</ele></trkpt>
    <trkpt lat="48.69947" lon="2.49496"><ele>38.1</ele></trkpt>
    <trkpt lat="48.69929" lon="2.49496"><ele>38.0</ele></trkpt>
    <trkpt lat="48.69885" lon="2.49542"><ele>37.7</ele></trkpt>
    <trkpt lat="48.69875" lon="2.49565"><ele>37.6</ele></trkpt>
    <trkpt lat="48.69876" lon="2.49591"><ele>37.5</ele></trkpt>
    <trkpt lat="48.69886" lon="2.49614"><ele>37.4</ele></trkpt>
    <trkpt lat="48.6993" lon="2.4966"><ele>37.2</ele></trkpt>
    <trkpt lat="48.69902" lon="2.49687"><ele>37.1</ele></trkpt>
    <trkpt lat="48.69853" lon="2.49766"><ele>37.5</ele></trkpt>
    <trkpt lat="48.69812" lon="2.4982"><ele>38.0</ele></trkpt>
    <trkpt lat="48.69767" lon="2.49905"><ele>38.5</ele></trkpt>
    <trkpt lat="48.69693" lon="2.50024"><ele>38.9</ele></trkpt>
    <trkpt lat="48.69652" lon="2.50075"><ele>39.1</ele></trkpt>
    <trkpt lat="48.69633" lon="2.50121"><ele>39.2</ele></trkpt>
    <trkpt lat="48.69611" lon="2.50195"><ele>39.4</ele></trkpt>
    <trkpt lat="48.69578" lon="2.5026"><ele>39.7</ele></trkpt>
    <trkpt lat="48.69578" lon="2.50284"><ele>39.8</ele></trkpt>
    <trkpt lat="48.6961" lon="2.50308"><ele>40.1</ele></trkpt>
    <trkpt lat="48.69617" lon="2.5033"><ele>40.3</ele></trkpt>
    <trkpt lat="48.69611" lon="2.50356"><ele>40.4</ele></trkpt>
    <trkpt lat="48.69613" lon="2.50383"><ele>40.5</ele></trkpt>
    <trkpt lat="48.69591" lon="2.50514"><ele>40.9</ele></trkpt>
    <trkpt lat="48.69607" lon="2.50674"><ele>41.0</ele></trkpt>
    <trkpt lat="48.69614" lon="2.50865"><ele>41.0</ele></trkpt>
    <trkpt lat="48.69625" lon="2.50945"><ele>40.8</ele></trkpt>
    <trkpt lat="48.69659" lon="2.511"><ele>40.4</ele></trkpt>
    <trkpt lat="48.69663" lon="2.51126"><ele>40.3</ele></trkpt>
    <trkpt lat="48.69658" lon="2.51176"><ele>40.1</ele></trkpt>
    <trkpt lat="48.69691" lon="2.5124"><ele>39.8</ele></trkpt>
    <trkpt lat="48.69719" lon="2.51369"><ele>39.9</ele></trkpt>
    <trkpt lat="48.69718" lon="2.51396"><ele>39.9</ele></trkpt>
    <trkpt lat="48.69725" lon="2.51421"><ele>40.0</ele></trkpt>
    <trkpt lat="48.6973" lon="2.51529"><ele>40.5</ele></trkpt>
    <trkpt lat="48.69739" lon="2.51582"><ele>40.7</ele></trkpt>
    <trkpt lat="48.6974" lon="2.51664"><ele>41.1</ele></trkpt>
    <trkpt lat="48.69729" lon="2.51685"><ele>41.2</ele></trkpt>
    <trkpt lat="48.69732" lon="2.5171"><ele>41.3</ele></trkpt>
    <trkpt lat="48.69771" lon="2.51767"><ele>41.6</ele></trkpt>
    <trkpt lat="48.69792" lon="2.51811"><ele>41.7</ele></trkpt>
    <trkpt lat="48.69926" lon="2.51947"><ele>41.7</ele></trkpt>
    <trkpt lat="48.69942" lon="2.51994"><ele>41.7</ele></trkpt>
    <trkpt lat="48.70058" lon="2.52123"><ele>41.4</ele></trkpt>
    <trkpt lat="48.70106" lon="2.52202"><ele>41.0</ele></trkpt>
    <trkpt lat="48.70139" lon="2.52221"><ele>40.7</ele></trkpt>
    <trkpt lat="48.70203" lon="2.52272"><ele>40.1</ele></trkpt>
    <trkpt lat="48.7031" lon="2.52265"><ele>39.4</ele></trkpt>
    <trkpt lat="48.70381" lon="2.52277"><ele>39.3</ele></trkpt>
    <trkpt lat="48.70466" lon="2.52319"><ele>39.5</ele></trkpt>
    <trkpt lat="48.70479" lon="2.52337"><ele>39.6</ele></trkpt>
    <trkpt lat="48.70501" lon="2.52411"><ele>39.8</ele></trkpt>
    <trkpt lat="48.70507" lon="2.52465"><ele>39.9</ele></trkpt>
    <trkpt lat="48.70504" lon="2.52492"><ele>39.9</ele></trkpt>
    <trkpt lat="48.70491" lon="2.52542"><ele>39.8</ele></trkpt>
    <trkpt lat="48.7047" lon="2.52586"><ele>39.8</ele></trkpt>
    <trkpt lat="48.70448" lon="2.52689"><ele>39.7</ele></trkpt>
    <trkpt lat="48.7043" lon="2.52736"><ele>39.7</ele></trkpt>
    <trkpt lat="48.70382" lon="2.52816"><ele>39.7</ele></trkpt>
    <trkpt lat="48.70352" lon="2.52846"><ele>39.7</ele></trkpt>
    <trkpt lat="48.70269" lon="2.52898"><ele>39.9</ele></trkpt>
    <trkpt lat="48.70234" lon="2.52911"><ele>39.9</ele></trkpt>
    <trkpt lat="48.70168" lon="2.52952"><ele>40.1</ele></trkpt>
    <trkpt lat="48.70106" lon="2.53008"><ele>40.5</ele></trkpt>
    <trkpt lat="48.70005" lon="2.53065"><ele>41.0</ele></trkpt>
    <trkpt lat="48.69861" lon="2.53174"><ele>40.9</ele></trkpt>
    <trkpt lat="48.69827" lon="2.53187"><ele>40.8</ele></trkpt>
    <trkpt lat="48.6981" lon="2.53179"><ele>40.7</ele></trkpt>
    <trkpt lat="48.69763" lon="2.53139"><ele>40.5</ele></trkpt>
    <trkpt lat="48.69728" lon="2.53129"><ele>40.3</ele></trkpt>
    <trkpt lat="48.6966" lon="2.5309"><ele>40.2</ele></trkpt>
    <trkpt lat="48.69625" lon="2.5309"><ele>40.2</ele></trkpt>
    <trkpt lat="48.69579" lon="2.53049"><ele>40.4</ele></trkpt>
    <trkpt lat="48.69561" lon="2.53044"><ele>40.4</ele></trkpt>
    <trkpt lat="48.69479" lon="2.5299"><ele>40.6</ele></trkpt>
    <trkpt lat="48.69465" lon="2.52974"><ele>40.7</ele></trkpt>
    <trkpt lat="48.6943" lon="2.52879"><ele>40.7</ele></trkpt>
    <trkpt lat="48.69377" lon="2.52805"><ele>40.8</ele></trkpt>
    <trkpt lat="48.69368" lon="2.52782"><ele>40.8</ele></trkpt>
    <trkpt lat="48.69362" lon="2.52756"><ele>40.8</ele></trkpt>
    <trkpt lat="48.69361" lon="2.52647"><ele>40.9</ele></trkpt>
    <trkpt lat="48.69346" lon="2.52541"><ele>40.9</ele></trkpt>
    <trkpt lat="48.69331" lon="2.52492"><ele>41.0</ele></trkpt>
    <trkpt lat="48.69273" lon="2.52428"><ele>41.1</ele></trkpt>
    <trkpt lat="48.69207" lon="2.52386"><ele>41.2</ele></trkpt>
    <trkpt lat="48.69192" lon="2.52371"><ele>41.2</ele></trkpt>
    <trkpt lat="48.69174" lon="2.52324"><ele>41.2</ele></trkpt>
    <trkpt lat="48.6913" lon="2.52145"><ele>41.0</ele></trkpt>
    <trkpt lat="48.69119" lon="2.52126"><ele>40.9</ele></trkpt>
    <trkpt lat="48.69103" lon="2.52138"><ele>40.8</ele></trkpt>
    <trkpt lat="48.69006" lon="2.52076"><ele>40.3</ele></trkpt>
    <trkpt lat="48.68971" lon="2.52069"><ele>40.3</ele></trkpt>
    <trkpt lat="48.68937" lon="2.52086"><ele>40.4</ele></trkpt>
    <trkpt lat="48.68922" lon="2.52101"><ele>40.5</ele></trkpt>
    <trkpt lat="48.68819" lon="2.52289"><ele>41.8</ele></trkpt>
    <trkpt lat="48.68804" lon="2.52303"><ele>42.0</ele></trkpt>
    <trkpt lat="48.68787" lon="2.52302"><ele>42.2</ele></trkpt>
    <trkpt lat="48.68736" lon="2.52275"><ele>42.8</ele></trkpt>
    <trkpt lat="48.68731" lon="2.52296"><ele>42.9</ele></trkpt>
    <trkpt lat="48.68738" lon="2.52349"><ele>43.1</ele></trkpt>
    <trkpt lat="48.68725" lon="2.52455"><ele>43.3</ele></trkpt>
    <trkpt lat="48.68727" lon="2.52482"><ele>43.4</ele></trkpt>
    <trkpt lat="48.68737" lon="2.52505"><ele>43.4</ele></trkpt>
    <trkpt lat="48.68742" lon="2.52558"><ele>43.5</ele></trkpt>
    <trkpt lat="48.68731" lon="2.52638"><ele>43.6</ele></trkpt>
    <trkpt lat="48.68733" lon="2.52693"><ele>43.7</ele></trkpt>
    <trkpt lat="48.68747" lon="2.52743"><ele>43.8</ele></trkpt>
    <trkpt lat="48.68729" lon="2.52849"><ele>43.9</ele></trkpt>
    <trkpt lat="48.6873" lon="2.52876"><ele>43.9</ele></trkpt>
    <trkpt lat="48.68737" lon="2.52901"><ele>43.9</ele></trkpt>
    <trkpt lat="48.6875" lon="2.52919"><ele>43.8</ele></trkpt>
    <trkpt lat="48.68767" lon="2.52927"><ele>43.8</ele></trkpt>
    <trkpt lat="48.6878" lon="2.52943"><ele>43.7</ele></trkpt>
    <trkpt lat="48.68749" lon="2.52965"><ele>43.7</ele></trkpt>
    <trkpt lat="48.68741" lon="2.52985"><ele>43.7</ele></trkpt>
    <trkpt lat="48.68767" lon="2.53086"><ele>43.8</ele></trkpt>
    <trkpt lat="48.68802" lon="2.53147"><ele>44.0</ele></trkpt>
    <trkpt lat="48.68808" lon="2.53165"><ele>44.1</ele></trkpt>
    <trkpt lat="48.68794" lon="2.53182"><ele>44.2</ele></trkpt>
    <trkpt lat="48.68742" lon="2.53202"><ele>44.5</ele></trkpt>
    <trkpt lat="48.68737" lon="2.53223"><ele>44.6</ele></trkpt>
    <trkpt lat="48.68754" lon="2.53384"><ele>45.0</ele></trkpt>
    <trkpt lat="48.68766" lon="2.53388"><ele>45.1</ele></trkpt>
    <trkpt lat="48.68859" lon="2.53306"><ele>45.3</ele></trkpt>
    <trkpt lat="48.68869" lon="2.53322"><ele>45.4</ele></trkpt>
    <trkpt lat="48.68903" lon="2.53417"><ele>45.7</ele></trkpt>
    <trkpt lat="48.68929" lon="2.53456"><ele>46.1</ele></trkpt>
    <trkpt lat="48.68944" lon="2.5347"><ele>46.4</ele></trkpt>
    <trkpt lat="48.68954" lon="2.53455"><ele>46.7</ele></trkpt>
    <trkpt lat="48.68955" lon="2.53402"><ele>47.3</ele></trkpt>
    <trkpt lat="48.68969" lon="2.53389"><ele>47.7</ele></trkpt>
    <trkpt lat="48.68982" lon="2.53405"><ele>48.0</ele></trkpt>
    <trkpt lat="48.68991" lon="2.53429"><ele>48.4</ele></trkpt>
    <trkpt lat="48.69015" lon="2.53468"><ele>49.1</ele></trkpt>
    <trkpt lat="48.6906" lon="2.53585"><ele>51.0</ele></trkpt>
    <trkpt lat="48.69084" lon="2.53626"><ele>51.7</ele></trkpt>
    <trkpt lat="48.69123" lon="2.53718"><ele>52.9</ele></trkpt>
    <trkpt lat="48.69169" lon="2.5375"><ele>53.6</ele></trkpt>
    <trkpt lat="48.69184" lon="2.53827"><ele>54.0</ele></trkpt>
    <trkpt lat="48.69182" lon="2.53853"><ele>54.1</ele></trkpt>
    <trkpt lat="48.6916" lon="2.53894"><ele>53.9</ele></trkpt>
    <trkpt lat="48.69178" lon="2.53942"><ele>53.6</ele></trkpt>
    <trkpt lat="48.69221" lon="2.54028"><ele>53.1</ele></trkpt>
    <trkpt lat="48.69261" lon="2.54084"><ele>53.2</ele></trkpt>
    <trkpt lat="48.69271" lon="2.54106"><ele>53.5</ele></trkpt>
    <trkpt lat="48.6927" lon="2.54132"><ele>53.7</ele></trkpt>
    <trkpt lat="48.69255" lon="2.54147"><ele>54.1</ele></trkpt>
    <trkpt lat="48.69252" lon="2.54171"><ele>54.4</ele></trkpt>
    <trkpt lat="48.6928" lon="2.54242"><ele>55.8</ele></trkpt>
    <trkpt lat="48.69293" lon="2.54257"><ele>56.4</ele></trkpt>
    <trkpt lat="48.69347" lon="2.54266"><ele>58.7</ele></trkpt>
    <trkpt lat="48.69362" lon="2.5428"><ele>59.5</ele></trkpt>
    <trkpt lat="48.694" lon="2.54336"><ele>62.0</ele></trkpt>
    <trkpt lat="48.69402" lon="2.54414"><ele>63.6</ele></trkpt>
    <trkpt lat="48.69449" lon="2.54648"><ele>62.3</ele></trkpt>
    <trkpt lat="48.69437" lon="2.54656"><ele>61.6</ele></trkpt>
    <trkpt lat="48.69401" lon="2.54661"><ele>60.1</ele></trkpt>
    <trkpt lat="48.69386" lon="2.54673"><ele>59.2</ele></trkpt>
    <trkpt lat="48.69364" lon="2.54804"><ele>54.7</ele></trkpt>
    <trkpt lat="48.69345" lon="2.54849"><ele>53.1</ele></trkpt>
    <trkpt lat="48.69332" lon="2.54868"><ele>52.5</ele></trkpt>
    <trkpt lat="48.69241" lon="2.54955"><ele>49.5</ele></trkpt>
    <trkpt lat="48.69208" lon="2.54976"><ele>48.8</ele></trkpt>
    <trkpt lat="48.69092" lon="2.55105"><ele>47.8</ele></trkpt>
    <trkpt lat="48.6906" lon="2.5513"><ele>47.5</ele></trkpt>
    <trkpt lat="48.69024" lon="2.55128"><ele>47.1</ele></trkpt>
    <trkpt lat="48.68991" lon="2.55107"><ele>46.5</ele></trkpt>
    <trkpt lat="48.68953" lon="2.5505"><ele>45.6</ele></trkpt>
    <trkpt lat="48.68924" lon="2.5498"><ele>44.9</ele></trkpt>
    <trkpt lat="48.68889" lon="2.54919"><ele>44.7</ele></trkpt>
    <trkpt lat="48.68873" lon="2.54907"><ele>44.7</ele></trkpt>
    <trkpt lat="48.68838" lon="2.54894"><ele>44.8</ele></trkpt>
    <trkpt lat="48.68809" lon="2.54863"><ele>45.1</ele></trkpt>
    <trkpt lat="48.68721" lon="2.54835"><ele>47.1</ele></trkpt>
    <trkpt lat="48.68663" lon="2.54936"><ele>49.9</ele></trkpt>
    <trkpt lat="48.68558" lon="2.549"><ele>52.1</ele></trkpt>
    <trkpt lat="48.68544" lon="2.54907"><ele>52.2</ele></trkpt>
    <trkpt lat="48.68537" lon="2.54929"><ele>52.3</ele></trkpt>
    <trkpt lat="48.68521" lon="2.54928"><ele>52.4</ele></trkpt>
    <trkpt lat="48.68487" lon="2.54909"><ele>52.3</ele></trkpt>
    <trkpt lat="48.68473" lon="2.54894"><ele>52.1</ele></trkpt>
    <trkpt lat="48.68474" lon="2.5487"><ele>51.9</ele></trkpt>
    <trkpt lat="48.68509" lon="2.54744"><ele>50.2</ele></trkpt>
    <trkpt lat="48.68505" lon="2.5472"><ele>49.9</ele></trkpt>
    <trkpt lat="48.68338" lon="2.54622"><ele>49.6</ele></trkpt>
    <trkpt lat="48.68329" lon="2.54643"><ele>49.9</ele></trkpt>
    <trkpt lat="48.68308" lon="2.54747"><ele>51.3</ele></trkpt>
    <trkpt lat="48.68291" lon="2.54753"><ele>51.5</ele></trkpt>
    <trkpt lat="48.68165" lon="2.54752"><ele>53.3</ele></trkpt>
    <trkpt lat="48.68131" lon="2.54765"><ele>54.0</ele></trkpt>
    <trkpt lat="48.68005" lon="2.54747"><ele>57.0</ele></trkpt>
    <trkpt lat="48.67989" lon="2.5475"><ele>57.5</ele></trkpt>
    <trkpt lat="48.67942" lon="2.54897"><ele>62.6</ele></trkpt>
    <trkpt lat="48.67925" lon="2.55002"><ele>66.6</ele></trkpt>
    <trkpt lat="48.67878" lon="2.55179"><ele>71.0</ele></trkpt>
    <trkpt lat="48.67839" lon="2.55417"><ele>69.3</ele></trkpt>
    <trkpt lat="48.67779" lon="2.55552"><ele>63.5</ele></trkpt>
    <trkpt lat="48.67776" lon="2.55576"><ele>62.5</ele></trkpt>
    <trkpt lat="48.67794" lon="2.55653"><ele>59.4</ele></trkpt>
    <trkpt lat="48.6779" lon="2.55678"><ele>58.3</ele></trkpt>
    <trkpt lat="48.67741" lon="2.55792"><ele>53.1</ele></trkpt>
    <trkpt lat="48.67726" lon="2.55802"><ele>52.4</ele></trkpt>
    <trkpt lat="48.67712" lon="2.55787"><ele>51.8</ele></trkpt>
    <trkpt lat="48.67697" lon="2.55797"><ele>51.3</ele></trkpt>
    <trkpt lat="48.67613" lon="2.5594"><ele>49.2</ele></trkpt>
    <trkpt lat="48.67506" lon="2.56038"><ele>48.7</ele></trkpt>
    <trkpt lat="48.67418" lon="2.56133"><ele>49.6</ele></trkpt>
    <trkpt lat="48.67394" lon="2.56174"><ele>50.1</ele></trkpt>
    <trkpt lat="48.67314" lon="2.56354"><ele>52.1</ele></trkpt>
    <trkpt lat="48.67279" lon="2.56416"><ele>52.9</ele></trkpt>
    <trkpt lat="48.67237" lon="2.56468"><ele>53.5</ele></trkpt>
    <trkpt lat="48.67173" lon="2.56518"><ele>54.2</ele></trkpt>
    <trkpt lat="48.67144" lon="2.5655"><ele>54.4</ele></trkpt>
    <trkpt lat="48.67023" lon="2.5675"><ele>53.8</ele></trkpt>
    <trkpt lat="48.66923" lon="2.56943"><ele>51.5</ele></trkpt>
    <trkpt lat="48.66907" lon="2.56992"><ele>50.9</ele></trkpt>
    <trkpt lat="48.66889" lon="2.57069"><ele>50.6</ele></trkpt>
    <trkpt lat="48.66888" lon="2.57094"><ele>50.6</ele></trkpt>
    <trkpt lat="48.66905" lon="2.57099"><ele>50.8</ele></trkpt>
    <trkpt lat="48.66959" lon="2.5709"><ele>51.3</ele></trkpt>
    <trkpt lat="48.67167" lon="2.57005"><ele>54.5</ele></trkpt>
    <trkpt lat="48.67256" lon="2.56989"><ele>55.5</ele></trkpt>
    <trkpt lat="48.6749" lon="2.56989"><ele>58.5</ele></trkpt>
    <trkpt lat="48.67507" lon="2.56992"><ele>58.9</ele></trkpt>
    <trkpt lat="48.67593" lon="2.57033"><ele>61.2</ele></trkpt>
    <trkpt lat="48.67638" lon="2.57079"><ele>63.0</ele></trkpt>
    <trkpt lat="48.6772" lon="2.57185"><ele>67.5</ele></trkpt>
    <trkpt lat="48.67735" lon="2.57199"><ele>68.3</ele></trkpt>
    <trkpt lat="48.67769" lon="2.57215"><ele>70.0</ele></trkpt>
    <trkpt lat="48.67814" lon="2.57258"><ele>72.5</ele></trkpt>
    <trkpt lat="48.67864" lon="2.57336"><ele>75.9</ele></trkpt>
    <trkpt lat="48.67895" lon="2.57492"><ele>79.1</ele></trkpt>
    <trkpt lat="48.67923" lon="2.57706"><ele>81.8</ele></trkpt>
    <trkpt lat="48.67933" lon="2.57726"><ele>82.1</ele></trkpt>
    <trkpt lat="48.6795" lon="2.57734"><ele>82.4</ele></trkpt>
    <trkpt lat="48.67959" lon="2.57752"><ele>82.6</ele></trkpt>
    <trkpt lat="48.67965" lon="2.57805"><ele>83.0</ele></trkpt>
    <trkpt lat="48.67984" lon="2.57851"><ele>83.4</ele></trkpt>
    <trkpt lat="48.67989" lon="2.57876"><ele>83.5</ele></trkpt>
    <trkpt lat="48.6799" lon="2.57958"><ele>83.5</ele></trkpt>
    <trkpt lat="48.67972" lon="2.58202"><ele>83.0</ele></trkpt>
    <trkpt lat="48.67969" lon="2.5831"><ele>82.8</ele></trkpt>
    <trkpt lat="48.67952" lon="2.58388"><ele>82.6</ele></trkpt>
    <trkpt lat="48.67907" lon="2.58536"><ele>82.4</ele></trkpt>
    <trkpt lat="48.67773" lon="2.58792"><ele>82.5</ele></trkpt>
    <trkpt lat="48.67765" lon="2.58816"><ele>82.5</ele></trkpt>
    <trkpt lat="48.67768" lon="2.5884"><ele>82.4</ele></trkpt>
    <trkpt lat="48.6778" lon="2.58859"><ele>82.3</ele></trkpt>
    <trkpt lat="48.67991" lon="2.59069"><ele>80.0</ele></trkpt>
    <trkpt lat="48.68004" lon="2.59087"><ele>79.8</ele></trkpt>
    <trkpt lat="48.6797" lon="2.59146"><ele>79.2</ele></trkpt>
    <trkpt lat="48.67913" lon="2.59213"><ele>78.5</ele></trkpt>
    <trkpt lat="48.67882" lon="2.5924"><ele>78.1</ele></trkpt>
    <trkpt lat="48.6783" lon="2.59258"><ele>77.3</ele></trkpt>
    <trkpt lat="48.67758" lon="2.5926"><ele>75.8</ele></trkpt>
    <trkpt lat="48.67686" lon="2.59254"><ele>74.1</ele></trkpt>
    <trkpt lat="48.6758" lon="2.59225"><ele>70.6</ele></trkpt>
    <trkpt lat="48.67526" lon="2.59221"><ele>68.6</ele></trkpt>
    <trkpt lat="48.67508" lon="2.59222"><ele>68.0</ele></trkpt>
    <trkpt lat="48.67439" lon="2.59251"><ele>65.8</ele></trkpt>
    <trkpt lat="48.67367" lon="2.59257"><ele>63.8</ele></trkpt>
    <trkpt lat="48.67332" lon="2.59245"><ele>62.9</ele></trkpt>
    <trkpt lat="48.67128" lon="2.59138"><ele>60.7</ele></trkpt>
    <trkpt lat="48.67075" lon="2.59123"><ele>60.7</ele></trkpt>
    <trkpt lat="48.67039" lon="2.59123"><ele>60.8</ele></trkpt>
    <trkpt lat="48.67005" lon="2.59137"><ele>60.9</ele></trkpt>
    <trkpt lat="48.66962" lon="2.59186"><ele>61.0</ele></trkpt>
    <trkpt lat="48.6685" lon="2.59399"><ele>60.3</ele></trkpt>
    <trkpt lat="48.66818" lon="2.59497"><ele>60.2</ele></trkpt>
    <trkpt lat="48.66819" lon="2.59523"><ele>60.2</ele></trkpt>
    <trkpt lat="48.66908" lon="2.59616"><ele>60.9</ele></trkpt>
    <trkpt lat="48.66975" lon="2.59706"><ele>62.5</ele></trkpt>
    <trkpt lat="48.67032" lon="2.59772"><ele>64.2</ele></trkpt>
    <trkpt lat="48.67064" lon="2.59838"><ele>66.1</ele></trkpt>
    <trkpt lat="48.67079" lon="2.59854"><ele>66.7</ele></trkpt>
    <trkpt lat="48.67176" lon="2.59924"><ele>70.7</ele></trkpt>
    <trkpt lat="48.67193" lon="2.59933"><ele>71.4</ele></trkpt>
    <trkpt lat="48.67246" lon="2.59944"><ele>73.4</ele></trkpt>
    <trkpt lat="48.6728" lon="2.59964"><ele>74.6</ele></trkpt>
    <trkpt lat="48.6731" lon="2.59992"><ele>75.7</ele></trkpt>
    <trkpt lat="48.67354" lon="2.60111"><ele>76.7</ele></trkpt>
    <trkpt lat="48.67435" lon="2.60384"><ele>76.8</ele></trkpt>
    <trkpt lat="48.67459" lon="2.60487"><ele>77.0</ele></trkpt>
    <trkpt lat="48.67472" lon="2.6084"><ele>77.9</ele></trkpt>
    <trkpt lat="48.67467" lon="2.60921"><ele>78.4</ele></trkpt>
    <trkpt lat="48.67476" lon="2.61027"><ele>79.3</ele></trkpt>
    <trkpt lat="48.67493" lon="2.61026"><ele>79.6</ele></trkpt>
    <trkpt lat="48.67527" lon="2.61008"><ele>80.6</ele></trkpt>
    <trkpt lat="48.67591" lon="2.6096"><ele>83.0</ele></trkpt>
    <trkpt lat="48.67618" lon="2.60925"><ele>84.4</ele></trkpt>
    <trkpt lat="48.67674" lon="2.60819"><ele>87.2</ele></trkpt>
    <trkpt lat="48.67688" lon="2.60803"><ele>87.6</ele></trkpt>
    <trkpt lat="48.67723" lon="2.60791"><ele>88.3</ele></trkpt>
    <trkpt lat="48.67741" lon="2.60792"><ele>88.6</ele></trkpt>
    <trkpt lat="48.67767" lon="2.60823"><ele>89.3</ele></trkpt>
    <trkpt lat="48.67849" lon="2.60879"><ele>90.5</ele></trkpt>
    <trkpt lat="48.67877" lon="2.60912"><ele>90.9</ele></trkpt>
    <trkpt lat="48.67912" lon="2.60918"><ele>91.2</ele></trkpt>
    <trkpt lat="48.67927" lon="2.60931"><ele>91.3</ele></trkpt>
    <trkpt lat="48.67962" lon="2.60946"><ele>91.4</ele></trkpt>
    <trkpt lat="48.68051" lon="2.60955"><ele>91.1</ele></trkpt>
    <trkpt lat="48.68066" lon="2.61088"><ele>90.7</ele></trkpt>
    <trkpt lat="48.68084" lon="2.61089"><ele>90.6</ele></trkpt>
    <trkpt lat="48.68298" lon="2.61046"><ele>89.6</ele></trkpt>
    <trkpt lat="48.68418" lon="2.60991"><ele>89.2</ele></trkpt>
    <trkpt lat="48.68535" lon="2.60921"><ele>89.0</ele></trkpt>
    <trkpt lat="48.68548" lon="2.60908"><ele>89.0</ele></trkpt>
    <trkpt lat="48.68545" lon="2.60854"><ele>89.1</ele></trkpt>
    <trkpt lat="48.68554" lon="2.60838"><ele>89.1</ele></trkpt>
    <trkpt lat="48.6882" lon="2.60771"><ele>89.8</ele></trkpt>
    <trkpt lat="48.68946" lon="2.60668"><ele>89.1</ele></trkpt>
    <trkpt lat="48.68959" lon="2.6068"><ele>89.0</ele></trkpt>
    <trkpt lat="48.69001" lon="2.60769"><ele>88.4</ele></trkpt>
    <trkpt lat="48.69018" lon="2.60773"><ele>88.2</ele></trkpt>
    <trkpt lat="48.69087" lon="2.60744"><ele>87.3</ele></trkpt>
    <trkpt lat="48.69103" lon="2.60731"><ele>87.1</ele></trkpt>
    <trkpt lat="48.69192" lon="2.60744"><ele>85.9</ele></trkpt>
    <trkpt lat="48.69226" lon="2.60762"><ele>85.4</ele></trkpt>
    <trkpt lat="48.69257" lon="2.6079"><ele>85.0</ele></trkpt>
    <trkpt lat="48.69352" lon="2.60953"><ele>83.9</ele></trkpt>
    <trkpt lat="48.69428" lon="2.61025"><ele>83.7</ele></trkpt>
    <trkpt lat="48.69445" lon="2.61034"><ele>83.7</ele></trkpt>
    <trkpt lat="48.69458" lon="2.61052"><ele>83.8</ele></trkpt>
    <trkpt lat="48.69585" lon="2.61316"><ele>84.7</ele></trkpt>
    <trkpt lat="48.69707" lon="2.61516"><ele>87.1</ele></trkpt>
    <trkpt lat="48.69721" lon="2.61531"><ele>87.4</ele></trkpt>
    <trkpt lat="48.69735" lon="2.61518"><ele>87.7</ele></trkpt>
    <trkpt lat="48.69771" lon="2.61458"><ele>87.9</ele></trkpt>
    <trkpt lat="48.69934" lon="2.61167"><ele>88.6</ele></trkpt>
    <trkpt lat="48.69946" lon="2.61146"><ele>88.6</ele></trkpt>
    <trkpt lat="48.69957" lon="2.61095"><ele>88.7</ele></trkpt>
    <trkpt lat="48.70147" lon="2.60769"><ele>88.3</ele></trkpt>
    <trkpt lat="48.70218" lon="2.60754"><ele>88.2</ele></trkpt>
    <trkpt lat="48.70341" lon="2.60716"><ele>88.8</ele></trkpt>
    <trkpt lat="48.70357" lon="2.60704"><ele>89.0</ele></trkpt>
    <trkpt lat="48.70366" lon="2.60684"><ele>89.2</ele></trkpt>
    <trkpt lat="48.7037" lon="2.60521"><ele>90.6</ele></trkpt>
    <trkpt lat="48.70377" lon="2.6044"><ele>91.3</ele></trkpt>
    <trkpt lat="48.704" lon="2.60308"><ele>92.1</ele></trkpt>
    <trkpt lat="48.70403" lon="2.60257"><ele>92.3</ele></trkpt>
    <trkpt lat="48.70428" lon="2.60219"><ele>92.4</ele></trkpt>
    <trkpt lat="48.70508" lon="2.60037"><ele>92.7</ele></trkpt>
    <trkpt lat="48.70623" lon="2.59761"><ele>93.5</ele></trkpt>
    <trkpt lat="48.70626" lon="2.59735"><ele>93.6</ele></trkpt>
    <trkpt lat="48.70635" lon="2.59715"><ele>93.7</ele></trkpt>
    <trkpt lat="48.70651" lon="2.59702"><ele>93.8</ele></trkpt>
    <trkpt lat="48.70662" lon="2.59682"><ele>93.9</ele></trkpt>
    <trkpt lat="48.70848" lon="2.59247"><ele>94.9</ele></trkpt>
    <trkpt lat="48.70902" lon="2.59138"><ele>94.8</ele></trkpt>
    <trkpt lat="48.71395" lon="2.57999"><ele>95.4</ele></trkpt>
    <trkpt lat="48.71448" lon="2.57856"><ele>95.6</ele></trkpt>
    <trkpt lat="48.71489" lon="2.57767"><ele>95.7</ele></trkpt>
    <trkpt lat="48.71511" lon="2.57693"><ele>95.8</ele></trkpt>
    <trkpt lat="48.71513" lon="2.57667"><ele>95.8</ele></trkpt>
    <trkpt lat="48.71495" lon="2.57591"><ele>95.9</ele></trkpt>
    <trkpt lat="48.71499" lon="2.57565"><ele>95.9</ele></trkpt>
    <trkpt lat="48.71513" lon="2.57561"><ele>95.9</ele></trkpt>
    <trkpt lat="48.71529" lon="2.57573"><ele>95.8</ele></trkpt>
    <trkpt lat="48.71542" lon="2.57592"><ele>95.8</ele></trkpt>
    <trkpt lat="48.7156" lon="2.57638"><ele>95.6</ele></trkpt>
    <trkpt lat="48.71576" lon="2.5765"><ele>95.5</ele></trkpt>
    <trkpt lat="48.71841" lon="2.57722"><ele>92.6</ele></trkpt>
    <trkpt lat="48.71851" lon="2.57743"><ele>92.3</ele></trkpt>
    <trkpt lat="48.71839" lon="2.57823"><ele>91.6</ele></trkpt>
    <trkpt lat="48.71841" lon="2.57834"><ele>91.5</ele></trkpt>
    <trkpt lat="48.71915" lon="2.57681"><ele>86.9</ele></trkpt>
    <trkpt lat="48.71992" lon="2.5761"><ele>82.9</ele></trkpt>
    <trkpt lat="48.72003" lon="2.57621"><ele>82.1</ele></trkpt>
    <trkpt lat="48.72011" lon="2.57646"><ele>81.1</ele></trkpt>
    <trkpt lat="48.72024" lon="2.5766"><ele>80.2</ele></trkpt>
    <trkpt lat="48.72077" lon="2.57669"><ele>76.8</ele></trkpt>
    <trkpt lat="48.72111" lon="2.57686"><ele>74.7</ele></trkpt>
    <trkpt lat="48.72126" lon="2.57676"><ele>73.8</ele></trkpt>
    <trkpt lat="48.72168" lon="2.57468"><ele>69.9</ele></trkpt>
    <trkpt lat="48.72181" lon="2.57448"><ele>69.5</ele></trkpt>
    <trkpt lat="48.72242" lon="2.57393"><ele>67.9</ele></trkpt>
    <trkpt lat="48.72327" lon="2.57356"><ele>66.6</ele></trkpt>
    <trkpt lat="48.72353" lon="2.5732"><ele>67.3</ele></trkpt>
    <trkpt lat="48.72406" lon="2.57327"><ele>68.7</ele></trkpt>
    <trkpt lat="48.72599" lon="2.57392"><ele>77.8</ele></trkpt>
    <trkpt lat="48.72684" lon="2.57435"><ele>82.9</ele></trkpt>
    <trkpt lat="48.72827" lon="2.57459"><ele>88.2</ele></trkpt>
    <trkpt lat="48.72894" lon="2.57495"><ele>89.8</ele></trkpt>
    <trkpt lat="48.72929" lon="2.57498"><ele>90.3</ele></trkpt>
    <trkpt lat="48.73" lon="2.5752"><ele>91.0</ele></trkpt>
    <trkpt lat="48.73107" lon="2.57534"><ele>91.9</ele></trkpt>
    <trkpt lat="48.73197" lon="2.57538"><ele>92.8</ele></trkpt>
    <trkpt lat="48.73211" lon="2.57553"><ele>93.0</ele></trkpt>
    <trkpt lat="48.73283" lon="2.57549"><ele>93.8</ele></trkpt>
    <trkpt lat="48.73291" lon="2.57527"><ele>94.0</ele></trkpt>
    <trkpt lat="48.73483" lon="2.57462"><ele>96.5</ele></trkpt>
    <trkpt lat="48.73519" lon="2.57456"><ele>96.8</ele></trkpt>
    <trkpt lat="48.73591" lon="2.57459"><ele>97.1</ele></trkpt>
    <trkpt lat="48.73725" lon="2.57382"><ele>97.3</ele></trkpt>
    <trkpt lat="48.74767" lon="2.57987"><ele>98.5</ele></trkpt>
    <trkpt lat="48.74781" lon="2.58004"><ele>98.5</ele></trkpt>
    <trkpt lat="48.74853" lon="2.58193"><ele>99.1</ele></trkpt>
    <trkpt lat="48.76219" lon="2.57707"><ele>101.6</ele></trkpt>
    <trkpt lat="48.76234" lon="2.57694"><ele>101.3</ele></trkpt>
    <trkpt lat="48.76931" lon="2.56443"><ele>101.6</ele></trkpt>
    <trkpt lat="48.76952" lon="2.56399"><ele>101.5</ele></trkpt>
    <trkpt lat="48.76977" lon="2.56327"><ele>101.5</ele></trkpt>
    <trkpt lat="48.77033" lon="2.5626"><ele>101.4</ele></trkpt>
    <trkpt lat="48.77147" lon="2.5605"><ele>100.9</ele></trkpt>
    <trkpt lat="48.77145" lon="2.56027"><ele>100.8</ele></trkpt>
    <trkpt lat="48.76523" lon="2.5524"><ele>101.8</ele></trkpt>
    <trkpt lat="48.76518" lon="2.55218"><ele>101.4</ele></trkpt>
    <trkpt lat="48.76557" lon="2.55008"><ele>100.5</ele></trkpt>
    <trkpt lat="48.76536" lon="2.54682"><ele>98.6</ele></trkpt>
    <trkpt lat="48.76522" lon="2.54329"><ele>95.4</ele></trkpt>
    <trkpt lat="48.76539" lon="2.54195"><ele>94.3</ele></trkpt>
    <trkpt lat="48.76576" lon="2.54071"><ele>93.2</ele></trkpt>
    <trkpt lat="48.76603" lon="2.54001"><ele>92.4</ele></trkpt>
    <trkpt lat="48.76646" lon="2.53953"><ele>91.3</ele></trkpt>
    <trkpt lat="48.76717" lon="2.53936"><ele>89.8</ele></trkpt>
    <trkpt lat="48.76771" lon="2.53941"><ele>88.5</ele></trkpt>
    <trkpt lat="48.76977" lon="2.5403"><ele>82.5</ele></trkpt>
    <trkpt lat="48.77048" lon="2.54008"><ele>80.1</ele></trkpt>
    <trkpt lat="48.77096" lon="2.53973"><ele>78.2</ele></trkpt>
    <trkpt lat="48.77139" lon="2.53924"><ele>76.4</ele></trkpt>
    <trkpt lat="48.77186" lon="2.53884"><ele>74.7</ele></trkpt>
    <trkpt lat="48.772" lon="2.53866"><ele>74.2</ele></trkpt>
    <trkpt lat="48.77292" lon="2.53699"><ele>71.5</ele></trkpt>
    <trkpt lat="48.77336" lon="2.53654"><ele>70.3</ele></trkpt>
    <trkpt lat="48.77353" lon="2.53644"><ele>69.8</ele></trkpt>
    <trkpt lat="48.77424" lon="2.53637"><ele>67.9</ele></trkpt>
    <trkpt lat="48.77579" lon="2.53572"><ele>62.9</ele></trkpt>
    <trkpt lat="48.7765" lon="2.5355"><ele>60.8</ele></trkpt>
    <trkpt lat="48.77663" lon="2.53532"><ele>60.3</ele></trkpt>
    <trkpt lat="48.77672" lon="2.53509"><ele>59.8</ele></trkpt>
    <trkpt lat="48.77669" lon="2.53455"><ele>59.0</ele></trkpt>
    <trkpt lat="48.77683" lon="2.53448"><ele>58.6</ele></trkpt>
    <trkpt lat="48.77826" lon="2.53425"><ele>57.4</ele></trkpt>
    <trkpt lat="48.77843" lon="2.53429"><ele>57.5</ele></trkpt>
    <trkpt lat="48.77854" lon="2.53451"><ele>57.7</ele></trkpt>
    <trkpt lat="48.77899" lon="2.536"><ele>60.4</ele></trkpt>
    <trkpt lat="48.77921" lon="2.53642"><ele>62.2</ele></trkpt>
    <trkpt lat="48.77953" lon="2.53666"><ele>64.2</ele></trkpt>
    <trkpt lat="48.78207" lon="2.53807"><ele>79.7</ele></trkpt>
    <trkpt lat="48.78224" lon="2.53812"><ele>80.6</ele></trkpt>
    <trkpt lat="48.7826" lon="2.53808"><ele>82.6</ele></trkpt>
    <trkpt lat="48.78414" lon="2.53732"><ele>90.8</ele></trkpt>
    <trkpt lat="48.78432" lon="2.5373"><ele>91.4</ele></trkpt>
    <trkpt lat="48.78448" lon="2.5374"><ele>92.1</ele></trkpt>
    <trkpt lat="48.78691" lon="2.54313"><ele>97.6</ele></trkpt>
    <trkpt lat="48.78672" lon="2.54419"><ele>97.7</ele></trkpt>
  </trkseg></trk>
</gpx>
