<?xml version="1.0" encoding="UTF-8"?>
<gpx version="1.1" creator="USO Cyclisme" xmlns="http://www.topografix.com/GPX/1/1">
  <metadata><name>Corbeil-Essonnes – 70 km</name><desc>Gravel, 69.7 km, D+ 329 m. Départ et arrivée : centre culturel d'Ormesson-sur-Marne.</desc></metadata>
  <trk><name>Corbeil-Essonnes – 70 km (gravel)</name><trkseg>
    <trkpt lat="48.78667" lon="2.54444"><ele>97.9</ele></trkpt>
    <trkpt lat="48.78716" lon="2.54411"><ele>98.0</ele></trkpt>
    <trkpt lat="48.78725" lon="2.54394"><ele>97.9</ele></trkpt>
    <trkpt lat="48.78717" lon="2.5437"><ele>97.9</ele></trkpt>
    <trkpt lat="48.78199" lon="2.53155"><ele>89.3</ele></trkpt>
    <trkpt lat="48.78186" lon="2.53142"><ele>88.9</ele></trkpt>
    <trkpt lat="48.78102" lon="2.53187"><ele>85.8</ele></trkpt>
    <trkpt lat="48.781" lon="2.53206"><ele>85.3</ele></trkpt>
    <trkpt lat="48.78129" lon="2.53306"><ele>82.4</ele></trkpt>
    <trkpt lat="48.78118" lon="2.53323"><ele>81.1</ele></trkpt>
    <trkpt lat="48.77911" lon="2.53412"><ele>63.8</ele></trkpt>
    <trkpt lat="48.77895" lon="2.53425"><ele>62.2</ele></trkpt>
    <trkpt lat="48.77875" lon="2.5347"><ele>59.5</ele></trkpt>
    <trkpt lat="48.77859" lon="2.53465"><ele>58.5</ele></trkpt>
    <trkpt lat="48.7785" lon="2.53442"><ele>57.6</ele></trkpt>
    <trkpt lat="48.77836" lon="2.53426"><ele>57.4</ele></trkpt>
    <trkpt lat="48.77675" lon="2.53447"><ele>59.3</ele></trkpt>
    <trkpt lat="48.77658" lon="2.53437"><ele>60.3</ele></trkpt>
    <trkpt lat="48.77629" lon="2.53408"><ele>62.8</ele></trkpt>
    <trkpt lat="48.77593" lon="2.53402"><ele>65.1</ele></trkpt>
    <trkpt lat="48.77441" lon="2.53482"><ele>72.6</ele></trkpt>
    <trkpt lat="48.77431" lon="2.53504"><ele>73.4</ele></trkpt>
    <trkpt lat="48.77419" lon="2.53514"><ele>74.2</ele></trkpt>
    <trkpt lat="48.77337" lon="2.53459"><ele>79.1</ele></trkpt>
    <trkpt lat="48.77291" lon="2.53417"><ele>83.0</ele></trkpt>
    <trkpt lat="48.77233" lon="2.53352"><ele>86.8</ele></trkpt>
    <trkpt lat="48.77138" lon="2.53228"><ele>91.7</ele></trkpt>
    <trkpt lat="48.77086" lon="2.53336"><ele>93.2</ele></trkpt>
    <trkpt lat="48.77082" lon="2.53362"><ele>93.4</ele></trkpt>
    <trkpt lat="48.77045" lon="2.53421"><ele>93.6</ele></trkpt>
    <trkpt lat="48.77022" lon="2.53523"><ele>93.3</ele></trkpt>
    <trkpt lat="48.77" lon="2.53565"><ele>93.2</ele></trkpt>
    <trkpt lat="48.76948" lon="2.53639"><ele>93.0</ele></trkpt>
    <trkpt lat="48.76884" lon="2.53689"><ele>93.0</ele></trkpt>
    <trkpt lat="48.76832" lon="2.5371"><ele>93.0</ele></trkpt>
    <trkpt lat="48.76796" lon="2.53713"><ele>93.0</ele></trkpt>
    <trkpt lat="48.7676" lon="2.53711"><ele>93.1</ele></trkpt>
    <trkpt lat="48.76707" lon="2.53694"><ele>93.4</ele></trkpt>
    <trkpt lat="48.76626" lon="2.53638"><ele>94.2</ele></trkpt>
    <trkpt lat="48.76599" lon="2.53602"><ele>94.6</ele></trkpt>
    <trkpt lat="48.76576" lon="2.5356"><ele>95.0</ele></trkpt>
    <trkpt lat="48.76561" lon="2.53549"><ele>95.2</ele></trkpt>
    <trkpt lat="48.76525" lon="2.53554"><ele>95.5</ele></trkpt>
    <trkpt lat="48.76484" lon="2.53606"><ele>96.1</ele></trkpt>
    <trkpt lat="48.76468" lon="2.53616"><ele>96.2</ele></trkpt>
    <trkpt lat="48.76432" lon="2.53623"><ele>96.6</ele></trkpt>
    <trkpt lat="48.7638" lon="2.53608"><ele>97.0</ele></trkpt>
    <trkpt lat="48.76363" lon="2.53618"><ele>97.1</ele></trkpt>
    <trkpt lat="48.76348" lon="2.53615"><ele>97.3</ele></trkpt>
    <trkpt lat="48.76334" lon="2.53632"><ele>97.4</ele></trkpt>
    <trkpt lat="48.76306" lon="2.53701"><ele>97.7</ele></trkpt>
    <trkpt lat="48.76294" lon="2.53721"><ele>97.9</ele></trkpt>
    <trkpt lat="48.76282" lon="2.53772"><ele>98.0</ele></trkpt>
    <trkpt lat="48.7623" lon="2.53915"><ele>98.5</ele></trkpt>
    <trkpt lat="48.76146" lon="2.54557"><ele>99.1</ele></trkpt>
    <trkpt lat="48.76147" lon="2.54584"><ele>99.2</ele></trkpt>
    <trkpt lat="48.76118" lon="2.54881"><ele>99.7</ele></trkpt>
    <trkpt lat="48.76105" lon="2.54897"><ele>99.7</ele></trkpt>
    <trkpt lat="48.75965" lon="2.54949"><ele>99.7</ele></trkpt>
    <trkpt lat="48.75929" lon="2.54956"><ele>99.8</ele></trkpt>
    <trkpt lat="48.75808" lon="2.55007"><ele>99.9</ele></trkpt>
    <trkpt lat="48.75797" lon="2.55021"><ele>99.8</ele></trkpt>
    <trkpt lat="48.75844" lon="2.55313"><ele>100.2</ele></trkpt>
    <trkpt lat="48.75846" lon="2.5534"><ele>100.3</ele></trkpt>
    <trkpt lat="48.75841" lon="2.55364"><ele>100.5</ele></trkpt>
    <trkpt lat="48.75544" lon="2.55719"><ele>101.1</ele></trkpt>
    <trkpt lat="48.75528" lon="2.5573"><ele>101.0</ele></trkpt>
    <trkpt lat="48.7551" lon="2.55733"><ele>100.8</ele></trkpt>
    <trkpt lat="48.75385" lon="2.55727"><ele>99.6</ele></trkpt>
    <trkpt lat="48.75375" lon="2.55712"><ele>99.5</ele></trkpt>
    <trkpt lat="48.75341" lon="2.54786"><ele>97.1</ele></trkpt>
    <trkpt lat="48.75332" lon="2.54771"><ele>97.1</ele></trkpt>
    <trkpt lat="48.74898" lon="2.54441"><ele>97.0</ele></trkpt>
    <trkpt lat="48.74894" lon="2.54418"><ele>97.1</ele></trkpt>
    <trkpt lat="48.74976" lon="2.54028"><ele>98.0</ele></trkpt>
    <trkpt lat="48.74913" lon="2.53981"><ele>98.1</ele></trkpt>
    <trkpt lat="48.74907" lon="2.53928"><ele>98.1</ele></trkpt>
    <trkpt lat="48.74876" lon="2.53862"><ele>97.9</ele></trkpt>
    <trkpt lat="48.74901" lon="2.5376"><ele>97.7</ele></trkpt>
    <trkpt lat="48.7494" lon="2.53669"><ele>97.1</ele></trkpt>
    <trkpt lat="48.74962" lon="2.53594"><ele>96.6</ele></trkpt>
    <trkpt lat="48.74962" lon="2.53573"><ele>96.4</ele></trkpt>
    <trkpt lat="48.74946" lon="2.5356"><ele>96.2</ele></trkpt>
    <trkpt lat="48.74526" lon="2.53048"><ele>94.2</ele></trkpt>
    <trkpt lat="48.74478" lon="2.52871"><ele>93.6</ele></trkpt>
    <trkpt lat="48.74458" lon="2.52767"><ele>93.0</ele></trkpt>
    <trkpt lat="48.74327" lon="2.5223"><ele>89.4</ele></trkpt>
    <trkpt lat="48.74326" lon="2.52205"><ele>89.3</ele></trkpt>
    <trkpt lat="48.74336" lon="2.52182"><ele>89.2</ele></trkpt>
    <trkpt lat="48.74689" lon="2.51563"><ele>90.1</ele></trkpt>
    <trkpt lat="48.74701" lon="2.51543"><ele>90.2</ele></trkpt>
    <trkpt lat="48.7473" lon="2.51522"><ele>90.6</ele></trkpt>
    <trkpt lat="48.74849" lon="2.51317"><ele>90.3</ele></trkpt>
    <trkpt lat="48.74841" lon="2.51302"><ele>90.3</ele></trkpt>
    <trkpt lat="48.74807" lon="2.51286"><ele>90.1</ele></trkpt>
    <trkpt lat="48.7449" lon="2.51191"><ele>90.2</ele></trkpt>
    <trkpt lat="48.74432" lon="2.51128"><ele>90.6</ele></trkpt>
    <trkpt lat="48.74409" lon="2.51092"><ele>90.8</ele></trkpt>
    <trkpt lat="48.74403" lon="2.51106"><ele>90.8</ele></trkpt>
    <trkpt lat="48.74461" lon="2.51165"><ele>90.6</ele></trkpt>
    <trkpt lat="48.74453" lon="2.51149"><ele>90.6</ele></trkpt>
    <trkpt lat="48.74423" lon="2.5112"><ele>90.7</ele></trkpt>
    <trkpt lat="48.74414" lon="2.511"><ele>90.8</ele></trkpt>
    <trkpt lat="48.74388" lon="2.51086"><ele>90.9</ele></trkpt>
    <trkpt lat="48.74374" lon="2.51069"><ele>90.9</ele></trkpt>
    <trkpt lat="48.74108" lon="2.50743"><ele>92.2</ele></trkpt>
    <trkpt lat="48.74017" lon="2.50656"><ele>92.6</ele></trkpt>
    <trkpt lat="48.73914" lon="2.50503"><ele>92.4</ele></trkpt>
    <trkpt lat="48.73746" lon="2.50298"><ele>91.2</ele></trkpt>
    <trkpt lat="48.73734" lon="2.50312"><ele>91.0</ele></trkpt>
    <trkpt lat="48.73711" lon="2.50415"><ele>90.6</ele></trkpt>
    <trkpt lat="48.7367" lon="2.50536"><ele>90.4</ele></trkpt>
    <trkpt lat="48.73642" lon="2.50665"><ele>91.0</ele></trkpt>
    <trkpt lat="48.73609" lon="2.50729"><ele>91.5</ele></trkpt>
    <trkpt lat="48.73516" lon="2.50858"><ele>91.9</ele></trkpt>
    <trkpt lat="48.73478" lon="2.5095"><ele>92.2</ele></trkpt>
    <trkpt lat="48.73464" lon="2.50959"><ele>92.3</ele></trkpt>
    <trkpt lat="48.7322" lon="2.50865"><ele>93.8</ele></trkpt>
    <trkpt lat="48.73131" lon="2.50849"><ele>95.7</ele></trkpt>
    <trkpt lat="48.73114" lon="2.50857"><ele>96.1</ele></trkpt>
    <trkpt lat="48.73001" lon="2.51032"><ele>100.2</ele></trkpt>
    <trkpt lat="48.72986" lon="2.51039"><ele>100.6</ele></trkpt>
    <trkpt lat="48.72881" lon="2.50854"><ele>103.2</ele></trkpt>
    <trkpt lat="48.72887" lon="2.50773"><ele>103.1</ele></trkpt>
    <trkpt lat="48.72883" lon="2.50747"><ele>103.1</ele></trkpt>
    <trkpt lat="48.72686" lon="2.50467"><ele>102.2</ele></trkpt>
    <trkpt lat="48.72621" lon="2.50421"><ele>101.6</ele></trkpt>
    <trkpt lat="48.72609" lon="2.50401"><ele>101.4</ele></trkpt>
    <trkpt lat="48.72443" lon="2.49981"><ele>94.4</ele></trkpt>
    <trkpt lat="48.72457" lon="2.49974"><ele>94.0</ele></trkpt>
    <trkpt lat="48.72576" lon="2.50037"><ele>94.7</ele></trkpt>
    <trkpt lat="48.72611" lon="2.50049"><ele>95.1</ele></trkpt>
    <trkpt lat="48.72647" lon="2.50053"><ele>95.3</ele></trkpt>
    <trkpt lat="48.72682" lon="2.50045"><ele>95.5</ele></trkpt>
    <trkpt lat="48.72679" lon="2.50041"><ele>95.5</ele></trkpt>
    <trkpt lat="48.72643" lon="2.50045"><ele>95.3</ele></trkpt>
    <trkpt lat="48.72607" lon="2.50039"><ele>95.0</ele></trkpt>
    <trkpt lat="48.72454" lon="2.49961"><ele>93.2</ele></trkpt>
    <trkpt lat="48.72348" lon="2.49943"><ele>91.9</ele></trkpt>
    <trkpt lat="48.72321" lon="2.4991"><ele>91.4</ele></trkpt>
    <trkpt lat="48.72287" lon="2.49895"><ele>90.9</ele></trkpt>
    <trkpt lat="48.72262" lon="2.49856"><ele>90.5</ele></trkpt>
    <trkpt lat="48.72215" lon="2.49818"><ele>90.0</ele></trkpt>
    <trkpt lat="48.7221" lon="2.49795"><ele>89.9</ele></trkpt>
    <trkpt lat="48.7221" lon="2.49768"><ele>89.7</ele></trkpt>
    <trkpt lat="48.72209" lon="2.48868"><ele>89.6</ele></trkpt>
    <trkpt lat="48.72198" lon="2.48857"><ele>89.0</ele></trkpt>
    <trkpt lat="48.7218" lon="2.48856"><ele>88.3</ele></trkpt>
    <trkpt lat="48.71892" lon="2.48844"><ele>69.1</ele></trkpt>
    <trkpt lat="48.71839" lon="2.48851"><ele>64.4</ele></trkpt>
    <trkpt lat="48.71767" lon="2.48849"><ele>57.6</ele></trkpt>
    <trkpt lat="48.71749" lon="2.48844"><ele>56.1</ele></trkpt>
    <trkpt lat="48.71738" lon="2.48825"><ele>54.7</ele></trkpt>
    <trkpt lat="48.71724" lon="2.48775"><ele>52.6</ele></trkpt>
    <trkpt lat="48.71677" lon="2.4874"><ele>49.8</ele></trkpt>
    <trkpt lat="48.71668" lon="2.48688"><ele>48.0</ele></trkpt>
    <trkpt lat="48.71666" lon="2.48633"><ele>46.6</ele></trkpt>
    <trkpt lat="48.71686" lon="2.48501"><ele>45.3</ele></trkpt>
    <trkpt lat="48.71686" lon="2.48474"><ele>45.1</ele></trkpt>
    <trkpt lat="48.71693" lon="2.4842"><ele>44.8</ele></trkpt>
    <trkpt lat="48.71693" lon="2.48366"><ele>44.4</ele></trkpt>
    <trkpt lat="48.71659" lon="2.47961"><ele>41.3</ele></trkpt>
    <trkpt lat="48.71663" lon="2.47907"><ele>40.9</ele></trkpt>
    <trkpt lat="48.71657" lon="2.47854"><ele>40.5</ele></trkpt>
    <trkpt lat="48.71649" lon="2.47832"><ele>40.3</ele></trkpt>
    <trkpt lat="48.71578" lon="2.47851"><ele>39.2</ele></trkpt>
    <trkpt lat="48.71561" lon="2.47848"><ele>38.9</ele></trkpt>
    <trkpt lat="48.71525" lon="2.47857"><ele>38.3</ele></trkpt>
    <trkpt lat="48.71512" lon="2.47846"><ele>38.0</ele></trkpt>
    <trkpt lat="48.71493" lon="2.47771"><ele>37.4</ele></trkpt>
    <trkpt lat="48.71492" lon="2.47662"><ele>37.0</ele></trkpt>
    <trkpt lat="48.71479" lon="2.47583"><ele>36.7</ele></trkpt>
    <trkpt lat="48.71431" lon="2.47468"><ele>36.0</ele></trkpt>
    <trkpt lat="48.71353" lon="2.47357"><ele>35.1</ele></trkpt>
    <trkpt lat="48.71333" lon="2.47253"><ele>34.5</ele></trkpt>
    <trkpt lat="48.71294" lon="2.47162"><ele>34.0</ele></trkpt>
    <trkpt lat="48.71269" lon="2.4706"><ele>33.7</ele></trkpt>
    <trkpt lat="48.71232" lon="2.46966"><ele>33.4</ele></trkpt>
    <trkpt lat="48.71193" lon="2.46911"><ele>33.3</ele></trkpt>
    <trkpt lat="48.71192" lon="2.46861"><ele>33.2</ele></trkpt>
    <trkpt lat="48.71145" lon="2.46823"><ele>33.2</ele></trkpt>
    <trkpt lat="48.71132" lon="2.46805"><ele>33.3</ele></trkpt>
    <trkpt lat="48.71123" lon="2.46781"><ele>33.3</ele></trkpt>
    <trkpt lat="48.71106" lon="2.4662"><ele>33.4</ele></trkpt>
    <trkpt lat="48.71096" lon="2.46457"><ele>33.7</ele></trkpt>
    <trkpt lat="48.70971" lon="2.46447"><ele>35.3</ele></trkpt>
    <trkpt lat="48.70938" lon="2.46425"><ele>35.9</ele></trkpt>
    <trkpt lat="48.70921" lon="2.46423"><ele>36.3</ele></trkpt>
    <trkpt lat="48.70887" lon="2.46405"><ele>37.4</ele></trkpt>
    <trkpt lat="48.70775" lon="2.46317"><ele>43.3</ele></trkpt>
    <trkpt lat="48.70768" lon="2.463"><ele>44.2</ele></trkpt>
    <trkpt lat="48.70794" lon="2.46229"><ele>47.4</ele></trkpt>
    <trkpt lat="48.70798" lon="2.46204"><ele>48.7</ele></trkpt>
    <trkpt lat="48.70791" lon="2.46182"><ele>50.1</ele></trkpt>
    <trkpt lat="48.70508" lon="2.45944"><ele>73.3</ele></trkpt>
    <trkpt lat="48.70494" lon="2.45927"><ele>74.2</ele></trkpt>
    <trkpt lat="48.70493" lon="2.45901"><ele>74.9</ele></trkpt>
    <trkpt lat="48.70424" lon="2.45815"><ele>78.0</ele></trkpt>
    <trkpt lat="48.70409" lon="2.45828"><ele>78.5</ele></trkpt>
    <trkpt lat="48.70392" lon="2.45826"><ele>78.9</ele></trkpt>
    <trkpt lat="48.70353" lon="2.45772"><ele>79.8</ele></trkpt>
    <trkpt lat="48.70371" lon="2.45727"><ele>80.3</ele></trkpt>
    <trkpt lat="48.70363" lon="2.45705"><ele>80.6</ele></trkpt>
    <trkpt lat="48.70294" lon="2.45618"><ele>81.8</ele></trkpt>
    <trkpt lat="48.70279" lon="2.45615"><ele>81.9</ele></trkpt>
    <trkpt lat="48.70263" lon="2.45628"><ele>82.1</ele></trkpt>
    <trkpt lat="48.69485" lon="2.46413"><ele>84.6</ele></trkpt>
    <trkpt lat="48.69469" lon="2.46426"><ele>84.6</ele></trkpt>
    <trkpt lat="48.69437" lon="2.46411"><ele>84.6</ele></trkpt>
    <trkpt lat="48.69439" lon="2.46431"><ele>84.7</ele></trkpt>
    <trkpt lat="48.6941" lon="2.46462"><ele>84.7</ele></trkpt>
    <trkpt lat="48.6908" lon="2.46792"><ele>85.5</ele></trkpt>
    <trkpt lat="48.69062" lon="2.46793"><ele>85.5</ele></trkpt>
    <trkpt lat="48.69027" lon="2.46781"><ele>85.4</ele></trkpt>
    <trkpt lat="48.68695" lon="2.46661"><ele>85.1</ele></trkpt>
    <trkpt lat="48.68679" lon="2.4665"><ele>85.1</ele></trkpt>
    <trkpt lat="48.68667" lon="2.46632"><ele>85.0</ele></trkpt>
    <trkpt lat="48.68636" lon="2.4664"><ele>84.9</ele></trkpt>
    <trkpt lat="48.67963" lon="2.46456"><ele>82.5</ele></trkpt>
    <trkpt lat="48.67928" lon="2.46461"><ele>82.4</ele></trkpt>
    <trkpt lat="48.67322" lon="2.47097"><ele>81.2</ele></trkpt>
    <trkpt lat="48.67288" lon="2.47115"><ele>81.2</ele></trkpt>
    <trkpt lat="48.67251" lon="2.47172"><ele>81.3</ele></trkpt>
    <trkpt lat="48.67163" lon="2.47267"><ele>81.4</ele></trkpt>
    <trkpt lat="48.66187" lon="2.48292"><ele>82.4</ele></trkpt>
    <trkpt lat="48.66171" lon="2.48286"><ele>82.5</ele></trkpt>
    <trkpt lat="48.66155" lon="2.48298"><ele>82.5</ele></trkpt>
    <trkpt lat="48.65609" lon="2.47882"><ele>84.2</ele></trkpt>
    <trkpt lat="48.65591" lon="2.47885"><ele>84.2</ele></trkpt>
    <trkpt lat="48.64864" lon="2.48585"><ele>83.2</ele></trkpt>
    <trkpt lat="48.64853" lon="2.48565"><ele>83.2</ele></trkpt>
    <trkpt lat="48.64593" lon="2.47788"><ele>83.2</ele></trkpt>
    <trkpt lat="48.64582" lon="2.47769"><ele>83.2</ele></trkpt>
    <trkpt lat="48.64564" lon="2.47765"><ele>83.1</ele></trkpt>
    <trkpt lat="48.64547" lon="2.4777"><ele>83.1</ele></trkpt>
    <trkpt lat="48.64539" lon="2.4779"><ele>83.0</ele></trkpt>
    <trkpt lat="48.64537" lon="2.47871"><ele>82.7</ele></trkpt>
    <trkpt lat="48.64532" lon="2.47897"><ele>82.6</ele></trkpt>
    <trkpt lat="48.64522" lon="2.4792"><ele>82.5</ele></trkpt>
    <trkpt lat="48.64507" lon="2.47933"><ele>82.4</ele></trkpt>
    <trkpt lat="48.6449" lon="2.47934"><ele>82.3</ele></trkpt>
    <trkpt lat="48.64243" lon="2.47853"><ele>81.0</ele></trkpt>
    <trkpt lat="48.64208" lon="2.47857"><ele>80.9</ele></trkpt>
    <trkpt lat="48.64156" lon="2.47836"><ele>80.6</ele></trkpt>
    <trkpt lat="48.64124" lon="2.47813"><ele>80.4</ele></trkpt>
    <trkpt lat="48.64067" lon="2.47747"><ele>79.6</ele></trkpt>
    <trkpt lat="48.63996" lon="2.47623"><ele>78.2</ele></trkpt>
    <trkpt lat="48.63952" lon="2.47504"><ele>76.9</ele></trkpt>
    <trkpt lat="48.63936" lon="2.47426"><ele>76.1</ele></trkpt>
    <trkpt lat="48.63996" lon="2.4726"><ele>73.9</ele></trkpt>
    <trkpt lat="48.63971" lon="2.47223"><ele>73.2</ele></trkpt>
    <trkpt lat="48.639" lon="2.47033"><ele>66.8</ele></trkpt>
    <trkpt lat="48.63889" lon="2.47014"><ele>65.9</ele></trkpt>
    <trkpt lat="48.63873" lon="2.47018"><ele>64.9</ele></trkpt>
    <trkpt lat="48.6373" lon="2.47135"><ele>55.1</ele></trkpt>
    <trkpt lat="48.63697" lon="2.47153"><ele>53.2</ele></trkpt>
    <trkpt lat="48.63683" lon="2.47168"><ele>52.4</ele></trkpt>
    <trkpt lat="48.63676" lon="2.47275"><ele>50.9</ele></trkpt>
    <trkpt lat="48.63662" lon="2.47325"><ele>50.2</ele></trkpt>
    <trkpt lat="48.63659" lon="2.47379"><ele>49.9</ele></trkpt>
    <trkpt lat="48.63652" lon="2.47404"><ele>50.1</ele></trkpt>
    <trkpt lat="48.63633" lon="2.4745"><ele>51.3</ele></trkpt>
    <trkpt lat="48.63492" lon="2.47732"><ele>61.4</ele></trkpt>
    <trkpt lat="48.63482" lon="2.47716"><ele>61.8</ele></trkpt>
    <trkpt lat="48.6341" lon="2.47379"><ele>59.6</ele></trkpt>
    <trkpt lat="48.6339" lon="2.47275"><ele>57.9</ele></trkpt>
    <trkpt lat="48.63381" lon="2.47168"><ele>56.1</ele></trkpt>
    <trkpt lat="48.63305" lon="2.47096"><ele>52.9</ele></trkpt>
    <trkpt lat="48.63181" lon="2.46828"><ele>42.2</ele></trkpt>
    <trkpt lat="48.63176" lon="2.46806"><ele>41.2</ele></trkpt>
    <trkpt lat="48.63204" lon="2.46772"><ele>39.4</ele></trkpt>
    <trkpt lat="48.63203" lon="2.46752"><ele>38.6</ele></trkpt>
    <trkpt lat="48.63168" lon="2.46691"><ele>36.9</ele></trkpt>
    <trkpt lat="48.63153" lon="2.46684"><ele>36.5</ele></trkpt>
    <trkpt lat="48.63137" lon="2.46697"><ele>36.2</ele></trkpt>
    <trkpt lat="48.63076" lon="2.46755"><ele>35.3</ele></trkpt>
    <trkpt lat="48.6295" lon="2.4686"><ele>33.8</ele></trkpt>
    <trkpt lat="48.62933" lon="2.46857"><ele>33.6</ele></trkpt>
    <trkpt lat="48.62869" lon="2.46762"><ele>32.9</ele></trkpt>
    <trkpt lat="48.62854" lon="2.46749"><ele>32.7</ele></trkpt>
    <trkpt lat="48.6282" lon="2.46767"><ele>32.5</ele></trkpt>
    <trkpt lat="48.62767" lon="2.4684"><ele>32.0</ele></trkpt>
    <trkpt lat="48.62675" lon="2.47007"><ele>32.5</ele></trkpt>
    <trkpt lat="48.62518" lon="2.47231"><ele>33.9</ele></trkpt>
    <trkpt lat="48.62496" lon="2.47274"><ele>34.0</ele></trkpt>
    <trkpt lat="48.62495" lon="2.47328"><ele>33.9</ele></trkpt>
    <trkpt lat="48.62478" lon="2.47333"><ele>33.8</ele></trkpt>
    <trkpt lat="48.62443" lon="2.47328"><ele>33.6</ele></trkpt>
    <trkpt lat="48.62301" lon="2.47495"><ele>33.3</ele></trkpt>
    <trkpt lat="48.62179" lon="2.47608"><ele>33.5</ele></trkpt>
    <trkpt lat="48.62175" lon="2.47626"><ele>33.5</ele></trkpt>
    <trkpt lat="48.62178" lon="2.47628"><ele>33.5</ele></trkpt>
    <trkpt lat="48.62127" lon="2.47654"><ele>33.6</ele></trkpt>
    <trkpt lat="48.62064" lon="2.47707"><ele>33.7</ele></trkpt>
    <trkpt lat="48.61882" lon="2.47883"><ele>34.5</ele></trkpt>
    <trkpt lat="48.61825" lon="2.47948"><ele>35.3</ele></trkpt>
    <trkpt lat="48.61826" lon="2.47969"><ele>35.6</ele></trkpt>
    <trkpt lat="48.61874" lon="2.48084"><ele>38.0</ele></trkpt>
    <trkpt lat="48.61877" lon="2.48111"><ele>38.6</ele></trkpt>
    <trkpt lat="48.61862" lon="2.48159"><ele>39.5</ele></trkpt>
    <trkpt lat="48.61838" lon="2.48198"><ele>40.5</ele></trkpt>
    <trkpt lat="48.61808" lon="2.48229"><ele>41.5</ele></trkpt>
    <trkpt lat="48.61712" lon="2.48303"><ele>44.5</ele></trkpt>
    <trkpt lat="48.61779" lon="2.48299"><ele>49.7</ele></trkpt>
    <trkpt lat="48.61796" lon="2.48305"><ele>51.6</ele></trkpt>
    <trkpt lat="48.61858" lon="2.4836"><ele>57.9</ele></trkpt>
    <trkpt lat="48.61897" lon="2.48416"><ele>62.3</ele></trkpt>
    <trkpt lat="48.61913" lon="2.48464"><ele>65.1</ele></trkpt>
    <trkpt lat="48.61928" lon="2.48542"><ele>69.4</ele></trkpt>
    <trkpt lat="48.61948" lon="2.48586"><ele>72.0</ele></trkpt>
    <trkpt lat="48.6204" lon="2.48671"><ele>77.4</ele></trkpt>
    <trkpt lat="48.62066" lon="2.48707"><ele>78.8</ele></trkpt>
    <trkpt lat="48.62072" lon="2.4876"><ele>80.1</ele></trkpt>
    <trkpt lat="48.62068" lon="2.48841"><ele>81.9</ele></trkpt>
    <trkpt lat="48.62018" lon="2.48985"><ele>85.0</ele></trkpt>
    <trkpt lat="48.61919" lon="2.49305"><ele>89.1</ele></trkpt>
    <trkpt lat="48.61932" lon="2.49291"><ele>89.1</ele></trkpt>
    <trkpt lat="48.6199" lon="2.49122"><ele>88.3</ele></trkpt>
    <trkpt lat="48.62004" lon="2.49113"><ele>88.5</ele></trkpt>
    <trkpt lat="48.6202" lon="2.49125"><ele>88.7</ele></trkpt>
    <trkpt lat="48.62025" lon="2.49143"><ele>88.8</ele></trkpt>
    <trkpt lat="48.61961" lon="2.49305"><ele>88.8</ele></trkpt>
    <trkpt lat="48.61959" lon="2.4933"><ele>88.7</ele></trkpt>
    <trkpt lat="48.61972" lon="2.49346"><ele>88.6</ele></trkpt>
    <trkpt lat="48.62053" lon="2.49406"><ele>87.6</ele></trkpt>
    <trkpt lat="48.62087" lon="2.4942"><ele>87.2</ele></trkpt>
    <trkpt lat="48.62105" lon="2.49417"><ele>87.0</ele></trkpt>
    <trkpt lat="48.6214" lon="2.49429"><ele>86.6</ele></trkpt>
    <trkpt lat="48.62194" lon="2.49429"><ele>86.0</ele></trkpt>
    <trkpt lat="48.62263" lon="2.49399"><ele>85.2</ele></trkpt>
    <trkpt lat="48.62281" lon="2.49396"><ele>85.0</ele></trkpt>
    <trkpt lat="48.62298" lon="2.49404"><ele>84.8</ele></trkpt>
    <trkpt lat="48.62311" lon="2.49422"><ele>84.7</ele></trkpt>
    <trkpt lat="48.62343" lon="2.4952"><ele>84.2</ele></trkpt>
    <trkpt lat="48.62436" lon="2.49684"><ele>83.5</ele></trkpt>
    <trkpt lat="48.62443" lon="2.49738"><ele>83.4</ele></trkpt>
    <trkpt lat="48.6245" lon="2.49762"><ele>83.4</ele></trkpt>
    <trkpt lat="48.62465" lon="2.49778"><ele>83.3</ele></trkpt>
    <trkpt lat="48.62535" lon="2.49801"><ele>83.2</ele></trkpt>
    <trkpt lat="48.62565" lon="2.49831"><ele>83.2</ele></trkpt>
    <trkpt lat="48.62588" lon="2.49871"><ele>83.2</ele></trkpt>
    <trkpt lat="48.62623" lon="2.49885"><ele>83.2</ele></trkpt>
    <trkpt lat="48.62675" lon="2.49958"><ele>83.3</ele></trkpt>
    <trkpt lat="48.62726" lon="2.49979"><ele>83.4</ele></trkpt>
    <trkpt lat="48.62742" lon="2.49992"><ele>83.5</ele></trkpt>
    <trkpt lat="48.62753" lon="2.50013"><ele>83.5</ele></trkpt>
    <trkpt lat="48.62759" lon="2.50038"><ele>83.6</ele></trkpt>
    <trkpt lat="48.6276" lon="2.50092"><ele>83.7</ele></trkpt>
    <trkpt lat="48.62791" lon="2.50219"><ele>83.9</ele></trkpt>
    <trkpt lat="48.62835" lon="2.50305"><ele>84.1</ele></trkpt>
    <trkpt lat="48.62848" lon="2.50323"><ele>84.1</ele></trkpt>
    <trkpt lat="48.62864" lon="2.50334"><ele>84.2</ele></trkpt>
    <trkpt lat="48.62868" lon="2.50345"><ele>84.2</ele></trkpt>
    <trkpt lat="48.62484" lon="2.50748"><ele>84.4</ele></trkpt>
    <trkpt lat="48.6247" lon="2.50749"><ele>84.4</ele></trkpt>
    <trkpt lat="48.62436" lon="2.50685"><ele>84.3</ele></trkpt>
    <trkpt lat="48.62422" lon="2.50691"><ele>84.2</ele></trkpt>
    <trkpt lat="48.62336" lon="2.50789"><ele>84.0</ele></trkpt>
    <trkpt lat="48.62296" lon="2.50844"><ele>84.0</ele></trkpt>
    <trkpt lat="48.62289" lon="2.50868"><ele>84.0</ele></trkpt>
    <trkpt lat="48.62305" lon="2.50974"><ele>84.1</ele></trkpt>
    <trkpt lat="48.62307" lon="2.51028"><ele>84.1</ele></trkpt>
    <trkpt lat="48.62269" lon="2.51294"><ele>84.3</ele></trkpt>
    <trkpt lat="48.62283" lon="2.51311"><ele>84.3</ele></trkpt>
    <trkpt lat="48.62459" lon="2.51446"><ele>84.3</ele></trkpt>
    <trkpt lat="48.62471" lon="2.51466"><ele>84.3</ele></trkpt>
    <trkpt lat="48.62536" lon="2.51513"><ele>84.3</ele></trkpt>
    <trkpt lat="48.62587" lon="2.51536"><ele>84.2</ele></trkpt>
    <trkpt lat="48.62745" lon="2.51579"><ele>83.8</ele></trkpt>
    <trkpt lat="48.62776" lon="2.51597"><ele>83.7</ele></trkpt>
    <trkpt lat="48.62777" lon="2.51621"><ele>83.7</ele></trkpt>
    <trkpt lat="48.62799" lon="2.51664"><ele>83.7</ele></trkpt>
    <trkpt lat="48.62801" lon="2.51688"><ele>83.7</ele></trkpt>
    <trkpt lat="48.62792" lon="2.51712"><ele>83.7</ele></trkpt>
    <trkpt lat="48.62595" lon="2.51948"><ele>84.0</ele></trkpt>
    <trkpt lat="48.62584" lon="2.51969"><ele>84.0</ele></trkpt>
    <trkpt lat="48.6259" lon="2.51991"><ele>84.1</ele></trkpt>
    <trkpt lat="48.62896" lon="2.52596"><ele>85.4</ele></trkpt>
    <trkpt lat="48.62907" lon="2.52648"><ele>85.5</ele></trkpt>
    <trkpt lat="48.62916" lon="2.52756"><ele>85.7</ele></trkpt>
    <trkpt lat="48.62924" lon="2.5278"><ele>85.7</ele></trkpt>
    <trkpt lat="48.62977" lon="2.52775"><ele>85.9</ele></trkpt>
    <trkpt lat="48.62991" lon="2.52792"><ele>85.9</ele></trkpt>
    <trkpt lat="48.63368" lon="2.52762"><ele>85.2</ele></trkpt>
    <trkpt lat="48.63421" lon="2.52769"><ele>84.7</ele></trkpt>
    <trkpt lat="48.64068" lon="2.52715"><ele>79.5</ele></trkpt>
    <trkpt lat="48.64085" lon="2.52711"><ele>79.4</ele></trkpt>
    <trkpt lat="48.64097" lon="2.52695"><ele>79.3</ele></trkpt>
    <trkpt lat="48.64258" lon="2.52686"><ele>80.1</ele></trkpt>
    <trkpt lat="48.64272" lon="2.527"><ele>80.3</ele></trkpt>
    <trkpt lat="48.64375" lon="2.5289"><ele>81.8</ele></trkpt>
    <trkpt lat="48.64376" lon="2.52911"><ele>81.9</ele></trkpt>
    <trkpt lat="48.64207" lon="2.53114"><ele>80.6</ele></trkpt>
    <trkpt lat="48.64153" lon="2.53186"><ele>80.0</ele></trkpt>
    <trkpt lat="48.64144" lon="2.53208"><ele>79.9</ele></trkpt>
    <trkpt lat="48.64151" lon="2.53315"><ele>79.8</ele></trkpt>
    <trkpt lat="48.64141" lon="2.53365"><ele>79.7</ele></trkpt>
    <trkpt lat="48.64146" lon="2.53419"><ele>79.8</ele></trkpt>
    <trkpt lat="48.64146" lon="2.53555"><ele>80.4</ele></trkpt>
    <trkpt lat="48.64155" lon="2.53578"><ele>80.5</ele></trkpt>
    <trkpt lat="48.64318" lon="2.53694"><ele>82.6</ele></trkpt>
    <trkpt lat="48.64372" lon="2.53766"><ele>83.4</ele></trkpt>
    <trkpt lat="48.64387" lon="2.53777"><ele>83.5</ele></trkpt>
    <trkpt lat="48.64545" lon="2.53596"><ele>84.3</ele></trkpt>
    <trkpt lat="48.6457" lon="2.53558"><ele>84.3</ele></trkpt>
    <trkpt lat="48.64657" lon="2.53461"><ele>84.4</ele></trkpt>
    <trkpt lat="48.64673" lon="2.5345"><ele>84.4</ele></trkpt>
    <trkpt lat="48.6469" lon="2.53457"><ele>84.4</ele></trkpt>
    <trkpt lat="48.65289" lon="2.53895"><ele>86.4</ele></trkpt>
    <trkpt lat="48.65306" lon="2.53899"><ele>86.5</ele></trkpt>
    <trkpt lat="48.65322" lon="2.53887"><ele>86.6</ele></trkpt>
    <trkpt lat="48.65364" lon="2.53835"><ele>86.9</ele></trkpt>
    <trkpt lat="48.65378" lon="2.53836"><ele>87.0</ele></trkpt>
    <trkpt lat="48.65856" lon="2.54538"><ele>89.5</ele></trkpt>
    <trkpt lat="48.65871" lon="2.54552"><ele>89.6</ele></trkpt>
    <trkpt lat="48.65993" lon="2.54595"><ele>89.7</ele></trkpt>
    <trkpt lat="48.66026" lon="2.54617"><ele>89.5</ele></trkpt>
    <trkpt lat="48.66038" lon="2.54635"><ele>89.4</ele></trkpt>
    <trkpt lat="48.66015" lon="2.54704"><ele>89.1</ele></trkpt>
    <trkpt lat="48.66" lon="2.54782"><ele>88.7</ele></trkpt>
    <trkpt lat="48.66034" lon="2.54838"><ele>88.4</ele></trkpt>
    <trkpt lat="48.6604" lon="2.54891"><ele>88.3</ele></trkpt>
    <trkpt lat="48.66036" lon="2.54917"><ele>88.2</ele></trkpt>
    <trkpt lat="48.65975" lon="2.54975"><ele>87.9</ele></trkpt>
    <trkpt lat="48.65962" lon="2.54994"><ele>87.9</ele></trkpt>
    <trkpt lat="48.65897" lon="2.55247"><ele>87.6</ele></trkpt>
    <trkpt lat="48.65813" lon="2.55424"><ele>87.5</ele></trkpt>
    <trkpt lat="48.65785" lon="2.55494"><ele>87.3</ele></trkpt>
    <trkpt lat="48.65758" lon="2.55529"><ele>87.2</ele></trkpt>
    <trkpt lat="48.65727" lon="2.55556"><ele>87.1</ele></trkpt>
    <trkpt lat="48.65716" lon="2.55554"><ele>87.0</ele></trkpt>
    <trkpt lat="48.65711" lon="2.55528"><ele>87.0</ele></trkpt>
    <trkpt lat="48.657" lon="2.55544"><ele>87.0</ele></trkpt>
    <trkpt lat="48.65724" lon="2.55617"><ele>87.0</ele></trkpt>
    <trkpt lat="48.65735" lon="2.55637"><ele>87.1</ele></trkpt>
    <trkpt lat="48.65751" lon="2.55649"><ele>87.1</ele></trkpt>
    <trkpt lat="48.65805" lon="2.55651"><ele>87.2</ele></trkpt>
    <trkpt lat="48.65865" lon="2.55684"><ele>87.2</ele></trkpt>
    <trkpt lat="48.65896" lon="2.55712"><ele>87.2</ele></trkpt>
    <trkpt lat="48.6598" lon="2.55813"><ele>87.1</ele></trkpt>
    <trkpt lat="48.66075" lon="2.55893"><ele>86.8</ele></trkpt>
    <trkpt lat="48.6608" lon="2.55914"><ele>86.8</ele></trkpt>
    <trkpt lat="48.6606" lon="2.56129"><ele>86.6</ele></trkpt>
    <trkpt lat="48.66044" lon="2.56235"><ele>86.7</ele></trkpt>
    <trkpt lat="48.66029" lon="2.56314"><ele>86.8</ele></trkpt>
    <trkpt lat="48.66018" lon="2.56334"><ele>86.9</ele></trkpt>
    <trkpt lat="48.66014" lon="2.56384"><ele>87.0</ele></trkpt>
    <trkpt lat="48.65981" lon="2.56568"><ele>87.4</ele></trkpt>
    <trkpt lat="48.65972" lon="2.56591"><ele>87.5</ele></trkpt>
    <trkpt lat="48.65967" lon="2.56645"><ele>87.6</ele></trkpt>
    <trkpt lat="48.65929" lon="2.56854"><ele>87.7</ele></trkpt>
    <trkpt lat="48.65916" lon="2.56893"><ele>87.7</ele></trkpt>
    <trkpt lat="48.6594" lon="2.56932"><ele>87.7</ele></trkpt>
    <trkpt lat="48.65996" lon="2.57071"><ele>87.9</ele></trkpt>
    <trkpt lat="48.65996" lon="2.57152"><ele>88.0</ele></trkpt>
    <trkpt lat="48.66009" lon="2.57167"><ele>88.0</ele></trkpt>
    <trkpt lat="48.66043" lon="2.57172"><ele>88.0</ele></trkpt>
    <trkpt lat="48.66057" lon="2.57189"><ele>87.9</ele></trkpt>
    <trkpt lat="48.66092" lon="2.57199"><ele>87.9</ele></trkpt>
    <trkpt lat="48.66142" lon="2.57225"><ele>87.8</ele></trkpt>
    <trkpt lat="48.66193" lon="2.5721"><ele>87.5</ele></trkpt>
    <trkpt lat="48.66264" lon="2.57223"><ele>86.8</ele></trkpt>
    <trkpt lat="48.66273" lon="2.57239"><ele>86.7</ele></trkpt>
    <trkpt lat="48.66272" lon="2.57294"><ele>86.4</ele></trkpt>
    <trkpt lat="48.66279" lon="2.57298"><ele>86.2</ele></trkpt>
    <trkpt lat="48.6638" lon="2.57183"><ele>84.0</ele></trkpt>
    <trkpt lat="48.66413" lon="2.57164"><ele>83.1</ele></trkpt>
    <trkpt lat="48.66428" lon="2.57174"><ele>82.6</ele></trkpt>
    <trkpt lat="48.66448" lon="2.57248"><ele>80.6</ele></trkpt>
    <trkpt lat="48.66466" lon="2.57253"><ele>79.9</ele></trkpt>
    <trkpt lat="48.66537" lon="2.57245"><ele>76.8</ele></trkpt>
    <trkpt lat="48.66603" lon="2.57291"><ele>73.0</ele></trkpt>
    <trkpt lat="48.66671" lon="2.57326"><ele>68.4</ele></trkpt>
    <trkpt lat="48.66758" lon="2.57359"><ele>62.6</ele></trkpt>
    <trkpt lat="48.66794" lon="2.5736"><ele>60.4</ele></trkpt>
    <trkpt lat="48.66848" lon="2.57353"><ele>57.1</ele></trkpt>
    <trkpt lat="48.66856" lon="2.57331"><ele>55.9</ele></trkpt>
    <trkpt lat="48.66857" lon="2.5725"><ele>53.1</ele></trkpt>
    <trkpt lat="48.66881" lon="2.57119"><ele>51.2</ele></trkpt>
    <trkpt lat="48.6689" lon="2.571"><ele>50.9</ele></trkpt>
    <trkpt lat="48.66979" lon="2.57085"><ele>51.5</ele></trkpt>
    <trkpt lat="48.67134" lon="2.57016"><ele>54.1</ele></trkpt>
    <trkpt lat="48.67241" lon="2.5699"><ele>55.3</ele></trkpt>
    <trkpt lat="48.67492" lon="2.56989"><ele>58.6</ele></trkpt>
    <trkpt lat="48.67579" lon="2.57025"><ele>60.7</ele></trkpt>
    <trkpt lat="48.67611" lon="2.57049"><ele>61.8</ele></trkpt>
    <trkpt lat="48.67722" lon="2.57188"><ele>67.5</ele></trkpt>
    <trkpt lat="48.67771" lon="2.57218"><ele>70.0</ele></trkpt>
    <trkpt lat="48.67817" lon="2.57261"><ele>72.5</ele></trkpt>
    <trkpt lat="48.67866" lon="2.5734"><ele>75.9</ele></trkpt>
    <trkpt lat="48.67896" lon="2.57496"><ele>79.2</ele></trkpt>
    <trkpt lat="48.67925" lon="2.5771"><ele>82.0</ele></trkpt>
    <trkpt lat="48.67936" lon="2.57727"><ele>82.2</ele></trkpt>
    <trkpt lat="48.67953" lon="2.57738"><ele>82.5</ele></trkpt>
    <trkpt lat="48.67968" lon="2.57813"><ele>83.1</ele></trkpt>
    <trkpt lat="48.67986" lon="2.57859"><ele>83.4</ele></trkpt>
    <trkpt lat="48.67991" lon="2.5794"><ele>83.5</ele></trkpt>
    <trkpt lat="48.67972" lon="2.58211"><ele>83.0</ele></trkpt>
    <trkpt lat="48.6797" lon="2.58292"><ele>82.8</ele></trkpt>
    <trkpt lat="48.6795" lon="2.58397"><ele>82.5</ele></trkpt>
    <trkpt lat="48.67904" lon="2.58544"><ele>82.4</ele></trkpt>
    <trkpt lat="48.67769" lon="2.58799"><ele>82.5</ele></trkpt>
    <trkpt lat="48.67764" lon="2.58825"><ele>82.4</ele></trkpt>
    <trkpt lat="48.67771" lon="2.58848"><ele>82.4</ele></trkpt>
    <trkpt lat="48.67785" lon="2.58865"><ele>82.3</ele></trkpt>
    <trkpt lat="48.67996" lon="2.59074"><ele>80.3</ele></trkpt>
    <trkpt lat="48.68013" lon="2.59075"><ele>80.4</ele></trkpt>
    <trkpt lat="48.68136" lon="2.58841"><ele>81.9</ele></trkpt>
    <trkpt lat="48.68265" lon="2.58651"><ele>83.7</ele></trkpt>
    <trkpt lat="48.68316" lon="2.5854"><ele>84.5</ele></trkpt>
    <trkpt lat="48.68352" lon="2.58445"><ele>85.1</ele></trkpt>
    <trkpt lat="48.68384" lon="2.58381"><ele>85.5</ele></trkpt>
    <trkpt lat="48.68402" lon="2.58375"><ele>85.6</ele></trkpt>
    <trkpt lat="48.68435" lon="2.58392"><ele>85.9</ele></trkpt>
    <trkpt lat="48.68452" lon="2.58388"><ele>86.0</ele></trkpt>
    <trkpt lat="48.68542" lon="2.58296"><ele>86.8</ele></trkpt>
    <trkpt lat="48.68636" lon="2.5817"><ele>87.8</ele></trkpt>
    <trkpt lat="48.68696" lon="2.58119"><ele>88.4</ele></trkpt>
    <trkpt lat="48.68642" lon="2.58011"><ele>89.0</ele></trkpt>
    <trkpt lat="48.68635" lon="2.57988"><ele>89.1</ele></trkpt>
    <trkpt lat="48.6864" lon="2.57934"><ele>89.2</ele></trkpt>
    <trkpt lat="48.68648" lon="2.56953"><ele>90.4</ele></trkpt>
    <trkpt lat="48.68662" lon="2.56573"><ele>89.7</ele></trkpt>
    <trkpt lat="48.68647" lon="2.56247"><ele>88.9</ele></trkpt>
    <trkpt lat="48.68631" lon="2.56058"><ele>88.7</ele></trkpt>
    <trkpt lat="48.68611" lon="2.55925"><ele>88.7</ele></trkpt>
    <trkpt lat="48.68614" lon="2.55899"><ele>88.7</ele></trkpt>
    <trkpt lat="48.68709" lon="2.55822"><ele>88.8</ele></trkpt>
    <trkpt lat="48.68892" lon="2.55709"><ele>88.7</ele></trkpt>
    <trkpt lat="48.68944" lon="2.55688"><ele>88.4</ele></trkpt>
    <trkpt lat="48.68997" lon="2.55699"><ele>87.8</ele></trkpt>
    <trkpt lat="48.69279" lon="2.55786"><ele>84.9</ele></trkpt>
    <trkpt lat="48.69296" lon="2.55796"><ele>85.0</ele></trkpt>
    <trkpt lat="48.69312" lon="2.55795"><ele>85.1</ele></trkpt>
    <trkpt lat="48.69398" lon="2.55695"><ele>86.8</ele></trkpt>
    <trkpt lat="48.69515" lon="2.5557"><ele>89.9</ele></trkpt>
    <trkpt lat="48.69557" lon="2.55517"><ele>91.0</ele></trkpt>
    <trkpt lat="48.69606" lon="2.55438"><ele>91.7</ele></trkpt>
    <trkpt lat="48.69719" lon="2.55226"><ele>92.4</ele></trkpt>
    <trkpt lat="48.69732" lon="2.55222"><ele>92.5</ele></trkpt>
    <trkpt lat="48.69966" lon="2.55475"><ele>93.3</ele></trkpt>
    <trkpt lat="48.70006" lon="2.55531"><ele>93.4</ele></trkpt>
    <trkpt lat="48.70167" lon="2.55788"><ele>94.2</ele></trkpt>
    <trkpt lat="48.70192" lon="2.55859"><ele>94.5</ele></trkpt>
    <trkpt lat="48.7021" lon="2.56048"><ele>94.9</ele></trkpt>
    <trkpt lat="48.70227" lon="2.56125"><ele>95.0</ele></trkpt>
    <trkpt lat="48.70259" lon="2.56191"><ele>94.9</ele></trkpt>
    <trkpt lat="48.7041" lon="2.56423"><ele>94.3</ele></trkpt>
    <trkpt lat="48.70433" lon="2.56359"><ele>94.2</ele></trkpt>
    <trkpt lat="48.70453" lon="2.56282"><ele>94.1</ele></trkpt>
    <trkpt lat="48.70468" lon="2.56278"><ele>94.1</ele></trkpt>
    <trkpt lat="48.70671" lon="2.565"><ele>93.3</ele></trkpt>
    <trkpt lat="48.70686" lon="2.5649"><ele>93.2</ele></trkpt>
    <trkpt lat="48.70715" lon="2.56361"><ele>93.1</ele></trkpt>
    <trkpt lat="48.70781" lon="2.56137"><ele>93.2</ele></trkpt>
    <trkpt lat="48.70791" lon="2.5612"><ele>93.2</ele></trkpt>
    <trkpt lat="48.70809" lon="2.56122"><ele>93.2</ele></trkpt>
    <trkpt lat="48.70822" lon="2.56111"><ele>93.2</ele></trkpt>
    <trkpt lat="48.7083" lon="2.56086"><ele>93.2</ele></trkpt>
    <trkpt lat="48.70841" lon="2.56071"><ele>93.2</ele></trkpt>
    <trkpt lat="48.70893" lon="2.56094"><ele>93.1</ele></trkpt>
    <trkpt lat="48.70975" lon="2.56146"><ele>92.9</ele></trkpt>
    <trkpt lat="48.70992" lon="2.56141"><ele>92.8</ele></trkpt>
    <trkpt lat="48.70965" lon="2.56013"><ele>92.6</ele></trkpt>
    <trkpt lat="48.70946" lon="2.55825"><ele>92.6</ele></trkpt>
    <trkpt lat="48.70956" lon="2.55608"><ele>92.7</ele></trkpt>
    <trkpt lat="48.70969" lon="2.55528"><ele>92.6</ele></trkpt>
    <trkpt lat="48.70999" lon="2.554"><ele>92.4</ele></trkpt>
    <trkpt lat="48.71041" lon="2.55279"><ele>91.9</ele></trkpt>
    <trkpt lat="48.71094" lon="2.55169"><ele>91.2</ele></trkpt>
    <trkpt lat="48.71143" lon="2.5509"><ele>90.5</ele></trkpt>
    <trkpt lat="48.71184" lon="2.55036"><ele>89.8</ele></trkpt>
    <trkpt lat="48.71289" lon="2.5493"><ele>87.9</ele></trkpt>
    <trkpt lat="48.71338" lon="2.54896"><ele>86.9</ele></trkpt>
    <trkpt lat="48.71424" lon="2.54856"><ele>85.3</ele></trkpt>
    <trkpt lat="48.7153" lon="2.54833"><ele>83.4</ele></trkpt>
    <trkpt lat="48.71871" lon="2.54798"><ele>77.9</ele></trkpt>
    <trkpt lat="48.72069" lon="2.54788"><ele>77.1</ele></trkpt>
    <trkpt lat="48.7214" lon="2.5477"><ele>75.0</ele></trkpt>
    <trkpt lat="48.72192" lon="2.54746"><ele>72.7</ele></trkpt>
    <trkpt lat="48.72208" lon="2.54736"><ele>71.3</ele></trkpt>
    <trkpt lat="48.72209" lon="2.54682"><ele>68.4</ele></trkpt>
    <trkpt lat="48.72231" lon="2.54579"><ele>63.9</ele></trkpt>
    <trkpt lat="48.72239" lon="2.54471"><ele>60.9</ele></trkpt>
    <trkpt lat="48.72239" lon="2.54363"><ele>58.9</ele></trkpt>
    <trkpt lat="48.72249" lon="2.54351"><ele>58.4</ele></trkpt>
    <trkpt lat="48.72275" lon="2.54422"><ele>57.8</ele></trkpt>
    <trkpt lat="48.72303" lon="2.54454"><ele>57.8</ele></trkpt>
    <trkpt lat="48.72321" lon="2.54457"><ele>57.8</ele></trkpt>
    <trkpt lat="48.72403" lon="2.54401"><ele>58.6</ele></trkpt>
    <trkpt lat="48.72437" lon="2.54387"><ele>58.9</ele></trkpt>
    <trkpt lat="48.72467" lon="2.54357"><ele>59.3</ele></trkpt>
    <trkpt lat="48.7249" lon="2.54321"><ele>59.9</ele></trkpt>
    <trkpt lat="48.72598" lon="2.54415"><ele>60.4</ele></trkpt>
    <trkpt lat="48.7264" lon="2.54467"><ele>60.2</ele></trkpt>
    <trkpt lat="48.72677" lon="2.54527"><ele>60.0</ele></trkpt>
    <trkpt lat="48.72693" lon="2.54539"><ele>59.9</ele></trkpt>
    <trkpt lat="48.7271" lon="2.54544"><ele>59.8</ele></trkpt>
    <trkpt lat="48.72782" lon="2.54542"><ele>60.0</ele></trkpt>
    <trkpt lat="48.72833" lon="2.54563"><ele>60.3</ele></trkpt>
    <trkpt lat="48.72869" lon="2.54565"><ele>60.6</ele></trkpt>
    <trkpt lat="48.72885" lon="2.54574"><ele>60.9</ele></trkpt>
    <trkpt lat="48.72925" lon="2.54629"><ele>62.3</ele></trkpt>
    <trkpt lat="48.72941" lon="2.54637"><ele>63.0</ele></trkpt>
    <trkpt lat="48.73027" lon="2.54597"><ele>67.2</ele></trkpt>
    <trkpt lat="48.73055" lon="2.54566"><ele>69.0</ele></trkpt>
    <trkpt lat="48.73072" lon="2.54558"><ele>69.9</ele></trkpt>
    <trkpt lat="48.73087" lon="2.54568"><ele>70.8</ele></trkpt>
    <trkpt lat="48.73173" lon="2.54897"><ele>79.5</ele></trkpt>
    <trkpt lat="48.73195" lon="2.55056"><ele>82.4</ele></trkpt>
    <trkpt lat="48.73212" lon="2.55049"><ele>83.0</ele></trkpt>
    <trkpt lat="48.73302" lon="2.55048"><ele>86.0</ele></trkpt>
    <trkpt lat="48.73396" lon="2.55129"><ele>88.8</ele></trkpt>
    <trkpt lat="48.73428" lon="2.55146"><ele>89.5</ele></trkpt>
    <trkpt lat="48.73466" lon="2.55239"><ele>90.7</ele></trkpt>
    <trkpt lat="48.73488" lon="2.55282"><ele>91.2</ele></trkpt>
    <trkpt lat="48.73575" lon="2.55377"><ele>92.2</ele></trkpt>
    <trkpt lat="48.73606" lon="2.55436"><ele>92.6</ele></trkpt>
    <trkpt lat="48.73642" lon="2.5544"><ele>92.9</ele></trkpt>
    <trkpt lat="48.73694" lon="2.55457"><ele>93.3</ele></trkpt>
    <trkpt lat="48.73729" lon="2.55451"><ele>93.7</ele></trkpt>
    <trkpt lat="48.73818" lon="2.55471"><ele>94.5</ele></trkpt>
    <trkpt lat="48.7383" lon="2.5549"><ele>94.6</ele></trkpt>
    <trkpt lat="48.73849" lon="2.55537"><ele>95.0</ele></trkpt>
    <trkpt lat="48.73854" lon="2.55563"><ele>95.2</ele></trkpt>
    <trkpt lat="48.73856" lon="2.55644"><ele>95.6</ele></trkpt>
    <trkpt lat="48.73875" lon="2.5569"><ele>95.8</ele></trkpt>
    <trkpt lat="48.73892" lon="2.55767"><ele>95.9</ele></trkpt>
    <trkpt lat="48.73931" lon="2.55858"><ele>96.0</ele></trkpt>
    <trkpt lat="48.73964" lon="2.55877"><ele>96.1</ele></trkpt>
    <trkpt lat="48.74054" lon="2.55872"><ele>96.5</ele></trkpt>
    <trkpt lat="48.74087" lon="2.5589"><ele>96.6</ele></trkpt>
    <trkpt lat="48.74101" lon="2.55907"><ele>96.7</ele></trkpt>
    <trkpt lat="48.74119" lon="2.55911"><ele>96.8</ele></trkpt>
    <trkpt lat="48.74155" lon="2.55904"><ele>96.8</ele></trkpt>
    <trkpt lat="48.7419" lon="2.55913"><ele>96.8</ele></trkpt>
    <trkpt lat="48.74244" lon="2.55912"><ele>96.8</ele></trkpt>
    <trkpt lat="48.74262" lon="2.55909"><ele>96.8</ele></trkpt>
    <trkpt lat="48.74295" lon="2.55888"><ele>96.8</ele></trkpt>
    <trkpt lat="48.74358" lon="2.55835"><ele>96.8</ele></trkpt>
    <trkpt lat="48.74375" lon="2.55827"><ele>96.8</ele></trkpt>
    <trkpt lat="48.74411" lon="2.55823"><ele>96.7</ele></trkpt>
    <trkpt lat="48.74444" lon="2.55839"><ele>96.7</ele></trkpt>
    <trkpt lat="48.745" lon="2.55909"><ele>96.9</ele></trkpt>
    <trkpt lat="48.74529" lon="2.55937"><ele>97.1</ele></trkpt>
    <trkpt lat="48.74556" lon="2.55902"><ele>97.3</ele></trkpt>
    <trkpt lat="48.74566" lon="2.55896"><ele>97.2</ele></trkpt>
    <trkpt lat="48.74579" lon="2.56031"><ele>97.1</ele></trkpt>
    <trkpt lat="48.74585" lon="2.56056"><ele>97.1</ele></trkpt>
    <trkpt lat="48.74625" lon="2.5611"><ele>97.1</ele></trkpt>
    <trkpt lat="48.74699" lon="2.56186"><ele>97.1</ele></trkpt>
    <trkpt lat="48.74749" lon="2.56211"><ele>97.2</ele></trkpt>
    <trkpt lat="48.74784" lon="2.5627"><ele>97.3</ele></trkpt>
    <trkpt lat="48.75403" lon="2.56879"><ele>98.1</ele></trkpt>
    <trkpt lat="48.75419" lon="2.5689"><ele>98.0</ele></trkpt>
    <trkpt lat="48.7553" lon="2.56644"><ele>96.5</ele></trkpt>
    <trkpt lat="48.75905" lon="2.55777"><ele>101.1</ele></trkpt>
    <trkpt lat="48.7592" lon="2.55762"><ele>101.2</ele></trkpt>
    <trkpt lat="48.75923" lon="2.5574"><ele>101.2</ele></trkpt>
    <trkpt lat="48.75911" lon="2.55744"><ele>101.2</ele></trkpt>
    <trkpt lat="48.75918" lon="2.5576"><ele>101.2</ele></trkpt>
    <trkpt lat="48.75934" lon="2.55769"><ele>101.1</ele></trkpt>
    <trkpt lat="48.76726" lon="2.56798"><ele>102.0</ele></trkpt>
    <trkpt lat="48.76739" lon="2.56787"><ele>102.1</ele></trkpt>
    <trkpt lat="48.76936" lon="2.56433"><ele>101.5</ele></trkpt>
    <trkpt lat="48.76983" lon="2.56316"><ele>101.5</ele></trkpt>
    <trkpt lat="48.77026" lon="2.5627"><ele>101.4</ele></trkpt>
    <trkpt lat="48.77073" lon="2.56187"><ele>101.3</ele></trkpt>
    <trkpt lat="48.77255" lon="2.55849"><ele>102.6</ele></trkpt>
    <trkpt lat="48.77274" lon="2.55803"><ele>101.5</ele></trkpt>
    <trkpt lat="48.77272" lon="2.55778"><ele>101.0</ele></trkpt>
    <trkpt lat="48.77207" lon="2.55583"><ele>100.3</ele></trkpt>
    <trkpt lat="48.77179" lon="2.55513"><ele>100.1</ele></trkpt>
    <trkpt lat="48.77168" lon="2.55526"><ele>100.0</ele></trkpt>
    <trkpt lat="48.77175" lon="2.5551"><ele>100.0</ele></trkpt>
    <trkpt lat="48.77188" lon="2.5549"><ele>100.0</ele></trkpt>
    <trkpt lat="48.77247" lon="2.55429"><ele>99.8</ele></trkpt>
    <trkpt lat="48.77418" lon="2.55229"><ele>99.5</ele></trkpt>
    <trkpt lat="48.77434" lon="2.55218"><ele>99.5</ele></trkpt>
    <trkpt lat="48.77523" lon="2.55224"><ele>99.3</ele></trkpt>
    <trkpt lat="48.77558" lon="2.55215"><ele>99.3</ele></trkpt>
    <trkpt lat="48.77594" lon="2.55219"><ele>99.2</ele></trkpt>
    <trkpt lat="48.77609" lon="2.55212"><ele>99.1</ele></trkpt>
    <trkpt lat="48.77614" lon="2.55188"><ele>99.1</ele></trkpt>
    <trkpt lat="48.77667" lon="2.55121"><ele>98.7</ele></trkpt>
    <trkpt lat="48.77674" lon="2.55103"><ele>98.6</ele></trkpt>
    <trkpt lat="48.7755" lon="2.54836"><ele>100.4</ele></trkpt>
    <trkpt lat="48.77514" lon="2.54744"><ele>100.4</ele></trkpt>
    <trkpt lat="48.77522" lon="2.54724"><ele>100.3</ele></trkpt>
    <trkpt lat="48.77775" lon="2.54462"><ele>93.6</ele></trkpt>
    <trkpt lat="48.77781" lon="2.54439"><ele>93.1</ele></trkpt>
    <trkpt lat="48.77666" lon="2.5413"><ele>85.4</ele></trkpt>
    <trkpt lat="48.77669" lon="2.54104"><ele>84.1</ele></trkpt>
    <trkpt lat="48.7771" lon="2.54051"><ele>80.8</ele></trkpt>
    <trkpt lat="48.77738" lon="2.53951"><ele>75.8</ele></trkpt>
    <trkpt lat="48.77747" lon="2.53898"><ele>73.0</ele></trkpt>
    <trkpt lat="48.77745" lon="2.53762"><ele>67.3</ele></trkpt>
    <trkpt lat="48.77689" lon="2.53591"><ele>61.0</ele></trkpt>
    <trkpt lat="48.77669" lon="2.53458"><ele>59.0</ele></trkpt>
    <trkpt lat="48.77685" lon="2.53447"><ele>58.6</ele></trkpt>
    <trkpt lat="48.7781" lon="2.53426"><ele>57.3</ele></trkpt>
    <trkpt lat="48.77828" lon="2.53426"><ele>57.4</ele></trkpt>
    <trkpt lat="48.77844" lon="2.53433"><ele>57.6</ele></trkpt>
    <trkpt lat="48.77855" lon="2.53454"><ele>57.7</ele></trkpt>
    <trkpt lat="48.77901" lon="2.53602"><ele>60.5</ele></trkpt>
    <trkpt lat="48.77924" lon="2.53643"><ele>62.3</ele></trkpt>
    <trkpt lat="48.77956" lon="2.53667"><ele>64.3</ele></trkpt>
    <trkpt lat="48.78209" lon="2.53807"><ele>79.8</ele></trkpt>
    <trkpt lat="48.78227" lon="2.53812"><ele>80.7</ele></trkpt>
    <trkpt lat="48.78263" lon="2.53807"><ele>82.6</ele></trkpt>
    <trkpt lat="48.78417" lon="2.53732"><ele>90.8</ele></trkpt>
    <trkpt lat="48.78434" lon="2.5373"><ele>91.5</ele></trkpt>
    <trkpt lat="48.78448" lon="2.53741"><ele>92.1</ele></trkpt>
    <trkpt lat="48.78722" lon="2.54383"><ele>97.9</ele></trkpt>
    <trkpt lat="48.78721" lon="2.54404"><ele>97.9</ele></trkpt>
    <trkpt lat="48.78673" lon="2.5444"><ele>97.7</ele></trkpt>
  </trkseg></trk>
</gpx>
