<?xml version="1.0" encoding="UTF-8"?>
<gpx version="1.1" creator="USO Cyclisme" xmlns="http://www.topografix.com/GPX/1/1">
  <metadata><name>Favières – 59 km</name><desc>Gravel, 59.0 km, D+ 161 m. Départ et arrivée : centre culturel d'Ormesson-sur-Marne.</desc></metadata>
  <trk><name>Favières – 59 km (gravel)</name><trkseg>
    <trkpt lat="48.78667" lon="2.54444"><ele>97.9</ele></trkpt>
    <trkpt lat="48.78727" lon="2.54394"><ele>98.0</ele></trkpt>
    <trkpt lat="48.78533" lon="2.53935"><ele>95.0</ele></trkpt>
    <trkpt lat="48.78444" lon="2.5373"><ele>91.9</ele></trkpt>
    <trkpt lat="48.78433" lon="2.53713"><ele>91.4</ele></trkpt>
    <trkpt lat="48.78385" lon="2.5375"><ele>89.2</ele></trkpt>
    <trkpt lat="48.78247" lon="2.53812"><ele>81.7</ele></trkpt>
    <trkpt lat="48.78197" lon="2.53843"><ele>77.7</ele></trkpt>
    <trkpt lat="48.77992" lon="2.53942"><ele>66.7</ele></trkpt>
    <trkpt lat="48.77857" lon="2.54017"><ele>71.1</ele></trkpt>
    <trkpt lat="48.77737" lon="2.54075"><ele>78.8</ele></trkpt>
    <trkpt lat="48.77684" lon="2.54083"><ele>82.8</ele></trkpt>
    <trkpt lat="48.77672" lon="2.54101"><ele>84.1</ele></trkpt>
    <trkpt lat="48.77667" lon="2.54126"><ele>85.4</ele></trkpt>
    <trkpt lat="48.77672" lon="2.54152"><ele>86.5</ele></trkpt>
    <trkpt lat="48.77761" lon="2.5439"><ele>92.1</ele></trkpt>
    <trkpt lat="48.77791" lon="2.54457"><ele>93.0</ele></trkpt>
    <trkpt lat="48.77838" lon="2.5454"><ele>93.4</ele></trkpt>
    <trkpt lat="48.77872" lon="2.54635"><ele>94.1</ele></trkpt>
    <trkpt lat="48.7788" lon="2.54689"><ele>94.5</ele></trkpt>
    <trkpt lat="48.77881" lon="2.54743"><ele>94.9</ele></trkpt>
    <trkpt lat="48.77872" lon="2.54795"><ele>95.3</ele></trkpt>
    <trkpt lat="48.77863" lon="2.54819"><ele>95.4</ele></trkpt>
    <trkpt lat="48.77851" lon="2.54837"><ele>95.6</ele></trkpt>
    <trkpt lat="48.77638" lon="2.54986"><ele>97.9</ele></trkpt>
    <trkpt lat="48.77632" lon="2.55003"><ele>98.2</ele></trkpt>
    <trkpt lat="48.77671" lon="2.55094"><ele>98.6</ele></trkpt>
    <trkpt lat="48.7767" lon="2.55116"><ele>98.7</ele></trkpt>
    <trkpt lat="48.77641" lon="2.55148"><ele>98.6</ele></trkpt>
    <trkpt lat="48.77624" lon="2.55157"><ele>98.5</ele></trkpt>
    <trkpt lat="48.7757" lon="2.55158"><ele>98.3</ele></trkpt>
    <trkpt lat="48.77567" lon="2.55211"><ele>98.8</ele></trkpt>
    <trkpt lat="48.77534" lon="2.55225"><ele>99.3</ele></trkpt>
    <trkpt lat="48.77427" lon="2.55221"><ele>99.5</ele></trkpt>
    <trkpt lat="48.77182" lon="2.55499"><ele>100.0</ele></trkpt>
    <trkpt lat="48.77182" lon="2.55521"><ele>100.1</ele></trkpt>
    <trkpt lat="48.77221" lon="2.55612"><ele>100.5</ele></trkpt>
    <trkpt lat="48.77245" lon="2.55653"><ele>100.9</ele></trkpt>
    <trkpt lat="48.77288" lon="2.55702"><ele>101.7</ele></trkpt>
    <trkpt lat="48.77298" lon="2.55723"><ele>101.9</ele></trkpt>
    <trkpt lat="48.77269" lon="2.5582"><ele>101.7</ele></trkpt>
    <trkpt lat="48.7703" lon="2.56264"><ele>101.4</ele></trkpt>
    <trkpt lat="48.77018" lon="2.56283"><ele>101.4</ele></trkpt>
    <trkpt lat="48.76987" lon="2.5631"><ele>101.5</ele></trkpt>
    <trkpt lat="48.7694" lon="2.56426"><ele>101.5</ele></trkpt>
    <trkpt lat="48.76232" lon="2.57698"><ele>101.0</ele></trkpt>
    <trkpt lat="48.76232" lon="2.57723"><ele>101.3</ele></trkpt>
    <trkpt lat="48.76304" lon="2.58174"><ele>101.6</ele></trkpt>
    <trkpt lat="48.764" lon="2.58756"><ele>102.8</ele></trkpt>
    <trkpt lat="48.76769" lon="2.61063"><ele>103.3</ele></trkpt>
    <trkpt lat="48.76773" lon="2.6109"><ele>103.5</ele></trkpt>
    <trkpt lat="48.76789" lon="2.61096"><ele>104.0</ele></trkpt>
    <trkpt lat="48.76799" lon="2.61117"><ele>104.5</ele></trkpt>
    <trkpt lat="48.76859" lon="2.61488"><ele>106.2</ele></trkpt>
    <trkpt lat="48.76853" lon="2.61541"><ele>106.2</ele></trkpt>
    <trkpt lat="48.76681" lon="2.62517"><ele>104.9</ele></trkpt>
    <trkpt lat="48.76707" lon="2.62552"><ele>104.6</ele></trkpt>
    <trkpt lat="48.76724" lon="2.62562"><ele>104.5</ele></trkpt>
    <trkpt lat="48.76742" lon="2.62561"><ele>104.5</ele></trkpt>
    <trkpt lat="48.76759" lon="2.62569"><ele>104.4</ele></trkpt>
    <trkpt lat="48.76769" lon="2.6259"><ele>104.3</ele></trkpt>
    <trkpt lat="48.76767" lon="2.62616"><ele>104.3</ele></trkpt>
    <trkpt lat="48.76746" lon="2.6266"><ele>104.2</ele></trkpt>
    <trkpt lat="48.76745" lon="2.62686"><ele>104.2</ele></trkpt>
    <trkpt lat="48.76755" lon="2.62767"><ele>104.2</ele></trkpt>
    <trkpt lat="48.76752" lon="2.6279"><ele>104.3</ele></trkpt>
    <trkpt lat="48.76629" lon="2.62903"><ele>104.9</ele></trkpt>
    <trkpt lat="48.76596" lon="2.62925"><ele>105.1</ele></trkpt>
    <trkpt lat="48.76472" lon="2.62958"><ele>106.4</ele></trkpt>
    <trkpt lat="48.76347" lon="2.62971"><ele>107.5</ele></trkpt>
    <trkpt lat="48.75995" lon="2.63084"><ele>104.7</ele></trkpt>
    <trkpt lat="48.75961" lon="2.63102"><ele>104.4</ele></trkpt>
    <trkpt lat="48.75732" lon="2.63257"><ele>103.5</ele></trkpt>
    <trkpt lat="48.75721" lon="2.63278"><ele>103.4</ele></trkpt>
    <trkpt lat="48.75731" lon="2.63326"><ele>103.5</ele></trkpt>
    <trkpt lat="48.75732" lon="2.63353"><ele>103.9</ele></trkpt>
    <trkpt lat="48.75727" lon="2.63379"><ele>104.2</ele></trkpt>
    <trkpt lat="48.75717" lon="2.63401"><ele>104.5</ele></trkpt>
    <trkpt lat="48.75705" lon="2.6342"><ele>104.9</ele></trkpt>
    <trkpt lat="48.75689" lon="2.63431"><ele>104.9</ele></trkpt>
    <trkpt lat="48.75635" lon="2.63438"><ele>104.3</ele></trkpt>
    <trkpt lat="48.75636" lon="2.63457"><ele>104.1</ele></trkpt>
    <trkpt lat="48.75669" lon="2.63522"><ele>103.3</ele></trkpt>
    <trkpt lat="48.75681" lon="2.63573"><ele>102.7</ele></trkpt>
    <trkpt lat="48.75684" lon="2.63628"><ele>102.1</ele></trkpt>
    <trkpt lat="48.7567" lon="2.63706"><ele>101.3</ele></trkpt>
    <trkpt lat="48.75648" lon="2.63749"><ele>100.9</ele></trkpt>
    <trkpt lat="48.75598" lon="2.63826"><ele>99.8</ele></trkpt>
    <trkpt lat="48.7558" lon="2.63904"><ele>99.0</ele></trkpt>
    <trkpt lat="48.7556" lon="2.63948"><ele>98.5</ele></trkpt>
    <trkpt lat="48.75488" lon="2.63959"><ele>97.6</ele></trkpt>
    <trkpt lat="48.75436" lon="2.6398"><ele>97.2</ele></trkpt>
    <trkpt lat="48.75394" lon="2.6403"><ele>97.3</ele></trkpt>
    <trkpt lat="48.75373" lon="2.64075"><ele>97.4</ele></trkpt>
    <trkpt lat="48.7536" lon="2.64154"><ele>97.5</ele></trkpt>
    <trkpt lat="48.75365" lon="2.64208"><ele>97.5</ele></trkpt>
    <trkpt lat="48.75383" lon="2.64254"><ele>97.5</ele></trkpt>
    <trkpt lat="48.75457" lon="2.64373"><ele>97.6</ele></trkpt>
    <trkpt lat="48.7547" lon="2.64424"><ele>97.6</ele></trkpt>
    <trkpt lat="48.75471" lon="2.64479"><ele>97.7</ele></trkpt>
    <trkpt lat="48.7546" lon="2.6453"><ele>98.0</ele></trkpt>
    <trkpt lat="48.7542" lon="2.64652"><ele>99.1</ele></trkpt>
    <trkpt lat="48.75387" lon="2.64665"><ele>99.5</ele></trkpt>
    <trkpt lat="48.75375" lon="2.64684"><ele>99.8</ele></trkpt>
    <trkpt lat="48.75361" lon="2.64734"><ele>100.3</ele></trkpt>
    <trkpt lat="48.75364" lon="2.6476"><ele>100.7</ele></trkpt>
    <trkpt lat="48.75406" lon="2.6494"><ele>102.8</ele></trkpt>
    <trkpt lat="48.75453" lon="2.65087"><ele>103.2</ele></trkpt>
    <trkpt lat="48.75511" lon="2.65287"><ele>103.5</ele></trkpt>
    <trkpt lat="48.7553" lon="2.65333"><ele>103.5</ele></trkpt>
    <trkpt lat="48.75637" lon="2.65518"><ele>103.5</ele></trkpt>
    <trkpt lat="48.75816" lon="2.65859"><ele>103.6</ele></trkpt>
    <trkpt lat="48.75954" lon="2.66075"><ele>103.7</ele></trkpt>
    <trkpt lat="48.76076" lon="2.66235"><ele>104.7</ele></trkpt>
    <trkpt lat="48.76108" lon="2.66259"><ele>105.2</ele></trkpt>
    <trkpt lat="48.7611" lon="2.66285"><ele>105.3</ele></trkpt>
    <trkpt lat="48.76119" lon="2.66308"><ele>105.5</ele></trkpt>
    <trkpt lat="48.7618" lon="2.66407"><ele>105.9</ele></trkpt>
    <trkpt lat="48.76192" lon="2.66428"><ele>105.8</ele></trkpt>
    <trkpt lat="48.76192" lon="2.66438"><ele>105.8</ele></trkpt>
    <trkpt lat="48.7615" lon="2.66387"><ele>105.8</ele></trkpt>
    <trkpt lat="48.76133" lon="2.66384"><ele>105.8</ele></trkpt>
    <trkpt lat="48.76119" lon="2.66399"><ele>105.8</ele></trkpt>
    <trkpt lat="48.75881" lon="2.66844"><ele>106.3</ele></trkpt>
    <trkpt lat="48.75862" lon="2.66889"><ele>106.4</ele></trkpt>
    <trkpt lat="48.75861" lon="2.66916"><ele>106.4</ele></trkpt>
    <trkpt lat="48.75867" lon="2.6697"><ele>106.4</ele></trkpt>
    <trkpt lat="48.75907" lon="2.67092"><ele>106.3</ele></trkpt>
    <trkpt lat="48.75918" lon="2.67144"><ele>106.3</ele></trkpt>
    <trkpt lat="48.75921" lon="2.67198"><ele>106.3</ele></trkpt>
    <trkpt lat="48.75915" lon="2.67251"><ele>106.3</ele></trkpt>
    <trkpt lat="48.759" lon="2.67301"><ele>106.3</ele></trkpt>
    <trkpt lat="48.75865" lon="2.67363"><ele>106.3</ele></trkpt>
    <trkpt lat="48.75739" lon="2.67466"><ele>106.4</ele></trkpt>
    <trkpt lat="48.75713" lon="2.67502"><ele>106.4</ele></trkpt>
    <trkpt lat="48.75704" lon="2.67526"><ele>106.4</ele></trkpt>
    <trkpt lat="48.75696" lon="2.67579"><ele>106.5</ele></trkpt>
    <trkpt lat="48.75702" lon="2.67632"><ele>106.5</ele></trkpt>
    <trkpt lat="48.75722" lon="2.67677"><ele>106.6</ele></trkpt>
    <trkpt lat="48.75748" lon="2.67713"><ele>106.7</ele></trkpt>
    <trkpt lat="48.75691" lon="2.67816"><ele>107.6</ele></trkpt>
    <trkpt lat="48.75694" lon="2.67925"><ele>108.2</ele></trkpt>
    <trkpt lat="48.75709" lon="2.67938"><ele>108.1</ele></trkpt>
    <trkpt lat="48.75727" lon="2.67939"><ele>107.9</ele></trkpt>
    <trkpt lat="48.75738" lon="2.67948"><ele>107.7</ele></trkpt>
    <trkpt lat="48.75687" lon="2.68122"><ele>107.7</ele></trkpt>
    <trkpt lat="48.75656" lon="2.6825"><ele>107.9</ele></trkpt>
    <trkpt lat="48.75617" lon="2.68341"><ele>108.2</ele></trkpt>
    <trkpt lat="48.75568" lon="2.68422"><ele>108.6</ele></trkpt>
    <trkpt lat="48.75525" lon="2.68509"><ele>109.1</ele></trkpt>
    <trkpt lat="48.75489" lon="2.68603"><ele>109.7</ele></trkpt>
    <trkpt lat="48.75468" lon="2.68707"><ele>110.5</ele></trkpt>
    <trkpt lat="48.75455" lon="2.68842"><ele>111.2</ele></trkpt>
    <trkpt lat="48.75446" lon="2.69059"><ele>111.6</ele></trkpt>
    <trkpt lat="48.75372" lon="2.69367"><ele>110.7</ele></trkpt>
    <trkpt lat="48.75341" lon="2.69433"><ele>110.4</ele></trkpt>
    <trkpt lat="48.75342" lon="2.69457"><ele>110.4</ele></trkpt>
    <trkpt lat="48.75365" lon="2.69589"><ele>110.0</ele></trkpt>
    <trkpt lat="48.75408" lon="2.69738"><ele>111.9</ele></trkpt>
    <trkpt lat="48.75377" lon="2.69834"><ele>112.1</ele></trkpt>
    <trkpt lat="48.75377" lon="2.69861"><ele>112.0</ele></trkpt>
    <trkpt lat="48.75451" lon="2.69936"><ele>112.7</ele></trkpt>
    <trkpt lat="48.75475" lon="2.7001"><ele>111.5</ele></trkpt>
    <trkpt lat="48.75484" lon="2.70063"><ele>111.5</ele></trkpt>
    <trkpt lat="48.75503" lon="2.70108"><ele>111.6</ele></trkpt>
    <trkpt lat="48.75553" lon="2.70283"><ele>111.8</ele></trkpt>
    <trkpt lat="48.75572" lon="2.70389"><ele>111.6</ele></trkpt>
    <trkpt lat="48.75573" lon="2.70415"><ele>111.4</ele></trkpt>
    <trkpt lat="48.75601" lon="2.70448"><ele>111.2</ele></trkpt>
    <trkpt lat="48.75605" lon="2.70465"><ele>111.4</ele></trkpt>
    <trkpt lat="48.75571" lon="2.70527"><ele>112.5</ele></trkpt>
    <trkpt lat="48.75377" lon="2.7067"><ele>111.2</ele></trkpt>
    <trkpt lat="48.75304" lon="2.7075"><ele>109.5</ele></trkpt>
    <trkpt lat="48.75294" lon="2.70771"><ele>109.0</ele></trkpt>
    <trkpt lat="48.75136" lon="2.71694"><ele>113.9</ele></trkpt>
    <trkpt lat="48.75089" lon="2.71842"><ele>114.5</ele></trkpt>
    <trkpt lat="48.75027" lon="2.72008"><ele>114.6</ele></trkpt>
    <trkpt lat="48.74896" lon="2.72301"><ele>112.0</ele></trkpt>
    <trkpt lat="48.74843" lon="2.72374"><ele>110.3</ele></trkpt>
    <trkpt lat="48.74734" lon="2.7247"><ele>110.3</ele></trkpt>
    <trkpt lat="48.7471" lon="2.7251"><ele>109.9</ele></trkpt>
    <trkpt lat="48.74559" lon="2.72703"><ele>108.0</ele></trkpt>
    <trkpt lat="48.74543" lon="2.72709"><ele>107.6</ele></trkpt>
    <trkpt lat="48.74457" lon="2.72571"><ele>106.3</ele></trkpt>
    <trkpt lat="48.74304" lon="2.7249"><ele>106.5</ele></trkpt>
    <trkpt lat="48.74239" lon="2.7294"><ele>107.7</ele></trkpt>
    <trkpt lat="48.74187" lon="2.7305"><ele>107.9</ele></trkpt>
    <trkpt lat="48.74172" lon="2.731"><ele>107.9</ele></trkpt>
    <trkpt lat="48.74145" lon="2.73135"><ele>107.5</ele></trkpt>
    <trkpt lat="48.74219" lon="2.73471"><ele>106.4</ele></trkpt>
    <trkpt lat="48.7422" lon="2.73498"><ele>106.2</ele></trkpt>
    <trkpt lat="48.74212" lon="2.73521"><ele>106.0</ele></trkpt>
    <trkpt lat="48.74107" lon="2.73627"><ele>104.8</ele></trkpt>
    <trkpt lat="48.74059" lon="2.73742"><ele>103.9</ele></trkpt>
    <trkpt lat="48.73995" lon="2.73873"><ele>103.4</ele></trkpt>
    <trkpt lat="48.73993" lon="2.73892"><ele>103.2</ele></trkpt>
    <trkpt lat="48.74025" lon="2.73912"><ele>103.1</ele></trkpt>
    <trkpt lat="48.74058" lon="2.73892"><ele>103.0</ele></trkpt>
    <trkpt lat="48.74075" lon="2.73891"><ele>103.0</ele></trkpt>
    <trkpt lat="48.74092" lon="2.73901"><ele>103.0</ele></trkpt>
    <trkpt lat="48.74259" lon="2.74061"><ele>105.6</ele></trkpt>
    <trkpt lat="48.74348" lon="2.74154"><ele>107.2</ele></trkpt>
    <trkpt lat="48.74359" lon="2.74174"><ele>107.5</ele></trkpt>
    <trkpt lat="48.74364" lon="2.74391"><ele>108.9</ele></trkpt>
    <trkpt lat="48.74341" lon="2.74689"><ele>109.4</ele></trkpt>
    <trkpt lat="48.7432" lon="2.74821"><ele>109.5</ele></trkpt>
    <trkpt lat="48.74243" lon="2.75098"><ele>109.8</ele></trkpt>
    <trkpt lat="48.7424" lon="2.75125"><ele>109.8</ele></trkpt>
    <trkpt lat="48.74252" lon="2.75141"><ele>109.9</ele></trkpt>
    <trkpt lat="48.74423" lon="2.75291"><ele>110.0</ele></trkpt>
    <trkpt lat="48.74439" lon="2.75292"><ele>110.0</ele></trkpt>
    <trkpt lat="48.74485" lon="2.75086"><ele>110.2</ele></trkpt>
    <trkpt lat="48.74495" lon="2.75073"><ele>110.3</ele></trkpt>
    <trkpt lat="48.74679" lon="2.75182"><ele>110.8</ele></trkpt>
    <trkpt lat="48.74689" lon="2.75203"><ele>110.7</ele></trkpt>
    <trkpt lat="48.74695" lon="2.75228"><ele>110.7</ele></trkpt>
    <trkpt lat="48.74753" lon="2.75543"><ele>110.6</ele></trkpt>
    <trkpt lat="48.74765" lon="2.75563"><ele>110.6</ele></trkpt>
    <trkpt lat="48.74782" lon="2.75572"><ele>110.5</ele></trkpt>
    <trkpt lat="48.7512" lon="2.75498"><ele>109.9</ele></trkpt>
    <trkpt lat="48.7513" lon="2.75518"><ele>109.7</ele></trkpt>
    <trkpt lat="48.75144" lon="2.75532"><ele>109.4</ele></trkpt>
    <trkpt lat="48.75162" lon="2.75538"><ele>109.2</ele></trkpt>
    <trkpt lat="48.7517" lon="2.75561"><ele>109.0</ele></trkpt>
    <trkpt lat="48.75175" lon="2.75615"><ele>108.6</ele></trkpt>
    <trkpt lat="48.75191" lon="2.75664"><ele>108.2</ele></trkpt>
    <trkpt lat="48.75315" lon="2.75861"><ele>107.2</ele></trkpt>
    <trkpt lat="48.75349" lon="2.75925"><ele>107.1</ele></trkpt>
    <trkpt lat="48.75366" lon="2.75973"><ele>107.0</ele></trkpt>
    <trkpt lat="48.75384" lon="2.76051"><ele>106.9</ele></trkpt>
    <trkpt lat="48.75394" lon="2.76213"><ele>107.3</ele></trkpt>
    <trkpt lat="48.7541" lon="2.76225"><ele>107.4</ele></trkpt>
    <trkpt lat="48.75515" lon="2.7626"><ele>108.0</ele></trkpt>
    <trkpt lat="48.7578" lon="2.76338"><ele>109.4</ele></trkpt>
    <trkpt lat="48.75798" lon="2.76339"><ele>109.5</ele></trkpt>
    <trkpt lat="48.76062" lon="2.76255"><ele>110.3</ele></trkpt>
    <trkpt lat="48.76097" lon="2.7625"><ele>110.3</ele></trkpt>
    <trkpt lat="48.76416" lon="2.7634"><ele>109.7</ele></trkpt>
    <trkpt lat="48.76487" lon="2.76333"><ele>109.1</ele></trkpt>
    <trkpt lat="48.76612" lon="2.76358"><ele>108.7</ele></trkpt>
    <trkpt lat="48.76787" lon="2.76417"><ele>108.9</ele></trkpt>
    <trkpt lat="48.76796" lon="2.76431"><ele>108.9</ele></trkpt>
    <trkpt lat="48.76751" lon="2.76549"><ele>108.5</ele></trkpt>
    <trkpt lat="48.76738" lon="2.766"><ele>108.4</ele></trkpt>
    <trkpt lat="48.76726" lon="2.76926"><ele>107.7</ele></trkpt>
    <trkpt lat="48.76717" lon="2.76949"><ele>107.6</ele></trkpt>
    <trkpt lat="48.76675" lon="2.77"><ele>107.3</ele></trkpt>
    <trkpt lat="48.76513" lon="2.77173"><ele>106.3</ele></trkpt>
    <trkpt lat="48.76504" lon="2.77193"><ele>106.2</ele></trkpt>
    <trkpt lat="48.76753" lon="2.77251"><ele>106.1</ele></trkpt>
    <trkpt lat="48.76915" lon="2.77263"><ele>107.5</ele></trkpt>
    <trkpt lat="48.77041" lon="2.7726"><ele>108.7</ele></trkpt>
    <trkpt lat="48.77182" lon="2.7724"><ele>109.8</ele></trkpt>
    <trkpt lat="48.77195" lon="2.77511"><ele>110.7</ele></trkpt>
    <trkpt lat="48.77386" lon="2.77715"><ele>111.4</ele></trkpt>
    <trkpt lat="48.77509" lon="2.77828"><ele>111.6</ele></trkpt>
    <trkpt lat="48.77561" lon="2.77848"><ele>111.7</ele></trkpt>
    <trkpt lat="48.77687" lon="2.77855"><ele>112.5</ele></trkpt>
    <trkpt lat="48.7774" lon="2.77843"><ele>113.0</ele></trkpt>
    <trkpt lat="48.77774" lon="2.77825"><ele>113.4</ele></trkpt>
    <trkpt lat="48.77834" lon="2.77766"><ele>114.1</ele></trkpt>
    <trkpt lat="48.7798" lon="2.77659"><ele>115.0</ele></trkpt>
    <trkpt lat="48.78364" lon="2.77359"><ele>118.5</ele></trkpt>
    <trkpt lat="48.78392" lon="2.77326"><ele>118.9</ele></trkpt>
    <trkpt lat="48.7846" lon="2.77198"><ele>119.8</ele></trkpt>
    <trkpt lat="48.78471" lon="2.77192"><ele>120.0</ele></trkpt>
    <trkpt lat="48.7949" lon="2.79066"><ele>114.7</ele></trkpt>
    <trkpt lat="48.7964" lon="2.79339"><ele>115.6</ele></trkpt>
    <trkpt lat="48.79652" lon="2.79359"><ele>115.8</ele></trkpt>
    <trkpt lat="48.79665" lon="2.79359"><ele>116.0</ele></trkpt>
    <trkpt lat="48.79995" lon="2.78819"><ele>121.2</ele></trkpt>
    <trkpt lat="48.80219" lon="2.78502"><ele>124.4</ele></trkpt>
    <trkpt lat="48.80223" lon="2.7848"><ele>124.5</ele></trkpt>
    <trkpt lat="48.80196" lon="2.7841"><ele>124.4</ele></trkpt>
    <trkpt lat="48.80226" lon="2.78383"><ele>124.0</ele></trkpt>
    <trkpt lat="48.80475" lon="2.78227"><ele>120.2</ele></trkpt>
    <trkpt lat="48.80478" lon="2.78201"><ele>119.9</ele></trkpt>
    <trkpt lat="48.8047" lon="2.78148"><ele>119.6</ele></trkpt>
    <trkpt lat="48.80473" lon="2.78122"><ele>119.5</ele></trkpt>
    <trkpt lat="48.80573" lon="2.78059"><ele>119.7</ele></trkpt>
    <trkpt lat="48.80585" lon="2.7804"><ele>119.8</ele></trkpt>
    <trkpt lat="48.80579" lon="2.77932"><ele>120.0</ele></trkpt>
    <trkpt lat="48.80589" lon="2.7791"><ele>120.1</ele></trkpt>
    <trkpt lat="48.80833" lon="2.77736"><ele>121.7</ele></trkpt>
    <trkpt lat="48.81233" lon="2.77492"><ele>134.7</ele></trkpt>
    <trkpt lat="48.81244" lon="2.77474"><ele>134.2</ele></trkpt>
    <trkpt lat="48.81215" lon="2.76218"><ele>128.7</ele></trkpt>
    <trkpt lat="48.81201" lon="2.75099"><ele>123.1</ele></trkpt>
    <trkpt lat="48.81212" lon="2.75083"><ele>123.1</ele></trkpt>
    <trkpt lat="48.8183" lon="2.74901"><ele>124.5</ele></trkpt>
    <trkpt lat="48.81918" lon="2.74871"><ele>124.4</ele></trkpt>
    <trkpt lat="48.81925" lon="2.74856"><ele>125.1</ele></trkpt>
    <trkpt lat="48.81902" lon="2.74782"><ele>127.2</ele></trkpt>
    <trkpt lat="48.81829" lon="2.74445"><ele>130.7</ele></trkpt>
    <trkpt lat="48.81721" lon="2.73981"><ele>130.7</ele></trkpt>
    <trkpt lat="48.81662" lon="2.73695"><ele>128.6</ele></trkpt>
    <trkpt lat="48.81642" lon="2.73619"><ele>128.0</ele></trkpt>
    <trkpt lat="48.81622" lon="2.73573"><ele>127.6</ele></trkpt>
    <trkpt lat="48.81607" lon="2.73557"><ele>127.5</ele></trkpt>
    <trkpt lat="48.81558" lon="2.73525"><ele>126.9</ele></trkpt>
    <trkpt lat="48.81527" lon="2.73496"><ele>126.5</ele></trkpt>
    <trkpt lat="48.81505" lon="2.73422"><ele>125.9</ele></trkpt>
    <trkpt lat="48.8145" lon="2.73351"><ele>125.1</ele></trkpt>
    <trkpt lat="48.8143" lon="2.73306"><ele>125.7</ele></trkpt>
    <trkpt lat="48.81423" lon="2.73198"><ele>126.6</ele></trkpt>
    <trkpt lat="48.8141" lon="2.73118"><ele>125.9</ele></trkpt>
    <trkpt lat="48.8139" lon="2.73042"><ele>125.1</ele></trkpt>
    <trkpt lat="48.8139" lon="2.72988"><ele>124.4</ele></trkpt>
    <trkpt lat="48.81401" lon="2.72936"><ele>123.7</ele></trkpt>
    <trkpt lat="48.81389" lon="2.72528"><ele>120.4</ele></trkpt>
    <trkpt lat="48.814" lon="2.72507"><ele>120.0</ele></trkpt>
    <trkpt lat="48.81648" lon="2.72285"><ele>118.8</ele></trkpt>
    <trkpt lat="48.8169" lon="2.72235"><ele>119.0</ele></trkpt>
    <trkpt lat="48.8244" lon="2.707"><ele>118.1</ele></trkpt>
    <trkpt lat="48.82461" lon="2.70668"><ele>117.7</ele></trkpt>
    <trkpt lat="48.82433" lon="2.70643"><ele>117.2</ele></trkpt>
    <trkpt lat="48.82349" lon="2.7054"><ele>115.1</ele></trkpt>
    <trkpt lat="48.82271" lon="2.70427"><ele>111.6</ele></trkpt>
    <trkpt lat="48.8221" lon="2.70369"><ele>109.4</ele></trkpt>
    <trkpt lat="48.82193" lon="2.70372"><ele>108.9</ele></trkpt>
    <trkpt lat="48.82168" lon="2.70411"><ele>108.3</ele></trkpt>
    <trkpt lat="48.82076" lon="2.70614"><ele>108.1</ele></trkpt>
    <trkpt lat="48.8206" lon="2.70626"><ele>108.2</ele></trkpt>
    <trkpt lat="48.82042" lon="2.70631"><ele>108.2</ele></trkpt>
    <trkpt lat="48.81931" lon="2.70542"><ele>110.3</ele></trkpt>
    <trkpt lat="48.81565" lon="2.70194"><ele>117.1</ele></trkpt>
    <trkpt lat="48.8156" lon="2.70168"><ele>117.3</ele></trkpt>
    <trkpt lat="48.81555" lon="2.69103"><ele>115.9</ele></trkpt>
    <trkpt lat="48.81524" lon="2.69037"><ele>116.1</ele></trkpt>
    <trkpt lat="48.81343" lon="2.68699"><ele>116.5</ele></trkpt>
    <trkpt lat="48.81349" lon="2.68675"><ele>116.8</ele></trkpt>
    <trkpt lat="48.81743" lon="2.68077"><ele>115.6</ele></trkpt>
    <trkpt lat="48.81746" lon="2.68052"><ele>115.6</ele></trkpt>
    <trkpt lat="48.81607" lon="2.66924"><ele>111.7</ele></trkpt>
    <trkpt lat="48.81607" lon="2.66897"><ele>111.5</ele></trkpt>
    <trkpt lat="48.81615" lon="2.66873"><ele>111.3</ele></trkpt>
    <trkpt lat="48.81647" lon="2.66808"><ele>110.9</ele></trkpt>
    <trkpt lat="48.81663" lon="2.66797"><ele>110.8</ele></trkpt>
    <trkpt lat="48.81734" lon="2.66777"><ele>110.6</ele></trkpt>
    <trkpt lat="48.81736" lon="2.66757"><ele>110.6</ele></trkpt>
    <trkpt lat="48.8133" lon="2.65509"><ele>113.0</ele></trkpt>
    <trkpt lat="48.81162" lon="2.64964"><ele>110.5</ele></trkpt>
    <trkpt lat="48.81072" lon="2.64728"><ele>109.5</ele></trkpt>
    <trkpt lat="48.80792" lon="2.6406"><ele>110.6</ele></trkpt>
    <trkpt lat="48.80777" lon="2.64047"><ele>110.6</ele></trkpt>
    <trkpt lat="48.8062" lon="2.63988"><ele>109.0</ele></trkpt>
    <trkpt lat="48.80618" lon="2.6397"><ele>108.4</ele></trkpt>
    <trkpt lat="48.80647" lon="2.63937"><ele>107.9</ele></trkpt>
    <trkpt lat="48.80657" lon="2.63915"><ele>107.9</ele></trkpt>
    <trkpt lat="48.80659" lon="2.63888"><ele>108.0</ele></trkpt>
    <trkpt lat="48.80646" lon="2.63781"><ele>108.4</ele></trkpt>
    <trkpt lat="48.80619" lon="2.63622"><ele>108.8</ele></trkpt>
    <trkpt lat="48.80594" lon="2.6355"><ele>109.0</ele></trkpt>
    <trkpt lat="48.80486" lon="2.63332"><ele>108.8</ele></trkpt>
    <trkpt lat="48.80439" lon="2.63186"><ele>108.8</ele></trkpt>
    <trkpt lat="48.80437" lon="2.63104"><ele>108.9</ele></trkpt>
    <trkpt lat="48.80427" lon="2.63025"><ele>109.1</ele></trkpt>
    <trkpt lat="48.80406" lon="2.62952"><ele>109.4</ele></trkpt>
    <trkpt lat="48.80408" lon="2.62871"><ele>109.8</ele></trkpt>
    <trkpt lat="48.804" lon="2.62822"><ele>110.4</ele></trkpt>
    <trkpt lat="48.80431" lon="2.62723"><ele>110.5</ele></trkpt>
    <trkpt lat="48.80431" lon="2.62669"><ele>110.2</ele></trkpt>
    <trkpt lat="48.80413" lon="2.62622"><ele>110.0</ele></trkpt>
    <trkpt lat="48.80403" lon="2.6257"><ele>109.9</ele></trkpt>
    <trkpt lat="48.80403" lon="2.62543"><ele>109.8</ele></trkpt>
    <trkpt lat="48.80475" lon="2.62323"><ele>109.5</ele></trkpt>
    <trkpt lat="48.80507" lon="2.62259"><ele>109.7</ele></trkpt>
    <trkpt lat="48.80506" lon="2.62233"><ele>109.8</ele></trkpt>
    <trkpt lat="48.80545" lon="2.6211"><ele>109.6</ele></trkpt>
    <trkpt lat="48.80542" lon="2.62088"><ele>109.5</ele></trkpt>
    <trkpt lat="48.80526" lon="2.62075"><ele>109.5</ele></trkpt>
    <trkpt lat="48.80522" lon="2.62055"><ele>109.4</ele></trkpt>
    <trkpt lat="48.80586" lon="2.6186"><ele>109.4</ele></trkpt>
    <trkpt lat="48.80581" lon="2.61808"><ele>109.3</ele></trkpt>
    <trkpt lat="48.80584" lon="2.61781"><ele>109.3</ele></trkpt>
    <trkpt lat="48.80619" lon="2.61686"><ele>109.1</ele></trkpt>
    <trkpt lat="48.80616" lon="2.61659"><ele>109.1</ele></trkpt>
    <trkpt lat="48.80605" lon="2.61637"><ele>109.1</ele></trkpt>
    <trkpt lat="48.80364" lon="2.61196"><ele>109.4</ele></trkpt>
    <trkpt lat="48.8031" lon="2.61086"><ele>109.7</ele></trkpt>
    <trkpt lat="48.80313" lon="2.6106"><ele>109.7</ele></trkpt>
    <trkpt lat="48.8031" lon="2.61005"><ele>109.7</ele></trkpt>
    <trkpt lat="48.80292" lon="2.60928"><ele>109.6</ele></trkpt>
    <trkpt lat="48.80225" lon="2.60767"><ele>108.9</ele></trkpt>
    <trkpt lat="48.80212" lon="2.60717"><ele>108.7</ele></trkpt>
    <trkpt lat="48.80207" lon="2.6058"><ele>107.9</ele></trkpt>
    <trkpt lat="48.80211" lon="2.60527"><ele>107.3</ele></trkpt>
    <trkpt lat="48.80201" lon="2.6042"><ele>106.2</ele></trkpt>
    <trkpt lat="48.80217" lon="2.60373"><ele>105.8</ele></trkpt>
    <trkpt lat="48.80245" lon="2.60338"><ele>105.5</ele></trkpt>
    <trkpt lat="48.8033" lon="2.60299"><ele>104.8</ele></trkpt>
    <trkpt lat="48.80359" lon="2.60267"><ele>104.6</ele></trkpt>
    <trkpt lat="48.80417" lon="2.60163"><ele>104.1</ele></trkpt>
    <trkpt lat="48.80426" lon="2.6014"><ele>104.0</ele></trkpt>
    <trkpt lat="48.80427" lon="2.60113"><ele>104.0</ele></trkpt>
    <trkpt lat="48.80437" lon="2.60091"><ele>104.0</ele></trkpt>
    <trkpt lat="48.80498" lon="2.59992"><ele>104.2</ele></trkpt>
    <trkpt lat="48.80507" lon="2.59968"><ele>104.3</ele></trkpt>
    <trkpt lat="48.80509" lon="2.59943"><ele>104.5</ele></trkpt>
    <trkpt lat="48.80537" lon="2.59911"><ele>104.9</ele></trkpt>
    <trkpt lat="48.80552" lon="2.59833"><ele>105.4</ele></trkpt>
    <trkpt lat="48.80568" lon="2.59671"><ele>105.9</ele></trkpt>
    <trkpt lat="48.80567" lon="2.59646"><ele>106.0</ele></trkpt>
    <trkpt lat="48.80115" lon="2.59375"><ele>104.3</ele></trkpt>
    <trkpt lat="48.80105" lon="2.59353"><ele>104.2</ele></trkpt>
    <trkpt lat="48.79947" lon="2.58833"><ele>104.8</ele></trkpt>
    <trkpt lat="48.79961" lon="2.58817"><ele>105.0</ele></trkpt>
    <trkpt lat="48.80312" lon="2.58607"><ele>108.6</ele></trkpt>
    <trkpt lat="48.80324" lon="2.58592"><ele>108.7</ele></trkpt>
    <trkpt lat="48.8032" lon="2.58566"><ele>108.8</ele></trkpt>
    <trkpt lat="48.80291" lon="2.58466"><ele>109.4</ele></trkpt>
    <trkpt lat="48.80275" lon="2.58459"><ele>109.6</ele></trkpt>
    <trkpt lat="48.80176" lon="2.58521"><ele>110.4</ele></trkpt>
    <trkpt lat="48.80105" lon="2.58514"><ele>111.1</ele></trkpt>
    <trkpt lat="48.80051" lon="2.5852"><ele>111.2</ele></trkpt>
    <trkpt lat="48.80033" lon="2.58523"><ele>111.2</ele></trkpt>
    <trkpt lat="48.79983" lon="2.58553"><ele>111.2</ele></trkpt>
    <trkpt lat="48.79859" lon="2.58581"><ele>110.6</ele></trkpt>
    <trkpt lat="48.79823" lon="2.58584"><ele>110.4</ele></trkpt>
    <trkpt lat="48.79769" lon="2.58575"><ele>109.9</ele></trkpt>
    <trkpt lat="48.79734" lon="2.58581"><ele>109.3</ele></trkpt>
    <trkpt lat="48.79701" lon="2.58601"><ele>108.6</ele></trkpt>
    <trkpt lat="48.79645" lon="2.5867"><ele>106.6</ele></trkpt>
    <trkpt lat="48.79633" lon="2.58655"><ele>106.0</ele></trkpt>
    <trkpt lat="48.79602" lon="2.58557"><ele>103.3</ele></trkpt>
    <trkpt lat="48.79584" lon="2.58563"><ele>102.8</ele></trkpt>
    <trkpt lat="48.79388" lon="2.58694"><ele>100.6</ele></trkpt>
    <trkpt lat="48.79373" lon="2.58682"><ele>100.4</ele></trkpt>
    <trkpt lat="48.79358" lon="2.58634"><ele>100.1</ele></trkpt>
    <trkpt lat="48.79345" lon="2.58621"><ele>100.0</ele></trkpt>
    <trkpt lat="48.79341" lon="2.58567"><ele>100.0</ele></trkpt>
    <trkpt lat="48.79408" lon="2.58227"><ele>100.7</ele></trkpt>
    <trkpt lat="48.79405" lon="2.58206"><ele>100.8</ele></trkpt>
    <trkpt lat="48.79389" lon="2.58194"><ele>100.9</ele></trkpt>
    <trkpt lat="48.79382" lon="2.58172"><ele>100.9</ele></trkpt>
    <trkpt lat="48.79393" lon="2.579"><ele>101.5</ele></trkpt>
    <trkpt lat="48.79377" lon="2.5771"><ele>101.4</ele></trkpt>
    <trkpt lat="48.79352" lon="2.57608"><ele>101.4</ele></trkpt>
    <trkpt lat="48.79322" lon="2.57601"><ele>101.6</ele></trkpt>
    <trkpt lat="48.79303" lon="2.57557"><ele>101.6</ele></trkpt>
    <trkpt lat="48.79243" lon="2.57497"><ele>101.4</ele></trkpt>
    <trkpt lat="48.79232" lon="2.57478"><ele>101.2</ele></trkpt>
    <trkpt lat="48.79231" lon="2.57397"><ele>100.3</ele></trkpt>
    <trkpt lat="48.79199" lon="2.5724"><ele>98.8</ele></trkpt>
    <trkpt lat="48.79077" lon="2.56876"><ele>95.0</ele></trkpt>
    <trkpt lat="48.79065" lon="2.56824"><ele>94.3</ele></trkpt>
    <trkpt lat="48.7907" lon="2.56801"><ele>93.9</ele></trkpt>
    <trkpt lat="48.79081" lon="2.56779"><ele>93.6</ele></trkpt>
    <trkpt lat="48.79096" lon="2.56774"><ele>93.3</ele></trkpt>
    <trkpt lat="48.79163" lon="2.56812"><ele>93.0</ele></trkpt>
    <trkpt lat="48.79181" lon="2.56812"><ele>92.9</ele></trkpt>
    <trkpt lat="48.79186" lon="2.56787"><ele>92.8</ele></trkpt>
    <trkpt lat="48.79199" lon="2.5677"><ele>92.9</ele></trkpt>
    <trkpt lat="48.79235" lon="2.56772"><ele>93.0</ele></trkpt>
    <trkpt lat="48.79268" lon="2.56754"><ele>93.6</ele></trkpt>
    <trkpt lat="48.79421" lon="2.56611"><ele>96.5</ele></trkpt>
    <trkpt lat="48.79465" lon="2.56564"><ele>97.3</ele></trkpt>
    <trkpt lat="48.79575" lon="2.56471"><ele>100.5</ele></trkpt>
    <trkpt lat="48.79596" lon="2.56429"><ele>100.5</ele></trkpt>
    <trkpt lat="48.79596" lon="2.56404"><ele>100.4</ele></trkpt>
    <trkpt lat="48.79508" lon="2.56197"><ele>99.6</ele></trkpt>
    <trkpt lat="48.79498" lon="2.56146"><ele>99.4</ele></trkpt>
    <trkpt lat="48.79471" lon="2.56113"><ele>99.4</ele></trkpt>
    <trkpt lat="48.7939" lon="2.55932"><ele>99.0</ele></trkpt>
    <trkpt lat="48.79394" lon="2.55905"><ele>98.9</ele></trkpt>
    <trkpt lat="48.79388" lon="2.55882"><ele>98.7</ele></trkpt>
    <trkpt lat="48.79357" lon="2.55858"><ele>98.5</ele></trkpt>
    <trkpt lat="48.79324" lon="2.55793"><ele>98.3</ele></trkpt>
    <trkpt lat="48.79208" lon="2.55519"><ele>97.8</ele></trkpt>
    <trkpt lat="48.79185" lon="2.55478"><ele>97.6</ele></trkpt>
    <trkpt lat="48.79133" lon="2.55335"><ele>97.4</ele></trkpt>
    <trkpt lat="48.79062" lon="2.55178"><ele>98.1</ele></trkpt>
    <trkpt lat="48.79059" lon="2.55152"><ele>98.4</ele></trkpt>
    <trkpt lat="48.79074" lon="2.54825"><ele>101.9</ele></trkpt>
    <trkpt lat="48.79139" lon="2.5463"><ele>102.2</ele></trkpt>
    <trkpt lat="48.79153" lon="2.54552"><ele>102.3</ele></trkpt>
    <trkpt lat="48.79225" lon="2.54332"><ele>102.4</ele></trkpt>
    <trkpt lat="48.79266" lon="2.54151"><ele>102.4</ele></trkpt>
    <trkpt lat="48.7929" lon="2.53992"><ele>102.4</ele></trkpt>
    <trkpt lat="48.79339" lon="2.53786"><ele>102.4</ele></trkpt>
    <trkpt lat="48.79383" lon="2.53637"><ele>102.3</ele></trkpt>
    <trkpt lat="48.79427" lon="2.53517"><ele>102.3</ele></trkpt>
    <trkpt lat="48.7944" lon="2.53498"><ele>102.3</ele></trkpt>
    <trkpt lat="48.79529" lon="2.53506"><ele>102.3</ele></trkpt>
    <trkpt lat="48.79528" lon="2.53481"><ele>102.4</ele></trkpt>
    <trkpt lat="48.79489" lon="2.53358"><ele>103.2</ele></trkpt>
    <trkpt lat="48.79476" lon="2.53345"><ele>103.4</ele></trkpt>
    <trkpt lat="48.79281" lon="2.5329"><ele>105.4</ele></trkpt>
    <trkpt lat="48.79255" lon="2.53321"><ele>105.5</ele></trkpt>
    <trkpt lat="48.79221" lon="2.53334"><ele>105.7</ele></trkpt>
    <trkpt lat="48.79206" lon="2.53348"><ele>105.7</ele></trkpt>
    <trkpt lat="48.79181" lon="2.53506"><ele>106.0</ele></trkpt>
    <trkpt lat="48.79168" lon="2.53524"><ele>105.9</ele></trkpt>
    <trkpt lat="48.78941" lon="2.53745"><ele>104.7</ele></trkpt>
    <trkpt lat="48.78925" lon="2.53738"><ele>104.5</ele></trkpt>
    <trkpt lat="48.78903" lon="2.53695"><ele>104.2</ele></trkpt>
    <trkpt lat="48.78888" lon="2.53698"><ele>104.0</ele></trkpt>
    <trkpt lat="48.78692" lon="2.53891"><ele>101.1</ele></trkpt>
    <trkpt lat="48.78694" lon="2.5391"><ele>100.9</ele></trkpt>
    <trkpt lat="48.78719" lon="2.53948"><ele>100.5</ele></trkpt>
    <trkpt lat="48.78705" lon="2.54017"><ele>99.7</ele></trkpt>
    <trkpt lat="48.78757" lon="2.5422"><ele>98.8</ele></trkpt>
    <trkpt lat="48.78747" lon="2.54235"><ele>98.6</ele></trkpt>
    <trkpt lat="48.78681" lon="2.54279"><ele>97.7</ele></trkpt>
    <trkpt lat="48.78726" lon="2.54393"><ele>97.9</ele></trkpt>
    <trkpt lat="48.78682" lon="2.54432"><ele>98.0</ele></trkpt>
  </trkseg></trk>
</gpx>
