<?xml version="1.0" encoding="UTF-8"?>
<gpx version="1.1" creator="USO Cyclisme" xmlns="http://www.topografix.com/GPX/1/1">
  <metadata><name>Gouvernes – 70 km</name><desc>Gravel, 69.9 km, D+ 316 m. Départ et arrivée : centre culturel d'Ormesson-sur-Marne.</desc></metadata>
  <trk><name>Gouvernes – 70 km (gravel)</name><trkseg>
    <trkpt lat="48.78667" lon="2.54444"><ele>97.1</ele></trkpt>
    <trkpt lat="48.78737" lon="2.5442"><ele>99.2</ele></trkpt>
    <trkpt lat="48.79158" lon="2.55405"><ele>97.4</ele></trkpt>
    <trkpt lat="48.79174" lon="2.55453"><ele>97.6</ele></trkpt>
    <trkpt lat="48.79182" lon="2.55506"><ele>98.0</ele></trkpt>
    <trkpt lat="48.79178" lon="2.55533"><ele>98.1</ele></trkpt>
    <trkpt lat="48.79183" lon="2.55557"><ele>98.2</ele></trkpt>
    <trkpt lat="48.79218" lon="2.55572"><ele>98.3</ele></trkpt>
    <trkpt lat="48.79243" lon="2.55609"><ele>98.2</ele></trkpt>
    <trkpt lat="48.79355" lon="2.55856"><ele>98.4</ele></trkpt>
    <trkpt lat="48.79362" lon="2.55879"><ele>98.5</ele></trkpt>
    <trkpt lat="48.79361" lon="2.55906"><ele>98.6</ele></trkpt>
    <trkpt lat="48.794" lon="2.55954"><ele>99.2</ele></trkpt>
    <trkpt lat="48.79471" lon="2.56112"><ele>99.4</ele></trkpt>
    <trkpt lat="48.7948" lon="2.56163"><ele>99.5</ele></trkpt>
    <trkpt lat="48.79494" lon="2.56179"><ele>99.6</ele></trkpt>
    <trkpt lat="48.79504" lon="2.56201"><ele>99.7</ele></trkpt>
    <trkpt lat="48.79593" lon="2.56408"><ele>100.4</ele></trkpt>
    <trkpt lat="48.79608" lon="2.56456"><ele>100.8</ele></trkpt>
    <trkpt lat="48.79645" lon="2.56516"><ele>101.3</ele></trkpt>
    <trkpt lat="48.80022" lon="2.57024"><ele>102.1</ele></trkpt>
    <trkpt lat="48.80043" lon="2.57068"><ele>102.4</ele></trkpt>
    <trkpt lat="48.80063" lon="2.57144"><ele>102.9</ele></trkpt>
    <trkpt lat="48.80099" lon="2.57467"><ele>104.8</ele></trkpt>
    <trkpt lat="48.80115" lon="2.57514"><ele>105.0</ele></trkpt>
    <trkpt lat="48.80111" lon="2.57537"><ele>105.1</ele></trkpt>
    <trkpt lat="48.8012" lon="2.57558"><ele>105.0</ele></trkpt>
    <trkpt lat="48.80109" lon="2.57576"><ele>105.0</ele></trkpt>
    <trkpt lat="48.79967" lon="2.57694"><ele>105.3</ele></trkpt>
    <trkpt lat="48.79963" lon="2.57717"><ele>105.4</ele></trkpt>
    <trkpt lat="48.80064" lon="2.58037"><ele>106.7</ele></trkpt>
    <trkpt lat="48.80057" lon="2.5806"><ele>106.7</ele></trkpt>
    <trkpt lat="48.79927" lon="2.58153"><ele>106.8</ele></trkpt>
    <trkpt lat="48.79923" lon="2.58174"><ele>106.7</ele></trkpt>
    <trkpt lat="48.7993" lon="2.58199"><ele>106.7</ele></trkpt>
    <trkpt lat="48.79929" lon="2.58222"><ele>106.6</ele></trkpt>
    <trkpt lat="48.79833" lon="2.58296"><ele>106.0</ele></trkpt>
    <trkpt lat="48.79828" lon="2.58316"><ele>105.9</ele></trkpt>
    <trkpt lat="48.79842" lon="2.58366"><ele>105.6</ele></trkpt>
    <trkpt lat="48.79836" lon="2.58386"><ele>105.4</ele></trkpt>
    <trkpt lat="48.79328" lon="2.58737"><ele>100.0</ele></trkpt>
    <trkpt lat="48.79321" lon="2.58815"><ele>100.2</ele></trkpt>
    <trkpt lat="48.79324" lon="2.58842"><ele>100.3</ele></trkpt>
    <trkpt lat="48.79743" lon="2.59155"><ele>101.9</ele></trkpt>
    <trkpt lat="48.79955" lon="2.59218"><ele>103.1</ele></trkpt>
    <trkpt lat="48.79997" lon="2.59306"><ele>103.7</ele></trkpt>
    <trkpt lat="48.80014" lon="2.59317"><ele>103.8</ele></trkpt>
    <trkpt lat="48.80148" lon="2.59393"><ele>104.5</ele></trkpt>
    <trkpt lat="48.80583" lon="2.59656"><ele>106.2</ele></trkpt>
    <trkpt lat="48.80655" lon="2.59467"><ele>107.2</ele></trkpt>
    <trkpt lat="48.80684" lon="2.5931"><ele>108.0</ele></trkpt>
    <trkpt lat="48.8072" lon="2.59185"><ele>108.4</ele></trkpt>
    <trkpt lat="48.80734" lon="2.59201"><ele>108.4</ele></trkpt>
    <trkpt lat="48.80772" lon="2.59292"><ele>108.6</ele></trkpt>
    <trkpt lat="48.80846" lon="2.59412"><ele>108.9</ele></trkpt>
    <trkpt lat="48.80911" lon="2.59506"><ele>109.2</ele></trkpt>
    <trkpt lat="48.80967" lon="2.59575"><ele>109.5</ele></trkpt>
    <trkpt lat="48.80999" lon="2.59597"><ele>109.7</ele></trkpt>
    <trkpt lat="48.81104" lon="2.5963"><ele>110.2</ele></trkpt>
    <trkpt lat="48.81247" lon="2.59606"><ele>110.9</ele></trkpt>
    <trkpt lat="48.8137" lon="2.59565"><ele>111.0</ele></trkpt>
    <trkpt lat="48.81422" lon="2.59581"><ele>110.8</ele></trkpt>
    <trkpt lat="48.8144" lon="2.59578"><ele>110.7</ele></trkpt>
    <trkpt lat="48.81668" lon="2.59505"><ele>111.6</ele></trkpt>
    <trkpt lat="48.81704" lon="2.59498"><ele>111.7</ele></trkpt>
    <trkpt lat="48.81757" lon="2.59507"><ele>111.9</ele></trkpt>
    <trkpt lat="48.81772" lon="2.59517"><ele>112.1</ele></trkpt>
    <trkpt lat="48.8179" lon="2.59564"><ele>112.4</ele></trkpt>
    <trkpt lat="48.81803" lon="2.59582"><ele>112.5</ele></trkpt>
    <trkpt lat="48.8185" lon="2.59544"><ele>112.6</ele></trkpt>
    <trkpt lat="48.81952" lon="2.59491"><ele>111.4</ele></trkpt>
    <trkpt lat="48.82023" lon="2.59483"><ele>109.8</ele></trkpt>
    <trkpt lat="48.82131" lon="2.59491"><ele>107.3</ele></trkpt>
    <trkpt lat="48.82183" lon="2.59472"><ele>105.8</ele></trkpt>
    <trkpt lat="48.822" lon="2.59463"><ele>105.2</ele></trkpt>
    <trkpt lat="48.82302" lon="2.5935"><ele>102.4</ele></trkpt>
    <trkpt lat="48.82333" lon="2.59324"><ele>102.2</ele></trkpt>
    <trkpt lat="48.82384" lon="2.59298"><ele>101.7</ele></trkpt>
    <trkpt lat="48.82438" lon="2.59291"><ele>100.7</ele></trkpt>
    <trkpt lat="48.8249" lon="2.59311"><ele>99.5</ele></trkpt>
    <trkpt lat="48.82616" lon="2.59415"><ele>95.6</ele></trkpt>
    <trkpt lat="48.82631" lon="2.59429"><ele>95.6</ele></trkpt>
    <trkpt lat="48.82697" lon="2.59523"><ele>97.4</ele></trkpt>
    <trkpt lat="48.82706" lon="2.59546"><ele>97.7</ele></trkpt>
    <trkpt lat="48.82684" lon="2.5965"><ele>98.8</ele></trkpt>
    <trkpt lat="48.82684" lon="2.59704"><ele>99.6</ele></trkpt>
    <trkpt lat="48.82691" lon="2.5973"><ele>100.0</ele></trkpt>
    <trkpt lat="48.82702" lon="2.59751"><ele>100.4</ele></trkpt>
    <trkpt lat="48.82753" lon="2.59827"><ele>101.2</ele></trkpt>
    <trkpt lat="48.82986" lon="2.59866"><ele>100.3</ele></trkpt>
    <trkpt lat="48.83597" lon="2.59843"><ele>93.4</ele></trkpt>
    <trkpt lat="48.8365" lon="2.59853"><ele>92.4</ele></trkpt>
    <trkpt lat="48.8372" lon="2.59881"><ele>90.2</ele></trkpt>
    <trkpt lat="48.83734" lon="2.59872"><ele>89.5</ele></trkpt>
    <trkpt lat="48.83859" lon="2.59573"><ele>85.5</ele></trkpt>
    <trkpt lat="48.83871" lon="2.5957"><ele>85.4</ele></trkpt>
    <trkpt lat="48.83931" lon="2.59671"><ele>83.6</ele></trkpt>
    <trkpt lat="48.83983" lon="2.59747"><ele>82.8</ele></trkpt>
    <trkpt lat="48.84087" lon="2.59853"><ele>81.4</ele></trkpt>
    <trkpt lat="48.84102" lon="2.59847"><ele>81.3</ele></trkpt>
    <trkpt lat="48.8413" lon="2.59813"><ele>81.3</ele></trkpt>
    <trkpt lat="48.84147" lon="2.59806"><ele>81.2</ele></trkpt>
    <trkpt lat="48.842" lon="2.59795"><ele>80.9</ele></trkpt>
    <trkpt lat="48.84236" lon="2.598"><ele>80.2</ele></trkpt>
    <trkpt lat="48.8424" lon="2.59823"><ele>79.6</ele></trkpt>
    <trkpt lat="48.84236" lon="2.59877"><ele>78.2</ele></trkpt>
    <trkpt lat="48.84239" lon="2.59904"><ele>77.6</ele></trkpt>
    <trkpt lat="48.84255" lon="2.59912"><ele>77.0</ele></trkpt>
    <trkpt lat="48.84522" lon="2.59851"><ele>72.5</ele></trkpt>
    <trkpt lat="48.84647" lon="2.59832"><ele>70.5</ele></trkpt>
    <trkpt lat="48.84683" lon="2.59835"><ele>69.6</ele></trkpt>
    <trkpt lat="48.84746" lon="2.59888"><ele>69.1</ele></trkpt>
    <trkpt lat="48.8478" lon="2.59983"><ele>73.1</ele></trkpt>
    <trkpt lat="48.84786" lon="2.60116"><ele>77.8</ele></trkpt>
    <trkpt lat="48.84821" lon="2.6012"><ele>78.7</ele></trkpt>
    <trkpt lat="48.8483" lon="2.6014"><ele>79.1</ele></trkpt>
    <trkpt lat="48.84871" lon="2.60406"><ele>87.9</ele></trkpt>
    <trkpt lat="48.84885" lon="2.60455"><ele>88.9</ele></trkpt>
    <trkpt lat="48.84902" lon="2.60459"><ele>89.0</ele></trkpt>
    <trkpt lat="48.85153" lon="2.60445"><ele>81.3</ele></trkpt>
    <trkpt lat="48.85171" lon="2.60448"><ele>80.5</ele></trkpt>
    <trkpt lat="48.85237" lon="2.60491"><ele>78.2</ele></trkpt>
    <trkpt lat="48.8526" lon="2.61146"><ele>80.7</ele></trkpt>
    <trkpt lat="48.85273" lon="2.61162"><ele>80.2</ele></trkpt>
    <trkpt lat="48.85361" lon="2.61189"><ele>75.8</ele></trkpt>
    <trkpt lat="48.85397" lon="2.61183"><ele>74.0</ele></trkpt>
    <trkpt lat="48.85501" lon="2.61145"><ele>68.8</ele></trkpt>
    <trkpt lat="48.85519" lon="2.61145"><ele>67.6</ele></trkpt>
    <trkpt lat="48.85589" lon="2.6117"><ele>63.3</ele></trkpt>
    <trkpt lat="48.85642" lon="2.61159"><ele>60.0</ele></trkpt>
    <trkpt lat="48.85714" lon="2.6116"><ele>53.8</ele></trkpt>
    <trkpt lat="48.85764" lon="2.61133"><ele>48.3</ele></trkpt>
    <trkpt lat="48.85808" lon="2.61086"><ele>44.1</ele></trkpt>
    <trkpt lat="48.85816" lon="2.6109"><ele>43.4</ele></trkpt>
    <trkpt lat="48.85776" lon="2.61328"><ele>42.5</ele></trkpt>
    <trkpt lat="48.85776" lon="2.61355"><ele>42.3</ele></trkpt>
    <trkpt lat="48.85781" lon="2.61381"><ele>42.0</ele></trkpt>
    <trkpt lat="48.85799" lon="2.61428"><ele>41.2</ele></trkpt>
    <trkpt lat="48.85828" lon="2.61459"><ele>40.7</ele></trkpt>
    <trkpt lat="48.85862" lon="2.61477"><ele>40.5</ele></trkpt>
    <trkpt lat="48.85877" lon="2.61473"><ele>40.3</ele></trkpt>
    <trkpt lat="48.85889" lon="2.61452"><ele>40.3</ele></trkpt>
    <trkpt lat="48.85901" lon="2.61455"><ele>40.2</ele></trkpt>
    <trkpt lat="48.85911" lon="2.61478"><ele>40.0</ele></trkpt>
    <trkpt lat="48.85809" lon="2.61885"><ele>39.1</ele></trkpt>
    <trkpt lat="48.85772" lon="2.61978"><ele>39.5</ele></trkpt>
    <trkpt lat="48.8578" lon="2.61997"><ele>39.6</ele></trkpt>
    <trkpt lat="48.85827" lon="2.62037"><ele>39.5</ele></trkpt>
    <trkpt lat="48.8583" lon="2.62064"><ele>39.3</ele></trkpt>
    <trkpt lat="48.85831" lon="2.62118"><ele>38.8</ele></trkpt>
    <trkpt lat="48.85822" lon="2.62227"><ele>38.6</ele></trkpt>
    <trkpt lat="48.85797" lon="2.62442"><ele>39.0</ele></trkpt>
    <trkpt lat="48.85771" lon="2.62544"><ele>39.2</ele></trkpt>
    <trkpt lat="48.85754" lon="2.62591"><ele>39.9</ele></trkpt>
    <trkpt lat="48.85699" lon="2.62662"><ele>40.7</ele></trkpt>
    <trkpt lat="48.85694" lon="2.62743"><ele>40.4</ele></trkpt>
    <trkpt lat="48.85692" lon="2.63044"><ele>39.8</ele></trkpt>
    <trkpt lat="48.85705" lon="2.63207"><ele>39.4</ele></trkpt>
    <trkpt lat="48.85701" lon="2.63507"><ele>39.4</ele></trkpt>
    <trkpt lat="48.857" lon="2.63534"><ele>39.5</ele></trkpt>
    <trkpt lat="48.85693" lon="2.63559"><ele>39.5</ele></trkpt>
    <trkpt lat="48.85673" lon="2.63603"><ele>39.8</ele></trkpt>
    <trkpt lat="48.85666" lon="2.63711"><ele>40.2</ele></trkpt>
    <trkpt lat="48.85687" lon="2.63816"><ele>40.1</ele></trkpt>
    <trkpt lat="48.85695" lon="2.6384"><ele>40.0</ele></trkpt>
    <trkpt lat="48.85722" lon="2.63874"><ele>39.7</ele></trkpt>
    <trkpt lat="48.85754" lon="2.63899"><ele>39.3</ele></trkpt>
    <trkpt lat="48.85806" lon="2.63917"><ele>38.8</ele></trkpt>
    <trkpt lat="48.85819" lon="2.63934"><ele>38.7</ele></trkpt>
    <trkpt lat="48.85903" lon="2.64076"><ele>39.0</ele></trkpt>
    <trkpt lat="48.85949" lon="2.64119"><ele>39.1</ele></trkpt>
    <trkpt lat="48.85985" lon="2.6418"><ele>39.2</ele></trkpt>
    <trkpt lat="48.86005" lon="2.64225"><ele>39.3</ele></trkpt>
    <trkpt lat="48.86093" lon="2.64362"><ele>39.3</ele></trkpt>
    <trkpt lat="48.86115" lon="2.64405"><ele>39.3</ele></trkpt>
    <trkpt lat="48.86159" lon="2.6445"><ele>39.3</ele></trkpt>
    <trkpt lat="48.86191" lon="2.64517"><ele>39.4</ele></trkpt>
    <trkpt lat="48.86349" lon="2.6474"><ele>39.6</ele></trkpt>
    <trkpt lat="48.86439" lon="2.6483"><ele>39.8</ele></trkpt>
    <trkpt lat="48.86486" lon="2.6487"><ele>40.0</ele></trkpt>
    <trkpt lat="48.8652" lon="2.64888"><ele>40.1</ele></trkpt>
    <trkpt lat="48.86566" lon="2.6493"><ele>40.1</ele></trkpt>
    <trkpt lat="48.86685" lon="2.65053"><ele>39.8</ele></trkpt>
    <trkpt lat="48.86726" lon="2.65107"><ele>39.8</ele></trkpt>
    <trkpt lat="48.86873" lon="2.65265"><ele>39.8</ele></trkpt>
    <trkpt lat="48.86884" lon="2.65284"><ele>39.7</ele></trkpt>
    <trkpt lat="48.86894" lon="2.65392"><ele>39.5</ele></trkpt>
    <trkpt lat="48.86905" lon="2.65412"><ele>39.5</ele></trkpt>
    <trkpt lat="48.86964" lon="2.65475"><ele>39.5</ele></trkpt>
    <trkpt lat="48.86999" lon="2.65537"><ele>39.7</ele></trkpt>
    <trkpt lat="48.87019" lon="2.65613"><ele>40.1</ele></trkpt>
    <trkpt lat="48.87034" lon="2.6572"><ele>40.5</ele></trkpt>
    <trkpt lat="48.8703" lon="2.65773"><ele>39.8</ele></trkpt>
    <trkpt lat="48.86989" lon="2.65895"><ele>38.9</ele></trkpt>
    <trkpt lat="48.86978" lon="2.65917"><ele>38.8</ele></trkpt>
    <trkpt lat="48.86913" lon="2.66007"><ele>39.0</ele></trkpt>
    <trkpt lat="48.86912" lon="2.66033"><ele>39.0</ele></trkpt>
    <trkpt lat="48.86932" lon="2.66108"><ele>39.7</ele></trkpt>
    <trkpt lat="48.86932" lon="2.66135"><ele>40.1</ele></trkpt>
    <trkpt lat="48.86924" lon="2.66156"><ele>40.4</ele></trkpt>
    <trkpt lat="48.86908" lon="2.66168"><ele>40.7</ele></trkpt>
    <trkpt lat="48.8689" lon="2.66168"><ele>40.9</ele></trkpt>
    <trkpt lat="48.86857" lon="2.66155"><ele>41.0</ele></trkpt>
    <trkpt lat="48.86732" lon="2.66153"><ele>41.3</ele></trkpt>
    <trkpt lat="48.86717" lon="2.66165"><ele>41.2</ele></trkpt>
    <trkpt lat="48.86726" lon="2.66215"><ele>41.1</ele></trkpt>
    <trkpt lat="48.86714" lon="2.66266"><ele>40.9</ele></trkpt>
    <trkpt lat="48.86672" lon="2.66316"><ele>40.9</ele></trkpt>
    <trkpt lat="48.86607" lon="2.66363"><ele>40.8</ele></trkpt>
    <trkpt lat="48.86538" lon="2.66486"><ele>39.5</ele></trkpt>
    <trkpt lat="48.86255" lon="2.66565"><ele>40.4</ele></trkpt>
    <trkpt lat="48.86237" lon="2.66565"><ele>40.5</ele></trkpt>
    <trkpt lat="48.86159" lon="2.66496"><ele>42.0</ele></trkpt>
    <trkpt lat="48.86147" lon="2.66478"><ele>42.4</ele></trkpt>
    <trkpt lat="48.86125" lon="2.66394"><ele>43.2</ele></trkpt>
    <trkpt lat="48.86131" lon="2.6653"><ele>47.2</ele></trkpt>
    <trkpt lat="48.86118" lon="2.66666"><ele>51.3</ele></trkpt>
    <trkpt lat="48.86119" lon="2.66775"><ele>51.4</ele></trkpt>
    <trkpt lat="48.86122" lon="2.66802"><ele>51.2</ele></trkpt>
    <trkpt lat="48.86132" lon="2.66824"><ele>50.9</ele></trkpt>
    <trkpt lat="48.86136" lon="2.6685"><ele>50.5</ele></trkpt>
    <trkpt lat="48.86121" lon="2.66899"><ele>49.6</ele></trkpt>
    <trkpt lat="48.86115" lon="2.6709"><ele>46.1</ele></trkpt>
    <trkpt lat="48.86091" lon="2.67222"><ele>44.8</ele></trkpt>
    <trkpt lat="48.86101" lon="2.67274"><ele>44.8</ele></trkpt>
    <trkpt lat="48.86119" lon="2.67318"><ele>44.9</ele></trkpt>
    <trkpt lat="48.86111" lon="2.67341"><ele>44.9</ele></trkpt>
    <trkpt lat="48.8608" lon="2.67364"><ele>44.8</ele></trkpt>
    <trkpt lat="48.86044" lon="2.67424"><ele>44.8</ele></trkpt>
    <trkpt lat="48.85994" lon="2.67443"><ele>44.6</ele></trkpt>
    <trkpt lat="48.85902" lon="2.6753"><ele>44.9</ele></trkpt>
    <trkpt lat="48.85803" lon="2.67593"><ele>45.5</ele></trkpt>
    <trkpt lat="48.8579" lon="2.67611"><ele>45.4</ele></trkpt>
    <trkpt lat="48.85791" lon="2.67662"><ele>45.4</ele></trkpt>
    <trkpt lat="48.85784" lon="2.67688"><ele>45.3</ele></trkpt>
    <trkpt lat="48.85771" lon="2.67706"><ele>45.3</ele></trkpt>
    <trkpt lat="48.85755" lon="2.67715"><ele>45.4</ele></trkpt>
    <trkpt lat="48.85711" lon="2.67763"><ele>45.6</ele></trkpt>
    <trkpt lat="48.85679" lon="2.67788"><ele>45.8</ele></trkpt>
    <trkpt lat="48.85666" lon="2.67807"><ele>45.8</ele></trkpt>
    <trkpt lat="48.85659" lon="2.67832"><ele>45.9</ele></trkpt>
    <trkpt lat="48.85673" lon="2.67881"><ele>46.0</ele></trkpt>
    <trkpt lat="48.85666" lon="2.67906"><ele>46.0</ele></trkpt>
    <trkpt lat="48.85578" lon="2.68"><ele>46.4</ele></trkpt>
    <trkpt lat="48.8556" lon="2.68006"><ele>46.7</ele></trkpt>
    <trkpt lat="48.85547" lon="2.68021"><ele>47.2</ele></trkpt>
    <trkpt lat="48.8553" lon="2.68145"><ele>51.4</ele></trkpt>
    <trkpt lat="48.85513" lon="2.68155"><ele>51.7</ele></trkpt>
    <trkpt lat="48.85441" lon="2.68162"><ele>51.4</ele></trkpt>
    <trkpt lat="48.85409" lon="2.68185"><ele>51.4</ele></trkpt>
    <trkpt lat="48.85337" lon="2.68185"><ele>51.8</ele></trkpt>
    <trkpt lat="48.8532" lon="2.68192"><ele>51.9</ele></trkpt>
    <trkpt lat="48.85275" lon="2.68237"><ele>52.4</ele></trkpt>
    <trkpt lat="48.85249" lon="2.68275"><ele>52.8</ele></trkpt>
    <trkpt lat="48.85185" lon="2.6832"><ele>53.5</ele></trkpt>
    <trkpt lat="48.85134" lon="2.68301"><ele>54.0</ele></trkpt>
    <trkpt lat="48.85049" lon="2.6834"><ele>54.8</ele></trkpt>
    <trkpt lat="48.85031" lon="2.68336"><ele>54.9</ele></trkpt>
    <trkpt lat="48.85016" lon="2.6835"><ele>55.0</ele></trkpt>
    <trkpt lat="48.84999" lon="2.68346"><ele>55.1</ele></trkpt>
    <trkpt lat="48.84942" lon="2.6828"><ele>55.7</ele></trkpt>
    <trkpt lat="48.84906" lon="2.68274"><ele>56.1</ele></trkpt>
    <trkpt lat="48.84891" lon="2.68284"><ele>56.1</ele></trkpt>
    <trkpt lat="48.84875" lon="2.68333"><ele>55.8</ele></trkpt>
    <trkpt lat="48.84802" lon="2.6845"><ele>55.8</ele></trkpt>
    <trkpt lat="48.84794" lon="2.68474"><ele>55.9</ele></trkpt>
    <trkpt lat="48.84769" lon="2.68508"><ele>56.2</ele></trkpt>
    <trkpt lat="48.8476" lon="2.68532"><ele>56.3</ele></trkpt>
    <trkpt lat="48.84722" lon="2.6859"><ele>57.2</ele></trkpt>
    <trkpt lat="48.84702" lon="2.68634"><ele>57.7</ele></trkpt>
    <trkpt lat="48.84653" lon="2.68713"><ele>58.5</ele></trkpt>
    <trkpt lat="48.84637" lon="2.68725"><ele>58.9</ele></trkpt>
    <trkpt lat="48.8461" lon="2.68761"><ele>59.6</ele></trkpt>
    <trkpt lat="48.84611" lon="2.68815"><ele>60.1</ele></trkpt>
    <trkpt lat="48.84594" lon="2.68863"><ele>59.9</ele></trkpt>
    <trkpt lat="48.84562" lon="2.68886"><ele>59.7</ele></trkpt>
    <trkpt lat="48.84535" lon="2.68922"><ele>59.9</ele></trkpt>
    <trkpt lat="48.8449" lon="2.68965"><ele>60.3</ele></trkpt>
    <trkpt lat="48.84486" lon="2.68991"><ele>60.3</ele></trkpt>
    <trkpt lat="48.84491" lon="2.69039"><ele>60.6</ele></trkpt>
    <trkpt lat="48.84369" lon="2.69082"><ele>61.6</ele></trkpt>
    <trkpt lat="48.84352" lon="2.69078"><ele>61.8</ele></trkpt>
    <trkpt lat="48.84343" lon="2.69056"><ele>61.9</ele></trkpt>
    <trkpt lat="48.84331" lon="2.69046"><ele>61.9</ele></trkpt>
    <trkpt lat="48.84278" lon="2.69063"><ele>61.8</ele></trkpt>
    <trkpt lat="48.84242" lon="2.69068"><ele>62.2</ele></trkpt>
    <trkpt lat="48.84226" lon="2.69077"><ele>62.8</ele></trkpt>
    <trkpt lat="48.84175" lon="2.69063"><ele>64.6</ele></trkpt>
    <trkpt lat="48.84159" lon="2.69071"><ele>65.0</ele></trkpt>
    <trkpt lat="48.8413" lon="2.6904"><ele>65.4</ele></trkpt>
    <trkpt lat="48.84113" lon="2.69048"><ele>65.7</ele></trkpt>
    <trkpt lat="48.84085" lon="2.69081"><ele>66.1</ele></trkpt>
    <trkpt lat="48.84036" lon="2.69115"><ele>66.7</ele></trkpt>
    <trkpt lat="48.83941" lon="2.6924"><ele>68.8</ele></trkpt>
    <trkpt lat="48.83854" lon="2.69252"><ele>70.0</ele></trkpt>
    <trkpt lat="48.83834" lon="2.69295"><ele>70.9</ele></trkpt>
    <trkpt lat="48.83748" lon="2.69333"><ele>76.1</ele></trkpt>
    <trkpt lat="48.8373" lon="2.69337"><ele>77.5</ele></trkpt>
    <trkpt lat="48.83698" lon="2.6933"><ele>79.6</ele></trkpt>
    <trkpt lat="48.83682" lon="2.6934"><ele>80.1</ele></trkpt>
    <trkpt lat="48.83665" lon="2.69332"><ele>80.1</ele></trkpt>
    <trkpt lat="48.83623" lon="2.69282"><ele>79.9</ele></trkpt>
    <trkpt lat="48.83598" lon="2.6921"><ele>78.7</ele></trkpt>
    <trkpt lat="48.83586" lon="2.69048"><ele>78.4</ele></trkpt>
    <trkpt lat="48.83608" lon="2.68974"><ele>79.6</ele></trkpt>
    <trkpt lat="48.8362" lon="2.68956"><ele>79.9</ele></trkpt>
    <trkpt lat="48.83716" lon="2.6888"><ele>80.9</ele></trkpt>
    <trkpt lat="48.83728" lon="2.68861"><ele>81.5</ele></trkpt>
    <trkpt lat="48.83634" lon="2.68598"><ele>89.7</ele></trkpt>
    <trkpt lat="48.83614" lon="2.68553"><ele>91.0</ele></trkpt>
    <trkpt lat="48.83602" lon="2.68502"><ele>93.0</ele></trkpt>
    <trkpt lat="48.83364" lon="2.68311"><ele>104.4</ele></trkpt>
    <trkpt lat="48.83258" lon="2.68278"><ele>104.8</ele></trkpt>
    <trkpt lat="48.8317" lon="2.68289"><ele>104.5</ele></trkpt>
    <trkpt lat="48.83148" lon="2.68587"><ele>94.3</ele></trkpt>
    <trkpt lat="48.83139" lon="2.68778"><ele>88.2</ele></trkpt>
    <trkpt lat="48.83136" lon="2.68804"><ele>88.0</ele></trkpt>
    <trkpt lat="48.83126" lon="2.68817"><ele>87.9</ele></trkpt>
    <trkpt lat="48.83033" lon="2.68652"><ele>91.0</ele></trkpt>
    <trkpt lat="48.83024" lon="2.68629"><ele>91.8</ele></trkpt>
    <trkpt lat="48.83007" lon="2.68523"><ele>95.5</ele></trkpt>
    <trkpt lat="48.82994" lon="2.68523"><ele>96.0</ele></trkpt>
    <trkpt lat="48.82928" lon="2.68565"><ele>96.3</ele></trkpt>
    <trkpt lat="48.82864" lon="2.68614"><ele>96.9</ele></trkpt>
    <trkpt lat="48.82791" lon="2.68694"><ele>98.9</ele></trkpt>
    <trkpt lat="48.82764" lon="2.6873"><ele>99.6</ele></trkpt>
    <trkpt lat="48.82716" lon="2.68811"><ele>100.1</ele></trkpt>
    <trkpt lat="48.82592" lon="2.68969"><ele>98.8</ele></trkpt>
    <trkpt lat="48.82564" lon="2.69039"><ele>98.1</ele></trkpt>
    <trkpt lat="48.82551" lon="2.69146"><ele>97.7</ele></trkpt>
    <trkpt lat="48.82542" lon="2.6917"><ele>98.0</ele></trkpt>
    <trkpt lat="48.82506" lon="2.6917"><ele>99.2</ele></trkpt>
    <trkpt lat="48.82471" lon="2.69161"><ele>100.8</ele></trkpt>
    <trkpt lat="48.82435" lon="2.69166"><ele>102.3</ele></trkpt>
    <trkpt lat="48.82418" lon="2.69175"><ele>102.9</ele></trkpt>
    <trkpt lat="48.8234" lon="2.69241"><ele>104.3</ele></trkpt>
    <trkpt lat="48.82234" lon="2.69389"><ele>100.4</ele></trkpt>
    <trkpt lat="48.8217" lon="2.69554"><ele>104.1</ele></trkpt>
    <trkpt lat="48.82149" lon="2.69598"><ele>105.9</ele></trkpt>
    <trkpt lat="48.82131" lon="2.69702"><ele>106.7</ele></trkpt>
    <trkpt lat="48.82088" lon="2.69822"><ele>106.2</ele></trkpt>
    <trkpt lat="48.82083" lon="2.69848"><ele>105.7</ele></trkpt>
    <trkpt lat="48.82086" lon="2.69874"><ele>105.0</ele></trkpt>
    <trkpt lat="48.82079" lon="2.70037"><ele>100.4</ele></trkpt>
    <trkpt lat="48.82033" lon="2.70155"><ele>102.5</ele></trkpt>
    <trkpt lat="48.82028" lon="2.70207"><ele>103.2</ele></trkpt>
    <trkpt lat="48.81972" lon="2.70466"><ele>102.9</ele></trkpt>
    <trkpt lat="48.81969" lon="2.70492"><ele>102.9</ele></trkpt>
    <trkpt lat="48.81971" lon="2.70519"><ele>102.9</ele></trkpt>
    <trkpt lat="48.81981" lon="2.70538"><ele>102.9</ele></trkpt>
    <trkpt lat="48.81994" lon="2.70528"><ele>102.8</ele></trkpt>
    <trkpt lat="48.8202" lon="2.70457"><ele>102.5</ele></trkpt>
    <trkpt lat="48.8205" lon="2.70329"><ele>102.1</ele></trkpt>
    <trkpt lat="48.82065" lon="2.7028"><ele>101.7</ele></trkpt>
    <trkpt lat="48.82102" lon="2.7022"><ele>101.0</ele></trkpt>
    <trkpt lat="48.82156" lon="2.70148"><ele>100.2</ele></trkpt>
    <trkpt lat="48.82191" lon="2.70085"><ele>99.7</ele></trkpt>
    <trkpt lat="48.82248" lon="2.70021"><ele>99.3</ele></trkpt>
    <trkpt lat="48.82245" lon="2.7"><ele>99.3</ele></trkpt>
    <trkpt lat="48.82102" lon="2.69835"><ele>105.9</ele></trkpt>
    <trkpt lat="48.8176" lon="2.69481"><ele>114.6</ele></trkpt>
    <trkpt lat="48.81598" lon="2.69364"><ele>115.3</ele></trkpt>
    <trkpt lat="48.81567" lon="2.69336"><ele>115.5</ele></trkpt>
    <trkpt lat="48.81558" lon="2.69314"><ele>115.6</ele></trkpt>
    <trkpt lat="48.81558" lon="2.69122"><ele>115.8</ele></trkpt>
    <trkpt lat="48.81552" lon="2.69097"><ele>115.8</ele></trkpt>
    <trkpt lat="48.81538" lon="2.69085"><ele>115.8</ele></trkpt>
    <trkpt lat="48.81522" lon="2.69097"><ele>115.8</ele></trkpt>
    <trkpt lat="48.81468" lon="2.69105"><ele>115.8</ele></trkpt>
    <trkpt lat="48.81109" lon="2.69081"><ele>117.9</ele></trkpt>
    <trkpt lat="48.81091" lon="2.69077"><ele>118.0</ele></trkpt>
    <trkpt lat="48.81077" lon="2.69063"><ele>118.0</ele></trkpt>
    <trkpt lat="48.81057" lon="2.69017"><ele>118.0</ele></trkpt>
    <trkpt lat="48.81043" lon="2.69011"><ele>117.9</ele></trkpt>
    <trkpt lat="48.81012" lon="2.69036"><ele>117.9</ele></trkpt>
    <trkpt lat="48.80942" lon="2.69054"><ele>118.0</ele></trkpt>
    <trkpt lat="48.80847" lon="2.69131"><ele>117.1</ele></trkpt>
    <trkpt lat="48.80834" lon="2.69122"><ele>116.7</ele></trkpt>
    <trkpt lat="48.80776" lon="2.69017"><ele>115.5</ele></trkpt>
    <trkpt lat="48.80761" lon="2.69004"><ele>115.4</ele></trkpt>
    <trkpt lat="48.80566" lon="2.69142"><ele>116.5</ele></trkpt>
    <trkpt lat="48.80518" lon="2.69181"><ele>117.4</ele></trkpt>
    <trkpt lat="48.80492" lon="2.69219"><ele>117.1</ele></trkpt>
    <trkpt lat="48.80446" lon="2.69302"><ele>116.9</ele></trkpt>
    <trkpt lat="48.80383" lon="2.69436"><ele>116.8</ele></trkpt>
    <trkpt lat="48.80368" lon="2.69441"><ele>116.7</ele></trkpt>
    <trkpt lat="48.80297" lon="2.69358"><ele>116.5</ele></trkpt>
    <trkpt lat="48.8028" lon="2.69349"><ele>116.5</ele></trkpt>
    <trkpt lat="48.80263" lon="2.69353"><ele>116.4</ele></trkpt>
    <trkpt lat="48.80089" lon="2.6959"><ele>117.4</ele></trkpt>
    <trkpt lat="48.80072" lon="2.69637"><ele>117.2</ele></trkpt>
    <trkpt lat="48.80072" lon="2.69718"><ele>117.1</ele></trkpt>
    <trkpt lat="48.80067" lon="2.69743"><ele>117.1</ele></trkpt>
    <trkpt lat="48.8" lon="2.69871"><ele>116.7</ele></trkpt>
    <trkpt lat="48.79993" lon="2.69896"><ele>116.6</ele></trkpt>
    <trkpt lat="48.79994" lon="2.69922"><ele>116.4</ele></trkpt>
    <trkpt lat="48.79991" lon="2.69938"><ele>116.1</ele></trkpt>
    <trkpt lat="48.79902" lon="2.69921"><ele>115.0</ele></trkpt>
    <trkpt lat="48.7983" lon="2.69928"><ele>114.8</ele></trkpt>
    <trkpt lat="48.79777" lon="2.69944"><ele>114.6</ele></trkpt>
    <trkpt lat="48.79676" lon="2.70002"><ele>114.2</ele></trkpt>
    <trkpt lat="48.7966" lon="2.70001"><ele>114.1</ele></trkpt>
    <trkpt lat="48.79685" lon="2.6932"><ele>113.6</ele></trkpt>
    <trkpt lat="48.79671" lon="2.69302"><ele>113.7</ele></trkpt>
    <trkpt lat="48.79655" lon="2.69292"><ele>113.7</ele></trkpt>
    <trkpt lat="48.79638" lon="2.69299"><ele>113.7</ele></trkpt>
    <trkpt lat="48.7929" lon="2.69585"><ele>114.1</ele></trkpt>
    <trkpt lat="48.79166" lon="2.69695"><ele>115.1</ele></trkpt>
    <trkpt lat="48.7915" lon="2.69698"><ele>115.3</ele></trkpt>
    <trkpt lat="48.79137" lon="2.6968"><ele>115.5</ele></trkpt>
    <trkpt lat="48.78859" lon="2.69109"><ele>119.2</ele></trkpt>
    <trkpt lat="48.78694" lon="2.68785"><ele>120.3</ele></trkpt>
    <trkpt lat="48.78665" lon="2.68717"><ele>119.0</ele></trkpt>
    <trkpt lat="48.78641" lon="2.68677"><ele>117.9</ele></trkpt>
    <trkpt lat="48.78579" lon="2.68544"><ele>114.9</ele></trkpt>
    <trkpt lat="48.78574" lon="2.68519"><ele>114.5</ele></trkpt>
    <trkpt lat="48.78572" lon="2.68438"><ele>114.2</ele></trkpt>
    <trkpt lat="48.78592" lon="2.68058"><ele>114.2</ele></trkpt>
    <trkpt lat="48.78597" lon="2.68031"><ele>114.2</ele></trkpt>
    <trkpt lat="48.78612" lon="2.67982"><ele>114.2</ele></trkpt>
    <trkpt lat="48.78652" lon="2.6793"><ele>114.2</ele></trkpt>
    <trkpt lat="48.78804" lon="2.67436"><ele>114.8</ele></trkpt>
    <trkpt lat="48.78663" lon="2.67226"><ele>116.0</ele></trkpt>
    <trkpt lat="48.78632" lon="2.672"><ele>116.2</ele></trkpt>
    <trkpt lat="48.78168" lon="2.67112"><ele>114.1</ele></trkpt>
    <trkpt lat="48.78151" lon="2.67107"><ele>114.0</ele></trkpt>
    <trkpt lat="48.78119" lon="2.67082"><ele>113.7</ele></trkpt>
    <trkpt lat="48.78066" lon="2.67093"><ele>113.3</ele></trkpt>
    <trkpt lat="48.77763" lon="2.67037"><ele>112.4</ele></trkpt>
    <trkpt lat="48.77746" lon="2.67039"><ele>112.2</ele></trkpt>
    <trkpt lat="48.77733" lon="2.67055"><ele>112.2</ele></trkpt>
    <trkpt lat="48.77702" lon="2.67045"><ele>112.3</ele></trkpt>
    <trkpt lat="48.77653" lon="2.67079"><ele>112.5</ele></trkpt>
    <trkpt lat="48.77636" lon="2.67084"><ele>112.4</ele></trkpt>
    <trkpt lat="48.7755" lon="2.67052"><ele>111.3</ele></trkpt>
    <trkpt lat="48.77498" lon="2.67072"><ele>110.6</ele></trkpt>
    <trkpt lat="48.77485" lon="2.67064"><ele>110.4</ele></trkpt>
    <trkpt lat="48.77443" lon="2.66943"><ele>110.1</ele></trkpt>
    <trkpt lat="48.77433" lon="2.66863"><ele>110.0</ele></trkpt>
    <trkpt lat="48.77384" lon="2.66658"><ele>109.1</ele></trkpt>
    <trkpt lat="48.7738" lon="2.66632"><ele>108.9</ele></trkpt>
    <trkpt lat="48.77385" lon="2.66606"><ele>108.8</ele></trkpt>
    <trkpt lat="48.77362" lon="2.66568"><ele>108.7</ele></trkpt>
    <trkpt lat="48.77346" lon="2.66562"><ele>108.8</ele></trkpt>
    <trkpt lat="48.77304" lon="2.66614"><ele>109.0</ele></trkpt>
    <trkpt lat="48.77272" lon="2.66636"><ele>109.1</ele></trkpt>
    <trkpt lat="48.77025" lon="2.66714"><ele>108.5</ele></trkpt>
    <trkpt lat="48.76919" lon="2.66733"><ele>108.5</ele></trkpt>
    <trkpt lat="48.76907" lon="2.66714"><ele>108.6</ele></trkpt>
    <trkpt lat="48.76905" lon="2.66686"><ele>108.7</ele></trkpt>
    <trkpt lat="48.769" lon="2.66441"><ele>107.7</ele></trkpt>
    <trkpt lat="48.76892" lon="2.66388"><ele>107.1</ele></trkpt>
    <trkpt lat="48.76879" lon="2.66338"><ele>106.5</ele></trkpt>
    <trkpt lat="48.76866" lon="2.66329"><ele>106.3</ele></trkpt>
    <trkpt lat="48.76833" lon="2.66349"><ele>105.9</ele></trkpt>
    <trkpt lat="48.76819" lon="2.66344"><ele>105.6</ele></trkpt>
    <trkpt lat="48.76798" lon="2.66269"><ele>104.3</ele></trkpt>
    <trkpt lat="48.7677" lon="2.662"><ele>103.2</ele></trkpt>
    <trkpt lat="48.76746" lon="2.66158"><ele>102.8</ele></trkpt>
    <trkpt lat="48.76704" lon="2.66108"><ele>102.5</ele></trkpt>
    <trkpt lat="48.76689" lon="2.66106"><ele>102.4</ele></trkpt>
    <trkpt lat="48.76674" lon="2.66121"><ele>102.4</ele></trkpt>
    <trkpt lat="48.7664" lon="2.66133"><ele>102.5</ele></trkpt>
    <trkpt lat="48.76586" lon="2.66127"><ele>102.6</ele></trkpt>
    <trkpt lat="48.76569" lon="2.66135"><ele>102.7</ele></trkpt>
    <trkpt lat="48.7656" lon="2.66157"><ele>102.9</ele></trkpt>
    <trkpt lat="48.76532" lon="2.66287"><ele>103.2</ele></trkpt>
    <trkpt lat="48.7653" lon="2.66314"><ele>103.2</ele></trkpt>
    <trkpt lat="48.76517" lon="2.6633"><ele>103.2</ele></trkpt>
    <trkpt lat="48.76512" lon="2.66412"><ele>103.5</ele></trkpt>
    <trkpt lat="48.76519" lon="2.66493"><ele>103.7</ele></trkpt>
    <trkpt lat="48.7651" lon="2.66511"><ele>103.5</ele></trkpt>
    <trkpt lat="48.76403" lon="2.66531"><ele>101.6</ele></trkpt>
    <trkpt lat="48.76349" lon="2.66523"><ele>101.9</ele></trkpt>
    <trkpt lat="48.76319" lon="2.66502"><ele>102.4</ele></trkpt>
    <trkpt lat="48.76283" lon="2.66504"><ele>103.1</ele></trkpt>
    <trkpt lat="48.76266" lon="2.66496"><ele>103.4</ele></trkpt>
    <trkpt lat="48.76237" lon="2.66465"><ele>104.2</ele></trkpt>
    <trkpt lat="48.76228" lon="2.66443"><ele>104.8</ele></trkpt>
    <trkpt lat="48.76122" lon="2.66296"><ele>105.9</ele></trkpt>
    <trkpt lat="48.76105" lon="2.66249"><ele>105.2</ele></trkpt>
    <trkpt lat="48.76087" lon="2.66248"><ele>104.9</ele></trkpt>
    <trkpt lat="48.76073" lon="2.66232"><ele>104.7</ele></trkpt>
    <trkpt lat="48.75951" lon="2.66072"><ele>103.7</ele></trkpt>
    <trkpt lat="48.75887" lon="2.65975"><ele>103.5</ele></trkpt>
    <trkpt lat="48.75802" lon="2.65835"><ele>103.6</ele></trkpt>
    <trkpt lat="48.75646" lon="2.65535"><ele>103.5</ele></trkpt>
    <trkpt lat="48.75528" lon="2.65329"><ele>103.5</ele></trkpt>
    <trkpt lat="48.75508" lon="2.65283"><ele>103.5</ele></trkpt>
    <trkpt lat="48.75459" lon="2.65108"><ele>103.3</ele></trkpt>
    <trkpt lat="48.75404" lon="2.64936"><ele>102.8</ele></trkpt>
    <trkpt lat="48.75362" lon="2.64756"><ele>100.7</ele></trkpt>
    <trkpt lat="48.75358" lon="2.6473"><ele>100.3</ele></trkpt>
    <trkpt lat="48.7537" lon="2.6471"><ele>100.1</ele></trkpt>
    <trkpt lat="48.75372" lon="2.64684"><ele>99.7</ele></trkpt>
    <trkpt lat="48.7538" lon="2.64662"><ele>99.4</ele></trkpt>
    <trkpt lat="48.75335" lon="2.64544"><ele>99.8</ele></trkpt>
    <trkpt lat="48.75165" lon="2.64159"><ele>102.1</ele></trkpt>
    <trkpt lat="48.75121" lon="2.64072"><ele>101.6</ele></trkpt>
    <trkpt lat="48.75093" lon="2.64038"><ele>101.2</ele></trkpt>
    <trkpt lat="48.7506" lon="2.64022"><ele>100.7</ele></trkpt>
    <trkpt lat="48.75001" lon="2.6396"><ele>100.3</ele></trkpt>
    <trkpt lat="48.74969" lon="2.63936"><ele>100.3</ele></trkpt>
    <trkpt lat="48.74857" lon="2.638"><ele>99.9</ele></trkpt>
    <trkpt lat="48.74842" lon="2.63785"><ele>99.9</ele></trkpt>
    <trkpt lat="48.74824" lon="2.63778"><ele>99.9</ele></trkpt>
    <trkpt lat="48.74735" lon="2.63646"><ele>100.3</ele></trkpt>
    <trkpt lat="48.747" lon="2.63635"><ele>100.1</ele></trkpt>
    <trkpt lat="48.74667" lon="2.63614"><ele>99.8</ele></trkpt>
    <trkpt lat="48.74627" lon="2.63561"><ele>99.4</ele></trkpt>
    <trkpt lat="48.74593" lon="2.63543"><ele>99.6</ele></trkpt>
    <trkpt lat="48.7454" lon="2.63531"><ele>100.1</ele></trkpt>
    <trkpt lat="48.74443" lon="2.63458"><ele>100.9</ele></trkpt>
    <trkpt lat="48.74355" lon="2.63433"><ele>101.5</ele></trkpt>
    <trkpt lat="48.74304" lon="2.63408"><ele>101.8</ele></trkpt>
    <trkpt lat="48.74186" lon="2.63282"><ele>102.3</ele></trkpt>
    <trkpt lat="48.74153" lon="2.63261"><ele>102.4</ele></trkpt>
    <trkpt lat="48.74065" lon="2.63241"><ele>102.7</ele></trkpt>
    <trkpt lat="48.73849" lon="2.63247"><ele>101.6</ele></trkpt>
    <trkpt lat="48.73741" lon="2.63235"><ele>101.1</ele></trkpt>
    <trkpt lat="48.73693" lon="2.63198"><ele>100.9</ele></trkpt>
    <trkpt lat="48.73607" lon="2.63101"><ele>99.4</ele></trkpt>
    <trkpt lat="48.7359" lon="2.63094"><ele>99.2</ele></trkpt>
    <trkpt lat="48.73543" lon="2.63176"><ele>98.3</ele></trkpt>
    <trkpt lat="48.73522" lon="2.63252"><ele>97.1</ele></trkpt>
    <trkpt lat="48.73501" lon="2.63295"><ele>95.8</ele></trkpt>
    <trkpt lat="48.73417" lon="2.63397"><ele>89.9</ele></trkpt>
    <trkpt lat="48.734" lon="2.63408"><ele>88.8</ele></trkpt>
    <trkpt lat="48.73347" lon="2.63423"><ele>86.0</ele></trkpt>
    <trkpt lat="48.73277" lon="2.63398"><ele>84.9</ele></trkpt>
    <trkpt lat="48.7326" lon="2.63404"><ele>85.0</ele></trkpt>
    <trkpt lat="48.7324" lon="2.63479"><ele>86.7</ele></trkpt>
    <trkpt lat="48.73223" lon="2.63488"><ele>87.7</ele></trkpt>
    <trkpt lat="48.73015" lon="2.63408"><ele>97.3</ele></trkpt>
    <trkpt lat="48.73004" lon="2.63428"><ele>97.3</ele></trkpt>
    <trkpt lat="48.72969" lon="2.63583"><ele>97.3</ele></trkpt>
    <trkpt lat="48.72945" lon="2.63656"><ele>97.3</ele></trkpt>
    <trkpt lat="48.72825" lon="2.63961"><ele>97.1</ele></trkpt>
    <trkpt lat="48.7276" lon="2.64091"><ele>96.9</ele></trkpt>
    <trkpt lat="48.72748" lon="2.64097"><ele>96.9</ele></trkpt>
    <trkpt lat="48.72733" lon="2.64081"><ele>96.9</ele></trkpt>
    <trkpt lat="48.72615" lon="2.64018"><ele>98.1</ele></trkpt>
    <trkpt lat="48.72436" lon="2.63889"><ele>100.2</ele></trkpt>
    <trkpt lat="48.72401" lon="2.63876"><ele>100.2</ele></trkpt>
    <trkpt lat="48.72365" lon="2.63876"><ele>100.1</ele></trkpt>
    <trkpt lat="48.71612" lon="2.63966"><ele>98.2</ele></trkpt>
    <trkpt lat="48.71597" lon="2.63959"><ele>98.2</ele></trkpt>
    <trkpt lat="48.71589" lon="2.63936"><ele>98.2</ele></trkpt>
    <trkpt lat="48.71547" lon="2.63587"><ele>97.4</ele></trkpt>
    <trkpt lat="48.71501" lon="2.63409"><ele>96.8</ele></trkpt>
    <trkpt lat="48.7147" lon="2.63344"><ele>96.1</ele></trkpt>
    <trkpt lat="48.7144" lon="2.63315"><ele>95.8</ele></trkpt>
    <trkpt lat="48.71422" lon="2.63308"><ele>95.7</ele></trkpt>
    <trkpt lat="48.71369" lon="2.6331"><ele>95.9</ele></trkpt>
    <trkpt lat="48.71195" lon="2.63378"><ele>96.8</ele></trkpt>
    <trkpt lat="48.71159" lon="2.63386"><ele>96.7</ele></trkpt>
    <trkpt lat="48.71105" lon="2.63385"><ele>96.5</ele></trkpt>
    <trkpt lat="48.71088" lon="2.63392"><ele>96.4</ele></trkpt>
    <trkpt lat="48.71058" lon="2.63422"><ele>96.2</ele></trkpt>
    <trkpt lat="48.71025" lon="2.6344"><ele>96.0</ele></trkpt>
    <trkpt lat="48.7092" lon="2.63479"><ele>95.8</ele></trkpt>
    <trkpt lat="48.70905" lon="2.63475"><ele>95.7</ele></trkpt>
    <trkpt lat="48.70747" lon="2.63214"><ele>95.8</ele></trkpt>
    <trkpt lat="48.7072" lon="2.6318"><ele>96.4</ele></trkpt>
    <trkpt lat="48.70317" lon="2.6252"><ele>96.3</ele></trkpt>
    <trkpt lat="48.70253" lon="2.62423"><ele>93.7</ele></trkpt>
    <trkpt lat="48.70239" lon="2.62407"><ele>93.5</ele></trkpt>
    <trkpt lat="48.70222" lon="2.62398"><ele>93.5</ele></trkpt>
    <trkpt lat="48.70223" lon="2.62389"><ele>93.4</ele></trkpt>
    <trkpt lat="48.70241" lon="2.62383"><ele>93.3</ele></trkpt>
    <trkpt lat="48.70253" lon="2.62366"><ele>93.2</ele></trkpt>
    <trkpt lat="48.70256" lon="2.6234"><ele>93.1</ele></trkpt>
    <trkpt lat="48.70247" lon="2.62318"><ele>93.0</ele></trkpt>
    <trkpt lat="48.70213" lon="2.6231"><ele>93.0</ele></trkpt>
    <trkpt lat="48.70197" lon="2.62298"><ele>93.0</ele></trkpt>
    <trkpt lat="48.70091" lon="2.62152"><ele>93.4</ele></trkpt>
    <trkpt lat="48.70066" lon="2.62113"><ele>93.3</ele></trkpt>
    <trkpt lat="48.70058" lon="2.62089"><ele>93.3</ele></trkpt>
    <trkpt lat="48.69837" lon="2.61729"><ele>90.6</ele></trkpt>
    <trkpt lat="48.69825" lon="2.61712"><ele>90.3</ele></trkpt>
    <trkpt lat="48.69812" lon="2.61708"><ele>90.0</ele></trkpt>
    <trkpt lat="48.6973" lon="2.61564"><ele>88.1</ele></trkpt>
    <trkpt lat="48.69716" lon="2.61558"><ele>87.9</ele></trkpt>
    <trkpt lat="48.69656" lon="2.61659"><ele>88.0</ele></trkpt>
    <trkpt lat="48.69495" lon="2.61987"><ele>88.9</ele></trkpt>
    <trkpt lat="48.69447" lon="2.62069"><ele>88.8</ele></trkpt>
    <trkpt lat="48.69397" lon="2.61957"><ele>87.8</ele></trkpt>
    <trkpt lat="48.69329" lon="2.61736"><ele>85.9</ele></trkpt>
    <trkpt lat="48.69291" lon="2.61644"><ele>84.4</ele></trkpt>
    <trkpt lat="48.6928" lon="2.61592"><ele>83.7</ele></trkpt>
    <trkpt lat="48.69258" lon="2.61294"><ele>82.0</ele></trkpt>
    <trkpt lat="48.69252" lon="2.61274"><ele>82.0</ele></trkpt>
    <trkpt lat="48.69234" lon="2.61279"><ele>82.0</ele></trkpt>
    <trkpt lat="48.69222" lon="2.61267"><ele>82.0</ele></trkpt>
    <trkpt lat="48.69221" lon="2.61241"><ele>82.1</ele></trkpt>
    <trkpt lat="48.69267" lon="2.612"><ele>82.2</ele></trkpt>
    <trkpt lat="48.69263" lon="2.61174"><ele>82.2</ele></trkpt>
    <trkpt lat="48.69253" lon="2.61155"><ele>82.1</ele></trkpt>
    <trkpt lat="48.69236" lon="2.61157"><ele>82.1</ele></trkpt>
    <trkpt lat="48.692" lon="2.61096"><ele>82.2</ele></trkpt>
    <trkpt lat="48.69191" lon="2.61072"><ele>82.3</ele></trkpt>
    <trkpt lat="48.69188" lon="2.61047"><ele>82.3</ele></trkpt>
    <trkpt lat="48.69196" lon="2.61023"><ele>82.2</ele></trkpt>
    <trkpt lat="48.69209" lon="2.61012"><ele>82.1</ele></trkpt>
    <trkpt lat="48.69227" lon="2.61017"><ele>81.9</ele></trkpt>
    <trkpt lat="48.69242" lon="2.61005"><ele>81.8</ele></trkpt>
    <trkpt lat="48.69258" lon="2.61008"><ele>81.8</ele></trkpt>
    <trkpt lat="48.69282" lon="2.61049"><ele>81.8</ele></trkpt>
    <trkpt lat="48.69285" lon="2.61074"><ele>81.9</ele></trkpt>
    <trkpt lat="48.69276" lon="2.61096"><ele>82.0</ele></trkpt>
    <trkpt lat="48.69282" lon="2.61119"><ele>82.0</ele></trkpt>
    <trkpt lat="48.69298" lon="2.61144"><ele>82.2</ele></trkpt>
    <trkpt lat="48.69285" lon="2.61124"><ele>82.2</ele></trkpt>
    <trkpt lat="48.69324" lon="2.6117"><ele>82.8</ele></trkpt>
    <trkpt lat="48.69404" lon="2.61383"><ele>86.7</ele></trkpt>
    <trkpt lat="48.69416" lon="2.61387"><ele>86.8</ele></trkpt>
    <trkpt lat="48.6951" lon="2.61261"><ele>84.3</ele></trkpt>
    <trkpt lat="48.69525" lon="2.61245"><ele>84.0</ele></trkpt>
    <trkpt lat="48.69541" lon="2.61236"><ele>83.7</ele></trkpt>
    <trkpt lat="48.69553" lon="2.61252"><ele>83.7</ele></trkpt>
    <trkpt lat="48.69607" lon="2.61362"><ele>84.5</ele></trkpt>
    <trkpt lat="48.69717" lon="2.61541"><ele>87.4</ele></trkpt>
    <trkpt lat="48.6973" lon="2.61526"><ele>87.7</ele></trkpt>
    <trkpt lat="48.69941" lon="2.61154"><ele>88.6</ele></trkpt>
    <trkpt lat="48.6995" lon="2.6113"><ele>88.6</ele></trkpt>
    <trkpt lat="48.69951" lon="2.61104"><ele>88.7</ele></trkpt>
    <trkpt lat="48.70141" lon="2.60776"><ele>88.3</ele></trkpt>
    <trkpt lat="48.70156" lon="2.60765"><ele>88.3</ele></trkpt>
    <trkpt lat="48.7021" lon="2.60764"><ele>88.3</ele></trkpt>
    <trkpt lat="48.70316" lon="2.60733"><ele>88.7</ele></trkpt>
    <trkpt lat="48.70362" lon="2.60699"><ele>89.1</ele></trkpt>
    <trkpt lat="48.70366" lon="2.60673"><ele>89.3</ele></trkpt>
    <trkpt lat="48.70374" lon="2.60455"><ele>91.2</ele></trkpt>
    <trkpt lat="48.70402" lon="2.60297"><ele>92.2</ele></trkpt>
    <trkpt lat="48.70398" lon="2.60271"><ele>92.3</ele></trkpt>
    <trkpt lat="48.70407" lon="2.60248"><ele>92.3</ele></trkpt>
    <trkpt lat="48.70422" lon="2.60232"><ele>92.4</ele></trkpt>
    <trkpt lat="48.70432" lon="2.6021"><ele>92.4</ele></trkpt>
    <trkpt lat="48.70511" lon="2.60028"><ele>92.6</ele></trkpt>
    <trkpt lat="48.70617" lon="2.59775"><ele>93.4</ele></trkpt>
    <trkpt lat="48.70625" lon="2.59751"><ele>93.5</ele></trkpt>
    <trkpt lat="48.70627" lon="2.59725"><ele>93.6</ele></trkpt>
    <trkpt lat="48.70656" lon="2.59695"><ele>93.8</ele></trkpt>
    <trkpt lat="48.70841" lon="2.5926"><ele>94.9</ele></trkpt>
    <trkpt lat="48.70896" lon="2.59153"><ele>95.0</ele></trkpt>
    <trkpt lat="48.70911" lon="2.59152"><ele>95.1</ele></trkpt>
    <trkpt lat="48.70928" lon="2.59161"><ele>95.2</ele></trkpt>
    <trkpt lat="48.70945" lon="2.59155"><ele>95.3</ele></trkpt>
    <trkpt lat="48.71055" lon="2.59063"><ele>95.1</ele></trkpt>
    <trkpt lat="48.71065" lon="2.59073"><ele>95.0</ele></trkpt>
    <trkpt lat="48.71097" lon="2.59285"><ele>94.9</ele></trkpt>
    <trkpt lat="48.7114" lon="2.59404"><ele>94.8</ele></trkpt>
    <trkpt lat="48.71154" lon="2.59419"><ele>94.8</ele></trkpt>
    <trkpt lat="48.71322" lon="2.59261"><ele>94.1</ele></trkpt>
    <trkpt lat="48.71375" lon="2.59266"><ele>93.7</ele></trkpt>
    <trkpt lat="48.71408" lon="2.59244"><ele>93.2</ele></trkpt>
    <trkpt lat="48.71512" lon="2.59137"><ele>90.1</ele></trkpt>
    <trkpt lat="48.71525" lon="2.59117"><ele>89.7</ele></trkpt>
    <trkpt lat="48.7154" lon="2.59039"><ele>89.2</ele></trkpt>
    <trkpt lat="48.7155" lon="2.59017"><ele>89.0</ele></trkpt>
    <trkpt lat="48.71566" lon="2.59003"><ele>88.9</ele></trkpt>
    <trkpt lat="48.71763" lon="2.58975"><ele>82.5</ele></trkpt>
    <trkpt lat="48.71835" lon="2.5897"><ele>76.8</ele></trkpt>
    <trkpt lat="48.71923" lon="2.5895"><ele>71.2</ele></trkpt>
    <trkpt lat="48.72067" lon="2.58937"><ele>70.1</ele></trkpt>
    <trkpt lat="48.72082" lon="2.5893"><ele>70.4</ele></trkpt>
    <trkpt lat="48.72084" lon="2.58904"><ele>70.4</ele></trkpt>
    <trkpt lat="48.72059" lon="2.58832"><ele>69.8</ele></trkpt>
    <trkpt lat="48.72054" lon="2.58807"><ele>69.5</ele></trkpt>
    <trkpt lat="48.7206" lon="2.58698"><ele>69.0</ele></trkpt>
    <trkpt lat="48.72067" lon="2.58674"><ele>68.8</ele></trkpt>
    <trkpt lat="48.721" lon="2.58609"><ele>68.0</ele></trkpt>
    <trkpt lat="48.72168" lon="2.58522"><ele>66.8</ele></trkpt>
    <trkpt lat="48.7219" lon="2.58447"><ele>66.6</ele></trkpt>
    <trkpt lat="48.72207" lon="2.58341"><ele>66.5</ele></trkpt>
    <trkpt lat="48.72205" lon="2.5826"><ele>66.5</ele></trkpt>
    <trkpt lat="48.722" lon="2.58234"><ele>66.5</ele></trkpt>
    <trkpt lat="48.7219" lon="2.58213"><ele>66.6</ele></trkpt>
    <trkpt lat="48.72159" lon="2.58187"><ele>66.7</ele></trkpt>
    <trkpt lat="48.72146" lon="2.58169"><ele>66.8</ele></trkpt>
    <trkpt lat="48.72208" lon="2.58003"><ele>67.7</ele></trkpt>
    <trkpt lat="48.72205" lon="2.57976"><ele>68.3</ele></trkpt>
    <trkpt lat="48.72193" lon="2.57957"><ele>68.9</ele></trkpt>
    <trkpt lat="48.72179" lon="2.57907"><ele>70.9</ele></trkpt>
    <trkpt lat="48.72165" lon="2.57892"><ele>72.3</ele></trkpt>
    <trkpt lat="48.72061" lon="2.57847"><ele>78.7</ele></trkpt>
    <trkpt lat="48.72057" lon="2.57835"><ele>78.5</ele></trkpt>
    <trkpt lat="48.72102" lon="2.57749"><ele>75.3</ele></trkpt>
    <trkpt lat="48.72118" lon="2.57701"><ele>74.0</ele></trkpt>
    <trkpt lat="48.72132" lon="2.5765"><ele>73.0</ele></trkpt>
    <trkpt lat="48.72168" lon="2.57467"><ele>69.9</ele></trkpt>
    <trkpt lat="48.7218" lon="2.57449"><ele>69.5</ele></trkpt>
    <trkpt lat="48.72241" lon="2.57392"><ele>67.9</ele></trkpt>
    <trkpt lat="48.72327" lon="2.57357"><ele>66.7</ele></trkpt>
    <trkpt lat="48.72351" lon="2.57317"><ele>67.3</ele></trkpt>
    <trkpt lat="48.72404" lon="2.57325"><ele>68.6</ele></trkpt>
    <trkpt lat="48.72597" lon="2.57391"><ele>77.8</ele></trkpt>
    <trkpt lat="48.72682" lon="2.57434"><ele>82.9</ele></trkpt>
    <trkpt lat="48.72842" lon="2.57463"><ele>88.7</ele></trkpt>
    <trkpt lat="48.72891" lon="2.57495"><ele>89.7</ele></trkpt>
    <trkpt lat="48.72909" lon="2.57494"><ele>90.0</ele></trkpt>
    <trkpt lat="48.72997" lon="2.57518"><ele>91.0</ele></trkpt>
    <trkpt lat="48.73122" lon="2.57536"><ele>92.1</ele></trkpt>
    <trkpt lat="48.73194" lon="2.57536"><ele>92.8</ele></trkpt>
    <trkpt lat="48.73284" lon="2.57525"><ele>93.9</ele></trkpt>
    <trkpt lat="48.73495" lon="2.57459"><ele>96.6</ele></trkpt>
    <trkpt lat="48.73584" lon="2.5746"><ele>97.1</ele></trkpt>
    <trkpt lat="48.73702" lon="2.57392"><ele>97.1</ele></trkpt>
    <trkpt lat="48.73719" lon="2.57385"><ele>97.3</ele></trkpt>
    <trkpt lat="48.73736" lon="2.57388"><ele>97.4</ele></trkpt>
    <trkpt lat="48.74122" lon="2.57617"><ele>97.7</ele></trkpt>
    <trkpt lat="48.74761" lon="2.57983"><ele>98.5</ele></trkpt>
    <trkpt lat="48.74776" lon="2.57998"><ele>98.5</ele></trkpt>
    <trkpt lat="48.74786" lon="2.5802"><ele>98.6</ele></trkpt>
    <trkpt lat="48.7485" lon="2.58184"><ele>99.1</ele></trkpt>
    <trkpt lat="48.74865" lon="2.58188"><ele>99.2</ele></trkpt>
    <trkpt lat="48.76214" lon="2.57709"><ele>101.9</ele></trkpt>
    <trkpt lat="48.7623" lon="2.57713"><ele>101.9</ele></trkpt>
    <trkpt lat="48.76437" lon="2.58985"><ele>104.5</ele></trkpt>
    <trkpt lat="48.76449" lon="2.58996"><ele>105.2</ele></trkpt>
    <trkpt lat="48.76513" lon="2.58947"><ele>106.5</ele></trkpt>
    <trkpt lat="48.76607" lon="2.58867"><ele>106.9</ele></trkpt>
    <trkpt lat="48.76622" lon="2.58852"><ele>106.9</ele></trkpt>
    <trkpt lat="48.76629" lon="2.58829"><ele>106.8</ele></trkpt>
    <trkpt lat="48.76624" lon="2.58775"><ele>106.8</ele></trkpt>
    <trkpt lat="48.76628" lon="2.58749"><ele>106.7</ele></trkpt>
    <trkpt lat="48.76662" lon="2.58687"><ele>106.8</ele></trkpt>
    <trkpt lat="48.76668" lon="2.58663"><ele>106.8</ele></trkpt>
    <trkpt lat="48.76665" lon="2.5839"><ele>106.5</ele></trkpt>
    <trkpt lat="48.76654" lon="2.58339"><ele>106.4</ele></trkpt>
    <trkpt lat="48.76661" lon="2.58258"><ele>106.3</ele></trkpt>
    <trkpt lat="48.76666" lon="2.58232"><ele>106.3</ele></trkpt>
    <trkpt lat="48.76688" lon="2.58189"><ele>106.3</ele></trkpt>
    <trkpt lat="48.76714" lon="2.58118"><ele>106.2</ele></trkpt>
    <trkpt lat="48.76743" lon="2.58088"><ele>106.0</ele></trkpt>
    <trkpt lat="48.76795" lon="2.58066"><ele>105.8</ele></trkpt>
    <trkpt lat="48.76799" lon="2.58044"><ele>105.8</ele></trkpt>
    <trkpt lat="48.76798" lon="2.57907"><ele>105.6</ele></trkpt>
    <trkpt lat="48.76783" lon="2.57746"><ele>105.2</ele></trkpt>
    <trkpt lat="48.76788" lon="2.5772"><ele>105.1</ele></trkpt>
    <trkpt lat="48.76799" lon="2.57698"><ele>105.1</ele></trkpt>
    <trkpt lat="48.76834" lon="2.57636"><ele>105.3</ele></trkpt>
    <trkpt lat="48.7685" lon="2.57623"><ele>105.4</ele></trkpt>
    <trkpt lat="48.76849" lon="2.57597"><ele>105.5</ele></trkpt>
    <trkpt lat="48.76817" lon="2.5747"><ele>105.9</ele></trkpt>
    <trkpt lat="48.768" lon="2.57365"><ele>105.7</ele></trkpt>
    <trkpt lat="48.76769" lon="2.57298"><ele>105.5</ele></trkpt>
    <trkpt lat="48.76745" lon="2.57224"><ele>105.3</ele></trkpt>
    <trkpt lat="48.7668" lon="2.57062"><ele>104.6</ele></trkpt>
    <trkpt lat="48.76638" lon="2.56974"><ele>104.1</ele></trkpt>
    <trkpt lat="48.76587" lon="2.56896"><ele>107.6</ele></trkpt>
    <trkpt lat="48.76557" lon="2.56868"><ele>107.1</ele></trkpt>
    <trkpt lat="48.76522" lon="2.56854"><ele>106.4</ele></trkpt>
    <trkpt lat="48.76514" lon="2.56835"><ele>106.2</ele></trkpt>
    <trkpt lat="48.76514" lon="2.56808"><ele>106.1</ele></trkpt>
    <trkpt lat="48.76506" lon="2.56786"><ele>106.1</ele></trkpt>
    <trkpt lat="48.7646" lon="2.56745"><ele>105.8</ele></trkpt>
    <trkpt lat="48.76458" lon="2.56725"><ele>105.9</ele></trkpt>
    <trkpt lat="48.76479" lon="2.56681"><ele>106.5</ele></trkpt>
    <trkpt lat="48.76495" lon="2.56672"><ele>106.8</ele></trkpt>
    <trkpt lat="48.76513" lon="2.5667"><ele>106.9</ele></trkpt>
    <trkpt lat="48.76567" lon="2.56601"><ele>105.1</ele></trkpt>
    <trkpt lat="48.76596" lon="2.56532"><ele>104.5</ele></trkpt>
    <trkpt lat="48.76646" lon="2.56454"><ele>103.8</ele></trkpt>
    <trkpt lat="48.76737" lon="2.56321"><ele>103.6</ele></trkpt>
    <trkpt lat="48.76823" lon="2.56225"><ele>104.6</ele></trkpt>
    <trkpt lat="48.76828" lon="2.56203"><ele>104.8</ele></trkpt>
    <trkpt lat="48.76624" lon="2.55936"><ele>103.1</ele></trkpt>
    <trkpt lat="48.76626" lon="2.55913"><ele>103.2</ele></trkpt>
    <trkpt lat="48.76777" lon="2.55607"><ele>102.9</ele></trkpt>
    <trkpt lat="48.76784" lon="2.55583"><ele>102.3</ele></trkpt>
    <trkpt lat="48.76776" lon="2.55562"><ele>101.7</ele></trkpt>
    <trkpt lat="48.76541" lon="2.55266"><ele>100.9</ele></trkpt>
    <trkpt lat="48.76518" lon="2.55224"><ele>101.0</ele></trkpt>
    <trkpt lat="48.76556" lon="2.55015"><ele>100.5</ele></trkpt>
    <trkpt lat="48.76536" lon="2.5469"><ele>98.6</ele></trkpt>
    <trkpt lat="48.76521" lon="2.54336"><ele>95.5</ele></trkpt>
    <trkpt lat="48.76537" lon="2.54202"><ele>94.3</ele></trkpt>
    <trkpt lat="48.76589" lon="2.54028"><ele>92.9</ele></trkpt>
    <trkpt lat="48.76603" lon="2.54037"><ele>92.8</ele></trkpt>
    <trkpt lat="48.76606" lon="2.54032"><ele>92.6</ele></trkpt>
    <trkpt lat="48.766" lon="2.54009"><ele>92.4</ele></trkpt>
    <trkpt lat="48.7661" lon="2.53989"><ele>92.2</ele></trkpt>
    <trkpt lat="48.7664" lon="2.53957"><ele>91.5</ele></trkpt>
    <trkpt lat="48.76656" lon="2.53947"><ele>91.1</ele></trkpt>
    <trkpt lat="48.76709" lon="2.53935"><ele>90.0</ele></trkpt>
    <trkpt lat="48.76781" lon="2.53942"><ele>88.2</ele></trkpt>
    <trkpt lat="48.76969" lon="2.54029"><ele>82.8</ele></trkpt>
    <trkpt lat="48.77005" lon="2.54023"><ele>81.6</ele></trkpt>
    <trkpt lat="48.77057" lon="2.54002"><ele>79.7</ele></trkpt>
    <trkpt lat="48.77105" lon="2.53964"><ele>77.8</ele></trkpt>
    <trkpt lat="48.77147" lon="2.53914"><ele>76.1</ele></trkpt>
    <trkpt lat="48.77194" lon="2.53874"><ele>74.5</ele></trkpt>
    <trkpt lat="48.77286" lon="2.53707"><ele>71.6</ele></trkpt>
    <trkpt lat="48.77299" lon="2.53687"><ele>71.2</ele></trkpt>
    <trkpt lat="48.77329" lon="2.53659"><ele>70.4</ele></trkpt>
    <trkpt lat="48.77345" lon="2.53646"><ele>70.0</ele></trkpt>
    <trkpt lat="48.77363" lon="2.53641"><ele>69.5</ele></trkpt>
    <trkpt lat="48.77416" lon="2.53639"><ele>68.0</ele></trkpt>
    <trkpt lat="48.77572" lon="2.53573"><ele>63.1</ele></trkpt>
    <trkpt lat="48.77642" lon="2.53554"><ele>61.0</ele></trkpt>
    <trkpt lat="48.77658" lon="2.53542"><ele>60.5</ele></trkpt>
    <trkpt lat="48.77667" lon="2.53518"><ele>60.0</ele></trkpt>
    <trkpt lat="48.77672" lon="2.53492"><ele>59.6</ele></trkpt>
    <trkpt lat="48.77669" lon="2.53465"><ele>59.1</ele></trkpt>
    <trkpt lat="48.77675" lon="2.53446"><ele>58.7</ele></trkpt>
    <trkpt lat="48.77818" lon="2.53424"><ele>57.3</ele></trkpt>
    <trkpt lat="48.77835" lon="2.53427"><ele>57.4</ele></trkpt>
    <trkpt lat="48.7785" lon="2.53441"><ele>57.6</ele></trkpt>
    <trkpt lat="48.77859" lon="2.53464"><ele>58.4</ele></trkpt>
    <trkpt lat="48.77874" lon="2.53472"><ele>59.4</ele></trkpt>
    <trkpt lat="48.7803" lon="2.53409"><ele>73.9</ele></trkpt>
    <trkpt lat="48.78151" lon="2.53354"><ele>84.1</ele></trkpt>
    <trkpt lat="48.78252" lon="2.53298"><ele>91.5</ele></trkpt>
    <trkpt lat="48.78265" lon="2.53309"><ele>92.5</ele></trkpt>
    <trkpt lat="48.78714" lon="2.54364"><ele>97.8</ele></trkpt>
    <trkpt lat="48.7871" lon="2.54384"><ele>97.8</ele></trkpt>
    <trkpt lat="48.7867" lon="2.5444"><ele>97.8</ele></trkpt>
  </trkseg></trk>
</gpx>
