<?xml version="1.0" encoding="UTF-8"?>
<gpx version="1.1" creator="USO Cyclisme" xmlns="http://www.topografix.com/GPX/1/1">
  <metadata><name>Gretz-Armainvilliers – 63 km</name><desc>Gravel, 62.7 km, D+ 134 m. Départ et arrivée : centre culturel d'Ormesson-sur-Marne.</desc></metadata>
  <trk><name>Gretz-Armainvilliers – 63 km (gravel)</name><trkseg>
    <trkpt lat="48.78667" lon="2.54444"><ele>97.9</ele></trkpt>
    <trkpt lat="48.78735" lon="2.54412"><ele>99.1</ele></trkpt>
    <trkpt lat="48.78746" lon="2.54429"><ele>99.6</ele></trkpt>
    <trkpt lat="48.78948" lon="2.54249"><ele>102.0</ele></trkpt>
    <trkpt lat="48.78975" lon="2.54214"><ele>102.3</ele></trkpt>
    <trkpt lat="48.79042" lon="2.54086"><ele>103.1</ele></trkpt>
    <trkpt lat="48.79052" lon="2.54063"><ele>103.2</ele></trkpt>
    <trkpt lat="48.79042" lon="2.5405"><ele>103.3</ele></trkpt>
    <trkpt lat="48.78971" lon="2.54029"><ele>103.6</ele></trkpt>
    <trkpt lat="48.7896" lon="2.54017"><ele>103.7</ele></trkpt>
    <trkpt lat="48.79125" lon="2.53855"><ele>104.2</ele></trkpt>
    <trkpt lat="48.79209" lon="2.53324"><ele>104.9</ele></trkpt>
    <trkpt lat="48.79214" lon="2.53298"><ele>104.9</ele></trkpt>
    <trkpt lat="48.79227" lon="2.53279"><ele>104.9</ele></trkpt>
    <trkpt lat="48.79243" lon="2.53274"><ele>105.1</ele></trkpt>
    <trkpt lat="48.79366" lon="2.53317"><ele>104.7</ele></trkpt>
    <trkpt lat="48.79472" lon="2.53344"><ele>103.5</ele></trkpt>
    <trkpt lat="48.79487" lon="2.53355"><ele>103.3</ele></trkpt>
    <trkpt lat="48.79533" lon="2.53503"><ele>102.4</ele></trkpt>
    <trkpt lat="48.79447" lon="2.53499"><ele>102.3</ele></trkpt>
    <trkpt lat="48.79431" lon="2.53508"><ele>102.3</ele></trkpt>
    <trkpt lat="48.79387" lon="2.53627"><ele>102.3</ele></trkpt>
    <trkpt lat="48.79342" lon="2.53776"><ele>102.4</ele></trkpt>
    <trkpt lat="48.79292" lon="2.53981"><ele>102.4</ele></trkpt>
    <trkpt lat="48.79263" lon="2.54167"><ele>102.4</ele></trkpt>
    <trkpt lat="48.79228" lon="2.54322"><ele>102.4</ele></trkpt>
    <trkpt lat="48.79148" lon="2.54566"><ele>102.2</ele></trkpt>
    <trkpt lat="48.79142" lon="2.5462"><ele>102.2</ele></trkpt>
    <trkpt lat="48.79109" lon="2.54718"><ele>102.0</ele></trkpt>
    <trkpt lat="48.7912" lon="2.54767"><ele>101.9</ele></trkpt>
    <trkpt lat="48.79122" lon="2.54904"><ele>101.7</ele></trkpt>
    <trkpt lat="48.79128" lon="2.54929"><ele>101.7</ele></trkpt>
    <trkpt lat="48.79554" lon="2.55024"><ele>101.3</ele></trkpt>
    <trkpt lat="48.79621" lon="2.54935"><ele>101.4</ele></trkpt>
    <trkpt lat="48.79631" lon="2.54951"><ele>101.4</ele></trkpt>
    <trkpt lat="48.79688" lon="2.55435"><ele>101.1</ele></trkpt>
    <trkpt lat="48.79694" lon="2.55459"><ele>101.1</ele></trkpt>
    <trkpt lat="48.79711" lon="2.55464"><ele>101.1</ele></trkpt>
    <trkpt lat="48.79817" lon="2.55431"><ele>101.1</ele></trkpt>
    <trkpt lat="48.79835" lon="2.55409"><ele>101.1</ele></trkpt>
    <trkpt lat="48.79935" lon="2.56242"><ele>101.8</ele></trkpt>
    <trkpt lat="48.79936" lon="2.56268"><ele>101.8</ele></trkpt>
    <trkpt lat="48.79931" lon="2.56292"><ele>101.8</ele></trkpt>
    <trkpt lat="48.79947" lon="2.56338"><ele>101.9</ele></trkpt>
    <trkpt lat="48.79969" lon="2.56526"><ele>102.2</ele></trkpt>
    <trkpt lat="48.80001" lon="2.56535"><ele>102.2</ele></trkpt>
    <trkpt lat="48.80078" lon="2.5665"><ele>102.4</ele></trkpt>
    <trkpt lat="48.80095" lon="2.56651"><ele>102.4</ele></trkpt>
    <trkpt lat="48.80127" lon="2.56628"><ele>102.4</ele></trkpt>
    <trkpt lat="48.80144" lon="2.56637"><ele>102.4</ele></trkpt>
    <trkpt lat="48.80501" lon="2.57214"><ele>105.4</ele></trkpt>
    <trkpt lat="48.80509" lon="2.57233"><ele>105.5</ele></trkpt>
    <trkpt lat="48.80178" lon="2.57509"><ele>105.3</ele></trkpt>
    <trkpt lat="48.80143" lon="2.57524"><ele>105.2</ele></trkpt>
    <trkpt lat="48.80113" lon="2.57528"><ele>105.1</ele></trkpt>
    <trkpt lat="48.80094" lon="2.57573"><ele>105.0</ele></trkpt>
    <trkpt lat="48.80081" lon="2.57591"><ele>105.0</ele></trkpt>
    <trkpt lat="48.80018" lon="2.57644"><ele>105.1</ele></trkpt>
    <trkpt lat="48.79975" lon="2.5769"><ele>105.3</ele></trkpt>
    <trkpt lat="48.79963" lon="2.5771"><ele>105.4</ele></trkpt>
    <trkpt lat="48.79967" lon="2.57735"><ele>105.5</ele></trkpt>
    <trkpt lat="48.80064" lon="2.58028"><ele>106.7</ele></trkpt>
    <trkpt lat="48.80066" lon="2.58055"><ele>106.7</ele></trkpt>
    <trkpt lat="48.80052" lon="2.5807"><ele>106.7</ele></trkpt>
    <trkpt lat="48.80034" lon="2.58077"><ele>106.8</ele></trkpt>
    <trkpt lat="48.79922" lon="2.58159"><ele>106.7</ele></trkpt>
    <trkpt lat="48.79931" lon="2.58211"><ele>106.7</ele></trkpt>
    <trkpt lat="48.79923" lon="2.58231"><ele>106.6</ele></trkpt>
    <trkpt lat="48.79842" lon="2.58291"><ele>106.1</ele></trkpt>
    <trkpt lat="48.7983" lon="2.58308"><ele>105.9</ele></trkpt>
    <trkpt lat="48.7984" lon="2.58358"><ele>105.6</ele></trkpt>
    <trkpt lat="48.79841" lon="2.58385"><ele>105.5</ele></trkpt>
    <trkpt lat="48.79333" lon="2.58734"><ele>100.4</ele></trkpt>
    <trkpt lat="48.79324" lon="2.58758"><ele>100.4</ele></trkpt>
    <trkpt lat="48.79322" lon="2.58838"><ele>100.4</ele></trkpt>
    <trkpt lat="48.79741" lon="2.59154"><ele>101.9</ele></trkpt>
    <trkpt lat="48.79952" lon="2.5922"><ele>103.0</ele></trkpt>
    <trkpt lat="48.79965" lon="2.59238"><ele>103.2</ele></trkpt>
    <trkpt lat="48.79998" lon="2.59303"><ele>103.7</ele></trkpt>
    <trkpt lat="48.80013" lon="2.59317"><ele>103.8</ele></trkpt>
    <trkpt lat="48.80566" lon="2.59644"><ele>106.1</ele></trkpt>
    <trkpt lat="48.80582" lon="2.59641"><ele>106.2</ele></trkpt>
    <trkpt lat="48.80594" lon="2.59621"><ele>106.3</ele></trkpt>
    <trkpt lat="48.80651" lon="2.59482"><ele>107.1</ele></trkpt>
    <trkpt lat="48.80664" lon="2.59431"><ele>107.4</ele></trkpt>
    <trkpt lat="48.80687" lon="2.59299"><ele>108.0</ele></trkpt>
    <trkpt lat="48.80716" lon="2.592"><ele>108.4</ele></trkpt>
    <trkpt lat="48.80729" lon="2.5919"><ele>108.4</ele></trkpt>
    <trkpt lat="48.80767" lon="2.59282"><ele>108.6</ele></trkpt>
    <trkpt lat="48.80852" lon="2.59422"><ele>108.9</ele></trkpt>
    <trkpt lat="48.80904" lon="2.59497"><ele>109.2</ele></trkpt>
    <trkpt lat="48.80974" lon="2.59583"><ele>109.5</ele></trkpt>
    <trkpt lat="48.8099" lon="2.59595"><ele>109.6</ele></trkpt>
    <trkpt lat="48.81026" lon="2.59604"><ele>109.8</ele></trkpt>
    <trkpt lat="48.8106" lon="2.5962"><ele>110.0</ele></trkpt>
    <trkpt lat="48.81114" lon="2.59631"><ele>110.3</ele></trkpt>
    <trkpt lat="48.81256" lon="2.59604"><ele>110.8</ele></trkpt>
    <trkpt lat="48.81361" lon="2.59567"><ele>111.0</ele></trkpt>
    <trkpt lat="48.81379" lon="2.59565"><ele>111.0</ele></trkpt>
    <trkpt lat="48.81413" lon="2.59582"><ele>110.8</ele></trkpt>
    <trkpt lat="48.81431" lon="2.59581"><ele>110.7</ele></trkpt>
    <trkpt lat="48.81536" lon="2.5955"><ele>110.2</ele></trkpt>
    <trkpt lat="48.81549" lon="2.59599"><ele>110.0</ele></trkpt>
    <trkpt lat="48.81547" lon="2.59626"><ele>109.9</ele></trkpt>
    <trkpt lat="48.81539" lon="2.59649"><ele>109.9</ele></trkpt>
    <trkpt lat="48.81483" lon="2.59717"><ele>109.9</ele></trkpt>
    <trkpt lat="48.81444" lon="2.59775"><ele>109.9</ele></trkpt>
    <trkpt lat="48.81393" lon="2.59887"><ele>109.9</ele></trkpt>
    <trkpt lat="48.81289" lon="2.60075"><ele>109.8</ele></trkpt>
    <trkpt lat="48.81184" lon="2.60297"><ele>109.3</ele></trkpt>
    <trkpt lat="48.81138" lon="2.60414"><ele>109.0</ele></trkpt>
    <trkpt lat="48.81115" lon="2.60488"><ele>108.9</ele></trkpt>
    <trkpt lat="48.81109" lon="2.60514"><ele>108.9</ele></trkpt>
    <trkpt lat="48.81111" lon="2.60565"><ele>108.9</ele></trkpt>
    <trkpt lat="48.81094" lon="2.60613"><ele>108.9</ele></trkpt>
    <trkpt lat="48.81092" lon="2.60639"><ele>108.9</ele></trkpt>
    <trkpt lat="48.81101" lon="2.60659"><ele>108.9</ele></trkpt>
    <trkpt lat="48.81152" lon="2.60685"><ele>109.0</ele></trkpt>
    <trkpt lat="48.81186" lon="2.60693"><ele>109.1</ele></trkpt>
    <trkpt lat="48.81217" lon="2.60721"><ele>109.1</ele></trkpt>
    <trkpt lat="48.81234" lon="2.60726"><ele>109.1</ele></trkpt>
    <trkpt lat="48.81261" lon="2.60694"><ele>109.2</ele></trkpt>
    <trkpt lat="48.81277" lon="2.60688"><ele>109.2</ele></trkpt>
    <trkpt lat="48.81293" lon="2.607"><ele>109.1</ele></trkpt>
    <trkpt lat="48.8132" lon="2.60769"><ele>109.1</ele></trkpt>
    <trkpt lat="48.81355" lon="2.60832"><ele>109.0</ele></trkpt>
    <trkpt lat="48.81383" lon="2.60866"><ele>108.9</ele></trkpt>
    <trkpt lat="48.81603" lon="2.60984"><ele>107.9</ele></trkpt>
    <trkpt lat="48.81609" lon="2.61008"><ele>107.8</ele></trkpt>
    <trkpt lat="48.81612" lon="2.6106"><ele>107.7</ele></trkpt>
    <trkpt lat="48.81594" lon="2.61059"><ele>107.6</ele></trkpt>
    <trkpt lat="48.81441" lon="2.6098"><ele>107.6</ele></trkpt>
    <trkpt lat="48.81352" lon="2.60956"><ele>107.9</ele></trkpt>
    <trkpt lat="48.81316" lon="2.60952"><ele>108.0</ele></trkpt>
    <trkpt lat="48.81281" lon="2.60957"><ele>108.1</ele></trkpt>
    <trkpt lat="48.81249" lon="2.6098"><ele>108.1</ele></trkpt>
    <trkpt lat="48.81211" lon="2.61039"><ele>108.3</ele></trkpt>
    <trkpt lat="48.81205" lon="2.61062"><ele>108.3</ele></trkpt>
    <trkpt lat="48.81214" lon="2.61086"><ele>108.4</ele></trkpt>
    <trkpt lat="48.81228" lon="2.61102"><ele>108.4</ele></trkpt>
    <trkpt lat="48.8123" lon="2.61128"><ele>108.5</ele></trkpt>
    <trkpt lat="48.81212" lon="2.61175"><ele>108.5</ele></trkpt>
    <trkpt lat="48.81169" lon="2.61355"><ele>108.8</ele></trkpt>
    <trkpt lat="48.8112" lon="2.615"><ele>108.8</ele></trkpt>
    <trkpt lat="48.81098" lon="2.61604"><ele>108.8</ele></trkpt>
    <trkpt lat="48.81046" lon="2.61779"><ele>108.7</ele></trkpt>
    <trkpt lat="48.81017" lon="2.61809"><ele>108.6</ele></trkpt>
    <trkpt lat="48.80949" lon="2.61779"><ele>108.5</ele></trkpt>
    <trkpt lat="48.80914" lon="2.61772"><ele>108.5</ele></trkpt>
    <trkpt lat="48.809" lon="2.61782"><ele>108.5</ele></trkpt>
    <trkpt lat="48.80878" lon="2.61822"><ele>108.6</ele></trkpt>
    <trkpt lat="48.80819" lon="2.62021"><ele>109.6</ele></trkpt>
    <trkpt lat="48.80805" lon="2.62032"><ele>109.7</ele></trkpt>
    <trkpt lat="48.8079" lon="2.62019"><ele>109.9</ele></trkpt>
    <trkpt lat="48.80758" lon="2.62076"><ele>110.3</ele></trkpt>
    <trkpt lat="48.80501" lon="2.62273"><ele>109.7</ele></trkpt>
    <trkpt lat="48.80488" lon="2.62292"><ele>109.6</ele></trkpt>
    <trkpt lat="48.8047" lon="2.62338"><ele>109.4</ele></trkpt>
    <trkpt lat="48.80406" lon="2.62534"><ele>109.5</ele></trkpt>
    <trkpt lat="48.80395" lon="2.62585"><ele>109.8</ele></trkpt>
    <trkpt lat="48.80409" lon="2.62599"><ele>109.9</ele></trkpt>
    <trkpt lat="48.80431" lon="2.62672"><ele>110.2</ele></trkpt>
    <trkpt lat="48.8043" lon="2.62726"><ele>110.6</ele></trkpt>
    <trkpt lat="48.804" lon="2.62825"><ele>110.4</ele></trkpt>
    <trkpt lat="48.80408" lon="2.62873"><ele>109.8</ele></trkpt>
    <trkpt lat="48.80406" lon="2.62955"><ele>109.4</ele></trkpt>
    <trkpt lat="48.80424" lon="2.63001"><ele>109.2</ele></trkpt>
    <trkpt lat="48.80427" lon="2.63027"><ele>109.1</ele></trkpt>
    <trkpt lat="48.80437" lon="2.63106"><ele>108.9</ele></trkpt>
    <trkpt lat="48.80439" lon="2.63188"><ele>108.8</ele></trkpt>
    <trkpt lat="48.80487" lon="2.63334"><ele>108.8</ele></trkpt>
    <trkpt lat="48.80585" lon="2.63529"><ele>109.0</ele></trkpt>
    <trkpt lat="48.80613" lon="2.63599"><ele>108.9</ele></trkpt>
    <trkpt lat="48.80646" lon="2.63783"><ele>108.4</ele></trkpt>
    <trkpt lat="48.80659" lon="2.6389"><ele>108.0</ele></trkpt>
    <trkpt lat="48.80656" lon="2.63917"><ele>108.0</ele></trkpt>
    <trkpt lat="48.80646" lon="2.63939"><ele>107.9</ele></trkpt>
    <trkpt lat="48.8059" lon="2.64006"><ele>107.7</ele></trkpt>
    <trkpt lat="48.80569" lon="2.64051"><ele>107.7</ele></trkpt>
    <trkpt lat="48.80547" lon="2.64125"><ele>107.8</ele></trkpt>
    <trkpt lat="48.80535" lon="2.64145"><ele>107.8</ele></trkpt>
    <trkpt lat="48.80501" lon="2.64155"><ele>108.0</ele></trkpt>
    <trkpt lat="48.80375" lon="2.64151"><ele>108.8</ele></trkpt>
    <trkpt lat="48.80363" lon="2.64167"><ele>108.9</ele></trkpt>
    <trkpt lat="48.80383" lon="2.64548"><ele>110.4</ele></trkpt>
    <trkpt lat="48.8042" lon="2.65092"><ele>110.6</ele></trkpt>
    <trkpt lat="48.80469" lon="2.65522"><ele>111.4</ele></trkpt>
    <trkpt lat="48.80511" lon="2.65816"><ele>111.8</ele></trkpt>
    <trkpt lat="48.80563" lon="2.66245"><ele>112.7</ele></trkpt>
    <trkpt lat="48.80395" lon="2.66788"><ele>112.4</ele></trkpt>
    <trkpt lat="48.80392" lon="2.66814"><ele>112.4</ele></trkpt>
    <trkpt lat="48.80395" lon="2.66868"><ele>112.5</ele></trkpt>
    <trkpt lat="48.80386" lon="2.6692"><ele>112.5</ele></trkpt>
    <trkpt lat="48.80376" lon="2.66943"><ele>112.5</ele></trkpt>
    <trkpt lat="48.80321" lon="2.67011"><ele>112.6</ele></trkpt>
    <trkpt lat="48.80138" lon="2.67575"><ele>112.6</ele></trkpt>
    <trkpt lat="48.80125" lon="2.67625"><ele>112.6</ele></trkpt>
    <trkpt lat="48.80086" lon="2.68223"><ele>111.1</ele></trkpt>
    <trkpt lat="48.80036" lon="2.68902"><ele>113.1</ele></trkpt>
    <trkpt lat="48.80034" lon="2.68929"><ele>113.2</ele></trkpt>
    <trkpt lat="48.80039" lon="2.68951"><ele>113.5</ele></trkpt>
    <trkpt lat="48.80698" lon="2.68393"><ele>114.4</ele></trkpt>
    <trkpt lat="48.80778" lon="2.68333"><ele>115.1</ele></trkpt>
    <trkpt lat="48.8087" lon="2.68248"><ele>115.6</ele></trkpt>
    <trkpt lat="48.8103" lon="2.68123"><ele>115.6</ele></trkpt>
    <trkpt lat="48.81046" lon="2.68132"><ele>115.6</ele></trkpt>
    <trkpt lat="48.81551" lon="2.69092"><ele>115.9</ele></trkpt>
    <trkpt lat="48.81558" lon="2.69117"><ele>115.8</ele></trkpt>
    <trkpt lat="48.81561" lon="2.69744"><ele>112.9</ele></trkpt>
    <trkpt lat="48.81624" lon="2.69796"><ele>111.1</ele></trkpt>
    <trkpt lat="48.81693" lon="2.69822"><ele>110.8</ele></trkpt>
    <trkpt lat="48.81709" lon="2.69834"><ele>110.8</ele></trkpt>
    <trkpt lat="48.81741" lon="2.699"><ele>110.6</ele></trkpt>
    <trkpt lat="48.81767" lon="2.69936"><ele>110.4</ele></trkpt>
    <trkpt lat="48.81802" lon="2.6995"><ele>110.0</ele></trkpt>
    <trkpt lat="48.81884" lon="2.70006"><ele>108.4</ele></trkpt>
    <trkpt lat="48.82026" lon="2.70173"><ele>103.6</ele></trkpt>
    <trkpt lat="48.82031" lon="2.70196"><ele>102.8</ele></trkpt>
    <trkpt lat="48.8197" lon="2.70481"><ele>102.7</ele></trkpt>
    <trkpt lat="48.81969" lon="2.70508"><ele>102.8</ele></trkpt>
    <trkpt lat="48.81976" lon="2.70533"><ele>103.3</ele></trkpt>
    <trkpt lat="48.81989" lon="2.70549"><ele>104.4</ele></trkpt>
    <trkpt lat="48.81983" lon="2.70574"><ele>105.4</ele></trkpt>
    <trkpt lat="48.81995" lon="2.70593"><ele>106.5</ele></trkpt>
    <trkpt lat="48.82043" lon="2.7063"><ele>108.2</ele></trkpt>
    <trkpt lat="48.82076" lon="2.7062"><ele>109.1</ele></trkpt>
    <trkpt lat="48.82155" lon="2.70684"><ele>112.7</ele></trkpt>
    <trkpt lat="48.82189" lon="2.70701"><ele>113.9</ele></trkpt>
    <trkpt lat="48.82345" lon="2.70837"><ele>117.7</ele></trkpt>
    <trkpt lat="48.82359" lon="2.70853"><ele>118.0</ele></trkpt>
    <trkpt lat="48.82355" lon="2.70875"><ele>118.3</ele></trkpt>
    <trkpt lat="48.8169" lon="2.72235"><ele>119.0</ele></trkpt>
    <trkpt lat="48.81663" lon="2.72269"><ele>118.8</ele></trkpt>
    <trkpt lat="48.814" lon="2.72507"><ele>119.7</ele></trkpt>
    <trkpt lat="48.81383" lon="2.72516"><ele>119.6</ele></trkpt>
    <trkpt lat="48.8097" lon="2.72537"><ele>117.7</ele></trkpt>
    <trkpt lat="48.80682" lon="2.7254"><ele>116.6</ele></trkpt>
    <trkpt lat="48.80082" lon="2.72717"><ele>117.2</ele></trkpt>
    <trkpt lat="48.80059" lon="2.72757"><ele>117.3</ele></trkpt>
    <trkpt lat="48.79656" lon="2.73596"><ele>117.1</ele></trkpt>
    <trkpt lat="48.79644" lon="2.73615"><ele>117.1</ele></trkpt>
    <trkpt lat="48.76634" lon="2.72534"><ele>112.2</ele></trkpt>
    <trkpt lat="48.75354" lon="2.72087"><ele>111.2</ele></trkpt>
    <trkpt lat="48.75288" lon="2.72051"><ele>111.2</ele></trkpt>
    <trkpt lat="48.75221" lon="2.72245"><ele>111.2</ele></trkpt>
    <trkpt lat="48.752" lon="2.72289"><ele>111.1</ele></trkpt>
    <trkpt lat="48.75156" lon="2.72334"><ele>111.0</ele></trkpt>
    <trkpt lat="48.7492" lon="2.72468"><ele>109.9</ele></trkpt>
    <trkpt lat="48.74888" lon="2.72492"><ele>109.7</ele></trkpt>
    <trkpt lat="48.74425" lon="2.73099"><ele>108.0</ele></trkpt>
    <trkpt lat="48.744" lon="2.73138"><ele>107.8</ele></trkpt>
    <trkpt lat="48.74392" lon="2.73162"><ele>107.7</ele></trkpt>
    <trkpt lat="48.74359" lon="2.73375"><ele>106.7</ele></trkpt>
    <trkpt lat="48.74346" lon="2.73424"><ele>106.5</ele></trkpt>
    <trkpt lat="48.74333" lon="2.73443"><ele>106.5</ele></trkpt>
    <trkpt lat="48.74266" lon="2.73482"><ele>106.4</ele></trkpt>
    <trkpt lat="48.74249" lon="2.7349"><ele>106.4</ele></trkpt>
    <trkpt lat="48.74231" lon="2.73483"><ele>106.5</ele></trkpt>
    <trkpt lat="48.74218" lon="2.73466"><ele>106.6</ele></trkpt>
    <trkpt lat="48.74212" lon="2.73441"><ele>106.7</ele></trkpt>
    <trkpt lat="48.74156" lon="2.73182"><ele>107.2</ele></trkpt>
    <trkpt lat="48.74163" lon="2.73167"><ele>107.0</ele></trkpt>
    <trkpt lat="48.74231" lon="2.73135"><ele>106.8</ele></trkpt>
    <trkpt lat="48.74264" lon="2.73112"><ele>106.8</ele></trkpt>
    <trkpt lat="48.74304" lon="2.73058"><ele>106.9</ele></trkpt>
    <trkpt lat="48.74393" lon="2.72965"><ele>107.3</ele></trkpt>
    <trkpt lat="48.74458" lon="2.72836"><ele>107.7</ele></trkpt>
    <trkpt lat="48.74704" lon="2.72517"><ele>110.5</ele></trkpt>
    <trkpt lat="48.74724" lon="2.72473"><ele>111.3</ele></trkpt>
    <trkpt lat="48.74833" lon="2.72383"><ele>114.1</ele></trkpt>
    <trkpt lat="48.74862" lon="2.72351"><ele>114.7</ele></trkpt>
    <trkpt lat="48.749" lon="2.72293"><ele>115.5</ele></trkpt>
    <trkpt lat="48.7504" lon="2.71975"><ele>118.1</ele></trkpt>
    <trkpt lat="48.75131" lon="2.71679"><ele>117.2</ele></trkpt>
    <trkpt lat="48.75155" lon="2.71519"><ele>116.4</ele></trkpt>
    <trkpt lat="48.75267" lon="2.70944"><ele>113.8</ele></trkpt>
    <trkpt lat="48.75295" lon="2.70758"><ele>113.1</ele></trkpt>
    <trkpt lat="48.75367" lon="2.70678"><ele>113.1</ele></trkpt>
    <trkpt lat="48.75512" lon="2.7057"><ele>111.9</ele></trkpt>
    <trkpt lat="48.75517" lon="2.70519"><ele>111.0</ele></trkpt>
    <trkpt lat="48.75526" lon="2.70496"><ele>110.7</ele></trkpt>
    <trkpt lat="48.7556" lon="2.70501"><ele>110.7</ele></trkpt>
    <trkpt lat="48.75555" lon="2.70483"><ele>110.7</ele></trkpt>
    <trkpt lat="48.75537" lon="2.70479"><ele>110.7</ele></trkpt>
    <trkpt lat="48.75359" lon="2.70446"><ele>110.2</ele></trkpt>
    <trkpt lat="48.75305" lon="2.70443"><ele>110.0</ele></trkpt>
    <trkpt lat="48.74894" lon="2.70365"><ele>108.7</ele></trkpt>
    <trkpt lat="48.74878" lon="2.70359"><ele>108.7</ele></trkpt>
    <trkpt lat="48.74873" lon="2.70335"><ele>108.6</ele></trkpt>
    <trkpt lat="48.7488" lon="2.70282"><ele>108.3</ele></trkpt>
    <trkpt lat="48.74893" lon="2.70231"><ele>108.1</ele></trkpt>
    <trkpt lat="48.74911" lon="2.70184"><ele>107.8</ele></trkpt>
    <trkpt lat="48.75016" lon="2.69997"><ele>106.9</ele></trkpt>
    <trkpt lat="48.75138" lon="2.69695"><ele>107.8</ele></trkpt>
    <trkpt lat="48.7517" lon="2.69629"><ele>108.3</ele></trkpt>
    <trkpt lat="48.75248" lon="2.69516"><ele>109.3</ele></trkpt>
    <trkpt lat="48.75312" lon="2.69466"><ele>110.0</ele></trkpt>
    <trkpt lat="48.7534" lon="2.69434"><ele>110.4</ele></trkpt>
    <trkpt lat="48.75372" lon="2.69368"><ele>110.7</ele></trkpt>
    <trkpt lat="48.75446" lon="2.69061"><ele>111.6</ele></trkpt>
    <trkpt lat="48.75453" lon="2.68871"><ele>111.3</ele></trkpt>
    <trkpt lat="48.75465" lon="2.68736"><ele>110.7</ele></trkpt>
    <trkpt lat="48.75477" lon="2.68656"><ele>110.1</ele></trkpt>
    <trkpt lat="48.75496" lon="2.68579"><ele>109.5</ele></trkpt>
    <trkpt lat="48.75557" lon="2.68444"><ele>108.7</ele></trkpt>
    <trkpt lat="48.75616" lon="2.68342"><ele>108.2</ele></trkpt>
    <trkpt lat="48.75655" lon="2.68251"><ele>107.9</ele></trkpt>
    <trkpt lat="48.75701" lon="2.68073"><ele>107.6</ele></trkpt>
    <trkpt lat="48.75748" lon="2.67926"><ele>107.2</ele></trkpt>
    <trkpt lat="48.75771" lon="2.67884"><ele>107.1</ele></trkpt>
    <trkpt lat="48.75828" lon="2.67818"><ele>107.0</ele></trkpt>
    <trkpt lat="48.75866" lon="2.6776"><ele>106.9</ele></trkpt>
    <trkpt lat="48.75857" lon="2.67747"><ele>106.8</ele></trkpt>
    <trkpt lat="48.7584" lon="2.67738"><ele>106.8</ele></trkpt>
    <trkpt lat="48.7577" lon="2.67715"><ele>106.7</ele></trkpt>
    <trkpt lat="48.75737" lon="2.67695"><ele>106.6</ele></trkpt>
    <trkpt lat="48.75711" lon="2.67658"><ele>106.5</ele></trkpt>
    <trkpt lat="48.75697" lon="2.67608"><ele>106.4</ele></trkpt>
    <trkpt lat="48.75695" lon="2.67581"><ele>106.4</ele></trkpt>
    <trkpt lat="48.75703" lon="2.67528"><ele>106.3</ele></trkpt>
    <trkpt lat="48.75723" lon="2.67483"><ele>106.3</ele></trkpt>
    <trkpt lat="48.75737" lon="2.67467"><ele>106.3</ele></trkpt>
    <trkpt lat="48.75864" lon="2.67364"><ele>106.3</ele></trkpt>
    <trkpt lat="48.759" lon="2.67303"><ele>106.4</ele></trkpt>
    <trkpt lat="48.75914" lon="2.67254"><ele>106.4</ele></trkpt>
    <trkpt lat="48.75921" lon="2.672"><ele>106.3</ele></trkpt>
    <trkpt lat="48.75918" lon="2.67146"><ele>106.3</ele></trkpt>
    <trkpt lat="48.75907" lon="2.67094"><ele>106.3</ele></trkpt>
    <trkpt lat="48.75868" lon="2.66972"><ele>106.4</ele></trkpt>
    <trkpt lat="48.7586" lon="2.66891"><ele>106.4</ele></trkpt>
    <trkpt lat="48.75879" lon="2.66847"><ele>106.3</ele></trkpt>
    <trkpt lat="48.76117" lon="2.66402"><ele>105.8</ele></trkpt>
    <trkpt lat="48.76131" lon="2.66385"><ele>105.8</ele></trkpt>
    <trkpt lat="48.76148" lon="2.66386"><ele>105.8</ele></trkpt>
    <trkpt lat="48.76189" lon="2.66439"><ele>106.1</ele></trkpt>
    <trkpt lat="48.76186" lon="2.66419"><ele>106.2</ele></trkpt>
    <trkpt lat="48.76174" lon="2.664"><ele>106.3</ele></trkpt>
    <trkpt lat="48.76158" lon="2.66356"><ele>106.4</ele></trkpt>
    <trkpt lat="48.76118" lon="2.66301"><ele>105.9</ele></trkpt>
    <trkpt lat="48.76097" lon="2.66259"><ele>105.3</ele></trkpt>
    <trkpt lat="48.7608" lon="2.66251"><ele>104.9</ele></trkpt>
    <trkpt lat="48.76012" lon="2.66162"><ele>104.1</ele></trkpt>
    <trkpt lat="48.76003" lon="2.66138"><ele>104.0</ele></trkpt>
    <trkpt lat="48.75897" lon="2.65991"><ele>103.5</ele></trkpt>
    <trkpt lat="48.75812" lon="2.65851"><ele>103.6</ele></trkpt>
    <trkpt lat="48.75644" lon="2.65531"><ele>103.5</ele></trkpt>
    <trkpt lat="48.75526" lon="2.65325"><ele>103.5</ele></trkpt>
    <trkpt lat="48.75507" lon="2.65278"><ele>103.5</ele></trkpt>
    <trkpt lat="48.75458" lon="2.65103"><ele>103.3</ele></trkpt>
    <trkpt lat="48.75403" lon="2.64931"><ele>102.8</ele></trkpt>
    <trkpt lat="48.75367" lon="2.64776"><ele>101.1</ele></trkpt>
    <trkpt lat="48.75362" lon="2.64726"><ele>100.4</ele></trkpt>
    <trkpt lat="48.75371" lon="2.64705"><ele>100.0</ele></trkpt>
    <trkpt lat="48.75379" lon="2.64657"><ele>99.4</ele></trkpt>
    <trkpt lat="48.75333" lon="2.6454"><ele>99.9</ele></trkpt>
    <trkpt lat="48.75152" lon="2.64132"><ele>102.1</ele></trkpt>
    <trkpt lat="48.75106" lon="2.6405"><ele>101.4</ele></trkpt>
    <trkpt lat="48.75057" lon="2.64019"><ele>100.7</ele></trkpt>
    <trkpt lat="48.74998" lon="2.63957"><ele>100.3</ele></trkpt>
    <trkpt lat="48.74966" lon="2.63934"><ele>100.3</ele></trkpt>
    <trkpt lat="48.74854" lon="2.63797"><ele>99.9</ele></trkpt>
    <trkpt lat="48.74792" lon="2.63699"><ele>99.7</ele></trkpt>
    <trkpt lat="48.74785" lon="2.63674"><ele>99.2</ele></trkpt>
    <trkpt lat="48.74784" lon="2.63648"><ele>98.6</ele></trkpt>
    <trkpt lat="48.74789" lon="2.63622"><ele>97.8</ele></trkpt>
    <trkpt lat="48.74815" lon="2.63585"><ele>96.0</ele></trkpt>
    <trkpt lat="48.74861" lon="2.63543"><ele>93.7</ele></trkpt>
    <trkpt lat="48.74962" lon="2.63484"><ele>91.7</ele></trkpt>
    <trkpt lat="48.74975" lon="2.63467"><ele>91.7</ele></trkpt>
    <trkpt lat="48.75008" lon="2.63371"><ele>92.5</ele></trkpt>
    <trkpt lat="48.75025" lon="2.63293"><ele>93.2</ele></trkpt>
    <trkpt lat="48.75024" lon="2.63266"><ele>93.4</ele></trkpt>
    <trkpt lat="48.75012" lon="2.63216"><ele>93.8</ele></trkpt>
    <trkpt lat="48.7501" lon="2.63192"><ele>94.1</ele></trkpt>
    <trkpt lat="48.75023" lon="2.63176"><ele>94.4</ele></trkpt>
    <trkpt lat="48.75151" lon="2.63075"><ele>96.5</ele></trkpt>
    <trkpt lat="48.75386" lon="2.62875"><ele>99.7</ele></trkpt>
    <trkpt lat="48.7542" lon="2.62856"><ele>100.2</ele></trkpt>
    <trkpt lat="48.75678" lon="2.63232"><ele>102.5</ele></trkpt>
    <trkpt lat="48.7572" lon="2.63272"><ele>103.3</ele></trkpt>
    <trkpt lat="48.7575" lon="2.63242"><ele>103.5</ele></trkpt>
    <trkpt lat="48.75981" lon="2.6309"><ele>104.5</ele></trkpt>
    <trkpt lat="48.76121" lon="2.6304"><ele>105.6</ele></trkpt>
    <trkpt lat="48.7635" lon="2.6297"><ele>107.4</ele></trkpt>
    <trkpt lat="48.76404" lon="2.62969"><ele>107.2</ele></trkpt>
    <trkpt lat="48.76475" lon="2.62958"><ele>106.4</ele></trkpt>
    <trkpt lat="48.76599" lon="2.62925"><ele>105.1</ele></trkpt>
    <trkpt lat="48.76755" lon="2.62789"><ele>104.3</ele></trkpt>
    <trkpt lat="48.76744" lon="2.62683"><ele>104.2</ele></trkpt>
    <trkpt lat="48.76746" lon="2.62656"><ele>104.2</ele></trkpt>
    <trkpt lat="48.76768" lon="2.62614"><ele>104.3</ele></trkpt>
    <trkpt lat="48.76768" lon="2.62587"><ele>104.3</ele></trkpt>
    <trkpt lat="48.76757" lon="2.62567"><ele>104.4</ele></trkpt>
    <trkpt lat="48.76722" lon="2.62561"><ele>104.5</ele></trkpt>
    <trkpt lat="48.76706" lon="2.62551"><ele>104.6</ele></trkpt>
    <trkpt lat="48.76691" lon="2.62536"><ele>104.7</ele></trkpt>
    <trkpt lat="48.76681" lon="2.62516"><ele>104.9</ele></trkpt>
    <trkpt lat="48.76853" lon="2.61541"><ele>106.2</ele></trkpt>
    <trkpt lat="48.76859" lon="2.61488"><ele>106.2</ele></trkpt>
    <trkpt lat="48.76799" lon="2.61117"><ele>104.5</ele></trkpt>
    <trkpt lat="48.76789" lon="2.61097"><ele>103.9</ele></trkpt>
    <trkpt lat="48.76775" lon="2.61086"><ele>103.5</ele></trkpt>
    <trkpt lat="48.76768" lon="2.61061"><ele>103.3</ele></trkpt>
    <trkpt lat="48.764" lon="2.58753"><ele>102.8</ele></trkpt>
    <trkpt lat="48.76232" lon="2.5772"><ele>100.9</ele></trkpt>
    <trkpt lat="48.76223" lon="2.57698"><ele>100.9</ele></trkpt>
    <trkpt lat="48.75952" lon="2.57429"><ele>100.2</ele></trkpt>
    <trkpt lat="48.7589" lon="2.57373"><ele>99.9</ele></trkpt>
    <trkpt lat="48.75772" lon="2.57249"><ele>99.2</ele></trkpt>
    <trkpt lat="48.75187" lon="2.56662"><ele>98.0</ele></trkpt>
    <trkpt lat="48.74793" lon="2.56279"><ele>97.3</ele></trkpt>
    <trkpt lat="48.74779" lon="2.56264"><ele>97.3</ele></trkpt>
    <trkpt lat="48.74757" lon="2.56222"><ele>97.2</ele></trkpt>
    <trkpt lat="48.74743" lon="2.56207"><ele>97.2</ele></trkpt>
    <trkpt lat="48.74708" lon="2.56194"><ele>97.1</ele></trkpt>
    <trkpt lat="48.74633" lon="2.56119"><ele>97.1</ele></trkpt>
    <trkpt lat="48.74591" lon="2.56068"><ele>97.1</ele></trkpt>
    <trkpt lat="48.74582" lon="2.56045"><ele>97.1</ele></trkpt>
    <trkpt lat="48.74569" lon="2.55883"><ele>97.2</ele></trkpt>
    <trkpt lat="48.7459" lon="2.55839"><ele>97.2</ele></trkpt>
    <trkpt lat="48.74649" lon="2.55737"><ele>96.9</ele></trkpt>
    <trkpt lat="48.74642" lon="2.55686"><ele>96.8</ele></trkpt>
    <trkpt lat="48.74631" lon="2.55671"><ele>96.7</ele></trkpt>
    <trkpt lat="48.74634" lon="2.55644"><ele>96.6</ele></trkpt>
    <trkpt lat="48.74886" lon="2.54449"><ele>96.7</ele></trkpt>
    <trkpt lat="48.74897" lon="2.5444"><ele>96.8</ele></trkpt>
    <trkpt lat="48.75314" lon="2.5476"><ele>97.1</ele></trkpt>
    <trkpt lat="48.75331" lon="2.54768"><ele>97.1</ele></trkpt>
    <trkpt lat="48.75341" lon="2.54781"><ele>97.1</ele></trkpt>
    <trkpt lat="48.75375" lon="2.55707"><ele>99.4</ele></trkpt>
    <trkpt lat="48.75384" lon="2.55725"><ele>99.6</ele></trkpt>
    <trkpt lat="48.75402" lon="2.55728"><ele>99.8</ele></trkpt>
    <trkpt lat="48.75528" lon="2.55732"><ele>101.0</ele></trkpt>
    <trkpt lat="48.75557" lon="2.55703"><ele>101.2</ele></trkpt>
    <trkpt lat="48.75855" lon="2.55351"><ele>100.4</ele></trkpt>
    <trkpt lat="48.76056" lon="2.55232"><ele>99.6</ele></trkpt>
    <trkpt lat="48.76101" lon="2.55054"><ele>99.7</ele></trkpt>
    <trkpt lat="48.76115" lon="2.5492"><ele>99.7</ele></trkpt>
    <trkpt lat="48.76124" lon="2.54897"><ele>99.7</ele></trkpt>
    <trkpt lat="48.7612" lon="2.54871"><ele>99.7</ele></trkpt>
    <trkpt lat="48.7612" lon="2.54817"><ele>99.7</ele></trkpt>
    <trkpt lat="48.76142" lon="2.54574"><ele>99.1</ele></trkpt>
    <trkpt lat="48.76227" lon="2.53932"><ele>98.5</ele></trkpt>
    <trkpt lat="48.76232" lon="2.53906"><ele>98.5</ele></trkpt>
    <trkpt lat="48.76285" lon="2.53763"><ele>98.0</ele></trkpt>
    <trkpt lat="48.76298" lon="2.53714"><ele>97.8</ele></trkpt>
    <trkpt lat="48.76328" lon="2.53647"><ele>97.4</ele></trkpt>
    <trkpt lat="48.76372" lon="2.5361"><ele>97.0</ele></trkpt>
    <trkpt lat="48.7639" lon="2.53609"><ele>96.9</ele></trkpt>
    <trkpt lat="48.76442" lon="2.53624"><ele>96.5</ele></trkpt>
    <trkpt lat="48.7646" lon="2.53619"><ele>96.3</ele></trkpt>
    <trkpt lat="48.76492" lon="2.53597"><ele>95.9</ele></trkpt>
    <trkpt lat="48.76519" lon="2.5356"><ele>95.6</ele></trkpt>
    <trkpt lat="48.76553" lon="2.53548"><ele>95.2</ele></trkpt>
    <trkpt lat="48.76571" lon="2.53549"><ele>95.1</ele></trkpt>
    <trkpt lat="48.76592" lon="2.53593"><ele>94.7</ele></trkpt>
    <trkpt lat="48.76619" lon="2.5363"><ele>94.3</ele></trkpt>
    <trkpt lat="48.7665" lon="2.53658"><ele>93.9</ele></trkpt>
    <trkpt lat="48.76699" lon="2.5369"><ele>93.4</ele></trkpt>
    <trkpt lat="48.76752" lon="2.53709"><ele>93.1</ele></trkpt>
    <trkpt lat="48.76823" lon="2.53712"><ele>93.0</ele></trkpt>
    <trkpt lat="48.76859" lon="2.53701"><ele>93.0</ele></trkpt>
    <trkpt lat="48.76893" lon="2.53684"><ele>93.0</ele></trkpt>
    <trkpt lat="48.76941" lon="2.53647"><ele>93.0</ele></trkpt>
    <trkpt lat="48.76969" lon="2.53614"><ele>93.1</ele></trkpt>
    <trkpt lat="48.77006" lon="2.53554"><ele>93.2</ele></trkpt>
    <trkpt lat="48.77023" lon="2.53506"><ele>93.4</ele></trkpt>
    <trkpt lat="48.77033" lon="2.53427"><ele>93.6</ele></trkpt>
    <trkpt lat="48.77115" lon="2.53282"><ele>92.7</ele></trkpt>
    <trkpt lat="48.77142" lon="2.53212"><ele>92.7</ele></trkpt>
    <trkpt lat="48.7716" lon="2.53134"><ele>93.4</ele></trkpt>
    <trkpt lat="48.77171" lon="2.52999"><ele>93.5</ele></trkpt>
    <trkpt lat="48.77169" lon="2.52945"><ele>93.6</ele></trkpt>
    <trkpt lat="48.77156" lon="2.52838"><ele>93.5</ele></trkpt>
    <trkpt lat="48.77159" lon="2.52811"><ele>93.2</ele></trkpt>
    <trkpt lat="48.77172" lon="2.5276"><ele>92.6</ele></trkpt>
    <trkpt lat="48.77186" lon="2.52753"><ele>92.1</ele></trkpt>
    <trkpt lat="48.77199" lon="2.5277"><ele>91.5</ele></trkpt>
    <trkpt lat="48.77235" lon="2.52864"><ele>89.1</ele></trkpt>
    <trkpt lat="48.77271" lon="2.52925"><ele>86.8</ele></trkpt>
    <trkpt lat="48.77621" lon="2.53395"><ele>63.6</ele></trkpt>
    <trkpt lat="48.77665" lon="2.53442"><ele>60.1</ele></trkpt>
    <trkpt lat="48.777" lon="2.53445"><ele>58.3</ele></trkpt>
    <trkpt lat="48.77826" lon="2.53425"><ele>57.4</ele></trkpt>
    <trkpt lat="48.77843" lon="2.53431"><ele>57.5</ele></trkpt>
    <trkpt lat="48.77865" lon="2.53472"><ele>58.7</ele></trkpt>
    <trkpt lat="48.77881" lon="2.5347"><ele>60.0</ele></trkpt>
    <trkpt lat="48.78038" lon="2.53407"><ele>74.6</ele></trkpt>
    <trkpt lat="48.7826" lon="2.53296"><ele>91.7</ele></trkpt>
    <trkpt lat="48.78553" lon="2.53984"><ele>94.8</ele></trkpt>
    <trkpt lat="48.78462" lon="2.54072"><ele>92.3</ele></trkpt>
    <trkpt lat="48.78459" lon="2.54097"><ele>92.0</ele></trkpt>
    <trkpt lat="48.78473" lon="2.54148"><ele>91.7</ele></trkpt>
    <trkpt lat="48.78482" lon="2.54201"><ele>91.6</ele></trkpt>
    <trkpt lat="48.78483" lon="2.54228"><ele>91.7</ele></trkpt>
    <trkpt lat="48.7847" lon="2.54335"><ele>92.0</ele></trkpt>
    <trkpt lat="48.7848" lon="2.54387"><ele>92.3</ele></trkpt>
    <trkpt lat="48.78566" lon="2.54658"><ele>96.0</ele></trkpt>
    <trkpt lat="48.78586" lon="2.547"><ele>96.7</ele></trkpt>
    <trkpt lat="48.78598" lon="2.54752"><ele>97.4</ele></trkpt>
    <trkpt lat="48.78639" lon="2.54874"><ele>99.0</ele></trkpt>
    <trkpt lat="48.78648" lon="2.54897"><ele>99.2</ele></trkpt>
    <trkpt lat="48.78659" lon="2.54894"><ele>99.4</ele></trkpt>
    <trkpt lat="48.78804" lon="2.54616"><ele>100.7</ele></trkpt>
    <trkpt lat="48.78808" lon="2.54592"><ele>100.6</ele></trkpt>
    <trkpt lat="48.78772" lon="2.54499"><ele>100.4</ele></trkpt>
    <trkpt lat="48.7867" lon="2.54446"><ele>98.3</ele></trkpt>
  </trkseg></trk>
</gpx>
