<?xml version="1.0" encoding="UTF-8"?>
<gpx version="1.1" creator="USO Cyclisme" xmlns="http://www.topografix.com/GPX/1/1">
  <metadata><name>Jossigny – 57 km</name><desc>Gravel, 57.3 km, D+ 140 m. Départ et arrivée : centre culturel d'Ormesson-sur-Marne.</desc></metadata>
  <trk><name>Jossigny – 57 km (gravel)</name><trkseg>
    <trkpt lat="48.78667" lon="2.54444"><ele>98.0</ele></trkpt>
    <trkpt lat="48.78716" lon="2.54411"><ele>98.0</ele></trkpt>
    <trkpt lat="48.78723" lon="2.54387"><ele>97.9</ele></trkpt>
    <trkpt lat="48.78197" lon="2.53149"><ele>89.5</ele></trkpt>
    <trkpt lat="48.78185" lon="2.53136"><ele>89.1</ele></trkpt>
    <trkpt lat="48.78102" lon="2.53188"><ele>85.8</ele></trkpt>
    <trkpt lat="48.781" lon="2.53209"><ele>85.3</ele></trkpt>
    <trkpt lat="48.78124" lon="2.53282"><ele>82.9</ele></trkpt>
    <trkpt lat="48.78128" lon="2.53308"><ele>81.7</ele></trkpt>
    <trkpt lat="48.78117" lon="2.53324"><ele>80.5</ele></trkpt>
    <trkpt lat="48.77909" lon="2.53413"><ele>63.7</ele></trkpt>
    <trkpt lat="48.77894" lon="2.53427"><ele>62.0</ele></trkpt>
    <trkpt lat="48.77873" lon="2.5347"><ele>59.4</ele></trkpt>
    <trkpt lat="48.77857" lon="2.53463"><ele>58.5</ele></trkpt>
    <trkpt lat="48.77849" lon="2.53439"><ele>57.7</ele></trkpt>
    <trkpt lat="48.77834" lon="2.53424"><ele>57.4</ele></trkpt>
    <trkpt lat="48.77674" lon="2.53449"><ele>58.8</ele></trkpt>
    <trkpt lat="48.77665" lon="2.53526"><ele>60.1</ele></trkpt>
    <trkpt lat="48.77653" lon="2.53546"><ele>60.6</ele></trkpt>
    <trkpt lat="48.77637" lon="2.53555"><ele>61.2</ele></trkpt>
    <trkpt lat="48.77566" lon="2.53575"><ele>63.3</ele></trkpt>
    <trkpt lat="48.77429" lon="2.53635"><ele>67.6</ele></trkpt>
    <trkpt lat="48.77393" lon="2.53643"><ele>68.7</ele></trkpt>
    <trkpt lat="48.77358" lon="2.53642"><ele>69.7</ele></trkpt>
    <trkpt lat="48.77341" lon="2.5365"><ele>70.2</ele></trkpt>
    <trkpt lat="48.77295" lon="2.53693"><ele>71.4</ele></trkpt>
    <trkpt lat="48.7719" lon="2.53879"><ele>74.7</ele></trkpt>
    <trkpt lat="48.77143" lon="2.53919"><ele>76.3</ele></trkpt>
    <trkpt lat="48.771" lon="2.53969"><ele>78.0</ele></trkpt>
    <trkpt lat="48.77052" lon="2.54005"><ele>79.8</ele></trkpt>
    <trkpt lat="48.77" lon="2.54025"><ele>81.7</ele></trkpt>
    <trkpt lat="48.76965" lon="2.54027"><ele>82.9</ele></trkpt>
    <trkpt lat="48.76776" lon="2.5394"><ele>88.4</ele></trkpt>
    <trkpt lat="48.76705" lon="2.53935"><ele>90.1</ele></trkpt>
    <trkpt lat="48.76652" lon="2.53949"><ele>91.3</ele></trkpt>
    <trkpt lat="48.76607" lon="2.53993"><ele>92.3</ele></trkpt>
    <trkpt lat="48.76587" lon="2.54038"><ele>92.9</ele></trkpt>
    <trkpt lat="48.76541" lon="2.54186"><ele>94.2</ele></trkpt>
    <trkpt lat="48.76531" lon="2.54238"><ele>94.6</ele></trkpt>
    <trkpt lat="48.76521" lon="2.54346"><ele>95.6</ele></trkpt>
    <trkpt lat="48.76535" lon="2.54673"><ele>98.4</ele></trkpt>
    <trkpt lat="48.76556" lon="2.54998"><ele>100.4</ele></trkpt>
    <trkpt lat="48.76555" lon="2.55025"><ele>100.5</ele></trkpt>
    <trkpt lat="48.76519" lon="2.55208"><ele>101.0</ele></trkpt>
    <trkpt lat="48.76521" lon="2.55235"><ele>101.2</ele></trkpt>
    <trkpt lat="48.77141" lon="2.56023"><ele>100.8</ele></trkpt>
    <trkpt lat="48.77152" lon="2.56042"><ele>100.9</ele></trkpt>
    <trkpt lat="48.77025" lon="2.56272"><ele>101.4</ele></trkpt>
    <trkpt lat="48.7698" lon="2.56317"><ele>101.5</ele></trkpt>
    <trkpt lat="48.76946" lon="2.56413"><ele>101.5</ele></trkpt>
    <trkpt lat="48.76112" lon="2.57915"><ele>104.5</ele></trkpt>
    <trkpt lat="48.76079" lon="2.58012"><ele>104.6</ele></trkpt>
    <trkpt lat="48.76044" lon="2.58138"><ele>104.8</ele></trkpt>
    <trkpt lat="48.76018" lon="2.58268"><ele>104.9</ele></trkpt>
    <trkpt lat="48.76003" lon="2.58375"><ele>104.8</ele></trkpt>
    <trkpt lat="48.75971" lon="2.58699"><ele>104.9</ele></trkpt>
    <trkpt lat="48.75946" lon="2.58858"><ele>105.1</ele></trkpt>
    <trkpt lat="48.75932" lon="2.58874"><ele>105.0</ele></trkpt>
    <trkpt lat="48.75527" lon="2.58999"><ele>103.4</ele></trkpt>
    <trkpt lat="48.75494" lon="2.59018"><ele>103.3</ele></trkpt>
    <trkpt lat="48.74692" lon="2.60454"><ele>99.6</ele></trkpt>
    <trkpt lat="48.74669" lon="2.60528"><ele>100.0</ele></trkpt>
    <trkpt lat="48.74647" lon="2.60569"><ele>100.2</ele></trkpt>
    <trkpt lat="48.74435" lon="2.612"><ele>97.9</ele></trkpt>
    <trkpt lat="48.74428" lon="2.61226"><ele>97.8</ele></trkpt>
    <trkpt lat="48.74438" lon="2.61273"><ele>97.6</ele></trkpt>
    <trkpt lat="48.74437" lon="2.61325"><ele>97.1</ele></trkpt>
    <trkpt lat="48.74432" lon="2.61351"><ele>96.9</ele></trkpt>
    <trkpt lat="48.744" lon="2.61478"><ele>96.2</ele></trkpt>
    <trkpt lat="48.74365" lon="2.6154"><ele>96.0</ele></trkpt>
    <trkpt lat="48.74348" lon="2.61588"><ele>95.8</ele></trkpt>
    <trkpt lat="48.74351" lon="2.61614"><ele>95.7</ele></trkpt>
    <trkpt lat="48.74428" lon="2.61684"><ele>94.5</ele></trkpt>
    <trkpt lat="48.74492" lon="2.61733"><ele>94.4</ele></trkpt>
    <trkpt lat="48.74506" lon="2.6175"><ele>94.6</ele></trkpt>
    <trkpt lat="48.74547" lon="2.61839"><ele>95.4</ele></trkpt>
    <trkpt lat="48.74537" lon="2.61862"><ele>95.4</ele></trkpt>
    <trkpt lat="48.74158" lon="2.62482"><ele>92.6</ele></trkpt>
    <trkpt lat="48.74032" lon="2.62676"><ele>98.8</ele></trkpt>
    <trkpt lat="48.74" lon="2.62699"><ele>98.8</ele></trkpt>
    <trkpt lat="48.73895" lon="2.62738"><ele>99.5</ele></trkpt>
    <trkpt lat="48.73663" lon="2.62884"><ele>98.9</ele></trkpt>
    <trkpt lat="48.73651" lon="2.62905"><ele>99.0</ele></trkpt>
    <trkpt lat="48.73608" lon="2.63024"><ele>98.8</ele></trkpt>
    <trkpt lat="48.73597" lon="2.6304"><ele>98.7</ele></trkpt>
    <trkpt lat="48.73596" lon="2.63091"><ele>99.2</ele></trkpt>
    <trkpt lat="48.73698" lon="2.63203"><ele>101.0</ele></trkpt>
    <trkpt lat="48.73729" lon="2.63229"><ele>101.1</ele></trkpt>
    <trkpt lat="48.73764" lon="2.63241"><ele>101.2</ele></trkpt>
    <trkpt lat="48.73836" lon="2.63246"><ele>101.6</ele></trkpt>
    <trkpt lat="48.7407" lon="2.63241"><ele>102.7</ele></trkpt>
    <trkpt lat="48.74159" lon="2.63264"><ele>102.4</ele></trkpt>
    <trkpt lat="48.74206" lon="2.63301"><ele>102.2</ele></trkpt>
    <trkpt lat="48.74309" lon="2.63412"><ele>101.8</ele></trkpt>
    <trkpt lat="48.7436" lon="2.63436"><ele>101.5</ele></trkpt>
    <trkpt lat="48.74431" lon="2.63452"><ele>101.0</ele></trkpt>
    <trkpt lat="48.74465" lon="2.63472"><ele>100.8</ele></trkpt>
    <trkpt lat="48.74528" lon="2.63524"><ele>100.2</ele></trkpt>
    <trkpt lat="48.74616" lon="2.63552"><ele>99.5</ele></trkpt>
    <trkpt lat="48.74672" lon="2.63618"><ele>99.9</ele></trkpt>
    <trkpt lat="48.7474" lon="2.63649"><ele>100.3</ele></trkpt>
    <trkpt lat="48.74827" lon="2.63786"><ele>99.9</ele></trkpt>
    <trkpt lat="48.74843" lon="2.63783"><ele>99.9</ele></trkpt>
    <trkpt lat="48.74969" lon="2.63937"><ele>100.3</ele></trkpt>
    <trkpt lat="48.75001" lon="2.6396"><ele>100.3</ele></trkpt>
    <trkpt lat="48.7506" lon="2.64023"><ele>100.8</ele></trkpt>
    <trkpt lat="48.75094" lon="2.64039"><ele>101.2</ele></trkpt>
    <trkpt lat="48.75109" lon="2.64053"><ele>101.4</ele></trkpt>
    <trkpt lat="48.75165" lon="2.64159"><ele>102.1</ele></trkpt>
    <trkpt lat="48.75335" lon="2.64545"><ele>99.8</ele></trkpt>
    <trkpt lat="48.75371" lon="2.64639"><ele>99.3</ele></trkpt>
    <trkpt lat="48.75377" lon="2.64664"><ele>99.6</ele></trkpt>
    <trkpt lat="48.7536" lon="2.6474"><ele>100.6</ele></trkpt>
    <trkpt lat="48.75364" lon="2.64766"><ele>101.0</ele></trkpt>
    <trkpt lat="48.75399" lon="2.64921"><ele>102.9</ele></trkpt>
    <trkpt lat="48.75521" lon="2.65316"><ele>103.6</ele></trkpt>
    <trkpt lat="48.75639" lon="2.65522"><ele>103.5</ele></trkpt>
    <trkpt lat="48.75806" lon="2.65843"><ele>103.6</ele></trkpt>
    <trkpt lat="48.75892" lon="2.65983"><ele>103.5</ele></trkpt>
    <trkpt lat="48.75956" lon="2.66078"><ele>103.8</ele></trkpt>
    <trkpt lat="48.76078" lon="2.66239"><ele>104.8</ele></trkpt>
    <trkpt lat="48.76109" lon="2.66263"><ele>105.1</ele></trkpt>
    <trkpt lat="48.76112" lon="2.66289"><ele>105.2</ele></trkpt>
    <trkpt lat="48.76124" lon="2.66309"><ele>105.3</ele></trkpt>
    <trkpt lat="48.76217" lon="2.66438"><ele>105.0</ele></trkpt>
    <trkpt lat="48.76259" lon="2.66489"><ele>103.7</ele></trkpt>
    <trkpt lat="48.76325" lon="2.66523"><ele>102.0</ele></trkpt>
    <trkpt lat="48.76342" lon="2.66513"><ele>101.6</ele></trkpt>
    <trkpt lat="48.7643" lon="2.66522"><ele>101.9</ele></trkpt>
    <trkpt lat="48.76572" lon="2.6649"><ele>105.9</ele></trkpt>
    <trkpt lat="48.76608" lon="2.66498"><ele>106.6</ele></trkpt>
    <trkpt lat="48.76624" lon="2.66509"><ele>106.8</ele></trkpt>
    <trkpt lat="48.76665" lon="2.66562"><ele>107.1</ele></trkpt>
    <trkpt lat="48.76703" lon="2.66654"><ele>107.3</ele></trkpt>
    <trkpt lat="48.76744" lon="2.66806"><ele>107.6</ele></trkpt>
    <trkpt lat="48.7675" lon="2.66883"><ele>107.8</ele></trkpt>
    <trkpt lat="48.76766" lon="2.66891"><ele>107.8</ele></trkpt>
    <trkpt lat="48.7679" lon="2.66858"><ele>107.9</ele></trkpt>
    <trkpt lat="48.76843" lon="2.66856"><ele>107.7</ele></trkpt>
    <trkpt lat="48.77282" lon="2.66708"><ele>109.2</ele></trkpt>
    <trkpt lat="48.77333" lon="2.6668"><ele>109.1</ele></trkpt>
    <trkpt lat="48.77362" lon="2.66648"><ele>109.1</ele></trkpt>
    <trkpt lat="48.77377" lon="2.66642"><ele>109.1</ele></trkpt>
    <trkpt lat="48.77435" lon="2.6687"><ele>109.6</ele></trkpt>
    <trkpt lat="48.7744" lon="2.66924"><ele>109.6</ele></trkpt>
    <trkpt lat="48.77453" lon="2.66974"><ele>109.6</ele></trkpt>
    <trkpt lat="48.77497" lon="2.67093"><ele>109.4</ele></trkpt>
    <trkpt lat="48.77525" lon="2.67127"><ele>109.2</ele></trkpt>
    <trkpt lat="48.77535" lon="2.6715"><ele>109.6</ele></trkpt>
    <trkpt lat="48.7755" lon="2.67156"><ele>110.2</ele></trkpt>
    <trkpt lat="48.77695" lon="2.67048"><ele>112.2</ele></trkpt>
    <trkpt lat="48.7771" lon="2.67046"><ele>111.9</ele></trkpt>
    <trkpt lat="48.77726" lon="2.67057"><ele>111.8</ele></trkpt>
    <trkpt lat="48.77753" lon="2.67036"><ele>112.0</ele></trkpt>
    <trkpt lat="48.78628" lon="2.67199"><ele>116.1</ele></trkpt>
    <trkpt lat="48.78634" lon="2.67215"><ele>116.2</ele></trkpt>
    <trkpt lat="48.78505" lon="2.67361"><ele>115.8</ele></trkpt>
    <trkpt lat="48.77902" lon="2.68005"><ele>112.6</ele></trkpt>
    <trkpt lat="48.77884" lon="2.68051"><ele>112.1</ele></trkpt>
    <trkpt lat="48.77868" lon="2.68636"><ele>111.4</ele></trkpt>
    <trkpt lat="48.77869" lon="2.68608"><ele>111.5</ele></trkpt>
    <trkpt lat="48.77851" lon="2.68611"><ele>111.5</ele></trkpt>
    <trkpt lat="48.77282" lon="2.68862"><ele>109.9</ele></trkpt>
    <trkpt lat="48.77264" lon="2.68864"><ele>109.8</ele></trkpt>
    <trkpt lat="48.77247" lon="2.68856"><ele>109.7</ele></trkpt>
    <trkpt lat="48.77165" lon="2.68802"><ele>109.7</ele></trkpt>
    <trkpt lat="48.77149" lon="2.68807"><ele>109.7</ele></trkpt>
    <trkpt lat="48.77134" lon="2.68822"><ele>109.8</ele></trkpt>
    <trkpt lat="48.77132" lon="2.68843"><ele>109.8</ele></trkpt>
    <trkpt lat="48.7716" lon="2.68875"><ele>109.9</ele></trkpt>
    <trkpt lat="48.77134" lon="2.68946"><ele>110.1</ele></trkpt>
    <trkpt lat="48.77142" lon="2.68956"><ele>110.1</ele></trkpt>
    <trkpt lat="48.77177" lon="2.68942"><ele>110.1</ele></trkpt>
    <trkpt lat="48.77193" lon="2.68947"><ele>110.2</ele></trkpt>
    <trkpt lat="48.77202" lon="2.68968"><ele>110.3</ele></trkpt>
    <trkpt lat="48.77203" lon="2.68995"><ele>110.5</ele></trkpt>
    <trkpt lat="48.77191" lon="2.69012"><ele>110.7</ele></trkpt>
    <trkpt lat="48.77174" lon="2.69021"><ele>110.9</ele></trkpt>
    <trkpt lat="48.76968" lon="2.69116"><ele>111.5</ele></trkpt>
    <trkpt lat="48.76961" lon="2.69139"><ele>111.5</ele></trkpt>
    <trkpt lat="48.76943" lon="2.69301"><ele>111.8</ele></trkpt>
    <trkpt lat="48.76697" lon="2.71728"><ele>113.0</ele></trkpt>
    <trkpt lat="48.76621" lon="2.72511"><ele>112.4</ele></trkpt>
    <trkpt lat="48.76629" lon="2.72533"><ele>112.4</ele></trkpt>
    <trkpt lat="48.78275" lon="2.7312"><ele>114.5</ele></trkpt>
    <trkpt lat="48.79639" lon="2.73616"><ele>117.2</ele></trkpt>
    <trkpt lat="48.80288" lon="2.73844"><ele>118.9</ele></trkpt>
    <trkpt lat="48.80863" lon="2.74067"><ele>118.8</ele></trkpt>
    <trkpt lat="48.81022" lon="2.74111"><ele>119.7</ele></trkpt>
    <trkpt lat="48.81179" lon="2.74169"><ele>120.5</ele></trkpt>
    <trkpt lat="48.81198" lon="2.75042"><ele>121.6</ele></trkpt>
    <trkpt lat="48.81199" lon="2.75069"><ele>122.0</ele></trkpt>
    <trkpt lat="48.81211" lon="2.75082"><ele>122.3</ele></trkpt>
    <trkpt lat="48.81812" lon="2.74906"><ele>125.0</ele></trkpt>
    <trkpt lat="48.81917" lon="2.74871"><ele>124.9</ele></trkpt>
    <trkpt lat="48.81926" lon="2.7486"><ele>126.0</ele></trkpt>
    <trkpt lat="48.81903" lon="2.74786"><ele>129.4</ele></trkpt>
    <trkpt lat="48.8183" lon="2.74449"><ele>132.6</ele></trkpt>
    <trkpt lat="48.81722" lon="2.73985"><ele>134.9</ele></trkpt>
    <trkpt lat="48.81656" lon="2.73673"><ele>133.0</ele></trkpt>
    <trkpt lat="48.81643" lon="2.73623"><ele>132.6</ele></trkpt>
    <trkpt lat="48.81623" lon="2.73577"><ele>132.1</ele></trkpt>
    <trkpt lat="48.81609" lon="2.7356"><ele>131.9</ele></trkpt>
    <trkpt lat="48.8156" lon="2.73526"><ele>130.1</ele></trkpt>
    <trkpt lat="48.8153" lon="2.73497"><ele>129.4</ele></trkpt>
    <trkpt lat="48.81506" lon="2.73426"><ele>129.1</ele></trkpt>
    <trkpt lat="48.8144" lon="2.73334"><ele>125.1</ele></trkpt>
    <trkpt lat="48.81421" lon="2.73288"><ele>123.2</ele></trkpt>
    <trkpt lat="48.81375" lon="2.73203"><ele>121.9</ele></trkpt>
    <trkpt lat="48.81316" lon="2.73067"><ele>121.3</ele></trkpt>
    <trkpt lat="48.81306" lon="2.73014"><ele>121.2</ele></trkpt>
    <trkpt lat="48.81298" lon="2.72933"><ele>120.8</ele></trkpt>
    <trkpt lat="48.81296" lon="2.72879"><ele>120.5</ele></trkpt>
    <trkpt lat="48.813" lon="2.72797"><ele>120.1</ele></trkpt>
    <trkpt lat="48.81335" lon="2.72642"><ele>119.7</ele></trkpt>
    <trkpt lat="48.8137" lon="2.72547"><ele>119.7</ele></trkpt>
    <trkpt lat="48.81381" lon="2.72526"><ele>119.7</ele></trkpt>
    <trkpt lat="48.81659" lon="2.72273"><ele>118.8</ele></trkpt>
    <trkpt lat="48.81687" lon="2.72239"><ele>119.0</ele></trkpt>
    <trkpt lat="48.81719" lon="2.72174"><ele>119.2</ele></trkpt>
    <trkpt lat="48.81734" lon="2.72158"><ele>119.3</ele></trkpt>
    <trkpt lat="48.8174" lon="2.72133"><ele>119.4</ele></trkpt>
    <trkpt lat="48.82447" lon="2.70684"><ele>117.9</ele></trkpt>
    <trkpt lat="48.82446" lon="2.70659"><ele>117.5</ele></trkpt>
    <trkpt lat="48.82349" lon="2.70539"><ele>114.9</ele></trkpt>
    <trkpt lat="48.82284" lon="2.70444"><ele>112.2</ele></trkpt>
    <trkpt lat="48.82209" lon="2.70369"><ele>109.1</ele></trkpt>
    <trkpt lat="48.822" lon="2.70351"><ele>108.3</ele></trkpt>
    <trkpt lat="48.82226" lon="2.70249"><ele>104.8</ele></trkpt>
    <trkpt lat="48.8229" lon="2.70054"><ele>99.1</ele></trkpt>
    <trkpt lat="48.82295" lon="2.70029"><ele>98.9</ele></trkpt>
    <trkpt lat="48.82284" lon="2.70017"><ele>98.8</ele></trkpt>
    <trkpt lat="48.82266" lon="2.70013"><ele>98.9</ele></trkpt>
    <trkpt lat="48.8225" lon="2.70021"><ele>99.1</ele></trkpt>
    <trkpt lat="48.82191" lon="2.70083"><ele>99.7</ele></trkpt>
    <trkpt lat="48.82157" lon="2.70146"><ele>100.2</ele></trkpt>
    <trkpt lat="48.82078" lon="2.70257"><ele>101.5</ele></trkpt>
    <trkpt lat="48.82057" lon="2.70301"><ele>101.9</ele></trkpt>
    <trkpt lat="48.8202" lon="2.70455"><ele>102.5</ele></trkpt>
    <trkpt lat="48.81995" lon="2.70527"><ele>102.8</ele></trkpt>
    <trkpt lat="48.8198" lon="2.70541"><ele>102.9</ele></trkpt>
    <trkpt lat="48.8197" lon="2.7052"><ele>102.9</ele></trkpt>
    <trkpt lat="48.81971" lon="2.70466"><ele>102.9</ele></trkpt>
    <trkpt lat="48.82028" lon="2.70207"><ele>103.4</ele></trkpt>
    <trkpt lat="48.8203" lon="2.70181"><ele>103.8</ele></trkpt>
    <trkpt lat="48.81874" lon="2.69998"><ele>108.8</ele></trkpt>
    <trkpt lat="48.81808" lon="2.69953"><ele>110.0</ele></trkpt>
    <trkpt lat="48.81758" lon="2.69928"><ele>110.5</ele></trkpt>
    <trkpt lat="48.81733" lon="2.69888"><ele>110.7</ele></trkpt>
    <trkpt lat="48.81714" lon="2.69842"><ele>110.8</ele></trkpt>
    <trkpt lat="48.817" lon="2.69825"><ele>110.8</ele></trkpt>
    <trkpt lat="48.8163" lon="2.698"><ele>111.2</ele></trkpt>
    <trkpt lat="48.81567" lon="2.6975"><ele>112.9</ele></trkpt>
    <trkpt lat="48.81559" lon="2.69728"><ele>113.7</ele></trkpt>
    <trkpt lat="48.81558" lon="2.69127"><ele>115.8</ele></trkpt>
    <trkpt lat="48.81554" lon="2.69101"><ele>115.9</ele></trkpt>
    <trkpt lat="48.81523" lon="2.69034"><ele>116.1</ele></trkpt>
    <trkpt lat="48.81328" lon="2.68676"><ele>115.6</ele></trkpt>
    <trkpt lat="48.8105" lon="2.6814"><ele>114.6</ele></trkpt>
    <trkpt lat="48.81036" lon="2.68124"><ele>114.4</ele></trkpt>
    <trkpt lat="48.8102" lon="2.6813"><ele>114.0</ele></trkpt>
    <trkpt lat="48.80876" lon="2.68243"><ele>113.8</ele></trkpt>
    <trkpt lat="48.80784" lon="2.68328"><ele>113.2</ele></trkpt>
    <trkpt lat="48.80703" lon="2.68387"><ele>112.3</ele></trkpt>
    <trkpt lat="48.8009" lon="2.68903"><ele>112.9</ele></trkpt>
    <trkpt lat="48.80044" lon="2.68948"><ele>113.3</ele></trkpt>
    <trkpt lat="48.80033" lon="2.68939"><ele>113.3</ele></trkpt>
    <trkpt lat="48.80126" lon="2.67609"><ele>112.7</ele></trkpt>
    <trkpt lat="48.80317" lon="2.67021"><ele>112.6</ele></trkpt>
    <trkpt lat="48.80327" lon="2.66999"><ele>112.6</ele></trkpt>
    <trkpt lat="48.80382" lon="2.6693"><ele>112.5</ele></trkpt>
    <trkpt lat="48.80394" lon="2.66878"><ele>112.5</ele></trkpt>
    <trkpt lat="48.80392" lon="2.66797"><ele>112.4</ele></trkpt>
    <trkpt lat="48.80536" lon="2.66327"><ele>112.8</ele></trkpt>
    <trkpt lat="48.80562" lon="2.66255"><ele>112.7</ele></trkpt>
    <trkpt lat="48.80563" lon="2.66229"><ele>112.7</ele></trkpt>
    <trkpt lat="48.80466" lon="2.65506"><ele>111.4</ele></trkpt>
    <trkpt lat="48.8042" lon="2.65102"><ele>110.7</ele></trkpt>
    <trkpt lat="48.80382" lon="2.64532"><ele>110.4</ele></trkpt>
    <trkpt lat="48.80381" lon="2.64505"><ele>110.4</ele></trkpt>
    <trkpt lat="48.80392" lon="2.6446"><ele>110.3</ele></trkpt>
    <trkpt lat="48.80384" lon="2.64298"><ele>109.7</ele></trkpt>
    <trkpt lat="48.80388" lon="2.64271"><ele>109.5</ele></trkpt>
    <trkpt lat="48.80374" lon="2.64192"><ele>109.1</ele></trkpt>
    <trkpt lat="48.80363" lon="2.64171"><ele>109.0</ele></trkpt>
    <trkpt lat="48.8037" lon="2.6415"><ele>108.9</ele></trkpt>
    <trkpt lat="48.80514" lon="2.64155"><ele>107.9</ele></trkpt>
    <trkpt lat="48.8053" lon="2.64149"><ele>107.9</ele></trkpt>
    <trkpt lat="48.80553" lon="2.64107"><ele>107.8</ele></trkpt>
    <trkpt lat="48.80567" lon="2.64057"><ele>107.7</ele></trkpt>
    <trkpt lat="48.80586" lon="2.64011"><ele>107.7</ele></trkpt>
    <trkpt lat="48.80653" lon="2.63923"><ele>108.1</ele></trkpt>
    <trkpt lat="48.80658" lon="2.6387"><ele>108.1</ele></trkpt>
    <trkpt lat="48.80614" lon="2.63605"><ele>108.9</ele></trkpt>
    <trkpt lat="48.80587" lon="2.63535"><ele>109.0</ele></trkpt>
    <trkpt lat="48.80512" lon="2.63382"><ele>108.9</ele></trkpt>
    <trkpt lat="48.80488" lon="2.63342"><ele>108.8</ele></trkpt>
    <trkpt lat="48.80475" lon="2.63292"><ele>108.8</ele></trkpt>
    <trkpt lat="48.80441" lon="2.63196"><ele>108.8</ele></trkpt>
    <trkpt lat="48.80435" lon="2.63088"><ele>109.0</ele></trkpt>
    <trkpt lat="48.80425" lon="2.6301"><ele>109.2</ele></trkpt>
    <trkpt lat="48.80408" lon="2.62962"><ele>109.4</ele></trkpt>
    <trkpt lat="48.80405" lon="2.62935"><ele>109.5</ele></trkpt>
    <trkpt lat="48.80406" lon="2.62854"><ele>109.8</ele></trkpt>
    <trkpt lat="48.80398" lon="2.6283"><ele>110.0</ele></trkpt>
    <trkpt lat="48.80428" lon="2.62732"><ele>110.3</ele></trkpt>
    <trkpt lat="48.80431" lon="2.62678"><ele>110.1</ele></trkpt>
    <trkpt lat="48.80415" lon="2.6263"><ele>110.0</ele></trkpt>
    <trkpt lat="48.804" lon="2.62554"><ele>109.8</ele></trkpt>
    <trkpt lat="48.80471" lon="2.62333"><ele>109.4</ele></trkpt>
    <trkpt lat="48.8049" lon="2.62288"><ele>109.6</ele></trkpt>
    <trkpt lat="48.80519" lon="2.62256"><ele>109.8</ele></trkpt>
    <trkpt lat="48.8076" lon="2.62072"><ele>110.2</ele></trkpt>
    <trkpt lat="48.80789" lon="2.62007"><ele>109.9</ele></trkpt>
    <trkpt lat="48.80818" lon="2.6202"><ele>109.6</ele></trkpt>
    <trkpt lat="48.80877" lon="2.61822"><ele>108.6</ele></trkpt>
    <trkpt lat="48.80901" lon="2.61781"><ele>108.5</ele></trkpt>
    <trkpt lat="48.80917" lon="2.61771"><ele>108.5</ele></trkpt>
    <trkpt lat="48.80952" lon="2.61779"><ele>108.5</ele></trkpt>
    <trkpt lat="48.81003" lon="2.61807"><ele>108.6</ele></trkpt>
    <trkpt lat="48.8102" lon="2.61809"><ele>108.6</ele></trkpt>
    <trkpt lat="48.81046" lon="2.61773"><ele>108.7</ele></trkpt>
    <trkpt lat="48.81091" lon="2.61624"><ele>108.8</ele></trkpt>
    <trkpt lat="48.81121" lon="2.61496"><ele>108.8</ele></trkpt>
    <trkpt lat="48.81169" lon="2.61349"><ele>108.8</ele></trkpt>
    <trkpt lat="48.81206" lon="2.61195"><ele>108.6</ele></trkpt>
    <trkpt lat="48.81229" lon="2.61122"><ele>108.4</ele></trkpt>
    <trkpt lat="48.81223" lon="2.611"><ele>108.4</ele></trkpt>
    <trkpt lat="48.81201" lon="2.61058"><ele>108.3</ele></trkpt>
    <trkpt lat="48.81249" lon="2.60978"><ele>108.1</ele></trkpt>
    <trkpt lat="48.81281" lon="2.60955"><ele>108.1</ele></trkpt>
    <trkpt lat="48.81353" lon="2.60955"><ele>107.9</ele></trkpt>
    <trkpt lat="48.81424" lon="2.60973"><ele>107.7</ele></trkpt>
    <trkpt lat="48.81476" lon="2.60995"><ele>107.5</ele></trkpt>
    <trkpt lat="48.81594" lon="2.61059"><ele>107.7</ele></trkpt>
    <trkpt lat="48.81608" lon="2.61046"><ele>107.7</ele></trkpt>
    <trkpt lat="48.81606" lon="2.60993"><ele>107.8</ele></trkpt>
    <trkpt lat="48.81592" lon="2.60978"><ele>107.9</ele></trkpt>
    <trkpt lat="48.81404" lon="2.60882"><ele>108.8</ele></trkpt>
    <trkpt lat="48.81373" lon="2.60855"><ele>109.0</ele></trkpt>
    <trkpt lat="48.81324" lon="2.60776"><ele>109.1</ele></trkpt>
    <trkpt lat="48.81297" lon="2.60706"><ele>109.2</ele></trkpt>
    <trkpt lat="48.81283" lon="2.60689"><ele>109.2</ele></trkpt>
    <trkpt lat="48.81267" lon="2.60689"><ele>109.1</ele></trkpt>
    <trkpt lat="48.81238" lon="2.60721"><ele>109.1</ele></trkpt>
    <trkpt lat="48.81221" lon="2.60723"><ele>109.1</ele></trkpt>
    <trkpt lat="48.81173" lon="2.60687"><ele>109.0</ele></trkpt>
    <trkpt lat="48.81103" lon="2.60663"><ele>108.9</ele></trkpt>
    <trkpt lat="48.81091" lon="2.60644"><ele>108.9</ele></trkpt>
    <trkpt lat="48.81092" lon="2.60618"><ele>108.9</ele></trkpt>
    <trkpt lat="48.81109" lon="2.60571"><ele>108.9</ele></trkpt>
    <trkpt lat="48.81112" lon="2.60545"><ele>108.9</ele></trkpt>
    <trkpt lat="48.81107" lon="2.60518"><ele>108.9</ele></trkpt>
    <trkpt lat="48.81113" lon="2.60493"><ele>108.9</ele></trkpt>
    <trkpt lat="48.81136" lon="2.60418"><ele>109.0</ele></trkpt>
    <trkpt lat="48.81192" lon="2.60278"><ele>109.3</ele></trkpt>
    <trkpt lat="48.81286" lon="2.60079"><ele>109.8</ele></trkpt>
    <trkpt lat="48.81401" lon="2.59869"><ele>109.9</ele></trkpt>
    <trkpt lat="48.81441" lon="2.59778"><ele>109.9</ele></trkpt>
    <trkpt lat="48.81492" lon="2.59702"><ele>109.9</ele></trkpt>
    <trkpt lat="48.81551" lon="2.59639"><ele>111.0</ele></trkpt>
    <trkpt lat="48.81592" lon="2.59586"><ele>112.4</ele></trkpt>
    <trkpt lat="48.81605" lon="2.59567"><ele>112.3</ele></trkpt>
    <trkpt lat="48.81606" lon="2.5954"><ele>112.2</ele></trkpt>
    <trkpt lat="48.81593" lon="2.59529"><ele>112.3</ele></trkpt>
    <trkpt lat="48.81435" lon="2.5958"><ele>110.7</ele></trkpt>
    <trkpt lat="48.81417" lon="2.59579"><ele>110.8</ele></trkpt>
    <trkpt lat="48.81383" lon="2.59565"><ele>110.9</ele></trkpt>
    <trkpt lat="48.81365" lon="2.59566"><ele>111.0</ele></trkpt>
    <trkpt lat="48.8126" lon="2.59603"><ele>110.9</ele></trkpt>
    <trkpt lat="48.81117" lon="2.5963"><ele>110.3</ele></trkpt>
    <trkpt lat="48.81081" lon="2.59626"><ele>110.1</ele></trkpt>
    <trkpt lat="48.80994" lon="2.59596"><ele>109.6</ele></trkpt>
    <trkpt lat="48.80963" lon="2.5957"><ele>109.5</ele></trkpt>
    <trkpt lat="48.80893" lon="2.59483"><ele>109.1</ele></trkpt>
    <trkpt lat="48.80769" lon="2.59286"><ele>108.6</ele></trkpt>
    <trkpt lat="48.80731" lon="2.59193"><ele>108.4</ele></trkpt>
    <trkpt lat="48.80719" lon="2.59192"><ele>108.3</ele></trkpt>
    <trkpt lat="48.80682" lon="2.59317"><ele>108.0</ele></trkpt>
    <trkpt lat="48.80653" lon="2.59474"><ele>107.1</ele></trkpt>
    <trkpt lat="48.80587" lon="2.59637"><ele>106.2</ele></trkpt>
    <trkpt lat="48.80571" lon="2.59647"><ele>106.1</ele></trkpt>
    <trkpt lat="48.80001" lon="2.59309"><ele>103.7</ele></trkpt>
    <trkpt lat="48.79957" lon="2.59223"><ele>103.1</ele></trkpt>
    <trkpt lat="48.79941" lon="2.59213"><ele>103.0</ele></trkpt>
    <trkpt lat="48.79764" lon="2.59161"><ele>102.0</ele></trkpt>
    <trkpt lat="48.7973" lon="2.59146"><ele>101.9</ele></trkpt>
    <trkpt lat="48.79327" lon="2.58843"><ele>100.4</ele></trkpt>
    <trkpt lat="48.79321" lon="2.58819"><ele>100.2</ele></trkpt>
    <trkpt lat="48.79324" lon="2.58764"><ele>100.0</ele></trkpt>
    <trkpt lat="48.7933" lon="2.58741"><ele>100.0</ele></trkpt>
    <trkpt lat="48.79378" lon="2.58704"><ele>100.3</ele></trkpt>
    <trkpt lat="48.79379" lon="2.58689"><ele>100.3</ele></trkpt>
    <trkpt lat="48.79369" lon="2.58667"><ele>100.2</ele></trkpt>
    <trkpt lat="48.79364" lon="2.5864"><ele>100.1</ele></trkpt>
    <trkpt lat="48.79348" lon="2.58631"><ele>100.0</ele></trkpt>
    <trkpt lat="48.79339" lon="2.58579"><ele>100.0</ele></trkpt>
    <trkpt lat="48.79407" lon="2.58213"><ele>100.8</ele></trkpt>
    <trkpt lat="48.79382" lon="2.58182"><ele>100.9</ele></trkpt>
    <trkpt lat="48.79393" lon="2.5791"><ele>101.4</ele></trkpt>
    <trkpt lat="48.79378" lon="2.5772"><ele>101.4</ele></trkpt>
    <trkpt lat="48.79355" lon="2.57616"><ele>101.4</ele></trkpt>
    <trkpt lat="48.79359" lon="2.57597"><ele>101.4</ele></trkpt>
    <trkpt lat="48.7953" lon="2.57516"><ele>101.1</ele></trkpt>
    <trkpt lat="48.79545" lon="2.57503"><ele>100.9</ele></trkpt>
    <trkpt lat="48.7955" lon="2.57477"><ele>100.7</ele></trkpt>
    <trkpt lat="48.79557" lon="2.57259"><ele>99.2</ele></trkpt>
    <trkpt lat="48.79561" lon="2.57233"><ele>99.1</ele></trkpt>
    <trkpt lat="48.79573" lon="2.57216"><ele>99.1</ele></trkpt>
    <trkpt lat="48.79659" lon="2.57178"><ele>99.2</ele></trkpt>
    <trkpt lat="48.79838" lon="2.57172"><ele>100.3</ele></trkpt>
    <trkpt lat="48.79873" lon="2.5716"><ele>100.8</ele></trkpt>
    <trkpt lat="48.79904" lon="2.57134"><ele>101.1</ele></trkpt>
    <trkpt lat="48.79915" lon="2.57113"><ele>101.2</ele></trkpt>
    <trkpt lat="48.79916" lon="2.57006"><ele>101.2</ele></trkpt>
    <trkpt lat="48.79923" lon="2.56983"><ele>101.3</ele></trkpt>
    <trkpt lat="48.79953" lon="2.56956"><ele>101.4</ele></trkpt>
    <trkpt lat="48.79945" lon="2.56939"><ele>101.4</ele></trkpt>
    <trkpt lat="48.79767" lon="2.5671"><ele>101.8</ele></trkpt>
    <trkpt lat="48.79776" lon="2.56695"><ele>101.8</ele></trkpt>
    <trkpt lat="48.79961" lon="2.56525"><ele>102.2</ele></trkpt>
    <trkpt lat="48.79966" lon="2.56501"><ele>102.1</ele></trkpt>
    <trkpt lat="48.79946" lon="2.5634"><ele>101.9</ele></trkpt>
    <trkpt lat="48.79945" lon="2.56313"><ele>101.8</ele></trkpt>
    <trkpt lat="48.79953" lon="2.56289"><ele>101.8</ele></trkpt>
    <trkpt lat="48.79935" lon="2.56244"><ele>101.8</ele></trkpt>
    <trkpt lat="48.79807" lon="2.55197"><ele>101.0</ele></trkpt>
    <trkpt lat="48.79801" lon="2.55173"><ele>101.0</ele></trkpt>
    <trkpt lat="48.79786" lon="2.55175"><ele>100.9</ele></trkpt>
    <trkpt lat="48.79692" lon="2.55301"><ele>100.5</ele></trkpt>
    <trkpt lat="48.79657" lon="2.5531"><ele>100.4</ele></trkpt>
    <trkpt lat="48.79622" lon="2.55304"><ele>100.2</ele></trkpt>
    <trkpt lat="48.79605" lon="2.55297"><ele>100.2</ele></trkpt>
    <trkpt lat="48.79599" lon="2.55272"><ele>100.2</ele></trkpt>
    <trkpt lat="48.79569" lon="2.55031"><ele>101.2</ele></trkpt>
    <trkpt lat="48.79536" lon="2.55017"><ele>101.3</ele></trkpt>
    <trkpt lat="48.78948" lon="2.54895"><ele>101.0</ele></trkpt>
    <trkpt lat="48.7892" lon="2.54861"><ele>100.9</ele></trkpt>
    <trkpt lat="48.78782" lon="2.54541"><ele>100.5</ele></trkpt>
    <trkpt lat="48.7874" lon="2.54504"><ele>100.2</ele></trkpt>
    <trkpt lat="48.78705" lon="2.54497"><ele>100.0</ele></trkpt>
    <trkpt lat="48.78678" lon="2.5446"><ele>99.9</ele></trkpt>
  </trkseg></trk>
</gpx>
