<?xml version="1.0" encoding="UTF-8"?>
<gpx version="1.1" creator="USO Cyclisme" xmlns="http://www.topografix.com/GPX/1/1">
  <metadata><name>Jossigny – 73 km</name><desc>Gravel, 72.7 km, D+ 265 m. Départ et arrivée : centre culturel d'Ormesson-sur-Marne.</desc></metadata>
  <trk><name>Jossigny – 73 km (gravel)</name><trkseg>
    <trkpt lat="48.78667" lon="2.54444"><ele>97.2</ele></trkpt>
    <trkpt lat="48.78756" lon="2.5442"><ele>99.9</ele></trkpt>
    <trkpt lat="48.78787" lon="2.54394"><ele>100.5</ele></trkpt>
    <trkpt lat="48.78801" lon="2.54412"><ele>100.7</ele></trkpt>
    <trkpt lat="48.7885" lon="2.54525"><ele>101.2</ele></trkpt>
    <trkpt lat="48.78934" lon="2.54571"><ele>101.8</ele></trkpt>
    <trkpt lat="48.78949" lon="2.54585"><ele>101.9</ele></trkpt>
    <trkpt lat="48.79037" lon="2.54792"><ele>102.1</ele></trkpt>
    <trkpt lat="48.79048" lon="2.54813"><ele>102.1</ele></trkpt>
    <trkpt lat="48.79064" lon="2.54826"><ele>102.0</ele></trkpt>
    <trkpt lat="48.79072" lon="2.54846"><ele>102.0</ele></trkpt>
    <trkpt lat="48.79069" lon="2.549"><ele>101.8</ele></trkpt>
    <trkpt lat="48.79077" lon="2.54919"><ele>101.8</ele></trkpt>
    <trkpt lat="48.7954" lon="2.55019"><ele>101.3</ele></trkpt>
    <trkpt lat="48.79557" lon="2.55018"><ele>101.3</ele></trkpt>
    <trkpt lat="48.79627" lon="2.54934"><ele>101.4</ele></trkpt>
    <trkpt lat="48.79694" lon="2.55469"><ele>101.1</ele></trkpt>
    <trkpt lat="48.79818" lon="2.55431"><ele>101.1</ele></trkpt>
    <trkpt lat="48.7983" lon="2.55415"><ele>101.1</ele></trkpt>
    <trkpt lat="48.79832" lon="2.55403"><ele>101.1</ele></trkpt>
    <trkpt lat="48.79837" lon="2.55429"><ele>101.2</ele></trkpt>
    <trkpt lat="48.79934" lon="2.56235"><ele>101.8</ele></trkpt>
    <trkpt lat="48.79935" lon="2.56262"><ele>101.8</ele></trkpt>
    <trkpt lat="48.79931" lon="2.56288"><ele>101.8</ele></trkpt>
    <trkpt lat="48.79945" lon="2.56329"><ele>101.9</ele></trkpt>
    <trkpt lat="48.79966" lon="2.5649"><ele>102.1</ele></trkpt>
    <trkpt lat="48.79964" lon="2.56517"><ele>102.1</ele></trkpt>
    <trkpt lat="48.79977" lon="2.56534"><ele>102.2</ele></trkpt>
    <trkpt lat="48.79994" lon="2.56528"><ele>102.2</ele></trkpt>
    <trkpt lat="48.80008" lon="2.56545"><ele>102.3</ele></trkpt>
    <trkpt lat="48.80071" lon="2.56643"><ele>102.4</ele></trkpt>
    <trkpt lat="48.80087" lon="2.56651"><ele>102.4</ele></trkpt>
    <trkpt lat="48.80119" lon="2.5663"><ele>102.4</ele></trkpt>
    <trkpt lat="48.80136" lon="2.56632"><ele>102.4</ele></trkpt>
    <trkpt lat="48.80151" lon="2.56648"><ele>102.4</ele></trkpt>
    <trkpt lat="48.80505" lon="2.57227"><ele>105.4</ele></trkpt>
    <trkpt lat="48.80497" lon="2.57246"><ele>105.5</ele></trkpt>
    <trkpt lat="48.80181" lon="2.57507"><ele>105.3</ele></trkpt>
    <trkpt lat="48.80147" lon="2.57523"><ele>105.2</ele></trkpt>
    <trkpt lat="48.80112" lon="2.57524"><ele>105.0</ele></trkpt>
    <trkpt lat="48.80096" lon="2.57571"><ele>105.0</ele></trkpt>
    <trkpt lat="48.80082" lon="2.57589"><ele>105.0</ele></trkpt>
    <trkpt lat="48.79958" lon="2.57695"><ele>105.3</ele></trkpt>
    <trkpt lat="48.80059" lon="2.58013"><ele>106.7</ele></trkpt>
    <trkpt lat="48.80065" lon="2.58038"><ele>106.7</ele></trkpt>
    <trkpt lat="48.8006" lon="2.58058"><ele>106.7</ele></trkpt>
    <trkpt lat="48.7993" lon="2.5815"><ele>106.8</ele></trkpt>
    <trkpt lat="48.79923" lon="2.58173"><ele>106.7</ele></trkpt>
    <trkpt lat="48.79932" lon="2.58223"><ele>106.6</ele></trkpt>
    <trkpt lat="48.79836" lon="2.58296"><ele>106.0</ele></trkpt>
    <trkpt lat="48.79828" lon="2.58316"><ele>105.9</ele></trkpt>
    <trkpt lat="48.79842" lon="2.58366"><ele>105.6</ele></trkpt>
    <trkpt lat="48.79838" lon="2.58387"><ele>105.4</ele></trkpt>
    <trkpt lat="48.79331" lon="2.58739"><ele>100.2</ele></trkpt>
    <trkpt lat="48.79324" lon="2.58762"><ele>100.1</ele></trkpt>
    <trkpt lat="48.79322" lon="2.58789"><ele>100.1</ele></trkpt>
    <trkpt lat="48.79321" lon="2.58816"><ele>100.2</ele></trkpt>
    <trkpt lat="48.79326" lon="2.58841"><ele>100.3</ele></trkpt>
    <trkpt lat="48.79728" lon="2.59145"><ele>101.9</ele></trkpt>
    <trkpt lat="48.79762" lon="2.59162"><ele>102.0</ele></trkpt>
    <trkpt lat="48.79955" lon="2.59223"><ele>103.1</ele></trkpt>
    <trkpt lat="48.8" lon="2.59307"><ele>103.7</ele></trkpt>
    <trkpt lat="48.80016" lon="2.59319"><ele>103.8</ele></trkpt>
    <trkpt lat="48.80569" lon="2.59645"><ele>106.1</ele></trkpt>
    <trkpt lat="48.80586" lon="2.59639"><ele>106.2</ele></trkpt>
    <trkpt lat="48.80653" lon="2.59477"><ele>107.1</ele></trkpt>
    <trkpt lat="48.80665" lon="2.59426"><ele>107.4</ele></trkpt>
    <trkpt lat="48.80682" lon="2.5932"><ele>108.0</ele></trkpt>
    <trkpt lat="48.80718" lon="2.59194"><ele>108.3</ele></trkpt>
    <trkpt lat="48.80731" lon="2.59192"><ele>108.4</ele></trkpt>
    <trkpt lat="48.80769" lon="2.59284"><ele>108.6</ele></trkpt>
    <trkpt lat="48.80854" lon="2.59424"><ele>108.9</ele></trkpt>
    <trkpt lat="48.80906" lon="2.595"><ele>109.2</ele></trkpt>
    <trkpt lat="48.80977" lon="2.59585"><ele>109.5</ele></trkpt>
    <trkpt lat="48.80993" lon="2.59596"><ele>109.6</ele></trkpt>
    <trkpt lat="48.81063" lon="2.59621"><ele>110.0</ele></trkpt>
    <trkpt lat="48.81116" lon="2.59631"><ele>110.3</ele></trkpt>
    <trkpt lat="48.81259" lon="2.59604"><ele>110.9</ele></trkpt>
    <trkpt lat="48.81364" lon="2.59567"><ele>111.0</ele></trkpt>
    <trkpt lat="48.81382" lon="2.59566"><ele>110.9</ele></trkpt>
    <trkpt lat="48.81416" lon="2.5958"><ele>110.8</ele></trkpt>
    <trkpt lat="48.81434" lon="2.59581"><ele>110.7</ele></trkpt>
    <trkpt lat="48.81557" lon="2.59541"><ele>111.2</ele></trkpt>
    <trkpt lat="48.81713" lon="2.59409"><ele>108.1</ele></trkpt>
    <trkpt lat="48.81828" lon="2.59331"><ele>107.7</ele></trkpt>
    <trkpt lat="48.81863" lon="2.59326"><ele>107.5</ele></trkpt>
    <trkpt lat="48.81989" lon="2.59339"><ele>106.4</ele></trkpt>
    <trkpt lat="48.82058" lon="2.59311"><ele>105.5</ele></trkpt>
    <trkpt lat="48.82123" lon="2.59264"><ele>104.1</ele></trkpt>
    <trkpt lat="48.82157" lon="2.59249"><ele>103.4</ele></trkpt>
    <trkpt lat="48.8221" lon="2.59237"><ele>102.5</ele></trkpt>
    <trkpt lat="48.823" lon="2.59229"><ele>101.2</ele></trkpt>
    <trkpt lat="48.82369" lon="2.592"><ele>100.4</ele></trkpt>
    <trkpt lat="48.82423" lon="2.5919"><ele>99.8</ele></trkpt>
    <trkpt lat="48.82459" lon="2.59192"><ele>99.5</ele></trkpt>
    <trkpt lat="48.8251" lon="2.59169"><ele>99.0</ele></trkpt>
    <trkpt lat="48.82527" lon="2.59167"><ele>98.9</ele></trkpt>
    <trkpt lat="48.82552" lon="2.59354"><ele>97.6</ele></trkpt>
    <trkpt lat="48.82581" lon="2.59386"><ele>97.3</ele></trkpt>
    <trkpt lat="48.82628" lon="2.59426"><ele>97.1</ele></trkpt>
    <trkpt lat="48.82706" lon="2.59538"><ele>97.7</ele></trkpt>
    <trkpt lat="48.82686" lon="2.59642"><ele>98.5</ele></trkpt>
    <trkpt lat="48.82684" lon="2.59696"><ele>99.0</ele></trkpt>
    <trkpt lat="48.82699" lon="2.59746"><ele>99.5</ele></trkpt>
    <trkpt lat="48.8275" lon="2.59822"><ele>100.5</ele></trkpt>
    <trkpt lat="48.82767" lon="2.59831"><ele>100.7</ele></trkpt>
    <trkpt lat="48.82963" lon="2.59865"><ele>100.2</ele></trkpt>
    <trkpt lat="48.8361" lon="2.59857"><ele>93.1</ele></trkpt>
    <trkpt lat="48.83646" lon="2.59862"><ele>92.5</ele></trkpt>
    <trkpt lat="48.83715" lon="2.59891"><ele>90.4</ele></trkpt>
    <trkpt lat="48.83933" lon="2.60081"><ele>87.0</ele></trkpt>
    <trkpt lat="48.83967" lon="2.60101"><ele>86.9</ele></trkpt>
    <trkpt lat="48.83984" lon="2.60103"><ele>86.9</ele></trkpt>
    <trkpt lat="48.83996" lon="2.60119"><ele>87.1</ele></trkpt>
    <trkpt lat="48.83998" lon="2.60145"><ele>87.4</ele></trkpt>
    <trkpt lat="48.83896" lon="2.6037"><ele>90.1</ele></trkpt>
    <trkpt lat="48.83883" lon="2.60375"><ele>90.4</ele></trkpt>
    <trkpt lat="48.83868" lon="2.6037"><ele>90.7</ele></trkpt>
    <trkpt lat="48.83809" lon="2.60432"><ele>91.8</ele></trkpt>
    <trkpt lat="48.83743" lon="2.60524"><ele>93.2</ele></trkpt>
    <trkpt lat="48.83723" lon="2.60569"><ele>93.7</ele></trkpt>
    <trkpt lat="48.8371" lon="2.60676"><ele>94.8</ele></trkpt>
    <trkpt lat="48.83744" lon="2.61028"><ele>98.8</ele></trkpt>
    <trkpt lat="48.83738" lon="2.61048"><ele>99.0</ele></trkpt>
    <trkpt lat="48.83492" lon="2.61125"><ele>102.1</ele></trkpt>
    <trkpt lat="48.83279" lon="2.61182"><ele>104.4</ele></trkpt>
    <trkpt lat="48.83264" lon="2.61196"><ele>104.6</ele></trkpt>
    <trkpt lat="48.83396" lon="2.61675"><ele>105.8</ele></trkpt>
    <trkpt lat="48.83471" lon="2.61923"><ele>105.9</ele></trkpt>
    <trkpt lat="48.83499" lon="2.61993"><ele>105.8</ele></trkpt>
    <trkpt lat="48.83553" lon="2.6199"><ele>105.7</ele></trkpt>
    <trkpt lat="48.83658" lon="2.61953"><ele>105.0</ele></trkpt>
    <trkpt lat="48.83673" lon="2.6196"><ele>104.9</ele></trkpt>
    <trkpt lat="48.83684" lon="2.62012"><ele>104.5</ele></trkpt>
    <trkpt lat="48.83693" lon="2.62032"><ele>104.3</ele></trkpt>
    <trkpt lat="48.83711" lon="2.62031"><ele>104.2</ele></trkpt>
    <trkpt lat="48.83763" lon="2.6201"><ele>103.7</ele></trkpt>
    <trkpt lat="48.83813" lon="2.61981"><ele>103.4</ele></trkpt>
    <trkpt lat="48.83867" lon="2.61909"><ele>102.9</ele></trkpt>
    <trkpt lat="48.83884" lon="2.61835"><ele>102.6</ele></trkpt>
    <trkpt lat="48.83886" lon="2.61755"><ele>102.2</ele></trkpt>
    <trkpt lat="48.83903" lon="2.61708"><ele>102.0</ele></trkpt>
    <trkpt lat="48.83927" lon="2.61576"><ele>101.3</ele></trkpt>
    <trkpt lat="48.83942" lon="2.61565"><ele>101.1</ele></trkpt>
    <trkpt lat="48.84102" lon="2.61601"><ele>99.2</ele></trkpt>
    <trkpt lat="48.84117" lon="2.61614"><ele>99.0</ele></trkpt>
    <trkpt lat="48.84206" lon="2.61633"><ele>98.0</ele></trkpt>
    <trkpt lat="48.84223" lon="2.61633"><ele>97.8</ele></trkpt>
    <trkpt lat="48.8424" lon="2.61625"><ele>97.6</ele></trkpt>
    <trkpt lat="48.84311" lon="2.61638"><ele>96.7</ele></trkpt>
    <trkpt lat="48.84323" lon="2.61657"><ele>96.5</ele></trkpt>
    <trkpt lat="48.84357" lon="2.61668"><ele>96.1</ele></trkpt>
    <trkpt lat="48.84375" lon="2.61671"><ele>95.9</ele></trkpt>
    <trkpt lat="48.84388" lon="2.61656"><ele>95.8</ele></trkpt>
    <trkpt lat="48.84406" lon="2.61656"><ele>95.6</ele></trkpt>
    <trkpt lat="48.84691" lon="2.61718"><ele>91.9</ele></trkpt>
    <trkpt lat="48.84699" lon="2.61741"><ele>91.5</ele></trkpt>
    <trkpt lat="48.8469" lon="2.61822"><ele>90.8</ele></trkpt>
    <trkpt lat="48.84667" lon="2.61896"><ele>90.6</ele></trkpt>
    <trkpt lat="48.84643" lon="2.61935"><ele>90.5</ele></trkpt>
    <trkpt lat="48.84613" lon="2.61966"><ele>90.5</ele></trkpt>
    <trkpt lat="48.8458" lon="2.61984"><ele>90.5</ele></trkpt>
    <trkpt lat="48.84544" lon="2.61992"><ele>90.8</ele></trkpt>
    <trkpt lat="48.84474" lon="2.61982"><ele>91.6</ele></trkpt>
    <trkpt lat="48.84463" lon="2.62003"><ele>91.8</ele></trkpt>
    <trkpt lat="48.84464" lon="2.62029"><ele>92.0</ele></trkpt>
    <trkpt lat="48.84487" lon="2.62132"><ele>92.0</ele></trkpt>
    <trkpt lat="48.84515" lon="2.62201"><ele>91.6</ele></trkpt>
    <trkpt lat="48.84525" lon="2.62281"><ele>91.1</ele></trkpt>
    <trkpt lat="48.84522" lon="2.62307"><ele>90.9</ele></trkpt>
    <trkpt lat="48.84549" lon="2.6234"><ele>90.3</ele></trkpt>
    <trkpt lat="48.84581" lon="2.62524"><ele>87.5</ele></trkpt>
    <trkpt lat="48.84577" lon="2.6255"><ele>87.1</ele></trkpt>
    <trkpt lat="48.84566" lon="2.62571"><ele>86.7</ele></trkpt>
    <trkpt lat="48.84513" lon="2.62646"><ele>85.1</ele></trkpt>
    <trkpt lat="48.84508" lon="2.62667"><ele>84.7</ele></trkpt>
    <trkpt lat="48.84517" lon="2.6272"><ele>84.0</ele></trkpt>
    <trkpt lat="48.84507" lon="2.62736"><ele>83.7</ele></trkpt>
    <trkpt lat="48.84481" lon="2.62767"><ele>83.3</ele></trkpt>
    <trkpt lat="48.84392" lon="2.62764"><ele>82.4</ele></trkpt>
    <trkpt lat="48.84378" lon="2.62776"><ele>82.2</ele></trkpt>
    <trkpt lat="48.84379" lon="2.6283"><ele>81.7</ele></trkpt>
    <trkpt lat="48.84386" lon="2.62855"><ele>81.4</ele></trkpt>
    <trkpt lat="48.844" lon="2.62873"><ele>81.1</ele></trkpt>
    <trkpt lat="48.84663" lon="2.63159"><ele>72.5</ele></trkpt>
    <trkpt lat="48.84711" lon="2.63195"><ele>70.8</ele></trkpt>
    <trkpt lat="48.84746" lon="2.63212"><ele>69.7</ele></trkpt>
    <trkpt lat="48.84833" lon="2.63236"><ele>67.3</ele></trkpt>
    <trkpt lat="48.8484" lon="2.63261"><ele>67.2</ele></trkpt>
    <trkpt lat="48.84832" lon="2.63311"><ele>67.4</ele></trkpt>
    <trkpt lat="48.84842" lon="2.63333"><ele>67.7</ele></trkpt>
    <trkpt lat="48.84844" lon="2.63359"><ele>67.9</ele></trkpt>
    <trkpt lat="48.84829" lon="2.63408"><ele>68.3</ele></trkpt>
    <trkpt lat="48.84823" lon="2.63488"><ele>69.2</ele></trkpt>
    <trkpt lat="48.84793" lon="2.63587"><ele>71.1</ele></trkpt>
    <trkpt lat="48.84786" lon="2.6364"><ele>72.0</ele></trkpt>
    <trkpt lat="48.84768" lon="2.63717"><ele>73.4</ele></trkpt>
    <trkpt lat="48.84744" lon="2.63756"><ele>74.2</ele></trkpt>
    <trkpt lat="48.84654" lon="2.63846"><ele>76.0</ele></trkpt>
    <trkpt lat="48.84608" lon="2.63929"><ele>77.9</ele></trkpt>
    <trkpt lat="48.8461" lon="2.63952"><ele>78.5</ele></trkpt>
    <trkpt lat="48.84625" lon="2.63967"><ele>79.1</ele></trkpt>
    <trkpt lat="48.84652" lon="2.63935"><ele>80.3</ele></trkpt>
    <trkpt lat="48.84669" lon="2.63924"><ele>80.9</ele></trkpt>
    <trkpt lat="48.84686" lon="2.6392"><ele>81.5</ele></trkpt>
    <trkpt lat="48.84702" lon="2.63931"><ele>82.2</ele></trkpt>
    <trkpt lat="48.84701" lon="2.63959"><ele>83.0</ele></trkpt>
    <trkpt lat="48.84694" lon="2.63983"><ele>83.9</ele></trkpt>
    <trkpt lat="48.84701" lon="2.64008"><ele>85.0</ele></trkpt>
    <trkpt lat="48.84726" lon="2.64047"><ele>87.4</ele></trkpt>
    <trkpt lat="48.84759" lon="2.6406"><ele>89.8</ele></trkpt>
    <trkpt lat="48.8476" lon="2.64113"><ele>92.2</ele></trkpt>
    <trkpt lat="48.84764" lon="2.64139"><ele>93.3</ele></trkpt>
    <trkpt lat="48.84774" lon="2.64161"><ele>94.2</ele></trkpt>
    <trkpt lat="48.84872" lon="2.64281"><ele>98.5</ele></trkpt>
    <trkpt lat="48.84888" lon="2.64293"><ele>99.0</ele></trkpt>
    <trkpt lat="48.84889" lon="2.64313"><ele>99.4</ele></trkpt>
    <trkpt lat="48.84882" lon="2.64337"><ele>99.8</ele></trkpt>
    <trkpt lat="48.84887" lon="2.64391"><ele>100.3</ele></trkpt>
    <trkpt lat="48.84896" lon="2.64408"><ele>100.4</ele></trkpt>
    <trkpt lat="48.84909" lon="2.64413"><ele>100.5</ele></trkpt>
    <trkpt lat="48.84899" lon="2.64427"><ele>100.6</ele></trkpt>
    <trkpt lat="48.84846" lon="2.64444"><ele>101.1</ele></trkpt>
    <trkpt lat="48.84839" lon="2.64463"><ele>101.3</ele></trkpt>
    <trkpt lat="48.84875" lon="2.64702"><ele>102.9</ele></trkpt>
    <trkpt lat="48.84889" lon="2.64752"><ele>102.9</ele></trkpt>
    <trkpt lat="48.84896" lon="2.64806"><ele>102.7</ele></trkpt>
    <trkpt lat="48.84885" lon="2.64822"><ele>102.6</ele></trkpt>
    <trkpt lat="48.84867" lon="2.64815"><ele>102.5</ele></trkpt>
    <trkpt lat="48.84849" lon="2.64817"><ele>102.4</ele></trkpt>
    <trkpt lat="48.848" lon="2.64848"><ele>102.1</ele></trkpt>
    <trkpt lat="48.84773" lon="2.64884"><ele>101.9</ele></trkpt>
    <trkpt lat="48.84741" lon="2.64909"><ele>101.6</ele></trkpt>
    <trkpt lat="48.84713" lon="2.64943"><ele>101.2</ele></trkpt>
    <trkpt lat="48.84706" lon="2.64964"><ele>101.1</ele></trkpt>
    <trkpt lat="48.84733" lon="2.65123"><ele>101.0</ele></trkpt>
    <trkpt lat="48.84741" lon="2.65144"><ele>101.1</ele></trkpt>
    <trkpt lat="48.84757" lon="2.65157"><ele>101.2</ele></trkpt>
    <trkpt lat="48.84774" lon="2.6516"><ele>101.3</ele></trkpt>
    <trkpt lat="48.84791" lon="2.6515"><ele>101.4</ele></trkpt>
    <trkpt lat="48.84919" lon="2.65051"><ele>101.4</ele></trkpt>
    <trkpt lat="48.84933" lon="2.65062"><ele>101.3</ele></trkpt>
    <trkpt lat="48.84962" lon="2.65189"><ele>100.7</ele></trkpt>
    <trkpt lat="48.8498" lon="2.65187"><ele>100.5</ele></trkpt>
    <trkpt lat="48.84992" lon="2.65172"><ele>100.2</ele></trkpt>
    <trkpt lat="48.85005" lon="2.65122"><ele>99.7</ele></trkpt>
    <trkpt lat="48.85056" lon="2.65099"><ele>99.0</ele></trkpt>
    <trkpt lat="48.85073" lon="2.651"><ele>98.8</ele></trkpt>
    <trkpt lat="48.85082" lon="2.65262"><ele>97.7</ele></trkpt>
    <trkpt lat="48.85077" lon="2.65316"><ele>97.3</ele></trkpt>
    <trkpt lat="48.85087" lon="2.65369"><ele>97.0</ele></trkpt>
    <trkpt lat="48.85089" lon="2.65505"><ele>96.1</ele></trkpt>
    <trkpt lat="48.85069" lon="2.65749"><ele>94.9</ele></trkpt>
    <trkpt lat="48.85051" lon="2.65854"><ele>94.3</ele></trkpt>
    <trkpt lat="48.85015" lon="2.66205"><ele>91.1</ele></trkpt>
    <trkpt lat="48.85013" lon="2.6626"><ele>90.3</ele></trkpt>
    <trkpt lat="48.85036" lon="2.66476"><ele>87.4</ele></trkpt>
    <trkpt lat="48.85032" lon="2.66612"><ele>86.7</ele></trkpt>
    <trkpt lat="48.85018" lon="2.66624"><ele>86.6</ele></trkpt>
    <trkpt lat="48.84984" lon="2.66611"><ele>86.7</ele></trkpt>
    <trkpt lat="48.84747" lon="2.66478"><ele>91.6</ele></trkpt>
    <trkpt lat="48.84696" lon="2.66453"><ele>92.6</ele></trkpt>
    <trkpt lat="48.84679" lon="2.66452"><ele>92.9</ele></trkpt>
    <trkpt lat="48.84621" lon="2.66512"><ele>93.6</ele></trkpt>
    <trkpt lat="48.84588" lon="2.66524"><ele>93.8</ele></trkpt>
    <trkpt lat="48.84531" lon="2.66591"><ele>94.1</ele></trkpt>
    <trkpt lat="48.84532" lon="2.66615"><ele>94.1</ele></trkpt>
    <trkpt lat="48.84518" lon="2.66634"><ele>94.1</ele></trkpt>
    <trkpt lat="48.84574" lon="2.66697"><ele>94.1</ele></trkpt>
    <trkpt lat="48.84599" lon="2.66735"><ele>94.1</ele></trkpt>
    <trkpt lat="48.84585" lon="2.66746"><ele>94.2</ele></trkpt>
    <trkpt lat="48.84426" lon="2.6679"><ele>97.4</ele></trkpt>
    <trkpt lat="48.84394" lon="2.66772"><ele>98.1</ele></trkpt>
    <trkpt lat="48.84323" lon="2.66785"><ele>98.8</ele></trkpt>
    <trkpt lat="48.8427" lon="2.66779"><ele>99.3</ele></trkpt>
    <trkpt lat="48.8423" lon="2.66827"><ele>99.5</ele></trkpt>
    <trkpt lat="48.84222" lon="2.66847"><ele>99.5</ele></trkpt>
    <trkpt lat="48.84215" lon="2.66983"><ele>99.2</ele></trkpt>
    <trkpt lat="48.84203" lon="2.67091"><ele>98.7</ele></trkpt>
    <trkpt lat="48.84157" lon="2.67355"><ele>96.2</ele></trkpt>
    <trkpt lat="48.84124" lon="2.67482"><ele>93.6</ele></trkpt>
    <trkpt lat="48.84056" lon="2.67675"><ele>89.8</ele></trkpt>
    <trkpt lat="48.83998" lon="2.67778"><ele>88.0</ele></trkpt>
    <trkpt lat="48.83973" lon="2.67851"><ele>87.6</ele></trkpt>
    <trkpt lat="48.83952" lon="2.67895"><ele>87.8</ele></trkpt>
    <trkpt lat="48.83758" lon="2.68255"><ele>91.1</ele></trkpt>
    <trkpt lat="48.83664" lon="2.68455"><ele>92.0</ele></trkpt>
    <trkpt lat="48.83617" lon="2.68489"><ele>91.5</ele></trkpt>
    <trkpt lat="48.83606" lon="2.68511"><ele>91.1</ele></trkpt>
    <trkpt lat="48.8361" lon="2.68537"><ele>90.8</ele></trkpt>
    <trkpt lat="48.83629" lon="2.68583"><ele>90.0</ele></trkpt>
    <trkpt lat="48.83633" lon="2.68609"><ele>89.4</ele></trkpt>
    <trkpt lat="48.83712" lon="2.68823"><ele>82.7</ele></trkpt>
    <trkpt lat="48.83722" lon="2.68876"><ele>81.3</ele></trkpt>
    <trkpt lat="48.8376" lon="2.69"><ele>79.4</ele></trkpt>
    <trkpt lat="48.83776" lon="2.69078"><ele>78.2</ele></trkpt>
    <trkpt lat="48.83777" lon="2.6916"><ele>77.8</ele></trkpt>
    <trkpt lat="48.8377" lon="2.69213"><ele>78.3</ele></trkpt>
    <trkpt lat="48.83755" lon="2.69262"><ele>79.1</ele></trkpt>
    <trkpt lat="48.83711" lon="2.69309"><ele>80.1</ele></trkpt>
    <trkpt lat="48.83687" lon="2.6938"><ele>81.7</ele></trkpt>
    <trkpt lat="48.83591" lon="2.69451"><ele>86.3</ele></trkpt>
    <trkpt lat="48.83581" lon="2.69474"><ele>87.0</ele></trkpt>
    <trkpt lat="48.83542" lon="2.69655"><ele>88.9</ele></trkpt>
    <trkpt lat="48.83542" lon="2.69681"><ele>88.9</ele></trkpt>
    <trkpt lat="48.83572" lon="2.69749"><ele>88.6</ele></trkpt>
    <trkpt lat="48.83585" lon="2.69737"><ele>88.3</ele></trkpt>
    <trkpt lat="48.83754" lon="2.69492"><ele>78.4</ele></trkpt>
    <trkpt lat="48.83799" lon="2.69445"><ele>76.3</ele></trkpt>
    <trkpt lat="48.83808" lon="2.69422"><ele>75.6</ele></trkpt>
    <trkpt lat="48.8383" lon="2.69319"><ele>72.5</ele></trkpt>
    <trkpt lat="48.83857" lon="2.69248"><ele>70.5</ele></trkpt>
    <trkpt lat="48.83946" lon="2.69239"><ele>68.9</ele></trkpt>
    <trkpt lat="48.84039" lon="2.69111"><ele>66.7</ele></trkpt>
    <trkpt lat="48.84089" lon="2.69079"><ele>66.1</ele></trkpt>
    <trkpt lat="48.84117" lon="2.69045"><ele>65.7</ele></trkpt>
    <trkpt lat="48.84135" lon="2.69039"><ele>65.6</ele></trkpt>
    <trkpt lat="48.84188" lon="2.69046"><ele>65.3</ele></trkpt>
    <trkpt lat="48.84312" lon="2.69011"><ele>63.9</ele></trkpt>
    <trkpt lat="48.84329" lon="2.69019"><ele>63.7</ele></trkpt>
    <trkpt lat="48.8434" lon="2.69039"><ele>63.5</ele></trkpt>
    <trkpt lat="48.84357" lon="2.69031"><ele>63.4</ele></trkpt>
    <trkpt lat="48.84443" lon="2.68932"><ele>62.5</ele></trkpt>
    <trkpt lat="48.84865" lon="2.68297"><ele>56.5</ele></trkpt>
    <trkpt lat="48.84898" lon="2.68279"><ele>56.2</ele></trkpt>
    <trkpt lat="48.84933" lon="2.68278"><ele>55.8</ele></trkpt>
    <trkpt lat="48.84949" lon="2.68287"><ele>55.6</ele></trkpt>
    <trkpt lat="48.85007" lon="2.68351"><ele>54.9</ele></trkpt>
    <trkpt lat="48.85074" lon="2.68331"><ele>54.7</ele></trkpt>
    <trkpt lat="48.85124" lon="2.683"><ele>54.4</ele></trkpt>
    <trkpt lat="48.85175" lon="2.68319"><ele>53.8</ele></trkpt>
    <trkpt lat="48.85193" lon="2.68319"><ele>53.6</ele></trkpt>
    <trkpt lat="48.85224" lon="2.68292"><ele>53.2</ele></trkpt>
    <trkpt lat="48.85242" lon="2.68285"><ele>53.0</ele></trkpt>
    <trkpt lat="48.85282" lon="2.68231"><ele>52.3</ele></trkpt>
    <trkpt lat="48.85328" lon="2.6819"><ele>51.8</ele></trkpt>
    <trkpt lat="48.85399" lon="2.68188"><ele>51.4</ele></trkpt>
    <trkpt lat="48.8545" lon="2.68161"><ele>51.4</ele></trkpt>
    <trkpt lat="48.85537" lon="2.68153"><ele>52.0</ele></trkpt>
    <trkpt lat="48.85557" lon="2.68197"><ele>52.4</ele></trkpt>
    <trkpt lat="48.85596" lon="2.68349"><ele>53.5</ele></trkpt>
    <trkpt lat="48.85585" lon="2.68312"><ele>53.8</ele></trkpt>
    <trkpt lat="48.85569" lon="2.68304"><ele>53.9</ele></trkpt>
    <trkpt lat="48.85533" lon="2.6831"><ele>54.4</ele></trkpt>
    <trkpt lat="48.8548" lon="2.68307"><ele>55.0</ele></trkpt>
    <trkpt lat="48.85462" lon="2.68312"><ele>55.2</ele></trkpt>
    <trkpt lat="48.85414" lon="2.68348"><ele>55.8</ele></trkpt>
    <trkpt lat="48.85346" lon="2.68437"><ele>57.3</ele></trkpt>
    <trkpt lat="48.85279" lon="2.68473"><ele>58.9</ele></trkpt>
    <trkpt lat="48.85269" lon="2.68494"><ele>59.4</ele></trkpt>
    <trkpt lat="48.85273" lon="2.68511"><ele>59.8</ele></trkpt>
    <trkpt lat="48.85308" lon="2.68508"><ele>60.9</ele></trkpt>
    <trkpt lat="48.85324" lon="2.68513"><ele>61.6</ele></trkpt>
    <trkpt lat="48.85337" lon="2.68532"><ele>62.3</ele></trkpt>
    <trkpt lat="48.85342" lon="2.68558"><ele>63.0</ele></trkpt>
    <trkpt lat="48.85347" lon="2.68639"><ele>65.2</ele></trkpt>
    <trkpt lat="48.85386" lon="2.68791"><ele>70.3</ele></trkpt>
    <trkpt lat="48.85408" lon="2.68834"><ele>72.2</ele></trkpt>
    <trkpt lat="48.85415" lon="2.68858"><ele>73.2</ele></trkpt>
    <trkpt lat="48.85393" lon="2.6893"><ele>76.0</ele></trkpt>
    <trkpt lat="48.85391" lon="2.68957"><ele>76.9</ele></trkpt>
    <trkpt lat="48.85426" lon="2.6914"><ele>81.9</ele></trkpt>
    <trkpt lat="48.85452" lon="2.69241"><ele>84.5</ele></trkpt>
    <trkpt lat="48.85454" lon="2.69296"><ele>85.6</ele></trkpt>
    <trkpt lat="48.85508" lon="2.69613"><ele>86.6</ele></trkpt>
    <trkpt lat="48.8563" lon="2.69576"><ele>82.1</ele></trkpt>
    <trkpt lat="48.85884" lon="2.69435"><ele>68.7</ele></trkpt>
    <trkpt lat="48.8592" lon="2.69588"><ele>67.0</ele></trkpt>
    <trkpt lat="48.85931" lon="2.69608"><ele>67.1</ele></trkpt>
    <trkpt lat="48.85948" lon="2.69657"><ele>67.3</ele></trkpt>
    <trkpt lat="48.8596" lon="2.69737"><ele>67.9</ele></trkpt>
    <trkpt lat="48.85968" lon="2.69761"><ele>68.0</ele></trkpt>
    <trkpt lat="48.85981" lon="2.69778"><ele>68.1</ele></trkpt>
    <trkpt lat="48.86002" lon="2.69909"><ele>68.1</ele></trkpt>
    <trkpt lat="48.86019" lon="2.69916"><ele>68.0</ele></trkpt>
    <trkpt lat="48.86108" lon="2.69916"><ele>67.8</ele></trkpt>
    <trkpt lat="48.86125" lon="2.69924"><ele>67.7</ele></trkpt>
    <trkpt lat="48.86137" lon="2.69942"><ele>67.7</ele></trkpt>
    <trkpt lat="48.86139" lon="2.69968"><ele>67.6</ele></trkpt>
    <trkpt lat="48.8607" lon="2.70249"><ele>68.4</ele></trkpt>
    <trkpt lat="48.8604" lon="2.70574"><ele>70.5</ele></trkpt>
    <trkpt lat="48.86023" lon="2.70622"><ele>70.8</ele></trkpt>
    <trkpt lat="48.85984" lon="2.70833"><ele>71.7</ele></trkpt>
    <trkpt lat="48.85954" lon="2.70931"><ele>72.0</ele></trkpt>
    <trkpt lat="48.8596" lon="2.70954"><ele>72.1</ele></trkpt>
    <trkpt lat="48.86048" lon="2.7098"><ele>72.6</ele></trkpt>
    <trkpt lat="48.86054" lon="2.71003"><ele>72.7</ele></trkpt>
    <trkpt lat="48.86039" lon="2.71052"><ele>73.3</ele></trkpt>
    <trkpt lat="48.8603" lon="2.71105"><ele>74.0</ele></trkpt>
    <trkpt lat="48.86029" lon="2.71132"><ele>74.4</ele></trkpt>
    <trkpt lat="48.8605" lon="2.71265"><ele>76.0</ele></trkpt>
    <trkpt lat="48.86046" lon="2.71373"><ele>76.7</ele></trkpt>
    <trkpt lat="48.85997" lon="2.71665"><ele>78.5</ele></trkpt>
    <trkpt lat="48.85949" lon="2.71871"><ele>80.1</ele></trkpt>
    <trkpt lat="48.85916" lon="2.71967"><ele>81.1</ele></trkpt>
    <trkpt lat="48.85883" lon="2.72123"><ele>82.4</ele></trkpt>
    <trkpt lat="48.85853" lon="2.7219"><ele>83.0</ele></trkpt>
    <trkpt lat="48.85839" lon="2.72193"><ele>83.2</ele></trkpt>
    <trkpt lat="48.85805" lon="2.72179"><ele>83.6</ele></trkpt>
    <trkpt lat="48.85789" lon="2.72189"><ele>83.8</ele></trkpt>
    <trkpt lat="48.8578" lon="2.72212"><ele>84.0</ele></trkpt>
    <trkpt lat="48.85756" lon="2.72315"><ele>84.9</ele></trkpt>
    <trkpt lat="48.85736" lon="2.72448"><ele>86.1</ele></trkpt>
    <trkpt lat="48.85707" lon="2.72514"><ele>87.0</ele></trkpt>
    <trkpt lat="48.85689" lon="2.72592"><ele>88.0</ele></trkpt>
    <trkpt lat="48.85662" lon="2.72663"><ele>89.1</ele></trkpt>
    <trkpt lat="48.8566" lon="2.72689"><ele>89.5</ele></trkpt>
    <trkpt lat="48.85671" lon="2.72825"><ele>91.2</ele></trkpt>
    <trkpt lat="48.85663" lon="2.72905"><ele>92.1</ele></trkpt>
    <trkpt lat="48.8565" lon="2.72921"><ele>92.4</ele></trkpt>
    <trkpt lat="48.85633" lon="2.72931"><ele>92.6</ele></trkpt>
    <trkpt lat="48.85461" lon="2.73011"><ele>93.7</ele></trkpt>
    <trkpt lat="48.85452" lon="2.73057"><ele>93.8</ele></trkpt>
    <trkpt lat="48.85426" lon="2.73093"><ele>94.0</ele></trkpt>
    <trkpt lat="48.85381" lon="2.73138"><ele>94.3</ele></trkpt>
    <trkpt lat="48.85328" lon="2.73156"><ele>94.8</ele></trkpt>
    <trkpt lat="48.85271" lon="2.73221"><ele>96.0</ele></trkpt>
    <trkpt lat="48.85235" lon="2.73281"><ele>96.9</ele></trkpt>
    <trkpt lat="48.85204" lon="2.73349"><ele>97.7</ele></trkpt>
    <trkpt lat="48.85203" lon="2.73375"><ele>98.0</ele></trkpt>
    <trkpt lat="48.85232" lon="2.73406"><ele>98.5</ele></trkpt>
    <trkpt lat="48.8524" lon="2.7343"><ele>98.7</ele></trkpt>
    <trkpt lat="48.8524" lon="2.73457"><ele>99.0</ele></trkpt>
    <trkpt lat="48.85212" lon="2.73527"><ele>99.9</ele></trkpt>
    <trkpt lat="48.85149" lon="2.7358"><ele>101.5</ele></trkpt>
    <trkpt lat="48.85138" lon="2.73601"><ele>101.9</ele></trkpt>
    <trkpt lat="48.85122" lon="2.73649"><ele>102.7</ele></trkpt>
    <trkpt lat="48.85127" lon="2.73674"><ele>103.2</ele></trkpt>
    <trkpt lat="48.85115" lon="2.73721"><ele>104.2</ele></trkpt>
    <trkpt lat="48.85138" lon="2.73763"><ele>105.5</ele></trkpt>
    <trkpt lat="48.85144" lon="2.73815"><ele>107.0</ele></trkpt>
    <trkpt lat="48.85152" lon="2.73838"><ele>107.8</ele></trkpt>
    <trkpt lat="48.85156" lon="2.74084"><ele>113.3</ele></trkpt>
    <trkpt lat="48.8517" lon="2.74163"><ele>114.7</ele></trkpt>
    <trkpt lat="48.852" lon="2.74262"><ele>116.1</ele></trkpt>
    <trkpt lat="48.85246" lon="2.74346"><ele>116.9</ele></trkpt>
    <trkpt lat="48.85489" lon="2.74669"><ele>120.4</ele></trkpt>
    <trkpt lat="48.85486" lon="2.74693"><ele>120.6</ele></trkpt>
    <trkpt lat="48.85452" lon="2.74757"><ele>121.2</ele></trkpt>
    <trkpt lat="48.85434" lon="2.74804"><ele>121.5</ele></trkpt>
    <trkpt lat="48.85427" lon="2.74828"><ele>121.6</ele></trkpt>
    <trkpt lat="48.85424" lon="2.74854"><ele>121.8</ele></trkpt>
    <trkpt lat="48.85435" lon="2.74875"><ele>121.9</ele></trkpt>
    <trkpt lat="48.85531" lon="2.74999"><ele>122.6</ele></trkpt>
    <trkpt lat="48.85531" lon="2.75023"><ele>122.6</ele></trkpt>
    <trkpt lat="48.85461" lon="2.75147"><ele>122.9</ele></trkpt>
    <trkpt lat="48.85464" lon="2.75172"><ele>123.0</ele></trkpt>
    <trkpt lat="48.85641" lon="2.75403"><ele>124.4</ele></trkpt>
    <trkpt lat="48.8565" lon="2.75423"><ele>124.5</ele></trkpt>
    <trkpt lat="48.85643" lon="2.75476"><ele>124.6</ele></trkpt>
    <trkpt lat="48.85633" lon="2.75499"><ele>124.7</ele></trkpt>
    <trkpt lat="48.85564" lon="2.75625"><ele>125.0</ele></trkpt>
    <trkpt lat="48.85555" lon="2.75648"><ele>125.1</ele></trkpt>
    <trkpt lat="48.85559" lon="2.75672"><ele>125.1</ele></trkpt>
    <trkpt lat="48.85591" lon="2.75694"><ele>125.2</ele></trkpt>
    <trkpt lat="48.85674" lon="2.75798"><ele>125.4</ele></trkpt>
    <trkpt lat="48.85682" lon="2.75822"><ele>125.4</ele></trkpt>
    <trkpt lat="48.85695" lon="2.75841"><ele>125.4</ele></trkpt>
    <trkpt lat="48.85696" lon="2.75866"><ele>125.5</ele></trkpt>
    <trkpt lat="48.85648" lon="2.75947"><ele>125.5</ele></trkpt>
    <trkpt lat="48.85446" lon="2.76127"><ele>124.4</ele></trkpt>
    <trkpt lat="48.85343" lon="2.76237"><ele>123.3</ele></trkpt>
    <trkpt lat="48.85245" lon="2.76356"><ele>122.6</ele></trkpt>
    <trkpt lat="48.8523" lon="2.76368"><ele>122.5</ele></trkpt>
    <trkpt lat="48.85214" lon="2.76358"><ele>122.4</ele></trkpt>
    <trkpt lat="48.85196" lon="2.76357"><ele>122.4</ele></trkpt>
    <trkpt lat="48.85182" lon="2.76371"><ele>122.3</ele></trkpt>
    <trkpt lat="48.85075" lon="2.76555"><ele>121.9</ele></trkpt>
    <trkpt lat="48.84961" lon="2.76766"><ele>122.8</ele></trkpt>
    <trkpt lat="48.84949" lon="2.76786"><ele>122.9</ele></trkpt>
    <trkpt lat="48.84932" lon="2.76788"><ele>123.0</ele></trkpt>
    <trkpt lat="48.84848" lon="2.7693"><ele>123.5</ele></trkpt>
    <trkpt lat="48.84826" lon="2.76889"><ele>123.6</ele></trkpt>
    <trkpt lat="48.8478" lon="2.76847"><ele>123.9</ele></trkpt>
    <trkpt lat="48.84628" lon="2.76653"><ele>124.8</ele></trkpt>
    <trkpt lat="48.84323" lon="2.76364"><ele>126.4</ele></trkpt>
    <trkpt lat="48.84249" lon="2.76287"><ele>126.7</ele></trkpt>
    <trkpt lat="48.84103" lon="2.76085"><ele>127.6</ele></trkpt>
    <trkpt lat="48.84044" lon="2.75981"><ele>128.3</ele></trkpt>
    <trkpt lat="48.84015" lon="2.75912"><ele>128.8</ele></trkpt>
    <trkpt lat="48.84001" lon="2.75896"><ele>128.9</ele></trkpt>
    <trkpt lat="48.83931" lon="2.75868"><ele>129.4</ele></trkpt>
    <trkpt lat="48.83898" lon="2.75848"><ele>129.7</ele></trkpt>
    <trkpt lat="48.83794" lon="2.75741"><ele>130.0</ele></trkpt>
    <trkpt lat="48.83684" lon="2.75647"><ele>129.8</ele></trkpt>
    <trkpt lat="48.83625" lon="2.75586"><ele>129.1</ele></trkpt>
    <trkpt lat="48.83587" lon="2.75528"><ele>128.4</ele></trkpt>
    <trkpt lat="48.83542" lon="2.75442"><ele>127.6</ele></trkpt>
    <trkpt lat="48.83492" lon="2.75363"><ele>126.9</ele></trkpt>
    <trkpt lat="48.83471" lon="2.75322"><ele>126.5</ele></trkpt>
    <trkpt lat="48.83419" lon="2.75337"><ele>126.0</ele></trkpt>
    <trkpt lat="48.83207" lon="2.75488"><ele>125.7</ele></trkpt>
    <trkpt lat="48.83121" lon="2.75525"><ele>126.6</ele></trkpt>
    <trkpt lat="48.82944" lon="2.75574"><ele>129.5</ele></trkpt>
    <trkpt lat="48.8289" lon="2.75577"><ele>130.2</ele></trkpt>
    <trkpt lat="48.82767" lon="2.75551"><ele>130.9</ele></trkpt>
    <trkpt lat="48.82674" lon="2.75195"><ele>129.1</ele></trkpt>
    <trkpt lat="48.82674" lon="2.75171"><ele>129.0</ele></trkpt>
    <trkpt lat="48.82716" lon="2.75082"><ele>128.3</ele></trkpt>
    <trkpt lat="48.82719" lon="2.75056"><ele>128.2</ele></trkpt>
    <trkpt lat="48.82715" lon="2.75029"><ele>128.0</ele></trkpt>
    <trkpt lat="48.82619" lon="2.74705"><ele>126.3</ele></trkpt>
    <trkpt lat="48.82618" lon="2.74681"><ele>126.2</ele></trkpt>
    <trkpt lat="48.82625" lon="2.74628"><ele>125.9</ele></trkpt>
    <trkpt lat="48.82619" lon="2.74603"><ele>125.8</ele></trkpt>
    <trkpt lat="48.82603" lon="2.74593"><ele>125.7</ele></trkpt>
    <trkpt lat="48.82551" lon="2.74609"><ele>125.3</ele></trkpt>
    <trkpt lat="48.82542" lon="2.74631"><ele>125.2</ele></trkpt>
    <trkpt lat="48.82539" lon="2.74682"><ele>124.9</ele></trkpt>
    <trkpt lat="48.81816" lon="2.74906"><ele>124.7</ele></trkpt>
    <trkpt lat="48.81216" lon="2.75082"><ele>122.5</ele></trkpt>
    <trkpt lat="48.81201" lon="2.75081"><ele>122.2</ele></trkpt>
    <trkpt lat="48.8118" lon="2.74208"><ele>120.6</ele></trkpt>
    <trkpt lat="48.81178" lon="2.74181"><ele>120.5</ele></trkpt>
    <trkpt lat="48.81167" lon="2.74164"><ele>120.5</ele></trkpt>
    <trkpt lat="48.8101" lon="2.74107"><ele>119.6</ele></trkpt>
    <trkpt lat="48.8085" lon="2.74063"><ele>118.8</ele></trkpt>
    <trkpt lat="48.80293" lon="2.73846"><ele>118.9</ele></trkpt>
    <trkpt lat="48.79662" lon="2.73624"><ele>117.2</ele></trkpt>
    <trkpt lat="48.79647" lon="2.73612"><ele>117.2</ele></trkpt>
    <trkpt lat="48.79638" lon="2.73589"><ele>117.2</ele></trkpt>
    <trkpt lat="48.79422" lon="2.72461"><ele>117.8</ele></trkpt>
    <trkpt lat="48.79433" lon="2.72446"><ele>117.8</ele></trkpt>
    <trkpt lat="48.7957" lon="2.72383"><ele>117.2</ele></trkpt>
    <trkpt lat="48.79586" lon="2.72371"><ele>117.1</ele></trkpt>
    <trkpt lat="48.79596" lon="2.72349"><ele>117.0</ele></trkpt>
    <trkpt lat="48.79611" lon="2.71586"><ele>115.6</ele></trkpt>
    <trkpt lat="48.79615" lon="2.71532"><ele>115.6</ele></trkpt>
    <trkpt lat="48.79613" lon="2.71505"><ele>115.5</ele></trkpt>
    <trkpt lat="48.79617" lon="2.71452"><ele>115.5</ele></trkpt>
    <trkpt lat="48.79629" lon="2.71401"><ele>115.4</ele></trkpt>
    <trkpt lat="48.79623" lon="2.71376"><ele>115.3</ele></trkpt>
    <trkpt lat="48.79612" lon="2.71355"><ele>115.2</ele></trkpt>
    <trkpt lat="48.79609" lon="2.71328"><ele>115.2</ele></trkpt>
    <trkpt lat="48.79615" lon="2.71"><ele>114.9</ele></trkpt>
    <trkpt lat="48.79777" lon="2.70883"><ele>114.7</ele></trkpt>
    <trkpt lat="48.79827" lon="2.70854"><ele>114.7</ele></trkpt>
    <trkpt lat="48.79863" lon="2.70846"><ele>114.6</ele></trkpt>
    <trkpt lat="48.80024" lon="2.70842"><ele>114.5</ele></trkpt>
    <trkpt lat="48.80125" lon="2.7065"><ele>115.1</ele></trkpt>
    <trkpt lat="48.80132" lon="2.70625"><ele>115.2</ele></trkpt>
    <trkpt lat="48.80101" lon="2.7044"><ele>115.6</ele></trkpt>
    <trkpt lat="48.80107" lon="2.7042"><ele>115.7</ele></trkpt>
    <trkpt lat="48.80264" lon="2.70365"><ele>116.1</ele></trkpt>
    <trkpt lat="48.80275" lon="2.70344"><ele>116.1</ele></trkpt>
    <trkpt lat="48.80335" lon="2.70146"><ele>116.0</ele></trkpt>
    <trkpt lat="48.80384" lon="2.70068"><ele>115.9</ele></trkpt>
    <trkpt lat="48.80378" lon="2.70051"><ele>115.8</ele></trkpt>
    <trkpt lat="48.80361" lon="2.70044"><ele>115.8</ele></trkpt>
    <trkpt lat="48.79955" lon="2.69928"><ele>115.5</ele></trkpt>
    <trkpt lat="48.79919" lon="2.69923"><ele>115.1</ele></trkpt>
    <trkpt lat="48.79883" lon="2.69921"><ele>115.0</ele></trkpt>
    <trkpt lat="48.79811" lon="2.69932"><ele>114.7</ele></trkpt>
    <trkpt lat="48.79759" lon="2.69953"><ele>114.5</ele></trkpt>
    <trkpt lat="48.79676" lon="2.70004"><ele>114.2</ele></trkpt>
    <trkpt lat="48.7966" lon="2.70001"><ele>114.1</ele></trkpt>
    <trkpt lat="48.79684" lon="2.6932"><ele>113.5</ele></trkpt>
    <trkpt lat="48.79658" lon="2.69284"><ele>113.0</ele></trkpt>
    <trkpt lat="48.79647" lon="2.69236"><ele>112.5</ele></trkpt>
    <trkpt lat="48.7901" lon="2.68794"><ele>113.8</ele></trkpt>
    <trkpt lat="48.78996" lon="2.68746"><ele>113.9</ele></trkpt>
    <trkpt lat="48.78994" lon="2.68582"><ele>113.9</ele></trkpt>
    <trkpt lat="48.79002" lon="2.68337"><ele>113.8</ele></trkpt>
    <trkpt lat="48.79017" lon="2.68326"><ele>113.7</ele></trkpt>
    <trkpt lat="48.79313" lon="2.68212"><ele>112.5</ele></trkpt>
    <trkpt lat="48.79347" lon="2.68195"><ele>112.4</ele></trkpt>
    <trkpt lat="48.79412" lon="2.68148"><ele>112.0</ele></trkpt>
    <trkpt lat="48.79476" lon="2.68097"><ele>111.6</ele></trkpt>
    <trkpt lat="48.79487" lon="2.68076"><ele>111.5</ele></trkpt>
    <trkpt lat="48.79505" lon="2.67999"><ele>111.3</ele></trkpt>
    <trkpt lat="48.79536" lon="2.67931"><ele>111.2</ele></trkpt>
    <trkpt lat="48.79542" lon="2.67906"><ele>111.1</ele></trkpt>
    <trkpt lat="48.79542" lon="2.6777"><ele>111.0</ele></trkpt>
    <trkpt lat="48.79573" lon="2.67528"><ele>111.3</ele></trkpt>
    <trkpt lat="48.79576" lon="2.67419"><ele>111.4</ele></trkpt>
    <trkpt lat="48.79513" lon="2.67022"><ele>111.2</ele></trkpt>
    <trkpt lat="48.79521" lon="2.66913"><ele>111.0</ele></trkpt>
    <trkpt lat="48.79526" lon="2.66887"><ele>110.9</ele></trkpt>
    <trkpt lat="48.79675" lon="2.66614"><ele>110.2</ele></trkpt>
    <trkpt lat="48.79699" lon="2.66541"><ele>110.0</ele></trkpt>
    <trkpt lat="48.79714" lon="2.66435"><ele>109.4</ele></trkpt>
    <trkpt lat="48.79729" lon="2.66386"><ele>109.1</ele></trkpt>
    <trkpt lat="48.79739" lon="2.66334"><ele>108.7</ele></trkpt>
    <trkpt lat="48.79778" lon="2.66278"><ele>108.3</ele></trkpt>
    <trkpt lat="48.79786" lon="2.66254"><ele>108.2</ele></trkpt>
    <trkpt lat="48.79797" lon="2.66147"><ele>107.6</ele></trkpt>
    <trkpt lat="48.79797" lon="2.66093"><ele>107.4</ele></trkpt>
    <trkpt lat="48.79764" lon="2.65966"><ele>107.0</ele></trkpt>
    <trkpt lat="48.79747" lon="2.6586"><ele>106.9</ele></trkpt>
    <trkpt lat="48.79741" lon="2.65834"><ele>106.8</ele></trkpt>
    <trkpt lat="48.79699" lon="2.65786"><ele>106.6</ele></trkpt>
    <trkpt lat="48.79664" lon="2.65724"><ele>106.2</ele></trkpt>
    <trkpt lat="48.79607" lon="2.6566"><ele>105.7</ele></trkpt>
    <trkpt lat="48.79583" lon="2.65619"><ele>105.5</ele></trkpt>
    <trkpt lat="48.79525" lon="2.65555"><ele>105.4</ele></trkpt>
    <trkpt lat="48.79509" lon="2.65543"><ele>105.3</ele></trkpt>
    <trkpt lat="48.79491" lon="2.6554"><ele>105.3</ele></trkpt>
    <trkpt lat="48.79438" lon="2.65534"><ele>105.4</ele></trkpt>
    <trkpt lat="48.79421" lon="2.65542"><ele>105.5</ele></trkpt>
    <trkpt lat="48.79361" lon="2.65709"><ele>107.1</ele></trkpt>
    <trkpt lat="48.79109" lon="2.66464"><ele>111.0</ele></trkpt>
    <trkpt lat="48.79104" lon="2.66444"><ele>111.1</ele></trkpt>
    <trkpt lat="48.79085" lon="2.66283"><ele>111.1</ele></trkpt>
    <trkpt lat="48.7895" lon="2.66104"><ele>110.9</ele></trkpt>
    <trkpt lat="48.78935" lon="2.66089"><ele>110.9</ele></trkpt>
    <trkpt lat="48.78923" lon="2.66101"><ele>110.9</ele></trkpt>
    <trkpt lat="48.7884" lon="2.66343"><ele>111.2</ele></trkpt>
    <trkpt lat="48.78729" lon="2.66591"><ele>111.8</ele></trkpt>
    <trkpt lat="48.78711" lon="2.66639"><ele>111.9</ele></trkpt>
    <trkpt lat="48.78703" lon="2.66692"><ele>112.1</ele></trkpt>
    <trkpt lat="48.78663" lon="2.67152"><ele>113.8</ele></trkpt>
    <trkpt lat="48.78643" lon="2.67196"><ele>115.0</ele></trkpt>
    <trkpt lat="48.78609" lon="2.67196"><ele>116.1</ele></trkpt>
    <trkpt lat="48.78163" lon="2.67111"><ele>114.0</ele></trkpt>
    <trkpt lat="48.7813" lon="2.67088"><ele>113.7</ele></trkpt>
    <trkpt lat="48.78113" lon="2.67083"><ele>113.5</ele></trkpt>
    <trkpt lat="48.78078" lon="2.67094"><ele>113.3</ele></trkpt>
    <trkpt lat="48.7806" lon="2.67092"><ele>113.1</ele></trkpt>
    <trkpt lat="48.77757" lon="2.67037"><ele>112.2</ele></trkpt>
    <trkpt lat="48.77725" lon="2.67059"><ele>112.3</ele></trkpt>
    <trkpt lat="48.77708" lon="2.67058"><ele>112.1</ele></trkpt>
    <trkpt lat="48.77588" lon="2.67223"><ele>109.4</ele></trkpt>
    <trkpt lat="48.77575" lon="2.67232"><ele>109.3</ele></trkpt>
    <trkpt lat="48.77551" lon="2.67191"><ele>109.2</ele></trkpt>
    <trkpt lat="48.77533" lon="2.67144"><ele>109.1</ele></trkpt>
    <trkpt lat="48.77508" lon="2.67107"><ele>109.6</ele></trkpt>
    <trkpt lat="48.77486" lon="2.67064"><ele>109.9</ele></trkpt>
    <trkpt lat="48.77444" lon="2.66944"><ele>110.1</ele></trkpt>
    <trkpt lat="48.77434" lon="2.66864"><ele>110.0</ele></trkpt>
    <trkpt lat="48.77407" lon="2.66763"><ele>109.6</ele></trkpt>
    <trkpt lat="48.77381" lon="2.66633"><ele>108.9</ele></trkpt>
    <trkpt lat="48.774" lon="2.66589"><ele>108.6</ele></trkpt>
    <trkpt lat="48.77487" lon="2.66451"><ele>107.7</ele></trkpt>
    <trkpt lat="48.77518" lon="2.66424"><ele>107.6</ele></trkpt>
    <trkpt lat="48.77601" lon="2.66369"><ele>107.4</ele></trkpt>
    <trkpt lat="48.77613" lon="2.66351"><ele>107.4</ele></trkpt>
    <trkpt lat="48.77461" lon="2.6537"><ele>108.9</ele></trkpt>
    <trkpt lat="48.77449" lon="2.65262"><ele>109.0</ele></trkpt>
    <trkpt lat="48.77456" lon="2.65181"><ele>109.1</ele></trkpt>
    <trkpt lat="48.77453" lon="2.65154"><ele>109.1</ele></trkpt>
    <trkpt lat="48.77438" lon="2.65106"><ele>109.0</ele></trkpt>
    <trkpt lat="48.77435" lon="2.64997"><ele>109.0</ele></trkpt>
    <trkpt lat="48.77415" lon="2.64921"><ele>108.9</ele></trkpt>
    <trkpt lat="48.7743" lon="2.64914"><ele>108.8</ele></trkpt>
    <trkpt lat="48.7752" lon="2.64924"><ele>108.7</ele></trkpt>
    <trkpt lat="48.7753" lon="2.64912"><ele>108.7</ele></trkpt>
    <trkpt lat="48.77499" lon="2.64615"><ele>108.8</ele></trkpt>
    <trkpt lat="48.77357" lon="2.63047"><ele>104.2</ele></trkpt>
    <trkpt lat="48.77328" lon="2.62695"><ele>104.9</ele></trkpt>
    <trkpt lat="48.77329" lon="2.62668"><ele>104.9</ele></trkpt>
    <trkpt lat="48.77343" lon="2.62661"><ele>105.0</ele></trkpt>
    <trkpt lat="48.7763" lon="2.62682"><ele>105.4</ele></trkpt>
    <trkpt lat="48.77626" lon="2.62331"><ele>105.3</ele></trkpt>
    <trkpt lat="48.77641" lon="2.6232"><ele>105.3</ele></trkpt>
    <trkpt lat="48.77676" lon="2.62312"><ele>105.2</ele></trkpt>
    <trkpt lat="48.77693" lon="2.62301"><ele>105.1</ele></trkpt>
    <trkpt lat="48.77721" lon="2.62267"><ele>104.9</ele></trkpt>
    <trkpt lat="48.77737" lon="2.62257"><ele>104.8</ele></trkpt>
    <trkpt lat="48.77843" lon="2.62221"><ele>104.1</ele></trkpt>
    <trkpt lat="48.77894" lon="2.62197"><ele>103.6</ele></trkpt>
    <trkpt lat="48.78001" lon="2.62178"><ele>102.7</ele></trkpt>
    <trkpt lat="48.78054" lon="2.6216"><ele>102.2</ele></trkpt>
    <trkpt lat="48.78189" lon="2.62083"><ele>100.8</ele></trkpt>
    <trkpt lat="48.78269" lon="2.62024"><ele>100.2</ele></trkpt>
    <trkpt lat="48.78273" lon="2.61999"><ele>100.1</ele></trkpt>
    <trkpt lat="48.78254" lon="2.61956"><ele>99.9</ele></trkpt>
    <trkpt lat="48.78264" lon="2.61935"><ele>99.9</ele></trkpt>
    <trkpt lat="48.78258" lon="2.61911"><ele>99.8</ele></trkpt>
    <trkpt lat="48.78224" lon="2.61846"><ele>99.9</ele></trkpt>
    <trkpt lat="48.78217" lon="2.61795"><ele>100.1</ele></trkpt>
    <trkpt lat="48.78205" lon="2.61776"><ele>100.2</ele></trkpt>
    <trkpt lat="48.78171" lon="2.61765"><ele>100.6</ele></trkpt>
    <trkpt lat="48.78156" lon="2.61751"><ele>100.8</ele></trkpt>
    <trkpt lat="48.78076" lon="2.6164"><ele>101.9</ele></trkpt>
    <trkpt lat="48.77989" lon="2.61503"><ele>102.4</ele></trkpt>
    <trkpt lat="48.77981" lon="2.61479"><ele>102.4</ele></trkpt>
    <trkpt lat="48.77972" lon="2.61426"><ele>102.2</ele></trkpt>
    <trkpt lat="48.77978" lon="2.61372"><ele>102.0</ele></trkpt>
    <trkpt lat="48.77987" lon="2.61348"><ele>101.9</ele></trkpt>
    <trkpt lat="48.78001" lon="2.61332"><ele>101.7</ele></trkpt>
    <trkpt lat="48.78036" lon="2.61329"><ele>101.3</ele></trkpt>
    <trkpt lat="48.78045" lon="2.61307"><ele>101.2</ele></trkpt>
    <trkpt lat="48.78037" lon="2.61116"><ele>100.4</ele></trkpt>
    <trkpt lat="48.7803" lon="2.61091"><ele>100.3</ele></trkpt>
    <trkpt lat="48.78017" lon="2.60821"><ele>99.6</ele></trkpt>
    <trkpt lat="48.78012" lon="2.60795"><ele>99.5</ele></trkpt>
    <trkpt lat="48.78019" lon="2.60742"><ele>99.4</ele></trkpt>
    <trkpt lat="48.78047" lon="2.60613"><ele>99.0</ele></trkpt>
    <trkpt lat="48.78056" lon="2.60532"><ele>99.0</ele></trkpt>
    <trkpt lat="48.78068" lon="2.60205"><ele>99.5</ele></trkpt>
    <trkpt lat="48.78051" lon="2.59906"><ele>100.1</ele></trkpt>
    <trkpt lat="48.78039" lon="2.59897"><ele>100.2</ele></trkpt>
    <trkpt lat="48.77986" lon="2.59905"><ele>100.6</ele></trkpt>
    <trkpt lat="48.77844" lon="2.59876"><ele>102.1</ele></trkpt>
    <trkpt lat="48.77664" lon="2.59852"><ele>104.0</ele></trkpt>
    <trkpt lat="48.77636" lon="2.59831"><ele>104.2</ele></trkpt>
    <trkpt lat="48.77625" lon="2.59847"><ele>104.4</ele></trkpt>
    <trkpt lat="48.77553" lon="2.59841"><ele>104.6</ele></trkpt>
    <trkpt lat="48.77376" lon="2.59891"><ele>104.6</ele></trkpt>
    <trkpt lat="48.77362" lon="2.59902"><ele>104.5</ele></trkpt>
    <trkpt lat="48.77364" lon="2.59955"><ele>104.3</ele></trkpt>
    <trkpt lat="48.77354" lon="2.59971"><ele>104.2</ele></trkpt>
    <trkpt lat="48.77268" lon="2.6001"><ele>103.8</ele></trkpt>
    <trkpt lat="48.76655" lon="2.60228"><ele>102.6</ele></trkpt>
    <trkpt lat="48.76638" lon="2.60227"><ele>102.5</ele></trkpt>
    <trkpt lat="48.76631" lon="2.60205"><ele>102.5</ele></trkpt>
    <trkpt lat="48.76231" lon="2.57713"><ele>101.0</ele></trkpt>
    <trkpt lat="48.76249" lon="2.57668"><ele>101.0</ele></trkpt>
    <trkpt lat="48.76945" lon="2.56417"><ele>101.5</ele></trkpt>
    <trkpt lat="48.76979" lon="2.56321"><ele>101.5</ele></trkpt>
    <trkpt lat="48.77023" lon="2.56276"><ele>101.4</ele></trkpt>
    <trkpt lat="48.77151" lon="2.56046"><ele>100.9</ele></trkpt>
    <trkpt lat="48.77142" lon="2.56024"><ele>100.8</ele></trkpt>
    <trkpt lat="48.76548" lon="2.55274"><ele>102.7</ele></trkpt>
    <trkpt lat="48.76522" lon="2.55236"><ele>101.8</ele></trkpt>
    <trkpt lat="48.76519" lon="2.5521"><ele>101.4</ele></trkpt>
    <trkpt lat="48.76551" lon="2.55053"><ele>100.6</ele></trkpt>
    <trkpt lat="48.76556" lon="2.55"><ele>100.4</ele></trkpt>
    <trkpt lat="48.76536" lon="2.54674"><ele>98.4</ele></trkpt>
    <trkpt lat="48.76522" lon="2.54375"><ele>95.9</ele></trkpt>
    <trkpt lat="48.76523" lon="2.5432"><ele>95.4</ele></trkpt>
    <trkpt lat="48.76541" lon="2.54187"><ele>94.2</ele></trkpt>
    <trkpt lat="48.76587" lon="2.54039"><ele>92.9</ele></trkpt>
    <trkpt lat="48.76607" lon="2.53994"><ele>92.3</ele></trkpt>
    <trkpt lat="48.76652" lon="2.5395"><ele>91.3</ele></trkpt>
    <trkpt lat="48.76705" lon="2.53936"><ele>90.1</ele></trkpt>
    <trkpt lat="48.76776" lon="2.53941"><ele>88.4</ele></trkpt>
    <trkpt lat="48.76965" lon="2.54027"><ele>82.9</ele></trkpt>
    <trkpt lat="48.76983" lon="2.54029"><ele>82.3</ele></trkpt>
    <trkpt lat="48.77053" lon="2.54005"><ele>79.8</ele></trkpt>
    <trkpt lat="48.77101" lon="2.53969"><ele>78.0</ele></trkpt>
    <trkpt lat="48.77144" lon="2.5392"><ele>76.3</ele></trkpt>
    <trkpt lat="48.7719" lon="2.53879"><ele>74.7</ele></trkpt>
    <trkpt lat="48.77296" lon="2.53694"><ele>71.4</ele></trkpt>
    <trkpt lat="48.77341" lon="2.5365"><ele>70.2</ele></trkpt>
    <trkpt lat="48.77358" lon="2.53643"><ele>69.7</ele></trkpt>
    <trkpt lat="48.77394" lon="2.53643"><ele>68.7</ele></trkpt>
    <trkpt lat="48.7743" lon="2.53635"><ele>67.6</ele></trkpt>
    <trkpt lat="48.77568" lon="2.53576"><ele>63.2</ele></trkpt>
    <trkpt lat="48.77638" lon="2.53556"><ele>61.1</ele></trkpt>
    <trkpt lat="48.77655" lon="2.53546"><ele>60.6</ele></trkpt>
    <trkpt lat="48.77666" lon="2.53526"><ele>60.1</ele></trkpt>
    <trkpt lat="48.77674" lon="2.53448"><ele>58.8</ele></trkpt>
    <trkpt lat="48.77835" lon="2.53425"><ele>57.4</ele></trkpt>
    <trkpt lat="48.7785" lon="2.53439"><ele>57.6</ele></trkpt>
    <trkpt lat="48.77904" lon="2.53611"><ele>60.8</ele></trkpt>
    <trkpt lat="48.77929" lon="2.5365"><ele>62.5</ele></trkpt>
    <trkpt lat="48.78199" lon="2.53803"><ele>79.2</ele></trkpt>
    <trkpt lat="48.78234" lon="2.53813"><ele>81.1</ele></trkpt>
    <trkpt lat="48.7827" lon="2.53805"><ele>82.9</ele></trkpt>
    <trkpt lat="48.78423" lon="2.53732"><ele>91.1</ele></trkpt>
    <trkpt lat="48.78664" lon="2.54435"><ele>93.3</ele></trkpt>
  </trkseg></trk>
</gpx>
