<?xml version="1.0" encoding="UTF-8"?>
<gpx version="1.1" creator="USO Cyclisme" xmlns="http://www.topografix.com/GPX/1/1">
  <metadata><name>Neufmoutiers-en-Brie – 67 km</name><desc>Gravel, 66.8 km, D+ 148 m. Départ et arrivée : centre culturel d'Ormesson-sur-Marne.</desc></metadata>
  <trk><name>Neufmoutiers-en-Brie – 67 km (gravel)</name><trkseg>
    <trkpt lat="48.78667" lon="2.54444"><ele>97.2</ele></trkpt>
    <trkpt lat="48.78719" lon="2.54425"><ele>97.8</ele></trkpt>
    <trkpt lat="48.78723" lon="2.54398"><ele>98.0</ele></trkpt>
    <trkpt lat="48.78718" lon="2.54374"><ele>97.9</ele></trkpt>
    <trkpt lat="48.78445" lon="2.53732"><ele>92.0</ele></trkpt>
    <trkpt lat="48.78431" lon="2.53717"><ele>91.4</ele></trkpt>
    <trkpt lat="48.78383" lon="2.53751"><ele>89.1</ele></trkpt>
    <trkpt lat="48.7828" lon="2.538"><ele>83.6</ele></trkpt>
    <trkpt lat="48.78245" lon="2.53811"><ele>81.6</ele></trkpt>
    <trkpt lat="48.78212" lon="2.53835"><ele>79.0</ele></trkpt>
    <trkpt lat="48.78007" lon="2.53935"><ele>65.6</ele></trkpt>
    <trkpt lat="48.77991" lon="2.53927"><ele>64.3</ele></trkpt>
    <trkpt lat="48.77973" lon="2.53879"><ele>61.8</ele></trkpt>
    <trkpt lat="48.7792" lon="2.53807"><ele>58.5</ele></trkpt>
    <trkpt lat="48.77891" lon="2.53738"><ele>57.1</ele></trkpt>
    <trkpt lat="48.77877" lon="2.53688"><ele>56.6</ele></trkpt>
    <trkpt lat="48.77868" lon="2.53635"><ele>56.2</ele></trkpt>
    <trkpt lat="48.77858" lon="2.53527"><ele>57.0</ele></trkpt>
    <trkpt lat="48.77864" lon="2.53502"><ele>57.4</ele></trkpt>
    <trkpt lat="48.77863" lon="2.53477"><ele>57.8</ele></trkpt>
    <trkpt lat="48.77843" lon="2.53432"><ele>57.6</ele></trkpt>
    <trkpt lat="48.77827" lon="2.53425"><ele>57.4</ele></trkpt>
    <trkpt lat="48.77684" lon="2.53447"><ele>58.6</ele></trkpt>
    <trkpt lat="48.77669" lon="2.5346"><ele>59.0</ele></trkpt>
    <trkpt lat="48.77671" lon="2.53514"><ele>59.8</ele></trkpt>
    <trkpt lat="48.77661" lon="2.53537"><ele>60.2</ele></trkpt>
    <trkpt lat="48.77647" lon="2.53553"><ele>60.7</ele></trkpt>
    <trkpt lat="48.77595" lon="2.53564"><ele>62.3</ele></trkpt>
    <trkpt lat="48.77578" lon="2.53527"><ele>63.3</ele></trkpt>
    <trkpt lat="48.77508" lon="2.53548"><ele>65.3</ele></trkpt>
    <trkpt lat="48.77498" lon="2.53567"><ele>65.6</ele></trkpt>
    <trkpt lat="48.77498" lon="2.53593"><ele>66.0</ele></trkpt>
    <trkpt lat="48.77486" lon="2.53612"><ele>66.3</ele></trkpt>
    <trkpt lat="48.77416" lon="2.5364"><ele>68.0</ele></trkpt>
    <trkpt lat="48.77345" lon="2.53647"><ele>70.0</ele></trkpt>
    <trkpt lat="48.77299" lon="2.53689"><ele>71.2</ele></trkpt>
    <trkpt lat="48.77262" lon="2.53748"><ele>72.3</ele></trkpt>
    <trkpt lat="48.77194" lon="2.53875"><ele>74.5</ele></trkpt>
    <trkpt lat="48.77147" lon="2.53916"><ele>76.1</ele></trkpt>
    <trkpt lat="48.77104" lon="2.53965"><ele>77.9</ele></trkpt>
    <trkpt lat="48.77057" lon="2.54004"><ele>79.7</ele></trkpt>
    <trkpt lat="48.76987" lon="2.54029"><ele>82.2</ele></trkpt>
    <trkpt lat="48.76969" lon="2.54029"><ele>82.8</ele></trkpt>
    <trkpt lat="48.76884" lon="2.53987"><ele>85.4</ele></trkpt>
    <trkpt lat="48.76848" lon="2.53977"><ele>86.3</ele></trkpt>
    <trkpt lat="48.76763" lon="2.53939"><ele>88.7</ele></trkpt>
    <trkpt lat="48.76709" lon="2.53935"><ele>90.0</ele></trkpt>
    <trkpt lat="48.76656" lon="2.53948"><ele>91.1</ele></trkpt>
    <trkpt lat="48.76639" lon="2.53959"><ele>91.5</ele></trkpt>
    <trkpt lat="48.76598" lon="2.5401"><ele>92.5</ele></trkpt>
    <trkpt lat="48.76572" lon="2.54082"><ele>93.3</ele></trkpt>
    <trkpt lat="48.76536" lon="2.54207"><ele>94.4</ele></trkpt>
    <trkpt lat="48.76523" lon="2.54314"><ele>95.3</ele></trkpt>
    <trkpt lat="48.76521" lon="2.54368"><ele>95.8</ele></trkpt>
    <trkpt lat="48.76556" lon="2.55021"><ele>100.5</ele></trkpt>
    <trkpt lat="48.76448" lon="2.5557"><ele>101.6</ele></trkpt>
    <trkpt lat="48.76439" lon="2.55592"><ele>101.6</ele></trkpt>
    <trkpt lat="48.7641" lon="2.55624"><ele>101.5</ele></trkpt>
    <trkpt lat="48.76399" lon="2.55644"><ele>101.4</ele></trkpt>
    <trkpt lat="48.76403" lon="2.55669"><ele>101.3</ele></trkpt>
    <trkpt lat="48.76447" lon="2.55785"><ele>100.7</ele></trkpt>
    <trkpt lat="48.7629" lon="2.56365"><ele>98.3</ele></trkpt>
    <trkpt lat="48.76272" lon="2.56413"><ele>98.2</ele></trkpt>
    <trkpt lat="48.76205" lon="2.5654"><ele>97.9</ele></trkpt>
    <trkpt lat="48.76145" lon="2.56598"><ele>97.9</ele></trkpt>
    <trkpt lat="48.76109" lon="2.56604"><ele>97.9</ele></trkpt>
    <trkpt lat="48.76077" lon="2.56628"><ele>97.9</ele></trkpt>
    <trkpt lat="48.76064" lon="2.56644"><ele>97.9</ele></trkpt>
    <trkpt lat="48.76062" lon="2.56698"><ele>98.0</ele></trkpt>
    <trkpt lat="48.76066" lon="2.56752"><ele>98.2</ele></trkpt>
    <trkpt lat="48.76087" lon="2.56827"><ele>98.4</ele></trkpt>
    <trkpt lat="48.76225" lon="2.57675"><ele>100.7</ele></trkpt>
    <trkpt lat="48.76227" lon="2.57702"><ele>100.9</ele></trkpt>
    <trkpt lat="48.76216" lon="2.57752"><ele>100.8</ele></trkpt>
    <trkpt lat="48.76217" lon="2.57806"><ele>100.6</ele></trkpt>
    <trkpt lat="48.76208" lon="2.57858"><ele>100.5</ele></trkpt>
    <trkpt lat="48.76211" lon="2.57965"><ele>100.5</ele></trkpt>
    <trkpt lat="48.76207" lon="2.58018"><ele>100.4</ele></trkpt>
    <trkpt lat="48.76212" lon="2.58044"><ele>100.4</ele></trkpt>
    <trkpt lat="48.76244" lon="2.58107"><ele>100.4</ele></trkpt>
    <trkpt lat="48.76256" lon="2.58157"><ele>100.5</ele></trkpt>
    <trkpt lat="48.76284" lon="2.58189"><ele>100.7</ele></trkpt>
    <trkpt lat="48.76302" lon="2.58197"><ele>100.7</ele></trkpt>
    <trkpt lat="48.76311" lon="2.58219"><ele>100.9</ele></trkpt>
    <trkpt lat="48.76772" lon="2.61082"><ele>103.4</ele></trkpt>
    <trkpt lat="48.76787" lon="2.61095"><ele>103.5</ele></trkpt>
    <trkpt lat="48.76822" lon="2.61107"><ele>103.9</ele></trkpt>
    <trkpt lat="48.76835" lon="2.61124"><ele>104.0</ele></trkpt>
    <trkpt lat="48.76839" lon="2.6115"><ele>104.2</ele></trkpt>
    <trkpt lat="48.76848" lon="2.61228"><ele>104.9</ele></trkpt>
    <trkpt lat="48.76834" lon="2.61229"><ele>105.1</ele></trkpt>
    <trkpt lat="48.76819" lon="2.61214"><ele>105.3</ele></trkpt>
    <trkpt lat="48.7682" lon="2.61239"><ele>105.4</ele></trkpt>
    <trkpt lat="48.76859" lon="2.61505"><ele>106.2</ele></trkpt>
    <trkpt lat="48.76683" lon="2.62507"><ele>104.9</ele></trkpt>
    <trkpt lat="48.76685" lon="2.6253"><ele>104.8</ele></trkpt>
    <trkpt lat="48.767" lon="2.62545"><ele>104.7</ele></trkpt>
    <trkpt lat="48.76716" lon="2.62557"><ele>104.6</ele></trkpt>
    <trkpt lat="48.76751" lon="2.62563"><ele>104.4</ele></trkpt>
    <trkpt lat="48.76765" lon="2.62578"><ele>104.4</ele></trkpt>
    <trkpt lat="48.76769" lon="2.62603"><ele>104.3</ele></trkpt>
    <trkpt lat="48.76745" lon="2.62672"><ele>104.2</ele></trkpt>
    <trkpt lat="48.76755" lon="2.6278"><ele>104.3</ele></trkpt>
    <trkpt lat="48.76745" lon="2.62798"><ele>104.3</ele></trkpt>
    <trkpt lat="48.76605" lon="2.62921"><ele>105.1</ele></trkpt>
    <trkpt lat="48.76464" lon="2.6296"><ele>106.6</ele></trkpt>
    <trkpt lat="48.7641" lon="2.62968"><ele>107.2</ele></trkpt>
    <trkpt lat="48.76356" lon="2.62968"><ele>107.5</ele></trkpt>
    <trkpt lat="48.76127" lon="2.63038"><ele>105.7</ele></trkpt>
    <trkpt lat="48.75987" lon="2.63087"><ele>104.6</ele></trkpt>
    <trkpt lat="48.75739" lon="2.63249"><ele>103.5</ele></trkpt>
    <trkpt lat="48.75726" lon="2.63266"><ele>103.5</ele></trkpt>
    <trkpt lat="48.7574" lon="2.6331"><ele>103.3</ele></trkpt>
    <trkpt lat="48.7583" lon="2.6409"><ele>102.4</ele></trkpt>
    <trkpt lat="48.76043" lon="2.6493"><ele>101.8</ele></trkpt>
    <trkpt lat="48.7606" lon="2.64978"><ele>102.0</ele></trkpt>
    <trkpt lat="48.76111" lon="2.65056"><ele>102.5</ele></trkpt>
    <trkpt lat="48.76152" lon="2.65109"><ele>102.9</ele></trkpt>
    <trkpt lat="48.76187" lon="2.6517"><ele>103.0</ele></trkpt>
    <trkpt lat="48.76199" lon="2.65305"><ele>103.1</ele></trkpt>
    <trkpt lat="48.76218" lon="2.65351"><ele>103.1</ele></trkpt>
    <trkpt lat="48.76296" lon="2.65463"><ele>102.9</ele></trkpt>
    <trkpt lat="48.76313" lon="2.65474"><ele>102.8</ele></trkpt>
    <trkpt lat="48.76383" lon="2.65496"><ele>102.5</ele></trkpt>
    <trkpt lat="48.76396" lon="2.65513"><ele>102.3</ele></trkpt>
    <trkpt lat="48.76445" lon="2.65659"><ele>100.7</ele></trkpt>
    <trkpt lat="48.76445" lon="2.65741"><ele>100.1</ele></trkpt>
    <trkpt lat="48.76431" lon="2.6579"><ele>99.9</ele></trkpt>
    <trkpt lat="48.76308" lon="2.65989"><ele>99.9</ele></trkpt>
    <trkpt lat="48.76268" lon="2.66044"><ele>100.4</ele></trkpt>
    <trkpt lat="48.76164" lon="2.66151"><ele>101.9</ele></trkpt>
    <trkpt lat="48.76107" lon="2.66218"><ele>103.4</ele></trkpt>
    <trkpt lat="48.76091" lon="2.66226"><ele>103.8</ele></trkpt>
    <trkpt lat="48.76075" lon="2.66215"><ele>104.1</ele></trkpt>
    <trkpt lat="48.76018" lon="2.66149"><ele>104.0</ele></trkpt>
    <trkpt lat="48.76014" lon="2.6615"><ele>104.0</ele></trkpt>
    <trkpt lat="48.76081" lon="2.66241"><ele>104.8</ele></trkpt>
    <trkpt lat="48.76097" lon="2.66248"><ele>105.0</ele></trkpt>
    <trkpt lat="48.76108" lon="2.66263"><ele>105.2</ele></trkpt>
    <trkpt lat="48.76108" lon="2.66289"><ele>105.3</ele></trkpt>
    <trkpt lat="48.76119" lon="2.66308"><ele>105.4</ele></trkpt>
    <trkpt lat="48.76204" lon="2.66448"><ele>105.2</ele></trkpt>
    <trkpt lat="48.7622" lon="2.66462"><ele>104.9</ele></trkpt>
    <trkpt lat="48.76233" lon="2.66449"><ele>104.4</ele></trkpt>
    <trkpt lat="48.76277" lon="2.66495"><ele>103.5</ele></trkpt>
    <trkpt lat="48.76295" lon="2.66496"><ele>103.3</ele></trkpt>
    <trkpt lat="48.76328" lon="2.66487"><ele>102.4</ele></trkpt>
    <trkpt lat="48.76358" lon="2.66516"><ele>101.7</ele></trkpt>
    <trkpt lat="48.76375" lon="2.66521"><ele>101.4</ele></trkpt>
    <trkpt lat="48.76429" lon="2.66523"><ele>101.9</ele></trkpt>
    <trkpt lat="48.765" lon="2.66507"><ele>103.3</ele></trkpt>
    <trkpt lat="48.76516" lon="2.66496"><ele>103.6</ele></trkpt>
    <trkpt lat="48.76513" lon="2.6639"><ele>103.5</ele></trkpt>
    <trkpt lat="48.76517" lon="2.66336"><ele>103.2</ele></trkpt>
    <trkpt lat="48.76529" lon="2.66319"><ele>103.2</ele></trkpt>
    <trkpt lat="48.76567" lon="2.66138"><ele>102.7</ele></trkpt>
    <trkpt lat="48.76583" lon="2.66126"><ele>102.6</ele></trkpt>
    <trkpt lat="48.76618" lon="2.66134"><ele>102.5</ele></trkpt>
    <trkpt lat="48.76654" lon="2.66131"><ele>102.4</ele></trkpt>
    <trkpt lat="48.76687" lon="2.66109"><ele>102.3</ele></trkpt>
    <trkpt lat="48.76729" lon="2.66022"><ele>102.5</ele></trkpt>
    <trkpt lat="48.76798" lon="2.65934"><ele>103.0</ele></trkpt>
    <trkpt lat="48.76822" lon="2.65893"><ele>103.3</ele></trkpt>
    <trkpt lat="48.76832" lon="2.65871"><ele>103.5</ele></trkpt>
    <trkpt lat="48.76843" lon="2.65819"><ele>103.8</ele></trkpt>
    <trkpt lat="48.76903" lon="2.65761"><ele>104.5</ele></trkpt>
    <trkpt lat="48.77265" lon="2.65543"><ele>107.6</ele></trkpt>
    <trkpt lat="48.77281" lon="2.65545"><ele>107.6</ele></trkpt>
    <trkpt lat="48.77295" lon="2.65563"><ele>107.6</ele></trkpt>
    <trkpt lat="48.773" lon="2.65588"><ele>107.6</ele></trkpt>
    <trkpt lat="48.77302" lon="2.66324"><ele>107.1</ele></trkpt>
    <trkpt lat="48.77402" lon="2.66434"><ele>107.2</ele></trkpt>
    <trkpt lat="48.77405" lon="2.66456"><ele>107.3</ele></trkpt>
    <trkpt lat="48.77359" lon="2.6654"><ele>108.2</ele></trkpt>
    <trkpt lat="48.7736" lon="2.66565"><ele>108.4</ele></trkpt>
    <trkpt lat="48.77384" lon="2.66604"><ele>108.8</ele></trkpt>
    <trkpt lat="48.77381" lon="2.66631"><ele>108.9</ele></trkpt>
    <trkpt lat="48.77384" lon="2.66657"><ele>109.1</ele></trkpt>
    <trkpt lat="48.77406" lon="2.66761"><ele>109.6</ele></trkpt>
    <trkpt lat="48.77434" lon="2.66862"><ele>110.0</ele></trkpt>
    <trkpt lat="48.77444" lon="2.66942"><ele>110.1</ele></trkpt>
    <trkpt lat="48.77495" lon="2.67085"><ele>109.7</ele></trkpt>
    <trkpt lat="48.77533" lon="2.67143"><ele>109.1</ele></trkpt>
    <trkpt lat="48.7755" lon="2.6719"><ele>109.2</ele></trkpt>
    <trkpt lat="48.77587" lon="2.67249"><ele>109.0</ele></trkpt>
    <trkpt lat="48.77709" lon="2.6741"><ele>108.9</ele></trkpt>
    <trkpt lat="48.77726" lon="2.67415"><ele>108.9</ele></trkpt>
    <trkpt lat="48.77778" lon="2.67395"><ele>109.2</ele></trkpt>
    <trkpt lat="48.77787" lon="2.67412"><ele>109.4</ele></trkpt>
    <trkpt lat="48.7788" lon="2.67995"><ele>112.0</ele></trkpt>
    <trkpt lat="48.77874" lon="2.68019"><ele>112.0</ele></trkpt>
    <trkpt lat="48.77884" lon="2.68039"><ele>112.0</ele></trkpt>
    <trkpt lat="48.77869" lon="2.68694"><ele>110.6</ele></trkpt>
    <trkpt lat="48.77867" lon="2.68721"><ele>110.5</ele></trkpt>
    <trkpt lat="48.77848" lon="2.68766"><ele>110.4</ele></trkpt>
    <trkpt lat="48.77814" lon="2.68747"><ele>110.4</ele></trkpt>
    <trkpt lat="48.77778" lon="2.68746"><ele>110.3</ele></trkpt>
    <trkpt lat="48.77696" lon="2.68798"><ele>110.2</ele></trkpt>
    <trkpt lat="48.77644" lon="2.68817"><ele>110.1</ele></trkpt>
    <trkpt lat="48.77629" lon="2.68832"><ele>110.0</ele></trkpt>
    <trkpt lat="48.77578" lon="2.68858"><ele>109.9</ele></trkpt>
    <trkpt lat="48.77507" lon="2.68874"><ele>109.7</ele></trkpt>
    <trkpt lat="48.77375" lon="2.68943"><ele>109.3</ele></trkpt>
    <trkpt lat="48.77433" lon="2.69976"><ele>109.2</ele></trkpt>
    <trkpt lat="48.77298" lon="2.70881"><ele>110.6</ele></trkpt>
    <trkpt lat="48.77299" lon="2.70903"><ele>110.6</ele></trkpt>
    <trkpt lat="48.77738" lon="2.71051"><ele>110.8</ele></trkpt>
    <trkpt lat="48.7779" lon="2.7107"><ele>110.9</ele></trkpt>
    <trkpt lat="48.77804" lon="2.71082"><ele>111.0</ele></trkpt>
    <trkpt lat="48.77806" lon="2.71109"><ele>111.1</ele></trkpt>
    <trkpt lat="48.77783" lon="2.72146"><ele>110.8</ele></trkpt>
    <trkpt lat="48.77798" lon="2.72217"><ele>110.8</ele></trkpt>
    <trkpt lat="48.77837" lon="2.72273"><ele>110.9</ele></trkpt>
    <trkpt lat="48.77847" lon="2.72296"><ele>110.9</ele></trkpt>
    <trkpt lat="48.77887" lon="2.72477"><ele>110.8</ele></trkpt>
    <trkpt lat="48.77943" lon="2.72678"><ele>110.8</ele></trkpt>
    <trkpt lat="48.77968" lon="2.72865"><ele>111.2</ele></trkpt>
    <trkpt lat="48.77991" lon="2.72997"><ele>112.0</ele></trkpt>
    <trkpt lat="48.78062" lon="2.73307"><ele>111.7</ele></trkpt>
    <trkpt lat="48.78086" lon="2.73438"><ele>111.5</ele></trkpt>
    <trkpt lat="48.78093" lon="2.73546"><ele>111.1</ele></trkpt>
    <trkpt lat="48.78091" lon="2.73573"><ele>111.0</ele></trkpt>
    <trkpt lat="48.78076" lon="2.73584"><ele>110.9</ele></trkpt>
    <trkpt lat="48.77815" lon="2.73691"><ele>109.7</ele></trkpt>
    <trkpt lat="48.77803" lon="2.73709"><ele>109.7</ele></trkpt>
    <trkpt lat="48.77802" lon="2.73791"><ele>109.8</ele></trkpt>
    <trkpt lat="48.77791" lon="2.73842"><ele>109.8</ele></trkpt>
    <trkpt lat="48.77734" lon="2.73947"><ele>109.5</ele></trkpt>
    <trkpt lat="48.77622" lon="2.74125"><ele>108.1</ele></trkpt>
    <trkpt lat="48.77601" lon="2.74169"><ele>107.7</ele></trkpt>
    <trkpt lat="48.77584" lon="2.74218"><ele>107.7</ele></trkpt>
    <trkpt lat="48.77545" lon="2.74456"><ele>108.4</ele></trkpt>
    <trkpt lat="48.7744" lon="2.74642"><ele>110.3</ele></trkpt>
    <trkpt lat="48.77426" lon="2.74693"><ele>110.8</ele></trkpt>
    <trkpt lat="48.77391" lon="2.74788"><ele>111.6</ele></trkpt>
    <trkpt lat="48.77325" lon="2.74918"><ele>111.8</ele></trkpt>
    <trkpt lat="48.77218" lon="2.75201"><ele>111.4</ele></trkpt>
    <trkpt lat="48.77194" lon="2.75241"><ele>111.4</ele></trkpt>
    <trkpt lat="48.77184" lon="2.75293"><ele>111.5</ele></trkpt>
    <trkpt lat="48.77102" lon="2.75536"><ele>112.0</ele></trkpt>
    <trkpt lat="48.77058" lon="2.75744"><ele>112.1</ele></trkpt>
    <trkpt lat="48.77043" lon="2.75794"><ele>111.9</ele></trkpt>
    <trkpt lat="48.76744" lon="2.76571"><ele>108.5</ele></trkpt>
    <trkpt lat="48.76738" lon="2.76597"><ele>108.4</ele></trkpt>
    <trkpt lat="48.76735" lon="2.76651"><ele>108.3</ele></trkpt>
    <trkpt lat="48.76729" lon="2.76897"><ele>107.8</ele></trkpt>
    <trkpt lat="48.76727" lon="2.76923"><ele>107.7</ele></trkpt>
    <trkpt lat="48.76718" lon="2.76947"><ele>107.6</ele></trkpt>
    <trkpt lat="48.76662" lon="2.77015"><ele>107.3</ele></trkpt>
    <trkpt lat="48.765" lon="2.77187"><ele>106.5</ele></trkpt>
    <trkpt lat="48.76466" lon="2.77204"><ele>106.6</ele></trkpt>
    <trkpt lat="48.76377" lon="2.7722"><ele>106.9</ele></trkpt>
    <trkpt lat="48.76348" lon="2.77241"><ele>107.0</ele></trkpt>
    <trkpt lat="48.76127" lon="2.77127"><ele>108.1</ele></trkpt>
    <trkpt lat="48.76011" lon="2.77053"><ele>108.5</ele></trkpt>
    <trkpt lat="48.75993" lon="2.77048"><ele>108.6</ele></trkpt>
    <trkpt lat="48.75981" lon="2.77059"><ele>108.6</ele></trkpt>
    <trkpt lat="48.75978" lon="2.77276"><ele>107.2</ele></trkpt>
    <trkpt lat="48.75986" lon="2.77384"><ele>105.9</ele></trkpt>
    <trkpt lat="48.75994" lon="2.77407"><ele>105.4</ele></trkpt>
    <trkpt lat="48.76011" lon="2.77407"><ele>104.9</ele></trkpt>
    <trkpt lat="48.76098" lon="2.77374"><ele>102.2</ele></trkpt>
    <trkpt lat="48.76133" lon="2.77384"><ele>101.2</ele></trkpt>
    <trkpt lat="48.76165" lon="2.7741"><ele>100.4</ele></trkpt>
    <trkpt lat="48.76234" lon="2.77498"><ele>99.6</ele></trkpt>
    <trkpt lat="48.76264" lon="2.77527"><ele>99.4</ele></trkpt>
    <trkpt lat="48.76272" lon="2.77579"><ele>99.2</ele></trkpt>
    <trkpt lat="48.76269" lon="2.77606"><ele>99.2</ele></trkpt>
    <trkpt lat="48.76296" lon="2.77637"><ele>99.3</ele></trkpt>
    <trkpt lat="48.76323" lon="2.77792"><ele>100.2</ele></trkpt>
    <trkpt lat="48.76384" lon="2.77849"><ele>101.3</ele></trkpt>
    <trkpt lat="48.7639" lon="2.77874"><ele>101.7</ele></trkpt>
    <trkpt lat="48.76393" lon="2.77929"><ele>102.7</ele></trkpt>
    <trkpt lat="48.76388" lon="2.78009"><ele>103.8</ele></trkpt>
    <trkpt lat="48.76375" lon="2.78023"><ele>104.1</ele></trkpt>
    <trkpt lat="48.76357" lon="2.78022"><ele>104.3</ele></trkpt>
    <trkpt lat="48.7604" lon="2.77923"><ele>106.6</ele></trkpt>
    <trkpt lat="48.76036" lon="2.77941"><ele>107.1</ele></trkpt>
    <trkpt lat="48.76039" lon="2.78131"><ele>109.2</ele></trkpt>
    <trkpt lat="48.76035" lon="2.78431"><ele>111.1</ele></trkpt>
    <trkpt lat="48.76024" lon="2.78447"><ele>111.1</ele></trkpt>
    <trkpt lat="48.75725" lon="2.78347"><ele>110.1</ele></trkpt>
    <trkpt lat="48.75711" lon="2.78364"><ele>109.9</ele></trkpt>
    <trkpt lat="48.7521" lon="2.79326"><ele>110.5</ele></trkpt>
    <trkpt lat="48.75218" lon="2.79348"><ele>110.6</ele></trkpt>
    <trkpt lat="48.75233" lon="2.79363"><ele>110.7</ele></trkpt>
    <trkpt lat="48.75266" lon="2.79384"><ele>110.9</ele></trkpt>
    <trkpt lat="48.75284" lon="2.79387"><ele>111.0</ele></trkpt>
    <trkpt lat="48.75319" lon="2.79381"><ele>111.1</ele></trkpt>
    <trkpt lat="48.75389" lon="2.79353"><ele>111.5</ele></trkpt>
    <trkpt lat="48.75406" lon="2.79355"><ele>111.6</ele></trkpt>
    <trkpt lat="48.75423" lon="2.79366"><ele>111.7</ele></trkpt>
    <trkpt lat="48.75481" lon="2.7943"><ele>112.1</ele></trkpt>
    <trkpt lat="48.75694" lon="2.79574"><ele>113.2</ele></trkpt>
    <trkpt lat="48.75759" lon="2.79622"><ele>113.4</ele></trkpt>
    <trkpt lat="48.75772" lon="2.79639"><ele>113.4</ele></trkpt>
    <trkpt lat="48.75774" lon="2.79664"><ele>113.5</ele></trkpt>
    <trkpt lat="48.75753" lon="2.79935"><ele>113.3</ele></trkpt>
    <trkpt lat="48.75737" lon="2.80097"><ele>113.0</ele></trkpt>
    <trkpt lat="48.75726" lon="2.80149"><ele>112.9</ele></trkpt>
    <trkpt lat="48.75727" lon="2.80175"><ele>112.8</ele></trkpt>
    <trkpt lat="48.7575" lon="2.80216"><ele>112.7</ele></trkpt>
    <trkpt lat="48.75749" lon="2.80378"><ele>112.6</ele></trkpt>
    <trkpt lat="48.75751" lon="2.80405"><ele>112.6</ele></trkpt>
    <trkpt lat="48.75764" lon="2.80423"><ele>112.6</ele></trkpt>
    <trkpt lat="48.75632" lon="2.80496"><ele>112.5</ele></trkpt>
    <trkpt lat="48.75617" lon="2.80482"><ele>112.5</ele></trkpt>
    <trkpt lat="48.75586" lon="2.80384"><ele>112.4</ele></trkpt>
    <trkpt lat="48.75566" lon="2.80338"><ele>112.5</ele></trkpt>
    <trkpt lat="48.75557" lon="2.80326"><ele>112.5</ele></trkpt>
    <trkpt lat="48.75568" lon="2.80406"><ele>112.6</ele></trkpt>
    <trkpt lat="48.75626" lon="2.80635"><ele>113.0</ele></trkpt>
    <trkpt lat="48.75645" lon="2.80681"><ele>113.1</ele></trkpt>
    <trkpt lat="48.75732" lon="2.80818"><ele>113.5</ele></trkpt>
    <trkpt lat="48.75747" lon="2.80834"><ele>113.6</ele></trkpt>
    <trkpt lat="48.75814" lon="2.80872"><ele>113.9</ele></trkpt>
    <trkpt lat="48.75829" lon="2.80887"><ele>113.9</ele></trkpt>
    <trkpt lat="48.75881" lon="2.80962"><ele>114.0</ele></trkpt>
    <trkpt lat="48.75902" lon="2.81007"><ele>114.0</ele></trkpt>
    <trkpt lat="48.75976" lon="2.81226"><ele>114.0</ele></trkpt>
    <trkpt lat="48.76064" lon="2.81463"><ele>114.3</ele></trkpt>
    <trkpt lat="48.76083" lon="2.8154"><ele>114.4</ele></trkpt>
    <trkpt lat="48.76203" lon="2.81845"><ele>115.8</ele></trkpt>
    <trkpt lat="48.76328" lon="2.82144"><ele>117.4</ele></trkpt>
    <trkpt lat="48.76337" lon="2.82168"><ele>117.5</ele></trkpt>
    <trkpt lat="48.76338" lon="2.82195"><ele>117.7</ele></trkpt>
    <trkpt lat="48.76351" lon="2.82202"><ele>117.8</ele></trkpt>
    <trkpt lat="48.76395" lon="2.82155"><ele>118.2</ele></trkpt>
    <trkpt lat="48.77197" lon="2.81276"><ele>115.2</ele></trkpt>
    <trkpt lat="48.77213" lon="2.81265"><ele>115.2</ele></trkpt>
    <trkpt lat="48.7723" lon="2.81266"><ele>115.1</ele></trkpt>
    <trkpt lat="48.7735" lon="2.81326"><ele>115.1</ele></trkpt>
    <trkpt lat="48.77367" lon="2.81325"><ele>115.1</ele></trkpt>
    <trkpt lat="48.77384" lon="2.81316"><ele>115.2</ele></trkpt>
    <trkpt lat="48.77479" lon="2.8124"><ele>115.6</ele></trkpt>
    <trkpt lat="48.77622" lon="2.81032"><ele>116.3</ele></trkpt>
    <trkpt lat="48.77637" lon="2.81026"><ele>116.4</ele></trkpt>
    <trkpt lat="48.77652" lon="2.8104"><ele>116.4</ele></trkpt>
    <trkpt lat="48.77758" lon="2.81188"><ele>116.8</ele></trkpt>
    <trkpt lat="48.77817" lon="2.8125"><ele>117.0</ele></trkpt>
    <trkpt lat="48.78018" lon="2.81431"><ele>117.9</ele></trkpt>
    <trkpt lat="48.78051" lon="2.81453"><ele>117.9</ele></trkpt>
    <trkpt lat="48.78068" lon="2.81457"><ele>118.0</ele></trkpt>
    <trkpt lat="48.78774" lon="2.81244"><ele>118.3</ele></trkpt>
    <trkpt lat="48.78785" lon="2.81225"><ele>118.3</ele></trkpt>
    <trkpt lat="48.788" lon="2.81176"><ele>118.3</ele></trkpt>
    <trkpt lat="48.78858" lon="2.81072"><ele>117.9</ele></trkpt>
    <trkpt lat="48.78939" lon="2.80892"><ele>117.1</ele></trkpt>
    <trkpt lat="48.79012" lon="2.80771"><ele>117.2</ele></trkpt>
    <trkpt lat="48.79303" lon="2.80251"><ele>118.8</ele></trkpt>
    <trkpt lat="48.79855" lon="2.79855"><ele>117.7</ele></trkpt>
    <trkpt lat="48.79872" lon="2.7985"><ele>117.6</ele></trkpt>
    <trkpt lat="48.79886" lon="2.79864"><ele>117.6</ele></trkpt>
    <trkpt lat="48.79934" lon="2.79945"><ele>117.5</ele></trkpt>
    <trkpt lat="48.79949" lon="2.7996"><ele>117.5</ele></trkpt>
    <trkpt lat="48.79963" lon="2.79951"><ele>117.5</ele></trkpt>
    <trkpt lat="48.7993" lon="2.79886"><ele>117.5</ele></trkpt>
    <trkpt lat="48.79871" lon="2.79717"><ele>117.1</ele></trkpt>
    <trkpt lat="48.79798" lon="2.79597"><ele>116.5</ele></trkpt>
    <trkpt lat="48.79708" lon="2.79465"><ele>115.9</ele></trkpt>
    <trkpt lat="48.79663" lon="2.7938"><ele>115.9</ele></trkpt>
    <trkpt lat="48.79667" lon="2.79355"><ele>116.1</ele></trkpt>
    <trkpt lat="48.79998" lon="2.78815"><ele>121.3</ele></trkpt>
    <trkpt lat="48.80221" lon="2.78497"><ele>124.4</ele></trkpt>
    <trkpt lat="48.80222" lon="2.78475"><ele>124.5</ele></trkpt>
    <trkpt lat="48.80201" lon="2.78431"><ele>124.5</ele></trkpt>
    <trkpt lat="48.80199" lon="2.78409"><ele>124.4</ele></trkpt>
    <trkpt lat="48.80229" lon="2.78381"><ele>124.0</ele></trkpt>
    <trkpt lat="48.80463" lon="2.78238"><ele>120.4</ele></trkpt>
    <trkpt lat="48.80476" lon="2.78221"><ele>120.1</ele></trkpt>
    <trkpt lat="48.80477" lon="2.78195"><ele>119.8</ele></trkpt>
    <trkpt lat="48.80469" lon="2.78142"><ele>119.5</ele></trkpt>
    <trkpt lat="48.80477" lon="2.78119"><ele>119.5</ele></trkpt>
    <trkpt lat="48.80577" lon="2.78058"><ele>119.7</ele></trkpt>
    <trkpt lat="48.80587" lon="2.78036"><ele>119.8</ele></trkpt>
    <trkpt lat="48.80578" lon="2.77955"><ele>119.9</ele></trkpt>
    <trkpt lat="48.80579" lon="2.77928"><ele>120.0</ele></trkpt>
    <trkpt lat="48.80591" lon="2.77908"><ele>120.0</ele></trkpt>
    <trkpt lat="48.80836" lon="2.77734"><ele>121.6</ele></trkpt>
    <trkpt lat="48.81068" lon="2.77588"><ele>124.8</ele></trkpt>
    <trkpt lat="48.80983" lon="2.7703"><ele>126.0</ele></trkpt>
    <trkpt lat="48.80995" lon="2.77012"><ele>126.3</ele></trkpt>
    <trkpt lat="48.81155" lon="2.76973"><ele>129.2</ele></trkpt>
    <trkpt lat="48.81209" lon="2.76967"><ele>130.2</ele></trkpt>
    <trkpt lat="48.81244" lon="2.76972"><ele>130.7</ele></trkpt>
    <trkpt lat="48.81331" lon="2.77006"><ele>131.1</ele></trkpt>
    <trkpt lat="48.81403" lon="2.77008"><ele>131.2</ele></trkpt>
    <trkpt lat="48.81475" lon="2.77001"><ele>130.4</ele></trkpt>
    <trkpt lat="48.81527" lon="2.7698"><ele>129.6</ele></trkpt>
    <trkpt lat="48.81725" lon="2.76851"><ele>126.2</ele></trkpt>
    <trkpt lat="48.81774" lon="2.76837"><ele>125.6</ele></trkpt>
    <trkpt lat="48.81808" lon="2.76847"><ele>125.5</ele></trkpt>
    <trkpt lat="48.81838" lon="2.76875"><ele>125.4</ele></trkpt>
    <trkpt lat="48.81855" lon="2.76884"><ele>125.3</ele></trkpt>
    <trkpt lat="48.81868" lon="2.76902"><ele>125.3</ele></trkpt>
    <trkpt lat="48.81903" lon="2.76915"><ele>125.2</ele></trkpt>
    <trkpt lat="48.8192" lon="2.76909"><ele>125.2</ele></trkpt>
    <trkpt lat="48.81951" lon="2.76884"><ele>125.3</ele></trkpt>
    <trkpt lat="48.81968" lon="2.76894"><ele>125.3</ele></trkpt>
    <trkpt lat="48.81988" lon="2.7693"><ele>125.4</ele></trkpt>
    <trkpt lat="48.82032" lon="2.76977"><ele>125.5</ele></trkpt>
    <trkpt lat="48.82048" lon="2.76965"><ele>125.6</ele></trkpt>
    <trkpt lat="48.82117" lon="2.76881"><ele>125.9</ele></trkpt>
    <trkpt lat="48.82134" lon="2.76833"><ele>126.1</ele></trkpt>
    <trkpt lat="48.82219" lon="2.76696"><ele>129.9</ele></trkpt>
    <trkpt lat="48.82221" lon="2.7667"><ele>130.4</ele></trkpt>
    <trkpt lat="48.82199" lon="2.76597"><ele>130.4</ele></trkpt>
    <trkpt lat="48.822" lon="2.76571"><ele>130.5</ele></trkpt>
    <trkpt lat="48.82206" lon="2.76588"><ele>130.5</ele></trkpt>
    <trkpt lat="48.82199" lon="2.76567"><ele>130.5</ele></trkpt>
    <trkpt lat="48.82199" lon="2.76594"><ele>130.4</ele></trkpt>
    <trkpt lat="48.8222" lon="2.76668"><ele>130.4</ele></trkpt>
    <trkpt lat="48.8222" lon="2.76694"><ele>130.4</ele></trkpt>
    <trkpt lat="48.82207" lon="2.76718"><ele>130.3</ele></trkpt>
    <trkpt lat="48.8222" lon="2.76699"><ele>130.4</ele></trkpt>
    <trkpt lat="48.82227" lon="2.76675"><ele>130.4</ele></trkpt>
    <trkpt lat="48.82226" lon="2.76648"><ele>130.4</ele></trkpt>
    <trkpt lat="48.8222" lon="2.76623"><ele>130.4</ele></trkpt>
    <trkpt lat="48.8219" lon="2.76554"><ele>130.5</ele></trkpt>
    <trkpt lat="48.82188" lon="2.76529"><ele>130.5</ele></trkpt>
    <trkpt lat="48.82175" lon="2.76517"><ele>130.3</ele></trkpt>
    <trkpt lat="48.82074" lon="2.76573"><ele>128.7</ele></trkpt>
    <trkpt lat="48.82062" lon="2.76552"><ele>128.4</ele></trkpt>
    <trkpt lat="48.82007" lon="2.76351"><ele>127.1</ele></trkpt>
    <trkpt lat="48.81998" lon="2.76298"><ele>126.9</ele></trkpt>
    <trkpt lat="48.81998" lon="2.76271"><ele>126.9</ele></trkpt>
    <trkpt lat="48.82006" lon="2.76251"><ele>126.9</ele></trkpt>
    <trkpt lat="48.82179" lon="2.76176"><ele>127.3</ele></trkpt>
    <trkpt lat="48.82196" lon="2.76166"><ele>127.3</ele></trkpt>
    <trkpt lat="48.82199" lon="2.76145"><ele>127.2</ele></trkpt>
    <trkpt lat="48.82076" lon="2.75575"><ele>125.2</ele></trkpt>
    <trkpt lat="48.82087" lon="2.75537"><ele>125.1</ele></trkpt>
    <trkpt lat="48.82084" lon="2.75511"><ele>125.0</ele></trkpt>
    <trkpt lat="48.82267" lon="2.74769"><ele>122.4</ele></trkpt>
    <trkpt lat="48.82266" lon="2.74742"><ele>122.3</ele></trkpt>
    <trkpt lat="48.82158" lon="2.73939"><ele>121.0</ele></trkpt>
    <trkpt lat="48.82147" lon="2.73887"><ele>120.9</ele></trkpt>
    <trkpt lat="48.82049" lon="2.73596"><ele>119.7</ele></trkpt>
    <trkpt lat="48.8202" lon="2.73527"><ele>119.0</ele></trkpt>
    <trkpt lat="48.81915" lon="2.7321"><ele>116.9</ele></trkpt>
    <trkpt lat="48.81905" lon="2.73197"><ele>116.7</ele></trkpt>
    <trkpt lat="48.81889" lon="2.73201"><ele>116.7</ele></trkpt>
    <trkpt lat="48.81875" lon="2.73185"><ele>116.6</ele></trkpt>
    <trkpt lat="48.81866" lon="2.73162"><ele>116.6</ele></trkpt>
    <trkpt lat="48.81857" lon="2.73081"><ele>116.5</ele></trkpt>
    <trkpt lat="48.81636" lon="2.72803"><ele>116.7</ele></trkpt>
    <trkpt lat="48.81628" lon="2.72779"><ele>116.7</ele></trkpt>
    <trkpt lat="48.8164" lon="2.72728"><ele>116.7</ele></trkpt>
    <trkpt lat="48.81632" lon="2.72704"><ele>116.8</ele></trkpt>
    <trkpt lat="48.81623" lon="2.72651"><ele>116.9</ele></trkpt>
    <trkpt lat="48.81602" lon="2.72407"><ele>117.7</ele></trkpt>
    <trkpt lat="48.81601" lon="2.7233"><ele>118.5</ele></trkpt>
    <trkpt lat="48.81676" lon="2.72255"><ele>118.9</ele></trkpt>
    <trkpt lat="48.817" lon="2.72215"><ele>119.1</ele></trkpt>
    <trkpt lat="48.8244" lon="2.70701"><ele>118.1</ele></trkpt>
    <trkpt lat="48.82465" lon="2.70665"><ele>117.7</ele></trkpt>
    <trkpt lat="48.82448" lon="2.70661"><ele>117.5</ele></trkpt>
    <trkpt lat="48.8235" lon="2.70541"><ele>115.1</ele></trkpt>
    <trkpt lat="48.82272" lon="2.70428"><ele>111.6</ele></trkpt>
    <trkpt lat="48.82211" lon="2.70371"><ele>109.4</ele></trkpt>
    <trkpt lat="48.82194" lon="2.70371"><ele>108.9</ele></trkpt>
    <trkpt lat="48.82156" lon="2.70427"><ele>107.6</ele></trkpt>
    <trkpt lat="48.82125" lon="2.70406"><ele>106.4</ele></trkpt>
    <trkpt lat="48.82107" lon="2.70404"><ele>105.8</ele></trkpt>
    <trkpt lat="48.82096" lon="2.70384"><ele>105.1</ele></trkpt>
    <trkpt lat="48.82051" lon="2.70338"><ele>103.0</ele></trkpt>
    <trkpt lat="48.82019" lon="2.70462"><ele>102.5</ele></trkpt>
    <trkpt lat="48.81994" lon="2.70534"><ele>102.8</ele></trkpt>
    <trkpt lat="48.81978" lon="2.70538"><ele>102.8</ele></trkpt>
    <trkpt lat="48.8197" lon="2.70514"><ele>102.8</ele></trkpt>
    <trkpt lat="48.81969" lon="2.70487"><ele>102.7</ele></trkpt>
    <trkpt lat="48.8203" lon="2.70202"><ele>102.7</ele></trkpt>
    <trkpt lat="48.82029" lon="2.70177"><ele>103.5</ele></trkpt>
    <trkpt lat="48.82015" lon="2.70159"><ele>104.2</ele></trkpt>
    <trkpt lat="48.81887" lon="2.7001"><ele>108.4</ele></trkpt>
    <trkpt lat="48.81756" lon="2.69924"><ele>110.6</ele></trkpt>
    <trkpt lat="48.81712" lon="2.69839"><ele>110.8</ele></trkpt>
    <trkpt lat="48.81697" lon="2.69824"><ele>110.8</ele></trkpt>
    <trkpt lat="48.81627" lon="2.69799"><ele>111.2</ele></trkpt>
    <trkpt lat="48.81563" lon="2.6975"><ele>112.5</ele></trkpt>
    <trkpt lat="48.81504" lon="2.69688"><ele>112.0</ele></trkpt>
    <trkpt lat="48.81438" lon="2.69645"><ele>112.3</ele></trkpt>
    <trkpt lat="48.81294" lon="2.69534"><ele>113.1</ele></trkpt>
    <trkpt lat="48.81281" lon="2.69516"><ele>113.3</ele></trkpt>
    <trkpt lat="48.8123" lon="2.69403"><ele>114.5</ele></trkpt>
    <trkpt lat="48.81216" lon="2.69396"><ele>114.8</ele></trkpt>
    <trkpt lat="48.81166" lon="2.69426"><ele>115.4</ele></trkpt>
    <trkpt lat="48.81131" lon="2.69436"><ele>115.6</ele></trkpt>
    <trkpt lat="48.81099" lon="2.69414"><ele>115.8</ele></trkpt>
    <trkpt lat="48.81033" lon="2.69454"><ele>116.0</ele></trkpt>
    <trkpt lat="48.81017" lon="2.69447"><ele>116.0</ele></trkpt>
    <trkpt lat="48.80772" lon="2.69011"><ele>115.5</ele></trkpt>
    <trkpt lat="48.80755" lon="2.69006"><ele>115.4</ele></trkpt>
    <trkpt lat="48.8056" lon="2.69144"><ele>115.1</ele></trkpt>
    <trkpt lat="48.80439" lon="2.69092"><ele>114.4</ele></trkpt>
    <trkpt lat="48.80368" lon="2.69075"><ele>114.7</ele></trkpt>
    <trkpt lat="48.80299" lon="2.69044"><ele>115.0</ele></trkpt>
    <trkpt lat="48.80193" lon="2.69022"><ele>114.7</ele></trkpt>
    <trkpt lat="48.80161" lon="2.69001"><ele>114.5</ele></trkpt>
    <trkpt lat="48.80108" lon="2.68992"><ele>114.2</ele></trkpt>
    <trkpt lat="48.80074" lon="2.68973"><ele>114.0</ele></trkpt>
    <trkpt lat="48.80041" lon="2.68962"><ele>113.7</ele></trkpt>
    <trkpt lat="48.80034" lon="2.68939"><ele>113.5</ele></trkpt>
    <trkpt lat="48.80124" lon="2.67636"><ele>112.6</ele></trkpt>
    <trkpt lat="48.80132" lon="2.67633"><ele>112.6</ele></trkpt>
    <trkpt lat="48.80139" lon="2.67658"><ele>112.6</ele></trkpt>
    <trkpt lat="48.80127" lon="2.67611"><ele>112.7</ele></trkpt>
    <trkpt lat="48.80317" lon="2.67023"><ele>112.6</ele></trkpt>
    <trkpt lat="48.80327" lon="2.67"><ele>112.6</ele></trkpt>
    <trkpt lat="48.80382" lon="2.66931"><ele>112.5</ele></trkpt>
    <trkpt lat="48.80395" lon="2.6688"><ele>112.5</ele></trkpt>
    <trkpt lat="48.80392" lon="2.66799"><ele>112.4</ele></trkpt>
    <trkpt lat="48.80509" lon="2.6643"><ele>112.7</ele></trkpt>
    <trkpt lat="48.80536" lon="2.66328"><ele>112.8</ele></trkpt>
    <trkpt lat="48.80563" lon="2.66258"><ele>112.8</ele></trkpt>
    <trkpt lat="48.80955" lon="2.65656"><ele>111.3</ele></trkpt>
    <trkpt lat="48.80967" lon="2.65636"><ele>111.2</ele></trkpt>
    <trkpt lat="48.80967" lon="2.65609"><ele>111.2</ele></trkpt>
    <trkpt lat="48.80857" lon="2.6492"><ele>109.1</ele></trkpt>
    <trkpt lat="48.80844" lon="2.64901"><ele>109.1</ele></trkpt>
    <trkpt lat="48.80649" lon="2.64762"><ele>109.1</ele></trkpt>
    <trkpt lat="48.80635" lon="2.64747"><ele>109.1</ele></trkpt>
    <trkpt lat="48.80592" lon="2.64627"><ele>108.9</ele></trkpt>
    <trkpt lat="48.80565" lon="2.64274"><ele>107.9</ele></trkpt>
    <trkpt lat="48.80549" lon="2.64226"><ele>107.8</ele></trkpt>
    <trkpt lat="48.80514" lon="2.64165"><ele>107.8</ele></trkpt>
    <trkpt lat="48.80535" lon="2.64144"><ele>107.8</ele></trkpt>
    <trkpt lat="48.80547" lon="2.64124"><ele>107.8</ele></trkpt>
    <trkpt lat="48.8057" lon="2.6405"><ele>107.7</ele></trkpt>
    <trkpt lat="48.8059" lon="2.64004"><ele>107.7</ele></trkpt>
    <trkpt lat="48.80647" lon="2.63937"><ele>107.9</ele></trkpt>
    <trkpt lat="48.80656" lon="2.63915"><ele>107.9</ele></trkpt>
    <trkpt lat="48.8066" lon="2.63889"><ele>108.0</ele></trkpt>
    <trkpt lat="48.80657" lon="2.63862"><ele>108.1</ele></trkpt>
    <trkpt lat="48.80624" lon="2.63649"><ele>108.8</ele></trkpt>
    <trkpt lat="48.80612" lon="2.63598"><ele>108.9</ele></trkpt>
    <trkpt lat="48.80584" lon="2.63528"><ele>109.0</ele></trkpt>
    <trkpt lat="48.80509" lon="2.63375"><ele>108.9</ele></trkpt>
    <trkpt lat="48.80496" lon="2.63357"><ele>108.8</ele></trkpt>
    <trkpt lat="48.8044" lon="2.63188"><ele>108.8</ele></trkpt>
    <trkpt lat="48.80438" lon="2.63106"><ele>108.9</ele></trkpt>
    <trkpt lat="48.80428" lon="2.63054"><ele>109.0</ele></trkpt>
    <trkpt lat="48.80428" lon="2.63027"><ele>109.1</ele></trkpt>
    <trkpt lat="48.80407" lon="2.62954"><ele>109.4</ele></trkpt>
    <trkpt lat="48.80406" lon="2.62846"><ele>109.8</ele></trkpt>
    <trkpt lat="48.80392" lon="2.62829"><ele>109.8</ele></trkpt>
    <trkpt lat="48.80328" lon="2.62783"><ele>109.8</ele></trkpt>
    <trkpt lat="48.80371" lon="2.62669"><ele>109.8</ele></trkpt>
    <trkpt lat="48.80359" lon="2.62677"><ele>109.8</ele></trkpt>
    <trkpt lat="48.80295" lon="2.62627"><ele>109.7</ele></trkpt>
    <trkpt lat="48.80264" lon="2.626"><ele>109.5</ele></trkpt>
    <trkpt lat="48.80227" lon="2.62549"><ele>109.4</ele></trkpt>
    <trkpt lat="48.80209" lon="2.62551"><ele>109.4</ele></trkpt>
    <trkpt lat="48.80193" lon="2.62543"><ele>109.3</ele></trkpt>
    <trkpt lat="48.80174" lon="2.62497"><ele>109.3</ele></trkpt>
    <trkpt lat="48.8016" lon="2.62487"><ele>109.3</ele></trkpt>
    <trkpt lat="48.80107" lon="2.6248"><ele>109.2</ele></trkpt>
    <trkpt lat="48.79995" lon="2.62395"><ele>108.7</ele></trkpt>
    <trkpt lat="48.79927" lon="2.62361"><ele>108.1</ele></trkpt>
    <trkpt lat="48.79816" lon="2.6227"><ele>107.4</ele></trkpt>
    <trkpt lat="48.79787" lon="2.62238"><ele>107.3</ele></trkpt>
    <trkpt lat="48.79753" lon="2.6222"><ele>107.2</ele></trkpt>
    <trkpt lat="48.79624" lon="2.62124"><ele>106.9</ele></trkpt>
    <trkpt lat="48.79562" lon="2.6207"><ele>106.8</ele></trkpt>
    <trkpt lat="48.79557" lon="2.62047"><ele>106.7</ele></trkpt>
    <trkpt lat="48.79581" lon="2.61944"><ele>106.5</ele></trkpt>
    <trkpt lat="48.79701" lon="2.61577"><ele>106.0</ele></trkpt>
    <trkpt lat="48.79713" lon="2.61558"><ele>106.1</ele></trkpt>
    <trkpt lat="48.79712" lon="2.61507"><ele>106.3</ele></trkpt>
    <trkpt lat="48.79741" lon="2.61439"><ele>106.6</ele></trkpt>
    <trkpt lat="48.79734" lon="2.61418"><ele>106.7</ele></trkpt>
    <trkpt lat="48.79597" lon="2.61242"><ele>107.1</ele></trkpt>
    <trkpt lat="48.79552" lon="2.61156"><ele>106.8</ele></trkpt>
    <trkpt lat="48.7955" lon="2.6113"><ele>106.6</ele></trkpt>
    <trkpt lat="48.79557" lon="2.61105"><ele>106.5</ele></trkpt>
    <trkpt lat="48.79683" lon="2.60953"><ele>105.6</ele></trkpt>
    <trkpt lat="48.79687" lon="2.60929"><ele>105.6</ele></trkpt>
    <trkpt lat="48.79588" lon="2.607"><ele>105.1</ele></trkpt>
    <trkpt lat="48.79567" lon="2.60457"><ele>104.7</ele></trkpt>
    <trkpt lat="48.79621" lon="2.60255"><ele>104.6</ele></trkpt>
    <trkpt lat="48.79632" lon="2.60235"><ele>104.6</ele></trkpt>
    <trkpt lat="48.79756" lon="2.60077"><ele>104.8</ele></trkpt>
    <trkpt lat="48.79753" lon="2.60055"><ele>104.8</ele></trkpt>
    <trkpt lat="48.79734" lon="2.6001"><ele>104.8</ele></trkpt>
    <trkpt lat="48.79664" lon="2.59893"><ele>104.5</ele></trkpt>
    <trkpt lat="48.79699" lon="2.59956"><ele>104.4</ele></trkpt>
    <trkpt lat="48.79705" lon="2.59955"><ele>104.3</ele></trkpt>
    <trkpt lat="48.79603" lon="2.59765"><ele>102.6</ele></trkpt>
    <trkpt lat="48.79601" lon="2.59738"><ele>102.4</ele></trkpt>
    <trkpt lat="48.79606" lon="2.59712"><ele>102.2</ele></trkpt>
    <trkpt lat="48.79603" lon="2.59686"><ele>102.0</ele></trkpt>
    <trkpt lat="48.79579" lon="2.59613"><ele>101.6</ele></trkpt>
    <trkpt lat="48.79568" lon="2.59478"><ele>101.1</ele></trkpt>
    <trkpt lat="48.7953" lon="2.59326"><ele>100.9</ele></trkpt>
    <trkpt lat="48.7953" lon="2.59272"><ele>100.9</ele></trkpt>
    <trkpt lat="48.79548" lon="2.59195"><ele>101.0</ele></trkpt>
    <trkpt lat="48.79552" lon="2.59141"><ele>101.0</ele></trkpt>
    <trkpt lat="48.79533" lon="2.59009"><ele>101.4</ele></trkpt>
    <trkpt lat="48.79521" lon="2.58991"><ele>101.4</ele></trkpt>
    <trkpt lat="48.79424" lon="2.58918"><ele>101.1</ele></trkpt>
    <trkpt lat="48.7941" lon="2.58901"><ele>101.1</ele></trkpt>
    <trkpt lat="48.794" lon="2.58879"><ele>101.0</ele></trkpt>
    <trkpt lat="48.79398" lon="2.58853"><ele>101.0</ele></trkpt>
    <trkpt lat="48.79415" lon="2.58809"><ele>100.9</ele></trkpt>
    <trkpt lat="48.79436" lon="2.58705"><ele>100.8</ele></trkpt>
    <trkpt lat="48.79437" lon="2.58678"><ele>100.8</ele></trkpt>
    <trkpt lat="48.79422" lon="2.58674"><ele>100.7</ele></trkpt>
    <trkpt lat="48.79389" lon="2.58695"><ele>100.6</ele></trkpt>
    <trkpt lat="48.79373" lon="2.58684"><ele>100.4</ele></trkpt>
    <trkpt lat="48.79359" lon="2.58635"><ele>100.1</ele></trkpt>
    <trkpt lat="48.79345" lon="2.58621"><ele>100.0</ele></trkpt>
    <trkpt lat="48.79341" lon="2.58568"><ele>100.0</ele></trkpt>
    <trkpt lat="48.79407" lon="2.58227"><ele>100.7</ele></trkpt>
    <trkpt lat="48.79405" lon="2.58206"><ele>100.8</ele></trkpt>
    <trkpt lat="48.79389" lon="2.58194"><ele>100.9</ele></trkpt>
    <trkpt lat="48.79383" lon="2.58172"><ele>100.9</ele></trkpt>
    <trkpt lat="48.79393" lon="2.57899"><ele>101.5</ele></trkpt>
    <trkpt lat="48.7938" lon="2.57737"><ele>101.5</ele></trkpt>
    <trkpt lat="48.79364" lon="2.5763"><ele>101.4</ele></trkpt>
    <trkpt lat="48.79365" lon="2.57603"><ele>101.4</ele></trkpt>
    <trkpt lat="48.79377" lon="2.57589"><ele>101.4</ele></trkpt>
    <trkpt lat="48.79532" lon="2.57517"><ele>101.0</ele></trkpt>
    <trkpt lat="48.79546" lon="2.57502"><ele>100.8</ele></trkpt>
    <trkpt lat="48.79561" lon="2.57232"><ele>99.0</ele></trkpt>
    <trkpt lat="48.79498" lon="2.57193"><ele>98.9</ele></trkpt>
    <trkpt lat="48.79492" lon="2.57172"><ele>98.9</ele></trkpt>
    <trkpt lat="48.79604" lon="2.56924"><ele>100.0</ele></trkpt>
    <trkpt lat="48.79613" lon="2.56901"><ele>100.1</ele></trkpt>
    <trkpt lat="48.79622" lon="2.56848"><ele>100.4</ele></trkpt>
    <trkpt lat="48.79633" lon="2.56828"><ele>100.5</ele></trkpt>
    <trkpt lat="48.79956" lon="2.56531"><ele>102.2</ele></trkpt>
    <trkpt lat="48.79985" lon="2.56523"><ele>102.2</ele></trkpt>
    <trkpt lat="48.79984" lon="2.56501"><ele>102.1</ele></trkpt>
    <trkpt lat="48.79969" lon="2.56493"><ele>102.1</ele></trkpt>
    <trkpt lat="48.79962" lon="2.5647"><ele>102.1</ele></trkpt>
    <trkpt lat="48.79946" lon="2.56336"><ele>101.9</ele></trkpt>
    <trkpt lat="48.79954" lon="2.56283"><ele>101.8</ele></trkpt>
    <trkpt lat="48.79939" lon="2.56268"><ele>101.8</ele></trkpt>
    <trkpt lat="48.79935" lon="2.56242"><ele>101.8</ele></trkpt>
    <trkpt lat="48.79808" lon="2.55194"><ele>100.9</ele></trkpt>
    <trkpt lat="48.79802" lon="2.55171"><ele>100.9</ele></trkpt>
    <trkpt lat="48.79786" lon="2.55176"><ele>100.8</ele></trkpt>
    <trkpt lat="48.79692" lon="2.55302"><ele>100.5</ele></trkpt>
    <trkpt lat="48.79657" lon="2.5531"><ele>100.4</ele></trkpt>
    <trkpt lat="48.79621" lon="2.55304"><ele>100.2</ele></trkpt>
    <trkpt lat="48.79605" lon="2.55295"><ele>100.2</ele></trkpt>
    <trkpt lat="48.79599" lon="2.5527"><ele>100.2</ele></trkpt>
    <trkpt lat="48.79568" lon="2.55029"><ele>101.1</ele></trkpt>
    <trkpt lat="48.79536" lon="2.55017"><ele>101.3</ele></trkpt>
    <trkpt lat="48.78948" lon="2.54894"><ele>101.0</ele></trkpt>
    <trkpt lat="48.7892" lon="2.54861"><ele>100.9</ele></trkpt>
    <trkpt lat="48.78782" lon="2.54541"><ele>100.5</ele></trkpt>
    <trkpt lat="48.78743" lon="2.54502"><ele>100.3</ele></trkpt>
    <trkpt lat="48.78679" lon="2.54453"><ele>99.9</ele></trkpt>
  </trkseg></trk>
</gpx>
