<?xml version="1.0" encoding="UTF-8"?>
<gpx version="1.1" creator="USO Cyclisme" xmlns="http://www.topografix.com/GPX/1/1">
  <metadata><name>Neufmoutiers-en-Brie – 63 km</name><desc>Gravel, 62.7 km, D+ 136 m. Départ et arrivée : centre culturel d'Ormesson-sur-Marne.</desc></metadata>
  <trk><name>Neufmoutiers-en-Brie – 63 km (gravel)</name><trkseg>
    <trkpt lat="48.78667" lon="2.54444"><ele>98.3</ele></trkpt>
    <trkpt lat="48.78715" lon="2.5448"><ele>99.4</ele></trkpt>
    <trkpt lat="48.78733" lon="2.54481"><ele>99.8</ele></trkpt>
    <trkpt lat="48.78748" lon="2.54495"><ele>100.2</ele></trkpt>
    <trkpt lat="48.78757" lon="2.54519"><ele>100.4</ele></trkpt>
    <trkpt lat="48.78783" lon="2.54541"><ele>100.5</ele></trkpt>
    <trkpt lat="48.79158" lon="2.55407"><ele>97.4</ele></trkpt>
    <trkpt lat="48.7918" lon="2.55481"><ele>97.8</ele></trkpt>
    <trkpt lat="48.79182" lon="2.55509"><ele>98.0</ele></trkpt>
    <trkpt lat="48.79178" lon="2.55535"><ele>98.1</ele></trkpt>
    <trkpt lat="48.79184" lon="2.55558"><ele>98.2</ele></trkpt>
    <trkpt lat="48.79218" lon="2.55572"><ele>98.3</ele></trkpt>
    <trkpt lat="48.79233" lon="2.55588"><ele>98.2</ele></trkpt>
    <trkpt lat="48.79366" lon="2.5588"><ele>98.4</ele></trkpt>
    <trkpt lat="48.79361" lon="2.55905"><ele>98.6</ele></trkpt>
    <trkpt lat="48.79372" lon="2.55926"><ele>98.6</ele></trkpt>
    <trkpt lat="48.79389" lon="2.55928"><ele>98.7</ele></trkpt>
    <trkpt lat="48.79429" lon="2.56019"><ele>99.1</ele></trkpt>
    <trkpt lat="48.79437" lon="2.56042"><ele>98.9</ele></trkpt>
    <trkpt lat="48.79431" lon="2.56067"><ele>98.6</ele></trkpt>
    <trkpt lat="48.79425" lon="2.56202"><ele>97.5</ele></trkpt>
    <trkpt lat="48.79396" lon="2.56272"><ele>97.1</ele></trkpt>
    <trkpt lat="48.79398" lon="2.56294"><ele>97.0</ele></trkpt>
    <trkpt lat="48.79417" lon="2.56397"><ele>97.1</ele></trkpt>
    <trkpt lat="48.79461" lon="2.56483"><ele>97.1</ele></trkpt>
    <trkpt lat="48.79476" lon="2.56533"><ele>97.2</ele></trkpt>
    <trkpt lat="48.79472" lon="2.56556"><ele>97.1</ele></trkpt>
    <trkpt lat="48.79429" lon="2.56604"><ele>96.6</ele></trkpt>
    <trkpt lat="48.79274" lon="2.56745"><ele>93.6</ele></trkpt>
    <trkpt lat="48.79241" lon="2.56764"><ele>92.7</ele></trkpt>
    <trkpt lat="48.79205" lon="2.56764"><ele>91.9</ele></trkpt>
    <trkpt lat="48.79188" lon="2.56757"><ele>91.5</ele></trkpt>
    <trkpt lat="48.79037" lon="2.56668"><ele>89.4</ele></trkpt>
    <trkpt lat="48.79019" lon="2.56664"><ele>89.3</ele></trkpt>
    <trkpt lat="48.79002" lon="2.56668"><ele>89.3</ele></trkpt>
    <trkpt lat="48.78986" lon="2.56682"><ele>89.4</ele></trkpt>
    <trkpt lat="48.78973" lon="2.56701"><ele>89.5</ele></trkpt>
    <trkpt lat="48.78922" lon="2.56845"><ele>90.4</ele></trkpt>
    <trkpt lat="48.78849" lon="2.57001"><ele>91.9</ele></trkpt>
    <trkpt lat="48.78841" lon="2.57025"><ele>92.1</ele></trkpt>
    <trkpt lat="48.78827" lon="2.57132"><ele>93.3</ele></trkpt>
    <trkpt lat="48.78777" lon="2.57336"><ele>96.3</ele></trkpt>
    <trkpt lat="48.78699" lon="2.57551"><ele>98.0</ele></trkpt>
    <trkpt lat="48.78618" lon="2.57732"><ele>97.7</ele></trkpt>
    <trkpt lat="48.78607" lon="2.57784"><ele>97.4</ele></trkpt>
    <trkpt lat="48.78595" lon="2.57804"><ele>97.2</ele></trkpt>
    <trkpt lat="48.78526" lon="2.57835"><ele>96.0</ele></trkpt>
    <trkpt lat="48.78519" lon="2.5786"><ele>95.7</ele></trkpt>
    <trkpt lat="48.7853" lon="2.57911"><ele>94.9</ele></trkpt>
    <trkpt lat="48.78567" lon="2.58036"><ele>92.8</ele></trkpt>
    <trkpt lat="48.78581" lon="2.58253"><ele>89.1</ele></trkpt>
    <trkpt lat="48.7858" lon="2.58307"><ele>88.8</ele></trkpt>
    <trkpt lat="48.78539" lon="2.58572"><ele>90.9</ele></trkpt>
    <trkpt lat="48.78543" lon="2.58626"><ele>92.0</ele></trkpt>
    <trkpt lat="48.78561" lon="2.58703"><ele>93.8</ele></trkpt>
    <trkpt lat="48.7855" lon="2.58975"><ele>97.1</ele></trkpt>
    <trkpt lat="48.78541" lon="2.59083"><ele>97.7</ele></trkpt>
    <trkpt lat="48.78484" lon="2.59539"><ele>98.4</ele></trkpt>
    <trkpt lat="48.78478" lon="2.5962"><ele>98.4</ele></trkpt>
    <trkpt lat="48.78502" lon="2.59807"><ele>98.2</ele></trkpt>
    <trkpt lat="48.78502" lon="2.59861"><ele>98.1</ele></trkpt>
    <trkpt lat="48.78528" lon="2.59885"><ele>97.9</ele></trkpt>
    <trkpt lat="48.78539" lon="2.60157"><ele>96.1</ele></trkpt>
    <trkpt lat="48.78536" lon="2.60184"><ele>95.8</ele></trkpt>
    <trkpt lat="48.78467" lon="2.60179"><ele>94.6</ele></trkpt>
    <trkpt lat="48.78382" lon="2.60354"><ele>93.6</ele></trkpt>
    <trkpt lat="48.78373" lon="2.60428"><ele>93.6</ele></trkpt>
    <trkpt lat="48.78337" lon="2.6042"><ele>93.6</ele></trkpt>
    <trkpt lat="48.78323" lon="2.60404"><ele>93.6</ele></trkpt>
    <trkpt lat="48.78307" lon="2.60357"><ele>93.7</ele></trkpt>
    <trkpt lat="48.78228" lon="2.60294"><ele>94.0</ele></trkpt>
    <trkpt lat="48.78211" lon="2.60286"><ele>94.1</ele></trkpt>
    <trkpt lat="48.78201" lon="2.60301"><ele>94.1</ele></trkpt>
    <trkpt lat="48.78147" lon="2.60532"><ele>94.8</ele></trkpt>
    <trkpt lat="48.78126" lon="2.60721"><ele>95.9</ele></trkpt>
    <trkpt lat="48.78129" lon="2.60746"><ele>96.1</ele></trkpt>
    <trkpt lat="48.7816" lon="2.60813"><ele>96.8</ele></trkpt>
    <trkpt lat="48.78153" lon="2.60831"><ele>97.0</ele></trkpt>
    <trkpt lat="48.78072" lon="2.60893"><ele>98.3</ele></trkpt>
    <trkpt lat="48.78061" lon="2.60913"><ele>98.5</ele></trkpt>
    <trkpt lat="48.78058" lon="2.6094"><ele>98.8</ele></trkpt>
    <trkpt lat="48.78066" lon="2.60993"><ele>99.1</ele></trkpt>
    <trkpt lat="48.7807" lon="2.61074"><ele>99.6</ele></trkpt>
    <trkpt lat="48.78057" lon="2.61089"><ele>99.7</ele></trkpt>
    <trkpt lat="48.78039" lon="2.61094"><ele>100.0</ele></trkpt>
    <trkpt lat="48.78036" lon="2.61117"><ele>100.2</ele></trkpt>
    <trkpt lat="48.78045" lon="2.61308"><ele>101.2</ele></trkpt>
    <trkpt lat="48.78036" lon="2.61329"><ele>101.3</ele></trkpt>
    <trkpt lat="48.78001" lon="2.61333"><ele>101.7</ele></trkpt>
    <trkpt lat="48.77986" lon="2.61348"><ele>101.9</ele></trkpt>
    <trkpt lat="48.77978" lon="2.61372"><ele>102.0</ele></trkpt>
    <trkpt lat="48.77972" lon="2.61426"><ele>102.2</ele></trkpt>
    <trkpt lat="48.7798" lon="2.61478"><ele>102.4</ele></trkpt>
    <trkpt lat="48.77989" lon="2.61502"><ele>102.4</ele></trkpt>
    <trkpt lat="48.78076" lon="2.6164"><ele>101.9</ele></trkpt>
    <trkpt lat="48.78155" lon="2.61751"><ele>100.8</ele></trkpt>
    <trkpt lat="48.78171" lon="2.61763"><ele>100.6</ele></trkpt>
    <trkpt lat="48.78207" lon="2.61761"><ele>100.3</ele></trkpt>
    <trkpt lat="48.78219" lon="2.61781"><ele>100.1</ele></trkpt>
    <trkpt lat="48.78234" lon="2.61858"><ele>99.9</ele></trkpt>
    <trkpt lat="48.78266" lon="2.61923"><ele>99.8</ele></trkpt>
    <trkpt lat="48.78257" lon="2.61966"><ele>99.9</ele></trkpt>
    <trkpt lat="48.78268" lon="2.61989"><ele>100.0</ele></trkpt>
    <trkpt lat="48.78271" lon="2.62014"><ele>100.1</ele></trkpt>
    <trkpt lat="48.7826" lon="2.62032"><ele>100.2</ele></trkpt>
    <trkpt lat="48.78195" lon="2.62079"><ele>100.8</ele></trkpt>
    <trkpt lat="48.78061" lon="2.62156"><ele>102.1</ele></trkpt>
    <trkpt lat="48.78008" lon="2.62176"><ele>102.6</ele></trkpt>
    <trkpt lat="48.77901" lon="2.62195"><ele>103.6</ele></trkpt>
    <trkpt lat="48.77744" lon="2.62254"><ele>104.7</ele></trkpt>
    <trkpt lat="48.77727" lon="2.62263"><ele>104.9</ele></trkpt>
    <trkpt lat="48.77683" lon="2.62308"><ele>105.2</ele></trkpt>
    <trkpt lat="48.7763" lon="2.62322"><ele>105.3</ele></trkpt>
    <trkpt lat="48.77626" lon="2.62344"><ele>105.3</ele></trkpt>
    <trkpt lat="48.77661" lon="2.64008"><ele>104.9</ele></trkpt>
    <trkpt lat="48.7766" lon="2.64172"><ele>105.7</ele></trkpt>
    <trkpt lat="48.77666" lon="2.6428"><ele>106.5</ele></trkpt>
    <trkpt lat="48.77656" lon="2.64332"><ele>107.0</ele></trkpt>
    <trkpt lat="48.77646" lon="2.64354"><ele>107.2</ele></trkpt>
    <trkpt lat="48.77594" lon="2.64377"><ele>107.9</ele></trkpt>
    <trkpt lat="48.77488" lon="2.64403"><ele>108.5</ele></trkpt>
    <trkpt lat="48.77483" lon="2.64427"><ele>108.6</ele></trkpt>
    <trkpt lat="48.77528" lon="2.64913"><ele>108.7</ele></trkpt>
    <trkpt lat="48.77516" lon="2.64925"><ele>108.7</ele></trkpt>
    <trkpt lat="48.77426" lon="2.64914"><ele>108.8</ele></trkpt>
    <trkpt lat="48.77418" lon="2.64926"><ele>108.9</ele></trkpt>
    <trkpt lat="48.77437" lon="2.65002"><ele>109.0</ele></trkpt>
    <trkpt lat="48.77439" lon="2.6511"><ele>109.1</ele></trkpt>
    <trkpt lat="48.77456" lon="2.65158"><ele>109.1</ele></trkpt>
    <trkpt lat="48.7745" lon="2.65266"><ele>109.0</ele></trkpt>
    <trkpt lat="48.77458" lon="2.65347"><ele>108.9</ele></trkpt>
    <trkpt lat="48.77555" lon="2.65985"><ele>107.7</ele></trkpt>
    <trkpt lat="48.77716" lon="2.66965"><ele>110.0</ele></trkpt>
    <trkpt lat="48.77719" lon="2.66992"><ele>110.4</ele></trkpt>
    <trkpt lat="48.77712" lon="2.67016"><ele>110.7</ele></trkpt>
    <trkpt lat="48.7771" lon="2.67043"><ele>110.7</ele></trkpt>
    <trkpt lat="48.77734" lon="2.67081"><ele>110.6</ele></trkpt>
    <trkpt lat="48.77878" lon="2.67983"><ele>112.0</ele></trkpt>
    <trkpt lat="48.77877" lon="2.6803"><ele>112.0</ele></trkpt>
    <trkpt lat="48.77884" lon="2.68053"><ele>112.0</ele></trkpt>
    <trkpt lat="48.77846" lon="2.69608"><ele>109.7</ele></trkpt>
    <trkpt lat="48.77831" lon="2.70044"><ele>110.0</ele></trkpt>
    <trkpt lat="48.77783" lon="2.72144"><ele>110.8</ele></trkpt>
    <trkpt lat="48.77798" lon="2.72216"><ele>110.8</ele></trkpt>
    <trkpt lat="48.77837" lon="2.72273"><ele>110.9</ele></trkpt>
    <trkpt lat="48.77847" lon="2.72295"><ele>110.9</ele></trkpt>
    <trkpt lat="48.77887" lon="2.72476"><ele>110.8</ele></trkpt>
    <trkpt lat="48.77942" lon="2.72677"><ele>110.8</ele></trkpt>
    <trkpt lat="48.77968" lon="2.72864"><ele>111.2</ele></trkpt>
    <trkpt lat="48.77991" lon="2.72996"><ele>112.0</ele></trkpt>
    <trkpt lat="48.78061" lon="2.73306"><ele>111.7</ele></trkpt>
    <trkpt lat="48.78086" lon="2.73437"><ele>111.5</ele></trkpt>
    <trkpt lat="48.78093" lon="2.73545"><ele>111.1</ele></trkpt>
    <trkpt lat="48.78091" lon="2.73572"><ele>111.0</ele></trkpt>
    <trkpt lat="48.78077" lon="2.73584"><ele>110.9</ele></trkpt>
    <trkpt lat="48.77747" lon="2.7372"><ele>109.6</ele></trkpt>
    <trkpt lat="48.77606" lon="2.73763"><ele>109.3</ele></trkpt>
    <trkpt lat="48.77592" lon="2.73779"><ele>109.2</ele></trkpt>
    <trkpt lat="48.7757" lon="2.74077"><ele>107.7</ele></trkpt>
    <trkpt lat="48.77577" lon="2.741"><ele>107.6</ele></trkpt>
    <trkpt lat="48.77611" lon="2.74114"><ele>107.7</ele></trkpt>
    <trkpt lat="48.77621" lon="2.74127"><ele>107.8</ele></trkpt>
    <trkpt lat="48.776" lon="2.74172"><ele>107.9</ele></trkpt>
    <trkpt lat="48.77584" lon="2.74221"><ele>107.9</ele></trkpt>
    <trkpt lat="48.77544" lon="2.74458"><ele>108.4</ele></trkpt>
    <trkpt lat="48.7744" lon="2.74645"><ele>110.3</ele></trkpt>
    <trkpt lat="48.7739" lon="2.7479"><ele>111.6</ele></trkpt>
    <trkpt lat="48.77324" lon="2.7492"><ele>111.8</ele></trkpt>
    <trkpt lat="48.77226" lon="2.7518"><ele>111.4</ele></trkpt>
    <trkpt lat="48.77193" lon="2.75244"><ele>111.4</ele></trkpt>
    <trkpt lat="48.77182" lon="2.75295"><ele>111.5</ele></trkpt>
    <trkpt lat="48.77101" lon="2.75539"><ele>112.0</ele></trkpt>
    <trkpt lat="48.77057" lon="2.75747"><ele>112.1</ele></trkpt>
    <trkpt lat="48.77043" lon="2.75796"><ele>111.9</ele></trkpt>
    <trkpt lat="48.76805" lon="2.76407"><ele>109.1</ele></trkpt>
    <trkpt lat="48.76793" lon="2.76419"><ele>109.0</ele></trkpt>
    <trkpt lat="48.76618" lon="2.7636"><ele>108.7</ele></trkpt>
    <trkpt lat="48.76529" lon="2.76341"><ele>108.6</ele></trkpt>
    <trkpt lat="48.76514" lon="2.76347"><ele>108.4</ele></trkpt>
    <trkpt lat="48.7651" lon="2.76373"><ele>108.3</ele></trkpt>
    <trkpt lat="48.76507" lon="2.76618"><ele>107.3</ele></trkpt>
    <trkpt lat="48.76517" lon="2.76891"><ele>106.3</ele></trkpt>
    <trkpt lat="48.7651" lon="2.77081"><ele>106.1</ele></trkpt>
    <trkpt lat="48.76502" lon="2.77162"><ele>106.3</ele></trkpt>
    <trkpt lat="48.76496" lon="2.77187"><ele>106.4</ele></trkpt>
    <trkpt lat="48.76463" lon="2.77204"><ele>106.6</ele></trkpt>
    <trkpt lat="48.76374" lon="2.77221"><ele>106.9</ele></trkpt>
    <trkpt lat="48.76361" lon="2.77239"><ele>106.9</ele></trkpt>
    <trkpt lat="48.76344" lon="2.77239"><ele>107.0</ele></trkpt>
    <trkpt lat="48.76175" lon="2.77147"><ele>107.8</ele></trkpt>
    <trkpt lat="48.76123" lon="2.77125"><ele>108.1</ele></trkpt>
    <trkpt lat="48.76007" lon="2.77052"><ele>108.6</ele></trkpt>
    <trkpt lat="48.7599" lon="2.77048"><ele>108.6</ele></trkpt>
    <trkpt lat="48.75978" lon="2.77066"><ele>108.6</ele></trkpt>
    <trkpt lat="48.75977" lon="2.77257"><ele>107.4</ele></trkpt>
    <trkpt lat="48.75987" lon="2.77392"><ele>105.7</ele></trkpt>
    <trkpt lat="48.75997" lon="2.77409"><ele>105.3</ele></trkpt>
    <trkpt lat="48.76084" lon="2.77378"><ele>102.7</ele></trkpt>
    <trkpt lat="48.7612" lon="2.77378"><ele>101.5</ele></trkpt>
    <trkpt lat="48.76153" lon="2.77398"><ele>100.6</ele></trkpt>
    <trkpt lat="48.76182" lon="2.77431"><ele>100.0</ele></trkpt>
    <trkpt lat="48.76187" lon="2.77452"><ele>99.7</ele></trkpt>
    <trkpt lat="48.76178" lon="2.77475"><ele>99.4</ele></trkpt>
    <trkpt lat="48.7615" lon="2.77509"><ele>98.9</ele></trkpt>
    <trkpt lat="48.76144" lon="2.77532"><ele>98.7</ele></trkpt>
    <trkpt lat="48.76172" lon="2.77564"><ele>98.4</ele></trkpt>
    <trkpt lat="48.76292" lon="2.77623"><ele>99.1</ele></trkpt>
    <trkpt lat="48.76319" lon="2.77752"><ele>99.8</ele></trkpt>
    <trkpt lat="48.76317" lon="2.77779"><ele>100.0</ele></trkpt>
    <trkpt lat="48.7633" lon="2.77798"><ele>100.2</ele></trkpt>
    <trkpt lat="48.76393" lon="2.77851"><ele>100.9</ele></trkpt>
    <trkpt lat="48.76446" lon="2.77855"><ele>101.5</ele></trkpt>
    <trkpt lat="48.7646" lon="2.77863"><ele>101.7</ele></trkpt>
    <trkpt lat="48.76411" lon="2.77978"><ele>103.3</ele></trkpt>
    <trkpt lat="48.76387" lon="2.78018"><ele>103.9</ele></trkpt>
    <trkpt lat="48.7637" lon="2.78023"><ele>104.2</ele></trkpt>
    <trkpt lat="48.76053" lon="2.77925"><ele>106.3</ele></trkpt>
    <trkpt lat="48.75963" lon="2.77922"><ele>105.4</ele></trkpt>
    <trkpt lat="48.75892" lon="2.77935"><ele>105.2</ele></trkpt>
    <trkpt lat="48.75879" lon="2.77953"><ele>105.1</ele></trkpt>
    <trkpt lat="48.75859" lon="2.77998"><ele>105.3</ele></trkpt>
    <trkpt lat="48.75719" lon="2.78348"><ele>109.5</ele></trkpt>
    <trkpt lat="48.75217" lon="2.7931"><ele>110.5</ele></trkpt>
    <trkpt lat="48.7521" lon="2.79333"><ele>110.5</ele></trkpt>
    <trkpt lat="48.75237" lon="2.79366"><ele>110.7</ele></trkpt>
    <trkpt lat="48.7527" lon="2.79386"><ele>110.9</ele></trkpt>
    <trkpt lat="48.75306" lon="2.79384"><ele>111.1</ele></trkpt>
    <trkpt lat="48.75393" lon="2.79352"><ele>111.5</ele></trkpt>
    <trkpt lat="48.75411" lon="2.79357"><ele>111.6</ele></trkpt>
    <trkpt lat="48.75485" lon="2.79433"><ele>112.1</ele></trkpt>
    <trkpt lat="48.75698" lon="2.79577"><ele>113.2</ele></trkpt>
    <trkpt lat="48.75763" lon="2.79625"><ele>113.4</ele></trkpt>
    <trkpt lat="48.75775" lon="2.79645"><ele>113.5</ele></trkpt>
    <trkpt lat="48.7575" lon="2.79969"><ele>113.2</ele></trkpt>
    <trkpt lat="48.75737" lon="2.80104"><ele>113.0</ele></trkpt>
    <trkpt lat="48.75725" lon="2.80155"><ele>112.9</ele></trkpt>
    <trkpt lat="48.75729" lon="2.80181"><ele>112.8</ele></trkpt>
    <trkpt lat="48.75752" lon="2.80223"><ele>112.7</ele></trkpt>
    <trkpt lat="48.75748" lon="2.80277"><ele>112.7</ele></trkpt>
    <trkpt lat="48.75749" lon="2.80386"><ele>112.6</ele></trkpt>
    <trkpt lat="48.75762" lon="2.80427"><ele>112.6</ele></trkpt>
    <trkpt lat="48.75727" lon="2.8044"><ele>112.6</ele></trkpt>
    <trkpt lat="48.7566" lon="2.80481"><ele>112.5</ele></trkpt>
    <trkpt lat="48.75627" lon="2.80495"><ele>112.5</ele></trkpt>
    <trkpt lat="48.75615" lon="2.80475"><ele>112.5</ele></trkpt>
    <trkpt lat="48.75583" lon="2.80377"><ele>112.4</ele></trkpt>
    <trkpt lat="48.75563" lon="2.80332"><ele>112.5</ele></trkpt>
    <trkpt lat="48.75557" lon="2.8033"><ele>112.5</ele></trkpt>
    <trkpt lat="48.75568" lon="2.8041"><ele>112.6</ele></trkpt>
    <trkpt lat="48.75627" lon="2.80639"><ele>113.0</ele></trkpt>
    <trkpt lat="48.75646" lon="2.80685"><ele>113.1</ele></trkpt>
    <trkpt lat="48.75734" lon="2.80821"><ele>113.5</ele></trkpt>
    <trkpt lat="48.75749" lon="2.80836"><ele>113.6</ele></trkpt>
    <trkpt lat="48.75817" lon="2.80874"><ele>113.9</ele></trkpt>
    <trkpt lat="48.75832" lon="2.8089"><ele>113.9</ele></trkpt>
    <trkpt lat="48.75883" lon="2.80966"><ele>114.0</ele></trkpt>
    <trkpt lat="48.75903" lon="2.81011"><ele>114.0</ele></trkpt>
    <trkpt lat="48.75977" lon="2.8123"><ele>114.0</ele></trkpt>
    <trkpt lat="48.76065" lon="2.81467"><ele>114.3</ele></trkpt>
    <trkpt lat="48.76085" lon="2.81544"><ele>114.4</ele></trkpt>
    <trkpt lat="48.76204" lon="2.81848"><ele>115.8</ele></trkpt>
    <trkpt lat="48.7633" lon="2.82148"><ele>117.4</ele></trkpt>
    <trkpt lat="48.76337" lon="2.82173"><ele>117.5</ele></trkpt>
    <trkpt lat="48.76339" lon="2.822"><ele>117.7</ele></trkpt>
    <trkpt lat="48.76354" lon="2.82198"><ele>117.8</ele></trkpt>
    <trkpt lat="48.76398" lon="2.82152"><ele>118.2</ele></trkpt>
    <trkpt lat="48.772" lon="2.81273"><ele>115.2</ele></trkpt>
    <trkpt lat="48.77211" lon="2.81253"><ele>115.1</ele></trkpt>
    <trkpt lat="48.77212" lon="2.81226"><ele>115.0</ele></trkpt>
    <trkpt lat="48.77197" lon="2.81064"><ele>114.6</ele></trkpt>
    <trkpt lat="48.77203" lon="2.8104"><ele>114.5</ele></trkpt>
    <trkpt lat="48.77216" lon="2.81022"><ele>114.5</ele></trkpt>
    <trkpt lat="48.77216" lon="2.80995"><ele>114.5</ele></trkpt>
    <trkpt lat="48.77197" lon="2.8089"><ele>114.7</ele></trkpt>
    <trkpt lat="48.77192" lon="2.80753"><ele>115.3</ele></trkpt>
    <trkpt lat="48.77196" lon="2.80727"><ele>115.5</ele></trkpt>
    <trkpt lat="48.77208" lon="2.80706"><ele>115.6</ele></trkpt>
    <trkpt lat="48.77243" lon="2.80701"><ele>115.7</ele></trkpt>
    <trkpt lat="48.77584" lon="2.80735"><ele>116.2</ele></trkpt>
    <trkpt lat="48.77692" lon="2.80738"><ele>116.3</ele></trkpt>
    <trkpt lat="48.77761" lon="2.80767"><ele>116.4</ele></trkpt>
    <trkpt lat="48.77779" lon="2.80769"><ele>116.4</ele></trkpt>
    <trkpt lat="48.77977" lon="2.80763"><ele>116.4</ele></trkpt>
    <trkpt lat="48.7812" lon="2.80746"><ele>116.0</ele></trkpt>
    <trkpt lat="48.78228" lon="2.80728"><ele>115.7</ele></trkpt>
    <trkpt lat="48.78245" lon="2.80722"><ele>115.6</ele></trkpt>
    <trkpt lat="48.78277" lon="2.80697"><ele>115.6</ele></trkpt>
    <trkpt lat="48.7833" lon="2.80685"><ele>115.6</ele></trkpt>
    <trkpt lat="48.78347" lon="2.80692"><ele>115.6</ele></trkpt>
    <trkpt lat="48.78377" lon="2.80721"><ele>115.7</ele></trkpt>
    <trkpt lat="48.78395" lon="2.80722"><ele>115.8</ele></trkpt>
    <trkpt lat="48.78503" lon="2.80625"><ele>116.3</ele></trkpt>
    <trkpt lat="48.78712" lon="2.80548"><ele>117.3</ele></trkpt>
    <trkpt lat="48.78816" lon="2.80501"><ele>117.6</ele></trkpt>
    <trkpt lat="48.79021" lon="2.80398"><ele>118.1</ele></trkpt>
    <trkpt lat="48.79254" lon="2.80255"><ele>118.8</ele></trkpt>
    <trkpt lat="48.79324" lon="2.80235"><ele>118.8</ele></trkpt>
    <trkpt lat="48.79861" lon="2.79851"><ele>117.6</ele></trkpt>
    <trkpt lat="48.79877" lon="2.79852"><ele>117.6</ele></trkpt>
    <trkpt lat="48.79939" lon="2.79951"><ele>117.5</ele></trkpt>
    <trkpt lat="48.79955" lon="2.7996"><ele>117.5</ele></trkpt>
    <trkpt lat="48.79968" lon="2.7996"><ele>117.5</ele></trkpt>
    <trkpt lat="48.79925" lon="2.79873"><ele>117.5</ele></trkpt>
    <trkpt lat="48.79866" lon="2.79704"><ele>117.1</ele></trkpt>
    <trkpt lat="48.79713" lon="2.79473"><ele>115.9</ele></trkpt>
    <trkpt lat="48.79667" lon="2.7939"><ele>115.9</ele></trkpt>
    <trkpt lat="48.79659" lon="2.79368"><ele>115.9</ele></trkpt>
    <trkpt lat="48.7999" lon="2.78828"><ele>121.2</ele></trkpt>
    <trkpt lat="48.80213" lon="2.7851"><ele>124.4</ele></trkpt>
    <trkpt lat="48.80224" lon="2.78491"><ele>124.4</ele></trkpt>
    <trkpt lat="48.80197" lon="2.78421"><ele>124.4</ele></trkpt>
    <trkpt lat="48.80203" lon="2.78402"><ele>124.3</ele></trkpt>
    <trkpt lat="48.80468" lon="2.78233"><ele>120.3</ele></trkpt>
    <trkpt lat="48.80477" lon="2.78213"><ele>120.0</ele></trkpt>
    <trkpt lat="48.80471" lon="2.78133"><ele>119.5</ele></trkpt>
    <trkpt lat="48.80482" lon="2.78116"><ele>119.5</ele></trkpt>
    <trkpt lat="48.80565" lon="2.78064"><ele>119.7</ele></trkpt>
    <trkpt lat="48.8058" lon="2.7805"><ele>119.7</ele></trkpt>
    <trkpt lat="48.80585" lon="2.78025"><ele>119.8</ele></trkpt>
    <trkpt lat="48.80578" lon="2.77944"><ele>120.0</ele></trkpt>
    <trkpt lat="48.80583" lon="2.77918"><ele>120.0</ele></trkpt>
    <trkpt lat="48.80842" lon="2.7773"><ele>121.9</ele></trkpt>
    <trkpt lat="48.81242" lon="2.77486"><ele>132.5</ele></trkpt>
    <trkpt lat="48.81215" lon="2.76233"><ele>128.9</ele></trkpt>
    <trkpt lat="48.81199" lon="2.75086"><ele>122.0</ele></trkpt>
    <trkpt lat="48.8118" lon="2.74185"><ele>120.5</ele></trkpt>
    <trkpt lat="48.81169" lon="2.74165"><ele>120.5</ele></trkpt>
    <trkpt lat="48.81011" lon="2.74107"><ele>119.6</ele></trkpt>
    <trkpt lat="48.80852" lon="2.74063"><ele>118.8</ele></trkpt>
    <trkpt lat="48.80295" lon="2.73847"><ele>118.9</ele></trkpt>
    <trkpt lat="48.75919" lon="2.72281"><ele>112.2</ele></trkpt>
    <trkpt lat="48.75914" lon="2.72257"><ele>112.1</ele></trkpt>
    <trkpt lat="48.75974" lon="2.71885"><ele>110.9</ele></trkpt>
    <trkpt lat="48.76037" lon="2.7146"><ele>111.0</ele></trkpt>
    <trkpt lat="48.76037" lon="2.71433"><ele>111.0</ele></trkpt>
    <trkpt lat="48.75669" lon="2.70626"><ele>111.6</ele></trkpt>
    <trkpt lat="48.75661" lon="2.70602"><ele>111.6</ele></trkpt>
    <trkpt lat="48.75669" lon="2.70582"><ele>111.6</ele></trkpt>
    <trkpt lat="48.75683" lon="2.70565"><ele>111.6</ele></trkpt>
    <trkpt lat="48.75689" lon="2.7054"><ele>111.6</ele></trkpt>
    <trkpt lat="48.75677" lon="2.70524"><ele>111.6</ele></trkpt>
    <trkpt lat="48.7566" lon="2.70519"><ele>111.5</ele></trkpt>
    <trkpt lat="48.75649" lon="2.70502"><ele>111.5</ele></trkpt>
    <trkpt lat="48.75596" lon="2.70489"><ele>111.7</ele></trkpt>
    <trkpt lat="48.75583" lon="2.70473"><ele>111.6</ele></trkpt>
    <trkpt lat="48.7558" lon="2.70447"><ele>111.6</ele></trkpt>
    <trkpt lat="48.75588" lon="2.70424"><ele>111.3</ele></trkpt>
    <trkpt lat="48.75641" lon="2.70314"><ele>110.9</ele></trkpt>
    <trkpt lat="48.75652" lon="2.70307"><ele>110.9</ele></trkpt>
    <trkpt lat="48.75623" lon="2.70436"><ele>111.0</ele></trkpt>
    <trkpt lat="48.75611" lon="2.70452"><ele>111.1</ele></trkpt>
    <trkpt lat="48.75582" lon="2.70422"><ele>111.1</ele></trkpt>
    <trkpt lat="48.75574" lon="2.704"><ele>111.1</ele></trkpt>
    <trkpt lat="48.75575" lon="2.70374"><ele>111.3</ele></trkpt>
    <trkpt lat="48.75495" lon="2.70099"><ele>111.0</ele></trkpt>
    <trkpt lat="48.75477" lon="2.70054"><ele>111.0</ele></trkpt>
    <trkpt lat="48.75459" lon="2.69977"><ele>111.5</ele></trkpt>
    <trkpt lat="48.75438" lon="2.69934"><ele>111.6</ele></trkpt>
    <trkpt lat="48.75382" lon="2.69866"><ele>112.5</ele></trkpt>
    <trkpt lat="48.75376" lon="2.69846"><ele>113.2</ele></trkpt>
    <trkpt lat="48.75389" lon="2.69796"><ele>114.6</ele></trkpt>
    <trkpt lat="48.75408" lon="2.6975"><ele>115.4</ele></trkpt>
    <trkpt lat="48.75406" lon="2.69725"><ele>115.4</ele></trkpt>
    <trkpt lat="48.75368" lon="2.69601"><ele>115.1</ele></trkpt>
    <trkpt lat="48.75341" lon="2.69443"><ele>111.7</ele></trkpt>
    <trkpt lat="48.75376" lon="2.69351"><ele>110.7</ele></trkpt>
    <trkpt lat="48.75444" lon="2.6907"><ele>111.6</ele></trkpt>
    <trkpt lat="48.75449" lon="2.69043"><ele>111.6</ele></trkpt>
    <trkpt lat="48.75452" lon="2.6888"><ele>111.4</ele></trkpt>
    <trkpt lat="48.75467" lon="2.68718"><ele>110.6</ele></trkpt>
    <trkpt lat="48.75493" lon="2.68587"><ele>109.7</ele></trkpt>
    <trkpt lat="48.75531" lon="2.68495"><ele>109.0</ele></trkpt>
    <trkpt lat="48.75564" lon="2.6843"><ele>108.7</ele></trkpt>
    <trkpt lat="48.75612" lon="2.6835"><ele>108.2</ele></trkpt>
    <trkpt lat="48.75653" lon="2.68259"><ele>108.0</ele></trkpt>
    <trkpt lat="48.75698" lon="2.68082"><ele>107.6</ele></trkpt>
    <trkpt lat="48.75754" lon="2.67911"><ele>107.2</ele></trkpt>
    <trkpt lat="48.75779" lon="2.67872"><ele>107.1</ele></trkpt>
    <trkpt lat="48.75823" lon="2.67824"><ele>107.0</ele></trkpt>
    <trkpt lat="48.75875" lon="2.67749"><ele>106.9</ele></trkpt>
    <trkpt lat="48.76012" lon="2.67573"><ele>106.9</ele></trkpt>
    <trkpt lat="48.76129" lon="2.67402"><ele>107.1</ele></trkpt>
    <trkpt lat="48.7616" lon="2.67377"><ele>107.2</ele></trkpt>
    <trkpt lat="48.76196" lon="2.67373"><ele>107.3</ele></trkpt>
    <trkpt lat="48.76206" lon="2.67354"><ele>107.3</ele></trkpt>
    <trkpt lat="48.76227" lon="2.67221"><ele>107.4</ele></trkpt>
    <trkpt lat="48.76237" lon="2.672"><ele>107.5</ele></trkpt>
    <trkpt lat="48.76234" lon="2.67173"><ele>107.5</ele></trkpt>
    <trkpt lat="48.76244" lon="2.67065"><ele>107.4</ele></trkpt>
    <trkpt lat="48.76245" lon="2.66847"><ele>106.7</ele></trkpt>
    <trkpt lat="48.76311" lon="2.66564"><ele>103.2</ele></trkpt>
    <trkpt lat="48.76327" lon="2.66516"><ele>102.8</ele></trkpt>
    <trkpt lat="48.76327" lon="2.6649"><ele>102.5</ele></trkpt>
    <trkpt lat="48.76278" lon="2.66496"><ele>103.5</ele></trkpt>
    <trkpt lat="48.76247" lon="2.66468"><ele>104.1</ele></trkpt>
    <trkpt lat="48.76114" lon="2.66286"><ele>105.2</ele></trkpt>
    <trkpt lat="48.76109" lon="2.6626"><ele>105.1</ele></trkpt>
    <trkpt lat="48.76077" lon="2.66237"><ele>104.8</ele></trkpt>
    <trkpt lat="48.76014" lon="2.66147"><ele>104.1</ele></trkpt>
    <trkpt lat="48.76085" lon="2.66226"><ele>104.0</ele></trkpt>
    <trkpt lat="48.76102" lon="2.66222"><ele>103.6</ele></trkpt>
    <trkpt lat="48.76117" lon="2.66207"><ele>103.1</ele></trkpt>
    <trkpt lat="48.76174" lon="2.6614"><ele>101.7</ele></trkpt>
    <trkpt lat="48.76278" lon="2.66032"><ele>100.2</ele></trkpt>
    <trkpt lat="48.76305" lon="2.65996"><ele>99.9</ele></trkpt>
    <trkpt lat="48.76438" lon="2.65774"><ele>99.9</ele></trkpt>
    <trkpt lat="48.76444" lon="2.65749"><ele>100.1</ele></trkpt>
    <trkpt lat="48.76448" lon="2.65695"><ele>100.4</ele></trkpt>
    <trkpt lat="48.76447" lon="2.65667"><ele>100.7</ele></trkpt>
    <trkpt lat="48.7644" lon="2.65642"><ele>100.9</ele></trkpt>
    <trkpt lat="48.7639" lon="2.65498"><ele>102.4</ele></trkpt>
    <trkpt lat="48.76302" lon="2.6547"><ele>102.9</ele></trkpt>
    <trkpt lat="48.76222" lon="2.6536"><ele>103.1</ele></trkpt>
    <trkpt lat="48.76202" lon="2.65315"><ele>103.1</ele></trkpt>
    <trkpt lat="48.76196" lon="2.6529"><ele>103.1</ele></trkpt>
    <trkpt lat="48.76187" lon="2.65181"><ele>103.0</ele></trkpt>
    <trkpt lat="48.76182" lon="2.65156"><ele>103.0</ele></trkpt>
    <trkpt lat="48.76065" lon="2.64985"><ele>102.1</ele></trkpt>
    <trkpt lat="48.76038" lon="2.64915"><ele>101.8</ele></trkpt>
    <trkpt lat="48.75832" lon="2.64099"><ele>102.4</ele></trkpt>
    <trkpt lat="48.75741" lon="2.6332"><ele>103.3</ele></trkpt>
    <trkpt lat="48.75736" lon="2.63295"><ele>103.4</ele></trkpt>
    <trkpt lat="48.75723" lon="2.63281"><ele>103.4</ele></trkpt>
    <trkpt lat="48.7573" lon="2.63257"><ele>103.5</ele></trkpt>
    <trkpt lat="48.75746" lon="2.63245"><ele>103.5</ele></trkpt>
    <trkpt lat="48.75977" lon="2.63092"><ele>104.5</ele></trkpt>
    <trkpt lat="48.76117" lon="2.63041"><ele>105.5</ele></trkpt>
    <trkpt lat="48.76346" lon="2.62971"><ele>107.5</ele></trkpt>
    <trkpt lat="48.76471" lon="2.62958"><ele>106.5</ele></trkpt>
    <trkpt lat="48.76595" lon="2.62926"><ele>105.2</ele></trkpt>
    <trkpt lat="48.76628" lon="2.62904"><ele>105.0</ele></trkpt>
    <trkpt lat="48.7675" lon="2.62791"><ele>104.3</ele></trkpt>
    <trkpt lat="48.76755" lon="2.62766"><ele>104.3</ele></trkpt>
    <trkpt lat="48.76744" lon="2.62686"><ele>104.2</ele></trkpt>
    <trkpt lat="48.76746" lon="2.6266"><ele>104.2</ele></trkpt>
    <trkpt lat="48.76767" lon="2.62617"><ele>104.3</ele></trkpt>
    <trkpt lat="48.76769" lon="2.62591"><ele>104.3</ele></trkpt>
    <trkpt lat="48.7676" lon="2.62571"><ele>104.4</ele></trkpt>
    <trkpt lat="48.76709" lon="2.62553"><ele>104.6</ele></trkpt>
    <trkpt lat="48.76693" lon="2.62539"><ele>104.7</ele></trkpt>
    <trkpt lat="48.76684" lon="2.62517"><ele>104.9</ele></trkpt>
    <trkpt lat="48.76686" lon="2.62491"><ele>105.0</ele></trkpt>
    <trkpt lat="48.76857" lon="2.61516"><ele>106.2</ele></trkpt>
    <trkpt lat="48.76855" lon="2.61462"><ele>106.1</ele></trkpt>
    <trkpt lat="48.768" lon="2.61118"><ele>104.5</ele></trkpt>
    <trkpt lat="48.76789" lon="2.61096"><ele>104.0</ele></trkpt>
    <trkpt lat="48.76773" lon="2.61088"><ele>103.5</ele></trkpt>
    <trkpt lat="48.764" lon="2.58754"><ele>102.8</ele></trkpt>
    <trkpt lat="48.76307" lon="2.58198"><ele>100.8</ele></trkpt>
    <trkpt lat="48.76232" lon="2.57721"><ele>101.0</ele></trkpt>
    <trkpt lat="48.76234" lon="2.57694"><ele>101.0</ele></trkpt>
    <trkpt lat="48.76942" lon="2.56422"><ele>101.5</ele></trkpt>
    <trkpt lat="48.76977" lon="2.56327"><ele>101.5</ele></trkpt>
    <trkpt lat="48.77032" lon="2.5626"><ele>101.4</ele></trkpt>
    <trkpt lat="48.77147" lon="2.5605"><ele>100.9</ele></trkpt>
    <trkpt lat="48.77145" lon="2.56028"><ele>100.8</ele></trkpt>
    <trkpt lat="48.76993" lon="2.55836"><ele>100.2</ele></trkpt>
    <trkpt lat="48.76991" lon="2.55816"><ele>100.1</ele></trkpt>
    <trkpt lat="48.77013" lon="2.55774"><ele>99.8</ele></trkpt>
    <trkpt lat="48.77102" lon="2.55639"><ele>99.7</ele></trkpt>
    <trkpt lat="48.77183" lon="2.55495"><ele>100.0</ele></trkpt>
    <trkpt lat="48.77257" lon="2.55417"><ele>99.8</ele></trkpt>
    <trkpt lat="48.77413" lon="2.55233"><ele>99.5</ele></trkpt>
    <trkpt lat="48.77429" lon="2.55221"><ele>99.5</ele></trkpt>
    <trkpt lat="48.77447" lon="2.55219"><ele>99.5</ele></trkpt>
    <trkpt lat="48.77537" lon="2.55225"><ele>99.3</ele></trkpt>
    <trkpt lat="48.77571" lon="2.55217"><ele>99.2</ele></trkpt>
    <trkpt lat="48.77607" lon="2.5522"><ele>99.1</ele></trkpt>
    <trkpt lat="48.77619" lon="2.55174"><ele>99.0</ele></trkpt>
    <trkpt lat="48.77636" lon="2.55171"><ele>98.9</ele></trkpt>
    <trkpt lat="48.77641" lon="2.55147"><ele>98.9</ele></trkpt>
    <trkpt lat="48.7767" lon="2.55116"><ele>98.7</ele></trkpt>
    <trkpt lat="48.77671" lon="2.55094"><ele>98.6</ele></trkpt>
    <trkpt lat="48.77631" lon="2.55003"><ele>98.2</ele></trkpt>
    <trkpt lat="48.77639" lon="2.54986"><ele>97.9</ele></trkpt>
    <trkpt lat="48.77851" lon="2.54837"><ele>95.6</ele></trkpt>
    <trkpt lat="48.77863" lon="2.54819"><ele>95.4</ele></trkpt>
    <trkpt lat="48.77872" lon="2.54795"><ele>95.3</ele></trkpt>
    <trkpt lat="48.77881" lon="2.54743"><ele>94.9</ele></trkpt>
    <trkpt lat="48.7788" lon="2.54688"><ele>94.5</ele></trkpt>
    <trkpt lat="48.77872" lon="2.54635"><ele>94.1</ele></trkpt>
    <trkpt lat="48.77838" lon="2.54539"><ele>93.4</ele></trkpt>
    <trkpt lat="48.77791" lon="2.54457"><ele>93.0</ele></trkpt>
    <trkpt lat="48.77761" lon="2.54389"><ele>92.1</ele></trkpt>
    <trkpt lat="48.77672" lon="2.54152"><ele>86.3</ele></trkpt>
    <trkpt lat="48.77667" lon="2.54126"><ele>85.3</ele></trkpt>
    <trkpt lat="48.77672" lon="2.54101"><ele>84.0</ele></trkpt>
    <trkpt lat="48.77684" lon="2.54083"><ele>82.7</ele></trkpt>
    <trkpt lat="48.77719" lon="2.5408"><ele>80.0</ele></trkpt>
    <trkpt lat="48.77754" lon="2.54067"><ele>77.7</ele></trkpt>
    <trkpt lat="48.78009" lon="2.53934"><ele>66.8</ele></trkpt>
    <trkpt lat="48.78198" lon="2.53843"><ele>77.7</ele></trkpt>
    <trkpt lat="48.78247" lon="2.53812"><ele>81.7</ele></trkpt>
    <trkpt lat="48.78401" lon="2.53739"><ele>90.0</ele></trkpt>
    <trkpt lat="48.78436" lon="2.53729"><ele>91.5</ele></trkpt>
    <trkpt lat="48.7845" lon="2.53745"><ele>92.2</ele></trkpt>
    <trkpt lat="48.7853" lon="2.53927"><ele>94.9</ele></trkpt>
    <trkpt lat="48.78724" lon="2.54386"><ele>98.2</ele></trkpt>
    <trkpt lat="48.7872" lon="2.54412"><ele>98.3</ele></trkpt>
    <trkpt lat="48.78722" lon="2.54455"><ele>98.5</ele></trkpt>
    <trkpt lat="48.78669" lon="2.54445"><ele>98.3</ele></trkpt>
  </trkseg></trk>
</gpx>
