<?xml version="1.0" encoding="UTF-8"?>
<gpx version="1.1" creator="USO Cyclisme" xmlns="http://www.topografix.com/GPX/1/1">
  <metadata><name>Presles-en-Brie – 63 km</name><desc>Gravel, 62.9 km, D+ 207 m. Départ et arrivée : centre culturel d'Ormesson-sur-Marne.</desc></metadata>
  <trk><name>Presles-en-Brie – 63 km (gravel)</name><trkseg>
    <trkpt lat="48.78667" lon="2.54444"><ele>98.3</ele></trkpt>
    <trkpt lat="48.78683" lon="2.54433"><ele>98.3</ele></trkpt>
    <trkpt lat="48.78694" lon="2.5445"><ele>98.6</ele></trkpt>
    <trkpt lat="48.78728" lon="2.54464"><ele>99.4</ele></trkpt>
    <trkpt lat="48.78741" lon="2.54482"><ele>99.8</ele></trkpt>
    <trkpt lat="48.7876" lon="2.54528"><ele>100.5</ele></trkpt>
    <trkpt lat="48.78776" lon="2.54533"><ele>100.5</ele></trkpt>
    <trkpt lat="48.78782" lon="2.54514"><ele>100.5</ele></trkpt>
    <trkpt lat="48.78521" lon="2.53894"><ele>94.7</ele></trkpt>
    <trkpt lat="48.78449" lon="2.53737"><ele>92.0</ele></trkpt>
    <trkpt lat="48.78435" lon="2.53721"><ele>91.5</ele></trkpt>
    <trkpt lat="48.78265" lon="2.53806"><ele>82.7</ele></trkpt>
    <trkpt lat="48.78247" lon="2.53811"><ele>81.7</ele></trkpt>
    <trkpt lat="48.78211" lon="2.53804"><ele>79.8</ele></trkpt>
    <trkpt lat="48.78094" lon="2.53736"><ele>72.8</ele></trkpt>
    <trkpt lat="48.77958" lon="2.53665"><ele>64.3</ele></trkpt>
    <trkpt lat="48.77926" lon="2.53641"><ele>62.3</ele></trkpt>
    <trkpt lat="48.77904" lon="2.53599"><ele>60.5</ele></trkpt>
    <trkpt lat="48.7786" lon="2.53449"><ele>57.8</ele></trkpt>
    <trkpt lat="48.77848" lon="2.53429"><ele>57.6</ele></trkpt>
    <trkpt lat="48.77831" lon="2.53421"><ele>57.4</ele></trkpt>
    <trkpt lat="48.77813" lon="2.53421"><ele>57.3</ele></trkpt>
    <trkpt lat="48.77688" lon="2.53443"><ele>59.0</ele></trkpt>
    <trkpt lat="48.7767" lon="2.53439"><ele>60.0</ele></trkpt>
    <trkpt lat="48.77638" lon="2.53415"><ele>62.2</ele></trkpt>
    <trkpt lat="48.77604" lon="2.53398"><ele>64.5</ele></trkpt>
    <trkpt lat="48.77467" lon="2.53466"><ele>71.5</ele></trkpt>
    <trkpt lat="48.77453" lon="2.53452"><ele>72.5</ele></trkpt>
    <trkpt lat="48.77411" lon="2.53331"><ele>77.4</ele></trkpt>
    <trkpt lat="48.77398" lon="2.53317"><ele>78.4</ele></trkpt>
    <trkpt lat="48.77331" lon="2.53357"><ele>81.9</ele></trkpt>
    <trkpt lat="48.77285" lon="2.53397"><ele>84.0</ele></trkpt>
    <trkpt lat="48.77268" lon="2.53391"><ele>84.7</ele></trkpt>
    <trkpt lat="48.77224" lon="2.53344"><ele>87.1</ele></trkpt>
    <trkpt lat="48.77161" lon="2.53247"><ele>90.8</ele></trkpt>
    <trkpt lat="48.77147" lon="2.53232"><ele>91.5</ele></trkpt>
    <trkpt lat="48.77132" lon="2.53238"><ele>92.0</ele></trkpt>
    <trkpt lat="48.77066" lon="2.53367"><ele>93.5</ele></trkpt>
    <trkpt lat="48.77028" lon="2.53425"><ele>93.6</ele></trkpt>
    <trkpt lat="48.77022" lon="2.53502"><ele>93.4</ele></trkpt>
    <trkpt lat="48.77016" lon="2.53527"><ele>93.3</ele></trkpt>
    <trkpt lat="48.76995" lon="2.53571"><ele>93.2</ele></trkpt>
    <trkpt lat="48.76942" lon="2.53645"><ele>93.0</ele></trkpt>
    <trkpt lat="48.76895" lon="2.53682"><ele>93.0</ele></trkpt>
    <trkpt lat="48.76843" lon="2.53705"><ele>93.0</ele></trkpt>
    <trkpt lat="48.76807" lon="2.5371"><ele>93.0</ele></trkpt>
    <trkpt lat="48.76753" lon="2.53707"><ele>93.1</ele></trkpt>
    <trkpt lat="48.76718" lon="2.53695"><ele>93.3</ele></trkpt>
    <trkpt lat="48.76651" lon="2.53655"><ele>93.9</ele></trkpt>
    <trkpt lat="48.76607" lon="2.53609"><ele>94.5</ele></trkpt>
    <trkpt lat="48.76569" lon="2.53552"><ele>95.1</ele></trkpt>
    <trkpt lat="48.76552" lon="2.5355"><ele>95.2</ele></trkpt>
    <trkpt lat="48.76534" lon="2.53551"><ele>95.4</ele></trkpt>
    <trkpt lat="48.76518" lon="2.53564"><ele>95.6</ele></trkpt>
    <trkpt lat="48.76476" lon="2.53613"><ele>96.2</ele></trkpt>
    <trkpt lat="48.76405" lon="2.53627"><ele>96.8</ele></trkpt>
    <trkpt lat="48.76353" lon="2.53648"><ele>97.2</ele></trkpt>
    <trkpt lat="48.76338" lon="2.53633"><ele>97.3</ele></trkpt>
    <trkpt lat="48.76333" lon="2.53607"><ele>97.4</ele></trkpt>
    <trkpt lat="48.76309" lon="2.53566"><ele>97.6</ele></trkpt>
    <trkpt lat="48.76175" lon="2.53384"><ele>98.7</ele></trkpt>
    <trkpt lat="48.76159" lon="2.53373"><ele>98.8</ele></trkpt>
    <trkpt lat="48.76125" lon="2.53382"><ele>98.9</ele></trkpt>
    <trkpt lat="48.76113" lon="2.53364"><ele>99.0</ele></trkpt>
    <trkpt lat="48.76104" lon="2.53312"><ele>99.0</ele></trkpt>
    <trkpt lat="48.76081" lon="2.53271"><ele>99.1</ele></trkpt>
    <trkpt lat="48.76029" lon="2.53196"><ele>99.0</ele></trkpt>
    <trkpt lat="48.75971" lon="2.53131"><ele>98.9</ele></trkpt>
    <trkpt lat="48.75918" lon="2.53058"><ele>98.7</ele></trkpt>
    <trkpt lat="48.75902" lon="2.53013"><ele>98.6</ele></trkpt>
    <trkpt lat="48.75829" lon="2.52935"><ele>98.3</ele></trkpt>
    <trkpt lat="48.75815" lon="2.52944"><ele>98.2</ele></trkpt>
    <trkpt lat="48.75576" lon="2.53387"><ele>98.1</ele></trkpt>
    <trkpt lat="48.75563" lon="2.53406"><ele>98.2</ele></trkpt>
    <trkpt lat="48.75547" lon="2.53417"><ele>98.2</ele></trkpt>
    <trkpt lat="48.7554" lon="2.53434"><ele>98.2</ele></trkpt>
    <trkpt lat="48.756" lon="2.53805"><ele>98.2</ele></trkpt>
    <trkpt lat="48.75595" lon="2.53828"><ele>98.2</ele></trkpt>
    <trkpt lat="48.75582" lon="2.53846"><ele>98.1</ele></trkpt>
    <trkpt lat="48.75554" lon="2.5388"><ele>98.0</ele></trkpt>
    <trkpt lat="48.75521" lon="2.53897"><ele>97.9</ele></trkpt>
    <trkpt lat="48.75341" lon="2.53913"><ele>98.0</ele></trkpt>
    <trkpt lat="48.75306" lon="2.53906"><ele>98.1</ele></trkpt>
    <trkpt lat="48.75272" lon="2.53919"><ele>98.1</ele></trkpt>
    <trkpt lat="48.75003" lon="2.53941"><ele>98.1</ele></trkpt>
    <trkpt lat="48.74991" lon="2.53958"><ele>98.1</ele></trkpt>
    <trkpt lat="48.74978" lon="2.54008"><ele>98.1</ele></trkpt>
    <trkpt lat="48.74962" lon="2.54012"><ele>98.1</ele></trkpt>
    <trkpt lat="48.74945" lon="2.54003"><ele>98.1</ele></trkpt>
    <trkpt lat="48.74914" lon="2.53976"><ele>98.1</ele></trkpt>
    <trkpt lat="48.74906" lon="2.53925"><ele>98.1</ele></trkpt>
    <trkpt lat="48.74884" lon="2.53882"><ele>98.0</ele></trkpt>
    <trkpt lat="48.74881" lon="2.53856"><ele>97.9</ele></trkpt>
    <trkpt lat="48.74898" lon="2.53778"><ele>97.7</ele></trkpt>
    <trkpt lat="48.74961" lon="2.53613"><ele>96.7</ele></trkpt>
    <trkpt lat="48.74967" lon="2.53588"><ele>96.5</ele></trkpt>
    <trkpt lat="48.74967" lon="2.53534"><ele>96.3</ele></trkpt>
    <trkpt lat="48.74729" lon="2.51659"><ele>90.8</ele></trkpt>
    <trkpt lat="48.74722" lon="2.51578"><ele>90.7</ele></trkpt>
    <trkpt lat="48.74722" lon="2.51551"><ele>90.7</ele></trkpt>
    <trkpt lat="48.74743" lon="2.51507"><ele>90.7</ele></trkpt>
    <trkpt lat="48.74851" lon="2.51325"><ele>90.3</ele></trkpt>
    <trkpt lat="48.74846" lon="2.51303"><ele>90.3</ele></trkpt>
    <trkpt lat="48.74547" lon="2.51205"><ele>89.6</ele></trkpt>
    <trkpt lat="48.74512" lon="2.51199"><ele>90.0</ele></trkpt>
    <trkpt lat="48.74476" lon="2.51204"><ele>90.7</ele></trkpt>
    <trkpt lat="48.7433" lon="2.51308"><ele>92.5</ele></trkpt>
    <trkpt lat="48.74222" lon="2.51407"><ele>92.6</ele></trkpt>
    <trkpt lat="48.73437" lon="2.52072"><ele>90.2</ele></trkpt>
    <trkpt lat="48.73423" lon="2.5207"><ele>90.4</ele></trkpt>
    <trkpt lat="48.73417" lon="2.52046"><ele>90.5</ele></trkpt>
    <trkpt lat="48.73408" lon="2.51966"><ele>90.7</ele></trkpt>
    <trkpt lat="48.73284" lon="2.51367"><ele>92.1</ele></trkpt>
    <trkpt lat="48.73278" lon="2.51342"><ele>92.1</ele></trkpt>
    <trkpt lat="48.73269" lon="2.51343"><ele>92.2</ele></trkpt>
    <trkpt lat="48.73224" lon="2.51492"><ele>92.4</ele></trkpt>
    <trkpt lat="48.73182" lon="2.51612"><ele>92.4</ele></trkpt>
    <trkpt lat="48.73088" lon="2.51844"><ele>92.4</ele></trkpt>
    <trkpt lat="48.72977" lon="2.52093"><ele>93.2</ele></trkpt>
    <trkpt lat="48.72849" lon="2.52421"><ele>92.3</ele></trkpt>
    <trkpt lat="48.72796" lon="2.52624"><ele>92.9</ele></trkpt>
    <trkpt lat="48.72725" lon="2.5278"><ele>91.1</ele></trkpt>
    <trkpt lat="48.72696" lon="2.5281"><ele>90.6</ele></trkpt>
    <trkpt lat="48.72686" lon="2.52832"><ele>90.4</ele></trkpt>
    <trkpt lat="48.72631" lon="2.53004"><ele>90.3</ele></trkpt>
    <trkpt lat="48.72614" lon="2.53137"><ele>88.8</ele></trkpt>
    <trkpt lat="48.72606" lon="2.53161"><ele>88.4</ele></trkpt>
    <trkpt lat="48.72598" lon="2.53324"><ele>84.7</ele></trkpt>
    <trkpt lat="48.726" lon="2.53351"><ele>84.1</ele></trkpt>
    <trkpt lat="48.72633" lon="2.53478"><ele>81.4</ele></trkpt>
    <trkpt lat="48.72634" lon="2.53505"><ele>80.9</ele></trkpt>
    <trkpt lat="48.72624" lon="2.53557"><ele>80.0</ele></trkpt>
    <trkpt lat="48.72637" lon="2.53746"><ele>76.5</ele></trkpt>
    <trkpt lat="48.72631" lon="2.53909"><ele>72.4</ele></trkpt>
    <trkpt lat="48.72602" lon="2.54151"><ele>71.2</ele></trkpt>
    <trkpt lat="48.72549" lon="2.54324"><ele>69.6</ele></trkpt>
    <trkpt lat="48.72497" lon="2.54435"><ele>74.5</ele></trkpt>
    <trkpt lat="48.72435" lon="2.54533"><ele>73.7</ele></trkpt>
    <trkpt lat="48.72349" lon="2.54632"><ele>73.1</ele></trkpt>
    <trkpt lat="48.72303" lon="2.54674"><ele>73.2</ele></trkpt>
    <trkpt lat="48.72254" lon="2.54708"><ele>73.9</ele></trkpt>
    <trkpt lat="48.72152" lon="2.54763"><ele>77.0</ele></trkpt>
    <trkpt lat="48.72081" lon="2.54781"><ele>79.6</ele></trkpt>
    <trkpt lat="48.7201" lon="2.54791"><ele>80.9</ele></trkpt>
    <trkpt lat="48.71507" lon="2.54834"><ele>83.9</ele></trkpt>
    <trkpt lat="48.71418" lon="2.54858"><ele>85.4</ele></trkpt>
    <trkpt lat="48.7135" lon="2.54891"><ele>86.7</ele></trkpt>
    <trkpt lat="48.71269" lon="2.54949"><ele>88.4</ele></trkpt>
    <trkpt lat="48.71194" lon="2.55025"><ele>89.6</ele></trkpt>
    <trkpt lat="48.71153" lon="2.55077"><ele>90.3</ele></trkpt>
    <trkpt lat="48.71092" lon="2.55177"><ele>91.3</ele></trkpt>
    <trkpt lat="48.71031" lon="2.55312"><ele>92.1</ele></trkpt>
    <trkpt lat="48.70978" lon="2.55485"><ele>92.6</ele></trkpt>
    <trkpt lat="48.70961" lon="2.55591"><ele>92.6</ele></trkpt>
    <trkpt lat="48.70948" lon="2.55726"><ele>92.7</ele></trkpt>
    <trkpt lat="48.70995" lon="2.55765"><ele>92.6</ele></trkpt>
    <trkpt lat="48.71031" lon="2.55769"><ele>92.3</ele></trkpt>
    <trkpt lat="48.71058" lon="2.55804"><ele>92.0</ele></trkpt>
    <trkpt lat="48.71074" lon="2.55816"><ele>91.9</ele></trkpt>
    <trkpt lat="48.71142" lon="2.5585"><ele>91.5</ele></trkpt>
    <trkpt lat="48.71174" lon="2.55875"><ele>91.6</ele></trkpt>
    <trkpt lat="48.71246" lon="2.55957"><ele>93.3</ele></trkpt>
    <trkpt lat="48.71355" lon="2.56052"><ele>96.6</ele></trkpt>
    <trkpt lat="48.71377" lon="2.56094"><ele>97.6</ele></trkpt>
    <trkpt lat="48.71422" lon="2.56141"><ele>98.9</ele></trkpt>
    <trkpt lat="48.71432" lon="2.56159"><ele>99.1</ele></trkpt>
    <trkpt lat="48.71307" lon="2.56355"><ele>99.1</ele></trkpt>
    <trkpt lat="48.7126" lon="2.56437"><ele>98.2</ele></trkpt>
    <trkpt lat="48.71222" lon="2.5653"><ele>96.4</ele></trkpt>
    <trkpt lat="48.71218" lon="2.56556"><ele>96.0</ele></trkpt>
    <trkpt lat="48.7122" lon="2.56583"><ele>95.6</ele></trkpt>
    <trkpt lat="48.71228" lon="2.56607"><ele>95.3</ele></trkpt>
    <trkpt lat="48.71343" lon="2.56779"><ele>95.3</ele></trkpt>
    <trkpt lat="48.71391" lon="2.56861"><ele>95.2</ele></trkpt>
    <trkpt lat="48.71445" lon="2.57002"><ele>94.9</ele></trkpt>
    <trkpt lat="48.71452" lon="2.57055"><ele>94.7</ele></trkpt>
    <trkpt lat="48.71482" lon="2.57183"><ele>94.5</ele></trkpt>
    <trkpt lat="48.71496" lon="2.57263"><ele>94.9</ele></trkpt>
    <trkpt lat="48.71502" lon="2.57316"><ele>95.2</ele></trkpt>
    <trkpt lat="48.71505" lon="2.57425"><ele>95.6</ele></trkpt>
    <trkpt lat="48.71511" lon="2.5745"><ele>95.7</ele></trkpt>
    <trkpt lat="48.71521" lon="2.57469"><ele>95.7</ele></trkpt>
    <trkpt lat="48.71518" lon="2.57523"><ele>95.8</ele></trkpt>
    <trkpt lat="48.71501" lon="2.57569"><ele>95.9</ele></trkpt>
    <trkpt lat="48.71501" lon="2.57596"><ele>95.9</ele></trkpt>
    <trkpt lat="48.71513" lon="2.57675"><ele>95.9</ele></trkpt>
    <trkpt lat="48.71504" lon="2.57727"><ele>95.8</ele></trkpt>
    <trkpt lat="48.71287" lon="2.58259"><ele>95.2</ele></trkpt>
    <trkpt lat="48.71264" lon="2.58301"><ele>95.1</ele></trkpt>
    <trkpt lat="48.71174" lon="2.58505"><ele>94.5</ele></trkpt>
    <trkpt lat="48.70901" lon="2.59145"><ele>94.9</ele></trkpt>
    <trkpt lat="48.70866" lon="2.59207"><ele>94.9</ele></trkpt>
    <trkpt lat="48.70671" lon="2.59665"><ele>93.9</ele></trkpt>
    <trkpt lat="48.70649" lon="2.59706"><ele>93.8</ele></trkpt>
    <trkpt lat="48.70633" lon="2.59717"><ele>93.7</ele></trkpt>
    <trkpt lat="48.70621" lon="2.59768"><ele>93.4</ele></trkpt>
    <trkpt lat="48.70516" lon="2.60021"><ele>92.7</ele></trkpt>
    <trkpt lat="48.70427" lon="2.60226"><ele>92.4</ele></trkpt>
    <trkpt lat="48.70401" lon="2.6026"><ele>92.3</ele></trkpt>
    <trkpt lat="48.704" lon="2.60312"><ele>92.1</ele></trkpt>
    <trkpt lat="48.70384" lon="2.6039"><ele>91.7</ele></trkpt>
    <trkpt lat="48.70374" lon="2.6047"><ele>91.0</ele></trkpt>
    <trkpt lat="48.70364" lon="2.60687"><ele>89.1</ele></trkpt>
    <trkpt lat="48.70353" lon="2.60708"><ele>89.0</ele></trkpt>
    <trkpt lat="48.70337" lon="2.60717"><ele>88.8</ele></trkpt>
    <trkpt lat="48.70301" lon="2.60723"><ele>88.6</ele></trkpt>
    <trkpt lat="48.70161" lon="2.60769"><ele>88.3</ele></trkpt>
    <trkpt lat="48.70132" lon="2.60799"><ele>88.4</ele></trkpt>
    <trkpt lat="48.69966" lon="2.61086"><ele>88.7</ele></trkpt>
    <trkpt lat="48.69942" lon="2.61156"><ele>88.5</ele></trkpt>
    <trkpt lat="48.69638" lon="2.61694"><ele>88.2</ele></trkpt>
    <trkpt lat="48.6949" lon="2.62002"><ele>88.9</ele></trkpt>
    <trkpt lat="48.69455" lon="2.62065"><ele>88.8</ele></trkpt>
    <trkpt lat="48.68649" lon="2.6377"><ele>89.6</ele></trkpt>
    <trkpt lat="48.68499" lon="2.64142"><ele>83.5</ele></trkpt>
    <trkpt lat="48.68418" lon="2.64385"><ele>79.1</ele></trkpt>
    <trkpt lat="48.68328" lon="2.64682"><ele>77.8</ele></trkpt>
    <trkpt lat="48.68191" lon="2.65244"><ele>84.8</ele></trkpt>
    <trkpt lat="48.68029" lon="2.65938"><ele>91.2</ele></trkpt>
    <trkpt lat="48.6802" lon="2.6596"><ele>91.5</ele></trkpt>
    <trkpt lat="48.67915" lon="2.66424"><ele>95.8</ele></trkpt>
    <trkpt lat="48.6784" lon="2.6673"><ele>97.0</ele></trkpt>
    <trkpt lat="48.67911" lon="2.66444"><ele>95.9</ele></trkpt>
    <trkpt lat="48.68022" lon="2.65954"><ele>91.4</ele></trkpt>
    <trkpt lat="48.68038" lon="2.65906"><ele>90.9</ele></trkpt>
    <trkpt lat="48.68112" lon="2.65599"><ele>88.1</ele></trkpt>
    <trkpt lat="48.68218" lon="2.65136"><ele>83.7</ele></trkpt>
    <trkpt lat="48.68332" lon="2.64677"><ele>77.7</ele></trkpt>
    <trkpt lat="48.68422" lon="2.6438"><ele>78.9</ele></trkpt>
    <trkpt lat="48.68521" lon="2.6409"><ele>84.2</ele></trkpt>
    <trkpt lat="48.68533" lon="2.6407"><ele>84.6</ele></trkpt>
    <trkpt lat="48.68549" lon="2.64057"><ele>85.0</ele></trkpt>
    <trkpt lat="48.68627" lon="2.63908"><ele>87.3</ele></trkpt>
    <trkpt lat="48.68645" lon="2.63908"><ele>87.7</ele></trkpt>
    <trkpt lat="48.68675" lon="2.63936"><ele>88.3</ele></trkpt>
    <trkpt lat="48.68693" lon="2.63943"><ele>88.6</ele></trkpt>
    <trkpt lat="48.69065" lon="2.64036"><ele>93.7</ele></trkpt>
    <trkpt lat="48.69118" lon="2.64056"><ele>94.3</ele></trkpt>
    <trkpt lat="48.6914" lon="2.64097"><ele>94.6</ele></trkpt>
    <trkpt lat="48.69337" lon="2.64586"><ele>95.7</ele></trkpt>
    <trkpt lat="48.694" lon="2.64811"><ele>95.6</ele></trkpt>
    <trkpt lat="48.69419" lon="2.64917"><ele>95.5</ele></trkpt>
    <trkpt lat="48.69426" lon="2.64939"><ele>95.5</ele></trkpt>
    <trkpt lat="48.69444" lon="2.64941"><ele>95.5</ele></trkpt>
    <trkpt lat="48.69461" lon="2.64933"><ele>95.5</ele></trkpt>
    <trkpt lat="48.69726" lon="2.64764"><ele>95.8</ele></trkpt>
    <trkpt lat="48.6974" lon="2.64769"><ele>95.8</ele></trkpt>
    <trkpt lat="48.69995" lon="2.65759"><ele>95.5</ele></trkpt>
    <trkpt lat="48.70002" lon="2.65784"><ele>95.7</ele></trkpt>
    <trkpt lat="48.70015" lon="2.65795"><ele>95.9</ele></trkpt>
    <trkpt lat="48.70346" lon="2.65585"><ele>99.4</ele></trkpt>
    <trkpt lat="48.70356" lon="2.65564"><ele>99.5</ele></trkpt>
    <trkpt lat="48.70365" lon="2.65347"><ele>100.9</ele></trkpt>
    <trkpt lat="48.70373" lon="2.65335"><ele>101.3</ele></trkpt>
    <trkpt lat="48.70369" lon="2.65495"><ele>104.1</ele></trkpt>
    <trkpt lat="48.70377" lon="2.65548"><ele>104.7</ele></trkpt>
    <trkpt lat="48.70388" lon="2.65569"><ele>104.9</ele></trkpt>
    <trkpt lat="48.70436" lon="2.65607"><ele>104.9</ele></trkpt>
    <trkpt lat="48.70449" lon="2.65626"><ele>104.8</ele></trkpt>
    <trkpt lat="48.70483" lon="2.65781"><ele>102.8</ele></trkpt>
    <trkpt lat="48.70497" lon="2.65798"><ele>102.3</ele></trkpt>
    <trkpt lat="48.70568" lon="2.65798"><ele>100.5</ele></trkpt>
    <trkpt lat="48.70585" lon="2.65807"><ele>100.3</ele></trkpt>
    <trkpt lat="48.70593" lon="2.65832"><ele>100.1</ele></trkpt>
    <trkpt lat="48.70817" lon="2.66839"><ele>101.7</ele></trkpt>
    <trkpt lat="48.70855" lon="2.66962"><ele>102.0</ele></trkpt>
    <trkpt lat="48.70928" lon="2.67149"><ele>102.4</ele></trkpt>
    <trkpt lat="48.70971" lon="2.67357"><ele>102.9</ele></trkpt>
    <trkpt lat="48.71026" lon="2.67496"><ele>103.4</ele></trkpt>
    <trkpt lat="48.71018" lon="2.67519"><ele>103.5</ele></trkpt>
    <trkpt lat="48.70964" lon="2.67586"><ele>103.7</ele></trkpt>
    <trkpt lat="48.7097" lon="2.67611"><ele>103.7</ele></trkpt>
    <trkpt lat="48.71009" lon="2.67703"><ele>103.8</ele></trkpt>
    <trkpt lat="48.71058" lon="2.67782"><ele>103.7</ele></trkpt>
    <trkpt lat="48.71099" lon="2.67872"><ele>103.4</ele></trkpt>
    <trkpt lat="48.71204" lon="2.68157"><ele>102.8</ele></trkpt>
    <trkpt lat="48.71245" lon="2.68211"><ele>102.7</ele></trkpt>
    <trkpt lat="48.71318" lon="2.68288"><ele>102.7</ele></trkpt>
    <trkpt lat="48.71344" lon="2.68326"><ele>102.8</ele></trkpt>
    <trkpt lat="48.71366" lon="2.6837"><ele>102.8</ele></trkpt>
    <trkpt lat="48.71378" lon="2.6842"><ele>102.8</ele></trkpt>
    <trkpt lat="48.71389" lon="2.6861"><ele>102.7</ele></trkpt>
    <trkpt lat="48.71426" lon="2.68821"><ele>102.2</ele></trkpt>
    <trkpt lat="48.71439" lon="2.68871"><ele>102.1</ele></trkpt>
    <trkpt lat="48.71485" lon="2.68988"><ele>102.0</ele></trkpt>
    <trkpt lat="48.71525" lon="2.6914"><ele>102.1</ele></trkpt>
    <trkpt lat="48.7155" lon="2.69326"><ele>102.4</ele></trkpt>
    <trkpt lat="48.71546" lon="2.69517"><ele>102.6</ele></trkpt>
    <trkpt lat="48.71558" lon="2.69624"><ele>102.7</ele></trkpt>
    <trkpt lat="48.71556" lon="2.69705"><ele>102.8</ele></trkpt>
    <trkpt lat="48.71571" lon="2.69949"><ele>102.2</ele></trkpt>
    <trkpt lat="48.71604" lon="2.70382"><ele>102.8</ele></trkpt>
    <trkpt lat="48.71604" lon="2.70436"><ele>103.1</ele></trkpt>
    <trkpt lat="48.71584" lon="2.70625"><ele>103.7</ele></trkpt>
    <trkpt lat="48.71582" lon="2.70679"><ele>103.9</ele></trkpt>
    <trkpt lat="48.71619" lon="2.71029"><ele>106.3</ele></trkpt>
    <trkpt lat="48.716" lon="2.71819"><ele>105.0</ele></trkpt>
    <trkpt lat="48.71601" lon="2.719"><ele>105.0</ele></trkpt>
    <trkpt lat="48.71605" lon="2.71925"><ele>105.0</ele></trkpt>
    <trkpt lat="48.71622" lon="2.71933"><ele>105.0</ele></trkpt>
    <trkpt lat="48.7174" lon="2.71939"><ele>105.0</ele></trkpt>
    <trkpt lat="48.71615" lon="2.71936"><ele>104.9</ele></trkpt>
    <trkpt lat="48.71605" lon="2.71957"><ele>104.8</ele></trkpt>
    <trkpt lat="48.7163" lon="2.72309"><ele>104.0</ele></trkpt>
    <trkpt lat="48.71649" lon="2.72799"><ele>101.9</ele></trkpt>
    <trkpt lat="48.71657" lon="2.72907"><ele>101.3</ele></trkpt>
    <trkpt lat="48.71659" lon="2.73071"><ele>100.4</ele></trkpt>
    <trkpt lat="48.71673" lon="2.73178"><ele>99.8</ele></trkpt>
    <trkpt lat="48.71677" lon="2.73477"><ele>97.4</ele></trkpt>
    <trkpt lat="48.71668" lon="2.7364"><ele>96.3</ele></trkpt>
    <trkpt lat="48.71641" lon="2.73798"><ele>95.7</ele></trkpt>
    <trkpt lat="48.71622" lon="2.73837"><ele>95.6</ele></trkpt>
    <trkpt lat="48.71635" lon="2.73848"><ele>95.5</ele></trkpt>
    <trkpt lat="48.71759" lon="2.73882"><ele>93.9</ele></trkpt>
    <trkpt lat="48.71795" lon="2.73879"><ele>93.5</ele></trkpt>
    <trkpt lat="48.71847" lon="2.73859"><ele>93.1</ele></trkpt>
    <trkpt lat="48.71883" lon="2.73854"><ele>93.0</ele></trkpt>
    <trkpt lat="48.72044" lon="2.73871"><ele>94.6</ele></trkpt>
    <trkpt lat="48.7217" lon="2.73867"><ele>95.1</ele></trkpt>
    <trkpt lat="48.72241" lon="2.73881"><ele>94.7</ele></trkpt>
    <trkpt lat="48.72295" lon="2.73884"><ele>94.7</ele></trkpt>
    <trkpt lat="48.72349" lon="2.73883"><ele>94.9</ele></trkpt>
    <trkpt lat="48.72383" lon="2.73872"><ele>95.2</ele></trkpt>
    <trkpt lat="48.72689" lon="2.7388"><ele>99.7</ele></trkpt>
    <trkpt lat="48.72778" lon="2.7389"><ele>100.4</ele></trkpt>
    <trkpt lat="48.72814" lon="2.7389"><ele>100.5</ele></trkpt>
    <trkpt lat="48.72831" lon="2.73882"><ele>100.6</ele></trkpt>
    <trkpt lat="48.72844" lon="2.73896"><ele>100.7</ele></trkpt>
    <trkpt lat="48.72861" lon="2.739"><ele>100.7</ele></trkpt>
    <trkpt lat="48.72987" lon="2.73914"><ele>101.1</ele></trkpt>
    <trkpt lat="48.73183" lon="2.73948"><ele>102.0</ele></trkpt>
    <trkpt lat="48.73219" lon="2.73946"><ele>102.1</ele></trkpt>
    <trkpt lat="48.73253" lon="2.73931"><ele>102.3</ele></trkpt>
    <trkpt lat="48.73329" lon="2.73857"><ele>103.0</ele></trkpt>
    <trkpt lat="48.73423" lon="2.73777"><ele>103.9</ele></trkpt>
    <trkpt lat="48.73493" lon="2.73758"><ele>104.3</ele></trkpt>
    <trkpt lat="48.73637" lon="2.73737"><ele>104.4</ele></trkpt>
    <trkpt lat="48.73672" lon="2.73744"><ele>104.4</ele></trkpt>
    <trkpt lat="48.73707" lon="2.73759"><ele>104.3</ele></trkpt>
    <trkpt lat="48.73771" lon="2.73806"><ele>104.3</ele></trkpt>
    <trkpt lat="48.73788" lon="2.73803"><ele>104.3</ele></trkpt>
    <trkpt lat="48.73853" lon="2.73708"><ele>104.3</ele></trkpt>
    <trkpt lat="48.73868" lon="2.73696"><ele>104.3</ele></trkpt>
    <trkpt lat="48.73883" lon="2.73703"><ele>104.2</ele></trkpt>
    <trkpt lat="48.73935" lon="2.73815"><ele>103.7</ele></trkpt>
    <trkpt lat="48.7397" lon="2.73877"><ele>103.4</ele></trkpt>
    <trkpt lat="48.73984" lon="2.73889"><ele>103.4</ele></trkpt>
    <trkpt lat="48.73997" lon="2.73876"><ele>103.4</ele></trkpt>
    <trkpt lat="48.74071" lon="2.73722"><ele>104.1</ele></trkpt>
    <trkpt lat="48.74109" lon="2.7363"><ele>104.8</ele></trkpt>
    <trkpt lat="48.74138" lon="2.73597"><ele>105.3</ele></trkpt>
    <trkpt lat="48.7423" lon="2.73512"><ele>106.2</ele></trkpt>
    <trkpt lat="48.74233" lon="2.73491"><ele>106.3</ele></trkpt>
    <trkpt lat="48.74215" lon="2.73445"><ele>106.7</ele></trkpt>
    <trkpt lat="48.74158" lon="2.73186"><ele>107.0</ele></trkpt>
    <trkpt lat="48.74167" lon="2.73169"><ele>106.8</ele></trkpt>
    <trkpt lat="48.74252" lon="2.73124"><ele>106.8</ele></trkpt>
    <trkpt lat="48.74268" lon="2.7311"><ele>106.8</ele></trkpt>
    <trkpt lat="48.74292" lon="2.7307"><ele>106.9</ele></trkpt>
    <trkpt lat="48.74396" lon="2.72963"><ele>107.3</ele></trkpt>
    <trkpt lat="48.74409" lon="2.72943"><ele>107.3</ele></trkpt>
    <trkpt lat="48.74437" lon="2.72874"><ele>107.5</ele></trkpt>
    <trkpt lat="48.74461" lon="2.72834"><ele>107.7</ele></trkpt>
    <trkpt lat="48.74677" lon="2.72546"><ele>109.7</ele></trkpt>
    <trkpt lat="48.74707" lon="2.72515"><ele>110.3</ele></trkpt>
    <trkpt lat="48.74739" lon="2.72492"><ele>110.6</ele></trkpt>
    <trkpt lat="48.74776" lon="2.72433"><ele>111.2</ele></trkpt>
    <trkpt lat="48.74862" lon="2.72334"><ele>110.4</ele></trkpt>
    <trkpt lat="48.74926" lon="2.72239"><ele>110.6</ele></trkpt>
    <trkpt lat="48.74982" lon="2.72133"><ele>110.8</ele></trkpt>
    <trkpt lat="48.75047" lon="2.71969"><ele>111.2</ele></trkpt>
    <trkpt lat="48.75094" lon="2.71822"><ele>111.0</ele></trkpt>
    <trkpt lat="48.75128" lon="2.71696"><ele>110.6</ele></trkpt>
    <trkpt lat="48.75143" lon="2.71617"><ele>110.3</ele></trkpt>
    <trkpt lat="48.75152" lon="2.71536"><ele>110.0</ele></trkpt>
    <trkpt lat="48.75182" lon="2.71408"><ele>109.5</ele></trkpt>
    <trkpt lat="48.75259" lon="2.70988"><ele>108.5</ele></trkpt>
    <trkpt lat="48.75282" lon="2.70856"><ele>108.5</ele></trkpt>
    <trkpt lat="48.7529" lon="2.70775"><ele>109.5</ele></trkpt>
    <trkpt lat="48.75299" lon="2.70753"><ele>110.0</ele></trkpt>
    <trkpt lat="48.75388" lon="2.70662"><ele>111.2</ele></trkpt>
    <trkpt lat="48.75565" lon="2.70531"><ele>112.9</ele></trkpt>
    <trkpt lat="48.75602" lon="2.70471"><ele>111.8</ele></trkpt>
    <trkpt lat="48.756" lon="2.70451"><ele>111.4</ele></trkpt>
    <trkpt lat="48.75576" lon="2.70413"><ele>111.5</ele></trkpt>
    <trkpt lat="48.75571" lon="2.70361"><ele>111.7</ele></trkpt>
    <trkpt lat="48.75557" lon="2.7031"><ele>111.9</ele></trkpt>
    <trkpt lat="48.75489" lon="2.70088"><ele>112.1</ele></trkpt>
    <trkpt lat="48.75494" lon="2.70084"><ele>112.7</ele></trkpt>
    <trkpt lat="48.75528" lon="2.70097"><ele>113.8</ele></trkpt>
    <trkpt lat="48.75545" lon="2.70088"><ele>114.4</ele></trkpt>
    <trkpt lat="48.75545" lon="2.70067"><ele>114.4</ele></trkpt>
    <trkpt lat="48.75519" lon="2.7003"><ele>114.4</ele></trkpt>
    <trkpt lat="48.75487" lon="2.70007"><ele>114.4</ele></trkpt>
    <trkpt lat="48.75486" lon="2.69957"><ele>114.5</ele></trkpt>
    <trkpt lat="48.75439" lon="2.69878"><ele>114.1</ele></trkpt>
    <trkpt lat="48.7543" lon="2.69854"><ele>113.8</ele></trkpt>
    <trkpt lat="48.75426" lon="2.69828"><ele>113.4</ele></trkpt>
    <trkpt lat="48.75428" lon="2.69747"><ele>112.6</ele></trkpt>
    <trkpt lat="48.75403" lon="2.69588"><ele>111.9</ele></trkpt>
    <trkpt lat="48.75408" lon="2.69563"><ele>111.8</ele></trkpt>
    <trkpt lat="48.75433" lon="2.69491"><ele>111.3</ele></trkpt>
    <trkpt lat="48.75425" lon="2.69472"><ele>111.2</ele></trkpt>
    <trkpt lat="48.75367" lon="2.69408"><ele>110.7</ele></trkpt>
    <trkpt lat="48.75386" lon="2.69337"><ele>110.8</ele></trkpt>
    <trkpt lat="48.75442" lon="2.69079"><ele>111.5</ele></trkpt>
    <trkpt lat="48.75451" lon="2.68998"><ele>111.5</ele></trkpt>
    <trkpt lat="48.75454" lon="2.68862"><ele>111.2</ele></trkpt>
    <trkpt lat="48.75463" lon="2.68753"><ele>110.8</ele></trkpt>
    <trkpt lat="48.75483" lon="2.6862"><ele>109.9</ele></trkpt>
    <trkpt lat="48.75497" lon="2.68571"><ele>109.5</ele></trkpt>
    <trkpt lat="48.75526" lon="2.68501"><ele>109.0</ele></trkpt>
    <trkpt lat="48.7557" lon="2.68415"><ele>108.5</ele></trkpt>
    <trkpt lat="48.75633" lon="2.68317"><ele>108.1</ele></trkpt>
    <trkpt lat="48.75652" lon="2.68272"><ele>108.0</ele></trkpt>
    <trkpt lat="48.75675" lon="2.68168"><ele>107.8</ele></trkpt>
    <trkpt lat="48.7571" lon="2.68043"><ele>107.5</ele></trkpt>
    <trkpt lat="48.75751" lon="2.67922"><ele>107.4</ele></trkpt>
    <trkpt lat="48.75775" lon="2.67881"><ele>107.1</ele></trkpt>
    <trkpt lat="48.75832" lon="2.67816"><ele>106.9</ele></trkpt>
    <trkpt lat="48.75897" lon="2.67722"><ele>106.9</ele></trkpt>
    <trkpt lat="48.75981" lon="2.67618"><ele>106.9</ele></trkpt>
    <trkpt lat="48.76137" lon="2.67392"><ele>107.1</ele></trkpt>
    <trkpt lat="48.76153" lon="2.67379"><ele>107.2</ele></trkpt>
    <trkpt lat="48.76206" lon="2.67366"><ele>107.3</ele></trkpt>
    <trkpt lat="48.76218" lon="2.67287"><ele>107.4</ele></trkpt>
    <trkpt lat="48.76235" lon="2.6721"><ele>107.5</ele></trkpt>
    <trkpt lat="48.76246" lon="2.67075"><ele>107.4</ele></trkpt>
    <trkpt lat="48.76246" lon="2.66857"><ele>106.7</ele></trkpt>
    <trkpt lat="48.7631" lon="2.66573"><ele>103.7</ele></trkpt>
    <trkpt lat="48.76327" lon="2.66526"><ele>103.2</ele></trkpt>
    <trkpt lat="48.76327" lon="2.665"><ele>102.9</ele></trkpt>
    <trkpt lat="48.76314" lon="2.66487"><ele>102.8</ele></trkpt>
    <trkpt lat="48.76279" lon="2.66495"><ele>103.5</ele></trkpt>
    <trkpt lat="48.76263" lon="2.66484"><ele>103.7</ele></trkpt>
    <trkpt lat="48.76127" lon="2.66307"><ele>105.3</ele></trkpt>
    <trkpt lat="48.76108" lon="2.66262"><ele>105.1</ele></trkpt>
    <trkpt lat="48.76065" lon="2.66222"><ele>104.6</ele></trkpt>
    <trkpt lat="48.75957" lon="2.66079"><ele>103.8</ele></trkpt>
    <trkpt lat="48.75795" lon="2.65824"><ele>103.6</ele></trkpt>
    <trkpt lat="48.75653" lon="2.65542"><ele>103.5</ele></trkpt>
    <trkpt lat="48.75533" lon="2.65339"><ele>103.6</ele></trkpt>
    <trkpt lat="48.75513" lon="2.65294"><ele>103.5</ele></trkpt>
    <trkpt lat="48.75456" lon="2.65094"><ele>103.3</ele></trkpt>
    <trkpt lat="48.754" lon="2.64923"><ele>102.9</ele></trkpt>
    <trkpt lat="48.75361" lon="2.64741"><ele>100.6</ele></trkpt>
    <trkpt lat="48.75378" lon="2.64668"><ele>99.7</ele></trkpt>
    <trkpt lat="48.75364" lon="2.64621"><ele>99.2</ele></trkpt>
    <trkpt lat="48.75374" lon="2.64645"><ele>99.2</ele></trkpt>
    <trkpt lat="48.75388" lon="2.64655"><ele>99.2</ele></trkpt>
    <trkpt lat="48.75405" lon="2.64661"><ele>99.2</ele></trkpt>
    <trkpt lat="48.7542" lon="2.64652"><ele>99.1</ele></trkpt>
    <trkpt lat="48.75464" lon="2.64533"><ele>98.0</ele></trkpt>
    <trkpt lat="48.75475" lon="2.64482"><ele>97.7</ele></trkpt>
    <trkpt lat="48.75477" lon="2.64455"><ele>97.6</ele></trkpt>
    <trkpt lat="48.75476" lon="2.64428"><ele>97.6</ele></trkpt>
    <trkpt lat="48.75463" lon="2.64377"><ele>97.6</ele></trkpt>
    <trkpt lat="48.75381" lon="2.64233"><ele>97.5</ele></trkpt>
    <trkpt lat="48.75369" lon="2.64182"><ele>97.5</ele></trkpt>
    <trkpt lat="48.75367" lon="2.64128"><ele>97.5</ele></trkpt>
    <trkpt lat="48.75383" lon="2.6405"><ele>97.3</ele></trkpt>
    <trkpt lat="48.75422" lon="2.63995"><ele>97.2</ele></trkpt>
    <trkpt lat="48.75453" lon="2.63969"><ele>97.3</ele></trkpt>
    <trkpt lat="48.75506" lon="2.63955"><ele>97.8</ele></trkpt>
    <trkpt lat="48.75542" lon="2.63954"><ele>98.2</ele></trkpt>
    <trkpt lat="48.7556" lon="2.63947"><ele>98.5</ele></trkpt>
    <trkpt lat="48.75574" lon="2.6393"><ele>98.7</ele></trkpt>
    <trkpt lat="48.75599" lon="2.63829"><ele>99.8</ele></trkpt>
    <trkpt lat="48.75662" lon="2.63731"><ele>101.1</ele></trkpt>
    <trkpt lat="48.75678" lon="2.63683"><ele>101.6</ele></trkpt>
    <trkpt lat="48.75686" lon="2.6363"><ele>102.1</ele></trkpt>
    <trkpt lat="48.75687" lon="2.63603"><ele>102.4</ele></trkpt>
    <trkpt lat="48.75675" lon="2.63523"><ele>103.3</ele></trkpt>
    <trkpt lat="48.75677" lon="2.63496"><ele>103.8</ele></trkpt>
    <trkpt lat="48.75692" lon="2.63447"><ele>104.5</ele></trkpt>
    <trkpt lat="48.75728" lon="2.63387"><ele>104.4</ele></trkpt>
    <trkpt lat="48.75734" lon="2.63334"><ele>103.7</ele></trkpt>
    <trkpt lat="48.75722" lon="2.63283"><ele>103.4</ele></trkpt>
    <trkpt lat="48.75729" lon="2.63259"><ele>103.5</ele></trkpt>
    <trkpt lat="48.75744" lon="2.63244"><ele>103.5</ele></trkpt>
    <trkpt lat="48.75976" lon="2.63095"><ele>104.5</ele></trkpt>
    <trkpt lat="48.76027" lon="2.6307"><ele>104.8</ele></trkpt>
    <trkpt lat="48.76362" lon="2.62967"><ele>107.4</ele></trkpt>
    <trkpt lat="48.76434" lon="2.62965"><ele>106.9</ele></trkpt>
    <trkpt lat="48.76611" lon="2.62919"><ele>105.1</ele></trkpt>
    <trkpt lat="48.76643" lon="2.62895"><ele>104.9</ele></trkpt>
    <trkpt lat="48.76735" lon="2.62809"><ele>104.4</ele></trkpt>
    <trkpt lat="48.76749" lon="2.62793"><ele>104.3</ele></trkpt>
    <trkpt lat="48.76755" lon="2.62768"><ele>104.3</ele></trkpt>
    <trkpt lat="48.76744" lon="2.62688"><ele>104.2</ele></trkpt>
    <trkpt lat="48.76745" lon="2.62662"><ele>104.2</ele></trkpt>
    <trkpt lat="48.76766" lon="2.62618"><ele>104.2</ele></trkpt>
    <trkpt lat="48.76768" lon="2.62592"><ele>104.3</ele></trkpt>
    <trkpt lat="48.7676" lon="2.6257"><ele>104.4</ele></trkpt>
    <trkpt lat="48.76725" lon="2.62559"><ele>104.5</ele></trkpt>
    <trkpt lat="48.76693" lon="2.62535"><ele>104.7</ele></trkpt>
    <trkpt lat="48.76686" lon="2.62513"><ele>104.9</ele></trkpt>
    <trkpt lat="48.76759" lon="2.62063"><ele>106.3</ele></trkpt>
    <trkpt lat="48.76859" lon="2.61511"><ele>106.2</ele></trkpt>
    <trkpt lat="48.76859" lon="2.61484"><ele>106.2</ele></trkpt>
    <trkpt lat="48.768" lon="2.61113"><ele>104.9</ele></trkpt>
    <trkpt lat="48.76774" lon="2.61078"><ele>103.4</ele></trkpt>
    <trkpt lat="48.76757" lon="2.61001"><ele>102.9</ele></trkpt>
    <trkpt lat="48.76231" lon="2.57715"><ele>101.3</ele></trkpt>
    <trkpt lat="48.76237" lon="2.5769"><ele>101.0</ele></trkpt>
    <trkpt lat="48.76259" lon="2.57646"><ele>101.0</ele></trkpt>
    <trkpt lat="48.76691" lon="2.56879"><ele>101.8</ele></trkpt>
    <trkpt lat="48.76944" lon="2.56417"><ele>101.5</ele></trkpt>
    <trkpt lat="48.76978" lon="2.56322"><ele>101.5</ele></trkpt>
    <trkpt lat="48.77034" lon="2.56256"><ele>101.4</ele></trkpt>
    <trkpt lat="48.77117" lon="2.56112"><ele>101.0</ele></trkpt>
    <trkpt lat="48.77139" lon="2.56068"><ele>100.9</ele></trkpt>
    <trkpt lat="48.77144" lon="2.56043"><ele>100.8</ele></trkpt>
    <trkpt lat="48.77123" lon="2.56002"><ele>100.7</ele></trkpt>
    <trkpt lat="48.76918" lon="2.55736"><ele>100.4</ele></trkpt>
    <trkpt lat="48.77116" lon="2.55386"><ele>100.4</ele></trkpt>
    <trkpt lat="48.77115" lon="2.55359"><ele>100.4</ele></trkpt>
    <trkpt lat="48.77101" lon="2.5531"><ele>100.3</ele></trkpt>
    <trkpt lat="48.77076" lon="2.55271"><ele>100.2</ele></trkpt>
    <trkpt lat="48.76988" lon="2.55097"><ele>100.0</ele></trkpt>
    <trkpt lat="48.76963" lon="2.55059"><ele>99.9</ele></trkpt>
    <trkpt lat="48.7689" lon="2.54903"><ele>99.4</ele></trkpt>
    <trkpt lat="48.76848" lon="2.54753"><ele>98.5</ele></trkpt>
    <trkpt lat="48.76823" lon="2.54681"><ele>98.0</ele></trkpt>
    <trkpt lat="48.76744" lon="2.54498"><ele>96.8</ele></trkpt>
    <trkpt lat="48.76714" lon="2.5437"><ele>95.9</ele></trkpt>
    <trkpt lat="48.76615" lon="2.54079"><ele>92.8</ele></trkpt>
    <trkpt lat="48.76601" lon="2.54029"><ele>92.5</ele></trkpt>
    <trkpt lat="48.76598" lon="2.54004"><ele>92.4</ele></trkpt>
    <trkpt lat="48.76611" lon="2.53954"><ele>92.2</ele></trkpt>
    <trkpt lat="48.7661" lon="2.53927"><ele>92.2</ele></trkpt>
    <trkpt lat="48.76564" lon="2.53663"><ele>94.5</ele></trkpt>
    <trkpt lat="48.76559" lon="2.53582"><ele>95.0</ele></trkpt>
    <trkpt lat="48.76563" lon="2.53557"><ele>95.0</ele></trkpt>
    <trkpt lat="48.76573" lon="2.53559"><ele>95.0</ele></trkpt>
    <trkpt lat="48.76608" lon="2.53621"><ele>94.4</ele></trkpt>
    <trkpt lat="48.76653" lon="2.53666"><ele>93.9</ele></trkpt>
    <trkpt lat="48.7672" lon="2.53704"><ele>93.3</ele></trkpt>
    <trkpt lat="48.76773" lon="2.53718"><ele>93.0</ele></trkpt>
    <trkpt lat="48.76827" lon="2.53716"><ele>93.0</ele></trkpt>
    <trkpt lat="48.76879" lon="2.53697"><ele>93.0</ele></trkpt>
    <trkpt lat="48.76929" lon="2.53664"><ele>93.0</ele></trkpt>
    <trkpt lat="48.76972" lon="2.53617"><ele>93.1</ele></trkpt>
    <trkpt lat="48.76998" lon="2.53578"><ele>93.1</ele></trkpt>
    <trkpt lat="48.77019" lon="2.53534"><ele>93.3</ele></trkpt>
    <trkpt lat="48.77037" lon="2.53429"><ele>93.6</ele></trkpt>
    <trkpt lat="48.77128" lon="2.5326"><ele>92.4</ele></trkpt>
    <trkpt lat="48.77158" lon="2.53162"><ele>93.1</ele></trkpt>
    <trkpt lat="48.77167" lon="2.5311"><ele>93.5</ele></trkpt>
    <trkpt lat="48.77174" lon="2.53001"><ele>93.9</ele></trkpt>
    <trkpt lat="48.77173" lon="2.52946"><ele>93.7</ele></trkpt>
    <trkpt lat="48.7716" lon="2.52839"><ele>93.4</ele></trkpt>
    <trkpt lat="48.77173" lon="2.52761"><ele>92.5</ele></trkpt>
    <trkpt lat="48.77187" lon="2.52757"><ele>92.0</ele></trkpt>
    <trkpt lat="48.77209" lon="2.52799"><ele>90.4</ele></trkpt>
    <trkpt lat="48.77225" lon="2.52806"><ele>89.3</ele></trkpt>
    <trkpt lat="48.77278" lon="2.52813"><ele>85.1</ele></trkpt>
    <trkpt lat="48.77295" lon="2.52823"><ele>83.7</ele></trkpt>
    <trkpt lat="48.77446" lon="2.5297"><ele>69.4</ele></trkpt>
    <trkpt lat="48.77508" lon="2.53069"><ele>65.0</ele></trkpt>
    <trkpt lat="48.77538" lon="2.53167"><ele>65.3</ele></trkpt>
    <trkpt lat="48.77578" lon="2.53258"><ele>65.9</ele></trkpt>
    <trkpt lat="48.77678" lon="2.53415"><ele>59.3</ele></trkpt>
    <trkpt lat="48.77707" lon="2.53447"><ele>58.1</ele></trkpt>
    <trkpt lat="48.77832" lon="2.53428"><ele>57.4</ele></trkpt>
    <trkpt lat="48.77848" lon="2.53441"><ele>57.6</ele></trkpt>
    <trkpt lat="48.77858" lon="2.53463"><ele>58.5</ele></trkpt>
    <trkpt lat="48.77875" lon="2.53471"><ele>59.4</ele></trkpt>
    <trkpt lat="48.77896" lon="2.53429"><ele>62.1</ele></trkpt>
    <trkpt lat="48.77911" lon="2.53414"><ele>63.7</ele></trkpt>
    <trkpt lat="48.78118" lon="2.53325"><ele>81.0</ele></trkpt>
    <trkpt lat="48.78133" lon="2.53323"><ele>82.3</ele></trkpt>
    <trkpt lat="48.78145" lon="2.53344"><ele>83.7</ele></trkpt>
    <trkpt lat="48.7816" lon="2.53353"><ele>85.1</ele></trkpt>
    <trkpt lat="48.78245" lon="2.53309"><ele>91.0</ele></trkpt>
    <trkpt lat="48.78259" lon="2.53314"><ele>92.1</ele></trkpt>
    <trkpt lat="48.78312" lon="2.53424"><ele>94.7</ele></trkpt>
    <trkpt lat="48.78721" lon="2.54388"><ele>97.9</ele></trkpt>
    <trkpt lat="48.78717" lon="2.54408"><ele>97.8</ele></trkpt>
    <trkpt lat="48.78674" lon="2.54444"><ele>97.4</ele></trkpt>
  </trkseg></trk>
</gpx>
