<?xml version="1.0" encoding="UTF-8"?>
<gpx version="1.1" creator="USO Cyclisme" xmlns="http://www.topografix.com/GPX/1/1">
  <metadata><name>Soignolles-en-Brie – 73 km</name><desc>Gravel, 72.7 km, D+ 392 m. Départ et arrivée : centre culturel d'Ormesson-sur-Marne.</desc></metadata>
  <trk><name>Soignolles-en-Brie – 73 km (gravel)</name><trkseg>
    <trkpt lat="48.78667" lon="2.54444"><ele>98.0</ele></trkpt>
    <trkpt lat="48.78716" lon="2.5441"><ele>98.0</ele></trkpt>
    <trkpt lat="48.78722" lon="2.5439"><ele>97.9</ele></trkpt>
    <trkpt lat="48.78372" lon="2.53569"><ele>92.9</ele></trkpt>
    <trkpt lat="48.78327" lon="2.53608"><ele>90.4</ele></trkpt>
    <trkpt lat="48.78306" lon="2.53565"><ele>89.6</ele></trkpt>
    <trkpt lat="48.78294" lon="2.53554"><ele>89.2</ele></trkpt>
    <trkpt lat="48.78263" lon="2.53582"><ele>88.3</ele></trkpt>
    <trkpt lat="48.7825" lon="2.53582"><ele>87.6</ele></trkpt>
    <trkpt lat="48.78193" lon="2.53443"><ele>84.0</ele></trkpt>
    <trkpt lat="48.7818" lon="2.53424"><ele>83.1</ele></trkpt>
    <trkpt lat="48.78164" lon="2.53412"><ele>82.2</ele></trkpt>
    <trkpt lat="48.78147" lon="2.5341"><ele>81.3</ele></trkpt>
    <trkpt lat="48.78043" lon="2.53454"><ele>75.4</ele></trkpt>
    <trkpt lat="48.78035" lon="2.5344"><ele>74.6</ele></trkpt>
    <trkpt lat="48.78024" lon="2.53388"><ele>72.7</ele></trkpt>
    <trkpt lat="48.78012" lon="2.5337"><ele>71.7</ele></trkpt>
    <trkpt lat="48.77908" lon="2.53413"><ele>63.6</ele></trkpt>
    <trkpt lat="48.77893" lon="2.53427"><ele>62.0</ele></trkpt>
    <trkpt lat="48.77873" lon="2.53472"><ele>59.4</ele></trkpt>
    <trkpt lat="48.77858" lon="2.53462"><ele>58.5</ele></trkpt>
    <trkpt lat="48.77848" lon="2.53439"><ele>57.7</ele></trkpt>
    <trkpt lat="48.77834" lon="2.53426"><ele>57.4</ele></trkpt>
    <trkpt lat="48.77673" lon="2.53445"><ele>59.8</ele></trkpt>
    <trkpt lat="48.77626" lon="2.53407"><ele>63.3</ele></trkpt>
    <trkpt lat="48.77608" lon="2.53402"><ele>64.4</ele></trkpt>
    <trkpt lat="48.77591" lon="2.53403"><ele>65.3</ele></trkpt>
    <trkpt lat="48.77472" lon="2.53466"><ele>71.2</ele></trkpt>
    <trkpt lat="48.77456" lon="2.53463"><ele>72.1</ele></trkpt>
    <trkpt lat="48.77445" lon="2.53442"><ele>73.0</ele></trkpt>
    <trkpt lat="48.77405" lon="2.53321"><ele>77.9</ele></trkpt>
    <trkpt lat="48.77391" lon="2.53317"><ele>78.8</ele></trkpt>
    <trkpt lat="48.77341" lon="2.53348"><ele>81.4</ele></trkpt>
    <trkpt lat="48.77278" lon="2.534"><ele>84.2</ele></trkpt>
    <trkpt lat="48.77207" lon="2.53319"><ele>88.1</ele></trkpt>
    <trkpt lat="48.77143" lon="2.53224"><ele>91.7</ele></trkpt>
    <trkpt lat="48.77078" lon="2.53351"><ele>93.4</ele></trkpt>
    <trkpt lat="48.77028" lon="2.53429"><ele>93.6</ele></trkpt>
    <trkpt lat="48.77022" lon="2.53446"><ele>93.6</ele></trkpt>
    <trkpt lat="48.77027" lon="2.5347"><ele>93.5</ele></trkpt>
    <trkpt lat="48.77024" lon="2.53497"><ele>93.4</ele></trkpt>
    <trkpt lat="48.77018" lon="2.53523"><ele>93.3</ele></trkpt>
    <trkpt lat="48.76998" lon="2.53568"><ele>93.2</ele></trkpt>
    <trkpt lat="48.76945" lon="2.53642"><ele>93.0</ele></trkpt>
    <trkpt lat="48.76882" lon="2.53691"><ele>93.0</ele></trkpt>
    <trkpt lat="48.76829" lon="2.5371"><ele>93.0</ele></trkpt>
    <trkpt lat="48.76793" lon="2.53713"><ele>93.0</ele></trkpt>
    <trkpt lat="48.76775" lon="2.53713"><ele>93.0</ele></trkpt>
    <trkpt lat="48.76741" lon="2.53698"><ele>93.1</ele></trkpt>
    <trkpt lat="48.76747" lon="2.53707"><ele>93.1</ele></trkpt>
    <trkpt lat="48.76731" lon="2.53703"><ele>93.2</ele></trkpt>
    <trkpt lat="48.76696" lon="2.53689"><ele>93.4</ele></trkpt>
    <trkpt lat="48.76647" lon="2.53656"><ele>93.9</ele></trkpt>
    <trkpt lat="48.76617" lon="2.53627"><ele>94.3</ele></trkpt>
    <trkpt lat="48.7659" lon="2.5359"><ele>94.7</ele></trkpt>
    <trkpt lat="48.76569" lon="2.53546"><ele>95.1</ele></trkpt>
    <trkpt lat="48.76534" lon="2.5355"><ele>95.4</ele></trkpt>
    <trkpt lat="48.76518" lon="2.53561"><ele>95.6</ele></trkpt>
    <trkpt lat="48.76476" lon="2.53612"><ele>96.2</ele></trkpt>
    <trkpt lat="48.76459" lon="2.5362"><ele>96.3</ele></trkpt>
    <trkpt lat="48.76423" lon="2.53622"><ele>96.7</ele></trkpt>
    <trkpt lat="48.76388" lon="2.53608"><ele>96.9</ele></trkpt>
    <trkpt lat="48.76371" lon="2.53608"><ele>97.1</ele></trkpt>
    <trkpt lat="48.76358" lon="2.53622"><ele>97.2</ele></trkpt>
    <trkpt lat="48.76346" lon="2.53616"><ele>97.3</ele></trkpt>
    <trkpt lat="48.76294" lon="2.53727"><ele>97.9</ele></trkpt>
    <trkpt lat="48.7628" lon="2.53777"><ele>98.1</ele></trkpt>
    <trkpt lat="48.76229" lon="2.5392"><ele>98.5</ele></trkpt>
    <trkpt lat="48.76148" lon="2.54536"><ele>99.0</ele></trkpt>
    <trkpt lat="48.76149" lon="2.54563"><ele>99.1</ele></trkpt>
    <trkpt lat="48.76118" lon="2.54887"><ele>99.7</ele></trkpt>
    <trkpt lat="48.76102" lon="2.54898"><ele>99.7</ele></trkpt>
    <trkpt lat="48.7598" lon="2.54943"><ele>99.7</ele></trkpt>
    <trkpt lat="48.75927" lon="2.54957"><ele>99.8</ele></trkpt>
    <trkpt lat="48.75791" lon="2.5502"><ele>99.9</ele></trkpt>
    <trkpt lat="48.75781" lon="2.55003"><ele>99.9</ele></trkpt>
    <trkpt lat="48.75779" lon="2.54976"><ele>99.9</ele></trkpt>
    <trkpt lat="48.75786" lon="2.54957"><ele>99.9</ele></trkpt>
    <trkpt lat="48.75687" lon="2.54347"><ele>98.3</ele></trkpt>
    <trkpt lat="48.75676" lon="2.54326"><ele>98.3</ele></trkpt>
    <trkpt lat="48.75644" lon="2.54302"><ele>98.3</ele></trkpt>
    <trkpt lat="48.75628" lon="2.543"><ele>98.4</ele></trkpt>
    <trkpt lat="48.75614" lon="2.54315"><ele>98.5</ele></trkpt>
    <trkpt lat="48.75542" lon="2.54307"><ele>98.7</ele></trkpt>
    <trkpt lat="48.75527" lon="2.54311"><ele>98.8</ele></trkpt>
    <trkpt lat="48.75521" lon="2.54336"><ele>98.9</ele></trkpt>
    <trkpt lat="48.75512" lon="2.54554"><ele>99.6</ele></trkpt>
    <trkpt lat="48.75507" lon="2.54579"><ele>99.5</ele></trkpt>
    <trkpt lat="48.75349" lon="2.54759"><ele>97.7</ele></trkpt>
    <trkpt lat="48.75332" lon="2.54767"><ele>97.5</ele></trkpt>
    <trkpt lat="48.75316" lon="2.54761"><ele>97.3</ele></trkpt>
    <trkpt lat="48.74898" lon="2.54441"><ele>97.0</ele></trkpt>
    <trkpt lat="48.74894" lon="2.5442"><ele>97.0</ele></trkpt>
    <trkpt lat="48.74975" lon="2.5403"><ele>98.0</ele></trkpt>
    <trkpt lat="48.74964" lon="2.54016"><ele>98.0</ele></trkpt>
    <trkpt lat="48.74915" lon="2.53982"><ele>98.1</ele></trkpt>
    <trkpt lat="48.74908" lon="2.53931"><ele>98.1</ele></trkpt>
    <trkpt lat="48.74876" lon="2.53865"><ele>97.9</ele></trkpt>
    <trkpt lat="48.74892" lon="2.53787"><ele>97.8</ele></trkpt>
    <trkpt lat="48.74939" lon="2.53672"><ele>97.1</ele></trkpt>
    <trkpt lat="48.74967" lon="2.53571"><ele>96.5</ele></trkpt>
    <trkpt lat="48.74719" lon="2.51588"><ele>90.7</ele></trkpt>
    <trkpt lat="48.7472" lon="2.51534"><ele>90.7</ele></trkpt>
    <trkpt lat="48.74734" lon="2.51518"><ele>90.7</ele></trkpt>
    <trkpt lat="48.74842" lon="2.51335"><ele>90.4</ele></trkpt>
    <trkpt lat="48.7485" lon="2.51315"><ele>90.3</ele></trkpt>
    <trkpt lat="48.74836" lon="2.51299"><ele>90.3</ele></trkpt>
    <trkpt lat="48.74696" lon="2.51246"><ele>89.4</ele></trkpt>
    <trkpt lat="48.74485" lon="2.51181"><ele>90.2</ele></trkpt>
    <trkpt lat="48.7447" lon="2.51169"><ele>90.3</ele></trkpt>
    <trkpt lat="48.74425" lon="2.51122"><ele>90.7</ele></trkpt>
    <trkpt lat="48.74417" lon="2.511"><ele>90.8</ele></trkpt>
    <trkpt lat="48.74386" lon="2.51084"><ele>90.9</ele></trkpt>
    <trkpt lat="48.7412" lon="2.50758"><ele>92.1</ele></trkpt>
    <trkpt lat="48.74015" lon="2.50653"><ele>92.6</ele></trkpt>
    <trkpt lat="48.73912" lon="2.50501"><ele>92.4</ele></trkpt>
    <trkpt lat="48.73897" lon="2.50491"><ele>92.4</ele></trkpt>
    <trkpt lat="48.73798" lon="2.50557"><ele>92.0</ele></trkpt>
    <trkpt lat="48.73693" lon="2.5066"><ele>91.4</ele></trkpt>
    <trkpt lat="48.73641" lon="2.50679"><ele>91.4</ele></trkpt>
    <trkpt lat="48.73523" lon="2.50846"><ele>91.8</ele></trkpt>
    <trkpt lat="48.73472" lon="2.50956"><ele>92.2</ele></trkpt>
    <trkpt lat="48.73455" lon="2.50955"><ele>92.3</ele></trkpt>
    <trkpt lat="48.73193" lon="2.50858"><ele>94.3</ele></trkpt>
    <trkpt lat="48.73139" lon="2.5085"><ele>95.5</ele></trkpt>
    <trkpt lat="48.7305" lon="2.50857"><ele>98.1</ele></trkpt>
    <trkpt lat="48.73032" lon="2.50853"><ele>98.5</ele></trkpt>
    <trkpt lat="48.72947" lon="2.50808"><ele>101.2</ele></trkpt>
    <trkpt lat="48.72873" lon="2.50733"><ele>103.6</ele></trkpt>
    <trkpt lat="48.72858" lon="2.50739"><ele>104.0</ele></trkpt>
    <trkpt lat="48.72835" lon="2.50781"><ele>105.1</ele></trkpt>
    <trkpt lat="48.72818" lon="2.50793"><ele>105.7</ele></trkpt>
    <trkpt lat="48.72751" lon="2.50828"><ele>107.2</ele></trkpt>
    <trkpt lat="48.72663" lon="2.5086"><ele>108.5</ele></trkpt>
    <trkpt lat="48.72448" lon="2.50871"><ele>111.3</ele></trkpt>
    <trkpt lat="48.72384" lon="2.50921"><ele>111.6</ele></trkpt>
    <trkpt lat="48.72373" lon="2.50942"><ele>111.7</ele></trkpt>
    <trkpt lat="48.72361" lon="2.50993"><ele>111.7</ele></trkpt>
    <trkpt lat="48.7231" lon="2.51137"><ele>110.9</ele></trkpt>
    <trkpt lat="48.72306" lon="2.51162"><ele>110.6</ele></trkpt>
    <trkpt lat="48.72316" lon="2.51185"><ele>110.2</ele></trkpt>
    <trkpt lat="48.72342" lon="2.51222"><ele>109.5</ele></trkpt>
    <trkpt lat="48.72585" lon="2.51546"><ele>104.7</ele></trkpt>
    <trkpt lat="48.72592" lon="2.51567"><ele>104.4</ele></trkpt>
    <trkpt lat="48.72576" lon="2.51611"><ele>103.9</ele></trkpt>
    <trkpt lat="48.72255" lon="2.51669"><ele>97.6</ele></trkpt>
    <trkpt lat="48.71986" lon="2.51701"><ele>88.7</ele></trkpt>
    <trkpt lat="48.71736" lon="2.51749"><ele>79.9</ele></trkpt>
    <trkpt lat="48.71601" lon="2.51819"><ele>73.2</ele></trkpt>
    <trkpt lat="48.71588" lon="2.51808"><ele>72.0</ele></trkpt>
    <trkpt lat="48.71574" lon="2.51759"><ele>70.0</ele></trkpt>
    <trkpt lat="48.7156" lon="2.51752"><ele>68.8</ele></trkpt>
    <trkpt lat="48.71545" lon="2.51765"><ele>67.6</ele></trkpt>
    <trkpt lat="48.71536" lon="2.51788"><ele>66.6</ele></trkpt>
    <trkpt lat="48.71533" lon="2.51814"><ele>65.5</ele></trkpt>
    <trkpt lat="48.71525" lon="2.51837"><ele>64.4</ele></trkpt>
    <trkpt lat="48.71498" lon="2.51874"><ele>62.2</ele></trkpt>
    <trkpt lat="48.71439" lon="2.51936"><ele>57.1</ele></trkpt>
    <trkpt lat="48.71422" lon="2.51942"><ele>55.9</ele></trkpt>
    <trkpt lat="48.71405" lon="2.51934"><ele>54.9</ele></trkpt>
    <trkpt lat="48.71391" lon="2.51918"><ele>54.2</ele></trkpt>
    <trkpt lat="48.71361" lon="2.5182"><ele>53.1</ele></trkpt>
    <trkpt lat="48.71362" lon="2.51766"><ele>52.9</ele></trkpt>
    <trkpt lat="48.71353" lon="2.51714"><ele>52.8</ele></trkpt>
    <trkpt lat="48.71305" lon="2.51598"><ele>52.6</ele></trkpt>
    <trkpt lat="48.71271" lon="2.51443"><ele>52.3</ele></trkpt>
    <trkpt lat="48.71259" lon="2.51423"><ele>52.2</ele></trkpt>
    <trkpt lat="48.71252" lon="2.51398"><ele>52.0</ele></trkpt>
    <trkpt lat="48.71247" lon="2.51344"><ele>51.5</ele></trkpt>
    <trkpt lat="48.71272" lon="2.51272"><ele>50.8</ele></trkpt>
    <trkpt lat="48.71277" lon="2.51192"><ele>50.2</ele></trkpt>
    <trkpt lat="48.71254" lon="2.51032"><ele>49.4</ele></trkpt>
    <trkpt lat="48.71243" lon="2.50897"><ele>49.1</ele></trkpt>
    <trkpt lat="48.71231" lon="2.50817"><ele>49.0</ele></trkpt>
    <trkpt lat="48.71224" lon="2.50792"><ele>48.9</ele></trkpt>
    <trkpt lat="48.71177" lon="2.5071"><ele>48.7</ele></trkpt>
    <trkpt lat="48.71177" lon="2.50683"><ele>48.6</ele></trkpt>
    <trkpt lat="48.71193" lon="2.50605"><ele>48.2</ele></trkpt>
    <trkpt lat="48.71194" lon="2.50578"><ele>48.0</ele></trkpt>
    <trkpt lat="48.71184" lon="2.50526"><ele>47.6</ele></trkpt>
    <trkpt lat="48.71164" lon="2.50481"><ele>47.0</ele></trkpt>
    <trkpt lat="48.71151" lon="2.50464"><ele>46.7</ele></trkpt>
    <trkpt lat="48.71099" lon="2.50443"><ele>45.6</ele></trkpt>
    <trkpt lat="48.71084" lon="2.50429"><ele>45.1</ele></trkpt>
    <trkpt lat="48.71068" lon="2.5038"><ele>44.2</ele></trkpt>
    <trkpt lat="48.71059" lon="2.50328"><ele>43.4</ele></trkpt>
    <trkpt lat="48.7105" lon="2.5031"><ele>43.0</ele></trkpt>
    <trkpt lat="48.71032" lon="2.50308"><ele>42.6</ele></trkpt>
    <trkpt lat="48.71017" lon="2.50296"><ele>42.3</ele></trkpt>
    <trkpt lat="48.70988" lon="2.50228"><ele>41.5</ele></trkpt>
    <trkpt lat="48.70958" lon="2.50208"><ele>41.0</ele></trkpt>
    <trkpt lat="48.70931" lon="2.50139"><ele>40.6</ele></trkpt>
    <trkpt lat="48.70941" lon="2.50117"><ele>40.6</ele></trkpt>
    <trkpt lat="48.7094" lon="2.50091"><ele>40.6</ele></trkpt>
    <trkpt lat="48.70916" lon="2.50018"><ele>40.6</ele></trkpt>
    <trkpt lat="48.70914" lon="2.49991"><ele>40.6</ele></trkpt>
    <trkpt lat="48.70931" lon="2.49944"><ele>40.6</ele></trkpt>
    <trkpt lat="48.70976" lon="2.49898"><ele>40.5</ele></trkpt>
    <trkpt lat="48.70985" lon="2.49883"><ele>40.4</ele></trkpt>
    <trkpt lat="48.70909" lon="2.49809"><ele>39.5</ele></trkpt>
    <trkpt lat="48.70877" lon="2.49786"><ele>39.0</ele></trkpt>
    <trkpt lat="48.70841" lon="2.49783"><ele>38.7</ele></trkpt>
    <trkpt lat="48.70775" lon="2.49825"><ele>38.3</ele></trkpt>
    <trkpt lat="48.70758" lon="2.49826"><ele>38.2</ele></trkpt>
    <trkpt lat="48.70727" lon="2.49799"><ele>38.4</ele></trkpt>
    <trkpt lat="48.70718" lon="2.49775"><ele>38.5</ele></trkpt>
    <trkpt lat="48.70708" lon="2.49723"><ele>38.8</ele></trkpt>
    <trkpt lat="48.70705" lon="2.49721"><ele>38.8</ele></trkpt>
    <trkpt lat="48.70706" lon="2.49748"><ele>38.9</ele></trkpt>
    <trkpt lat="48.7068" lon="2.49777"><ele>39.2</ele></trkpt>
    <trkpt lat="48.70663" lon="2.49774"><ele>39.4</ele></trkpt>
    <trkpt lat="48.70632" lon="2.49758"><ele>39.6</ele></trkpt>
    <trkpt lat="48.70628" lon="2.49733"><ele>39.7</ele></trkpt>
    <trkpt lat="48.70614" lon="2.49718"><ele>39.7</ele></trkpt>
    <trkpt lat="48.70596" lon="2.49714"><ele>39.8</ele></trkpt>
    <trkpt lat="48.70548" lon="2.49679"><ele>39.8</ele></trkpt>
    <trkpt lat="48.70531" lon="2.49671"><ele>39.7</ele></trkpt>
    <trkpt lat="48.70477" lon="2.49673"><ele>39.2</ele></trkpt>
    <trkpt lat="48.70442" lon="2.49663"><ele>39.0</ele></trkpt>
    <trkpt lat="48.70414" lon="2.49632"><ele>38.7</ele></trkpt>
    <trkpt lat="48.70403" lon="2.49611"><ele>38.6</ele></trkpt>
    <trkpt lat="48.70406" lon="2.4953"><ele>38.4</ele></trkpt>
    <trkpt lat="48.70399" lon="2.49506"><ele>38.4</ele></trkpt>
    <trkpt lat="48.70389" lon="2.49483"><ele>38.4</ele></trkpt>
    <trkpt lat="48.70376" lon="2.49466"><ele>38.4</ele></trkpt>
    <trkpt lat="48.70358" lon="2.49459"><ele>38.4</ele></trkpt>
    <trkpt lat="48.70323" lon="2.4945"><ele>38.4</ele></trkpt>
    <trkpt lat="48.70287" lon="2.49454"><ele>38.5</ele></trkpt>
    <trkpt lat="48.7027" lon="2.49447"><ele>38.5</ele></trkpt>
    <trkpt lat="48.70216" lon="2.49444"><ele>38.6</ele></trkpt>
    <trkpt lat="48.70186" lon="2.4947"><ele>38.5</ele></trkpt>
    <trkpt lat="48.70153" lon="2.49408"><ele>38.4</ele></trkpt>
    <trkpt lat="48.70068" lon="2.49499"><ele>38.2</ele></trkpt>
    <trkpt lat="48.70038" lon="2.49566"><ele>38.1</ele></trkpt>
    <trkpt lat="48.70022" lon="2.49575"><ele>38.1</ele></trkpt>
    <trkpt lat="48.70005" lon="2.49567"><ele>38.2</ele></trkpt>
    <trkpt lat="48.69988" lon="2.49519"><ele>38.2</ele></trkpt>
    <trkpt lat="48.69973" lon="2.49504"><ele>38.2</ele></trkpt>
    <trkpt lat="48.69938" lon="2.49495"><ele>38.1</ele></trkpt>
    <trkpt lat="48.6992" lon="2.49501"><ele>38.0</ele></trkpt>
    <trkpt lat="48.69879" lon="2.49553"><ele>37.7</ele></trkpt>
    <trkpt lat="48.69874" lon="2.49578"><ele>37.6</ele></trkpt>
    <trkpt lat="48.69887" lon="2.49628"><ele>37.4</ele></trkpt>
    <trkpt lat="48.69914" lon="2.49661"><ele>37.2</ele></trkpt>
    <trkpt lat="48.69907" lon="2.49682"><ele>37.1</ele></trkpt>
    <trkpt lat="48.69857" lon="2.49761"><ele>37.4</ele></trkpt>
    <trkpt lat="48.69816" lon="2.49814"><ele>37.9</ele></trkpt>
    <trkpt lat="48.69685" lon="2.50038"><ele>38.9</ele></trkpt>
    <trkpt lat="48.69645" lon="2.5009"><ele>39.1</ele></trkpt>
    <trkpt lat="48.69604" lon="2.50211"><ele>39.4</ele></trkpt>
    <trkpt lat="48.69581" lon="2.50252"><ele>39.6</ele></trkpt>
    <trkpt lat="48.69577" lon="2.50278"><ele>39.8</ele></trkpt>
    <trkpt lat="48.69589" lon="2.50296"><ele>39.9</ele></trkpt>
    <trkpt lat="48.69619" lon="2.5032"><ele>40.2</ele></trkpt>
    <trkpt lat="48.696" lon="2.50453"><ele>40.7</ele></trkpt>
    <trkpt lat="48.69597" lon="2.50507"><ele>40.9</ele></trkpt>
    <trkpt lat="48.69609" lon="2.50697"><ele>41.0</ele></trkpt>
    <trkpt lat="48.69614" lon="2.5086"><ele>41.0</ele></trkpt>
    <trkpt lat="48.69624" lon="2.5094"><ele>40.8</ele></trkpt>
    <trkpt lat="48.69662" lon="2.51121"><ele>40.3</ele></trkpt>
    <trkpt lat="48.69657" lon="2.51172"><ele>40.1</ele></trkpt>
    <trkpt lat="48.69689" lon="2.51236"><ele>39.8</ele></trkpt>
    <trkpt lat="48.69718" lon="2.51364"><ele>39.8</ele></trkpt>
    <trkpt lat="48.69739" lon="2.51605"><ele>40.8</ele></trkpt>
    <trkpt lat="48.69739" lon="2.51659"><ele>41.1</ele></trkpt>
    <trkpt lat="48.6973" lon="2.5168"><ele>41.2</ele></trkpt>
    <trkpt lat="48.6973" lon="2.51706"><ele>41.3</ele></trkpt>
    <trkpt lat="48.69768" lon="2.51763"><ele>41.6</ele></trkpt>
    <trkpt lat="48.69789" lon="2.51807"><ele>41.7</ele></trkpt>
    <trkpt lat="48.69817" lon="2.51841"><ele>41.7</ele></trkpt>
    <trkpt lat="48.69834" lon="2.51851"><ele>41.7</ele></trkpt>
    <trkpt lat="48.69923" lon="2.51943"><ele>41.7</ele></trkpt>
    <trkpt lat="48.69935" lon="2.51963"><ele>41.7</ele></trkpt>
    <trkpt lat="48.6994" lon="2.51989"><ele>41.7</ele></trkpt>
    <trkpt lat="48.70055" lon="2.52118"><ele>41.4</ele></trkpt>
    <trkpt lat="48.70093" lon="2.52177"><ele>41.1</ele></trkpt>
    <trkpt lat="48.70102" lon="2.522"><ele>41.0</ele></trkpt>
    <trkpt lat="48.70136" lon="2.52218"><ele>40.7</ele></trkpt>
    <trkpt lat="48.70199" lon="2.52271"><ele>40.2</ele></trkpt>
    <trkpt lat="48.70306" lon="2.52265"><ele>39.5</ele></trkpt>
    <trkpt lat="48.70378" lon="2.52276"><ele>39.3</ele></trkpt>
    <trkpt lat="48.70463" lon="2.52317"><ele>39.5</ele></trkpt>
    <trkpt lat="48.70477" lon="2.52332"><ele>39.6</ele></trkpt>
    <trkpt lat="48.705" lon="2.52406"><ele>39.8</ele></trkpt>
    <trkpt lat="48.70507" lon="2.52459"><ele>39.9</ele></trkpt>
    <trkpt lat="48.70505" lon="2.52487"><ele>39.9</ele></trkpt>
    <trkpt lat="48.70493" lon="2.52538"><ele>39.9</ele></trkpt>
    <trkpt lat="48.70472" lon="2.52581"><ele>39.8</ele></trkpt>
    <trkpt lat="48.7045" lon="2.52684"><ele>39.7</ele></trkpt>
    <trkpt lat="48.70432" lon="2.52732"><ele>39.7</ele></trkpt>
    <trkpt lat="48.70384" lon="2.52812"><ele>39.7</ele></trkpt>
    <trkpt lat="48.70355" lon="2.52843"><ele>39.7</ele></trkpt>
    <trkpt lat="48.70272" lon="2.52897"><ele>39.9</ele></trkpt>
    <trkpt lat="48.7022" lon="2.52918"><ele>40.0</ele></trkpt>
    <trkpt lat="48.70171" lon="2.52949"><ele>40.1</ele></trkpt>
    <trkpt lat="48.70109" lon="2.53005"><ele>40.5</ele></trkpt>
    <trkpt lat="48.70009" lon="2.53063"><ele>41.0</ele></trkpt>
    <trkpt lat="48.69881" lon="2.5316"><ele>41.0</ele></trkpt>
    <trkpt lat="48.6983" lon="2.53186"><ele>40.8</ele></trkpt>
    <trkpt lat="48.69813" lon="2.53181"><ele>40.7</ele></trkpt>
    <trkpt lat="48.69766" lon="2.53141"><ele>40.5</ele></trkpt>
    <trkpt lat="48.69714" lon="2.53122"><ele>40.3</ele></trkpt>
    <trkpt lat="48.69664" lon="2.53092"><ele>40.2</ele></trkpt>
    <trkpt lat="48.69628" lon="2.53089"><ele>40.2</ele></trkpt>
    <trkpt lat="48.69612" lon="2.5308"><ele>40.3</ele></trkpt>
    <trkpt lat="48.69582" lon="2.53051"><ele>40.3</ele></trkpt>
    <trkpt lat="48.69482" lon="2.52992"><ele>40.6</ele></trkpt>
    <trkpt lat="48.69467" lon="2.52977"><ele>40.6</ele></trkpt>
    <trkpt lat="48.69432" lon="2.52883"><ele>40.7</ele></trkpt>
    <trkpt lat="48.69369" lon="2.52786"><ele>40.8</ele></trkpt>
    <trkpt lat="48.69363" lon="2.52761"><ele>40.8</ele></trkpt>
    <trkpt lat="48.69358" lon="2.52626"><ele>40.9</ele></trkpt>
    <trkpt lat="48.69342" lon="2.5252"><ele>41.0</ele></trkpt>
    <trkpt lat="48.69333" lon="2.52497"><ele>41.0</ele></trkpt>
    <trkpt lat="48.69276" lon="2.52431"><ele>41.1</ele></trkpt>
    <trkpt lat="48.69195" lon="2.52374"><ele>41.2</ele></trkpt>
    <trkpt lat="48.69176" lon="2.52328"><ele>41.2</ele></trkpt>
    <trkpt lat="48.69131" lon="2.5215"><ele>41.0</ele></trkpt>
    <trkpt lat="48.69121" lon="2.52127"><ele>40.9</ele></trkpt>
    <trkpt lat="48.69106" lon="2.52138"><ele>40.8</ele></trkpt>
    <trkpt lat="48.6909" lon="2.52133"><ele>40.7</ele></trkpt>
    <trkpt lat="48.69059" lon="2.52105"><ele>40.5</ele></trkpt>
    <trkpt lat="48.69009" lon="2.52077"><ele>40.3</ele></trkpt>
    <trkpt lat="48.68974" lon="2.52068"><ele>40.3</ele></trkpt>
    <trkpt lat="48.68956" lon="2.52074"><ele>40.3</ele></trkpt>
    <trkpt lat="48.68924" lon="2.52099"><ele>40.5</ele></trkpt>
    <trkpt lat="48.68911" lon="2.52117"><ele>40.6</ele></trkpt>
    <trkpt lat="48.6882" lon="2.52286"><ele>41.8</ele></trkpt>
    <trkpt lat="48.68807" lon="2.52302"><ele>42.0</ele></trkpt>
    <trkpt lat="48.6879" lon="2.52303"><ele>42.2</ele></trkpt>
    <trkpt lat="48.68739" lon="2.52276"><ele>42.8</ele></trkpt>
    <trkpt lat="48.68731" lon="2.52293"><ele>42.9</ele></trkpt>
    <trkpt lat="48.68737" lon="2.52372"><ele>43.2</ele></trkpt>
    <trkpt lat="48.68726" lon="2.52452"><ele>43.3</ele></trkpt>
    <trkpt lat="48.68727" lon="2.52479"><ele>43.4</ele></trkpt>
    <trkpt lat="48.6874" lon="2.52528"><ele>43.4</ele></trkpt>
    <trkpt lat="48.68741" lon="2.52555"><ele>43.5</ele></trkpt>
    <trkpt lat="48.68733" lon="2.52608"><ele>43.5</ele></trkpt>
    <trkpt lat="48.68732" lon="2.52662"><ele>43.6</ele></trkpt>
    <trkpt lat="48.68733" lon="2.52689"><ele>43.7</ele></trkpt>
    <trkpt lat="48.68746" lon="2.5274"><ele>43.8</ele></trkpt>
    <trkpt lat="48.68729" lon="2.52846"><ele>43.9</ele></trkpt>
    <trkpt lat="48.6873" lon="2.52873"><ele>43.9</ele></trkpt>
    <trkpt lat="48.68736" lon="2.52898"><ele>43.9</ele></trkpt>
    <trkpt lat="48.68749" lon="2.52918"><ele>43.8</ele></trkpt>
    <trkpt lat="48.68781" lon="2.52941"><ele>43.7</ele></trkpt>
    <trkpt lat="48.68768" lon="2.52956"><ele>43.7</ele></trkpt>
    <trkpt lat="48.68751" lon="2.52961"><ele>43.7</ele></trkpt>
    <trkpt lat="48.6874" lon="2.52981"><ele>43.7</ele></trkpt>
    <trkpt lat="48.68766" lon="2.53082"><ele>43.7</ele></trkpt>
    <trkpt lat="48.6881" lon="2.53162"><ele>44.0</ele></trkpt>
    <trkpt lat="48.68798" lon="2.5318"><ele>44.1</ele></trkpt>
    <trkpt lat="48.68745" lon="2.532"><ele>44.4</ele></trkpt>
    <trkpt lat="48.68737" lon="2.53218"><ele>44.5</ele></trkpt>
    <trkpt lat="48.68754" lon="2.53379"><ele>45.0</ele></trkpt>
    <trkpt lat="48.68762" lon="2.53391"><ele>45.1</ele></trkpt>
    <trkpt lat="48.68856" lon="2.5331"><ele>45.3</ele></trkpt>
    <trkpt lat="48.68868" lon="2.53317"><ele>45.4</ele></trkpt>
    <trkpt lat="48.68901" lon="2.53413"><ele>45.7</ele></trkpt>
    <trkpt lat="48.68941" lon="2.53467"><ele>46.4</ele></trkpt>
    <trkpt lat="48.68953" lon="2.5346"><ele>46.7</ele></trkpt>
    <trkpt lat="48.68953" lon="2.53406"><ele>47.3</ele></trkpt>
    <trkpt lat="48.68965" lon="2.53387"><ele>47.6</ele></trkpt>
    <trkpt lat="48.6898" lon="2.534"><ele>48.0</ele></trkpt>
    <trkpt lat="48.68999" lon="2.53445"><ele>48.7</ele></trkpt>
    <trkpt lat="48.69023" lon="2.53485"><ele>49.4</ele></trkpt>
    <trkpt lat="48.69058" lon="2.53581"><ele>51.0</ele></trkpt>
    <trkpt lat="48.69092" lon="2.53643"><ele>52.0</ele></trkpt>
    <trkpt lat="48.6912" lon="2.53713"><ele>52.9</ele></trkpt>
    <trkpt lat="48.69133" lon="2.5373"><ele>53.1</ele></trkpt>
    <trkpt lat="48.69166" lon="2.53745"><ele>53.5</ele></trkpt>
    <trkpt lat="48.69175" lon="2.53768"><ele>53.7</ele></trkpt>
    <trkpt lat="48.69183" lon="2.53847"><ele>54.0</ele></trkpt>
    <trkpt lat="48.69162" lon="2.53889"><ele>53.9</ele></trkpt>
    <trkpt lat="48.69167" lon="2.53913"><ele>53.8</ele></trkpt>
    <trkpt lat="48.69219" lon="2.54024"><ele>53.1</ele></trkpt>
    <trkpt lat="48.69269" lon="2.54101"><ele>53.5</ele></trkpt>
    <trkpt lat="48.69271" lon="2.54128"><ele>53.7</ele></trkpt>
    <trkpt lat="48.69257" lon="2.54143"><ele>54.0</ele></trkpt>
    <trkpt lat="48.69251" lon="2.54167"><ele>54.4</ele></trkpt>
    <trkpt lat="48.69278" lon="2.54238"><ele>55.6</ele></trkpt>
    <trkpt lat="48.6929" lon="2.54256"><ele>56.2</ele></trkpt>
    <trkpt lat="48.69344" lon="2.54263"><ele>58.4</ele></trkpt>
    <trkpt lat="48.69359" lon="2.54277"><ele>59.2</ele></trkpt>
    <trkpt lat="48.69399" lon="2.54332"><ele>61.7</ele></trkpt>
    <trkpt lat="48.69403" lon="2.54357"><ele>62.5</ele></trkpt>
    <trkpt lat="48.69401" lon="2.5441"><ele>63.6</ele></trkpt>
    <trkpt lat="48.69449" lon="2.54644"><ele>62.3</ele></trkpt>
    <trkpt lat="48.69439" lon="2.54656"><ele>61.7</ele></trkpt>
    <trkpt lat="48.69403" lon="2.5466"><ele>60.3</ele></trkpt>
    <trkpt lat="48.69388" lon="2.54672"><ele>59.5</ele></trkpt>
    <trkpt lat="48.6938" lon="2.54694"><ele>58.6</ele></trkpt>
    <trkpt lat="48.69364" lon="2.54801"><ele>55.0</ele></trkpt>
    <trkpt lat="48.69357" lon="2.54825"><ele>54.2</ele></trkpt>
    <trkpt lat="48.69333" lon="2.54866"><ele>52.8</ele></trkpt>
    <trkpt lat="48.69242" lon="2.54954"><ele>49.7</ele></trkpt>
    <trkpt lat="48.69194" lon="2.54989"><ele>48.7</ele></trkpt>
    <trkpt lat="48.69078" lon="2.55117"><ele>47.7</ele></trkpt>
    <trkpt lat="48.69062" lon="2.55128"><ele>47.6</ele></trkpt>
    <trkpt lat="48.69026" lon="2.55128"><ele>47.2</ele></trkpt>
    <trkpt lat="48.68993" lon="2.55108"><ele>46.6</ele></trkpt>
    <trkpt lat="48.68966" lon="2.55073"><ele>46.0</ele></trkpt>
    <trkpt lat="48.68915" lon="2.54961"><ele>44.7</ele></trkpt>
    <trkpt lat="48.6889" lon="2.54921"><ele>44.6</ele></trkpt>
    <trkpt lat="48.68875" lon="2.54908"><ele>44.6</ele></trkpt>
    <trkpt lat="48.6884" lon="2.54894"><ele>44.8</ele></trkpt>
    <trkpt lat="48.6881" lon="2.54865"><ele>45.1</ele></trkpt>
    <trkpt lat="48.68793" lon="2.54858"><ele>45.4</ele></trkpt>
    <trkpt lat="48.68723" lon="2.54836"><ele>47.1</ele></trkpt>
    <trkpt lat="48.68709" lon="2.5485"><ele>47.6</ele></trkpt>
    <trkpt lat="48.68664" lon="2.54936"><ele>49.9</ele></trkpt>
    <trkpt lat="48.68559" lon="2.54903"><ele>52.1</ele></trkpt>
    <trkpt lat="48.68545" lon="2.54915"><ele>52.2</ele></trkpt>
    <trkpt lat="48.68536" lon="2.54937"><ele>52.3</ele></trkpt>
    <trkpt lat="48.6852" lon="2.54934"><ele>52.4</ele></trkpt>
    <trkpt lat="48.68488" lon="2.54908"><ele>52.3</ele></trkpt>
    <trkpt lat="48.68473" lon="2.54894"><ele>52.2</ele></trkpt>
    <trkpt lat="48.68474" lon="2.54871"><ele>51.9</ele></trkpt>
    <trkpt lat="48.68509" lon="2.54745"><ele>50.2</ele></trkpt>
    <trkpt lat="48.68506" lon="2.5472"><ele>49.9</ele></trkpt>
    <trkpt lat="48.68338" lon="2.54622"><ele>48.7</ele></trkpt>
    <trkpt lat="48.68337" lon="2.54597"><ele>48.6</ele></trkpt>
    <trkpt lat="48.68357" lon="2.54493"><ele>48.2</ele></trkpt>
    <trkpt lat="48.68344" lon="2.54479"><ele>48.2</ele></trkpt>
    <trkpt lat="48.68039" lon="2.54443"><ele>49.3</ele></trkpt>
    <trkpt lat="48.68003" lon="2.54441"><ele>49.9</ele></trkpt>
    <trkpt lat="48.67988" lon="2.54449"><ele>50.4</ele></trkpt>
    <trkpt lat="48.67988" lon="2.54749"><ele>57.2</ele></trkpt>
    <trkpt lat="48.67941" lon="2.54896"><ele>62.6</ele></trkpt>
    <trkpt lat="48.67925" lon="2.55002"><ele>66.6</ele></trkpt>
    <trkpt lat="48.67878" lon="2.55179"><ele>71.0</ele></trkpt>
    <trkpt lat="48.67851" lon="2.55337"><ele>71.4</ele></trkpt>
    <trkpt lat="48.67842" lon="2.55417"><ele>69.3</ele></trkpt>
    <trkpt lat="48.6778" lon="2.55551"><ele>63.5</ele></trkpt>
    <trkpt lat="48.67776" lon="2.55577"><ele>62.5</ele></trkpt>
    <trkpt lat="48.67793" lon="2.55653"><ele>59.4</ele></trkpt>
    <trkpt lat="48.6779" lon="2.55679"><ele>58.3</ele></trkpt>
    <trkpt lat="48.67772" lon="2.55726"><ele>56.1</ele></trkpt>
    <trkpt lat="48.67741" lon="2.55793"><ele>53.1</ele></trkpt>
    <trkpt lat="48.67729" lon="2.55807"><ele>52.4</ele></trkpt>
    <trkpt lat="48.67715" lon="2.55791"><ele>51.8</ele></trkpt>
    <trkpt lat="48.67701" lon="2.55791"><ele>51.4</ele></trkpt>
    <trkpt lat="48.67604" lon="2.55951"><ele>49.0</ele></trkpt>
    <trkpt lat="48.67511" lon="2.56034"><ele>48.7</ele></trkpt>
    <trkpt lat="48.67422" lon="2.56127"><ele>49.6</ele></trkpt>
    <trkpt lat="48.67398" lon="2.56167"><ele>50.1</ele></trkpt>
    <trkpt lat="48.67328" lon="2.56325"><ele>51.8</ele></trkpt>
    <trkpt lat="48.67283" lon="2.5641"><ele>52.9</ele></trkpt>
    <trkpt lat="48.67242" lon="2.56463"><ele>53.5</ele></trkpt>
    <trkpt lat="48.67149" lon="2.56544"><ele>54.4</ele></trkpt>
    <trkpt lat="48.67026" lon="2.56744"><ele>53.8</ele></trkpt>
    <trkpt lat="48.66926" lon="2.56936"><ele>51.5</ele></trkpt>
    <trkpt lat="48.66909" lon="2.56984"><ele>51.0</ele></trkpt>
    <trkpt lat="48.66891" lon="2.57061"><ele>50.6</ele></trkpt>
    <trkpt lat="48.66888" lon="2.57087"><ele>50.6</ele></trkpt>
    <trkpt lat="48.66898" lon="2.57099"><ele>50.7</ele></trkpt>
    <trkpt lat="48.66916" lon="2.57098"><ele>50.9</ele></trkpt>
    <trkpt lat="48.66987" lon="2.57082"><ele>51.7</ele></trkpt>
    <trkpt lat="48.67125" lon="2.5702"><ele>53.9</ele></trkpt>
    <trkpt lat="48.67231" lon="2.56991"><ele>55.2</ele></trkpt>
    <trkpt lat="48.675" lon="2.56991"><ele>58.8</ele></trkpt>
    <trkpt lat="48.67603" lon="2.5704"><ele>61.6</ele></trkpt>
    <trkpt lat="48.67728" lon="2.57195"><ele>68.1</ele></trkpt>
    <trkpt lat="48.67762" lon="2.57211"><ele>69.8</ele></trkpt>
    <trkpt lat="48.67809" lon="2.57251"><ele>72.4</ele></trkpt>
    <trkpt lat="48.67861" lon="2.57326"><ele>75.4</ele></trkpt>
    <trkpt lat="48.67869" lon="2.5735"><ele>76.1</ele></trkpt>
    <trkpt lat="48.67893" lon="2.57481"><ele>78.9</ele></trkpt>
    <trkpt lat="48.67921" lon="2.57695"><ele>81.7</ele></trkpt>
    <trkpt lat="48.67928" lon="2.57719"><ele>82.0</ele></trkpt>
    <trkpt lat="48.67958" lon="2.57746"><ele>82.6</ele></trkpt>
    <trkpt lat="48.67964" lon="2.578"><ele>83.0</ele></trkpt>
    <trkpt lat="48.67989" lon="2.57872"><ele>83.4</ele></trkpt>
    <trkpt lat="48.67991" lon="2.57926"><ele>83.5</ele></trkpt>
    <trkpt lat="48.67973" lon="2.58197"><ele>83.1</ele></trkpt>
    <trkpt lat="48.6797" lon="2.58306"><ele>82.8</ele></trkpt>
    <trkpt lat="48.67947" lon="2.58409"><ele>82.5</ele></trkpt>
    <trkpt lat="48.67909" lon="2.58532"><ele>82.4</ele></trkpt>
    <trkpt lat="48.67775" lon="2.58788"><ele>82.5</ele></trkpt>
    <trkpt lat="48.67766" lon="2.58811"><ele>82.5</ele></trkpt>
    <trkpt lat="48.67766" lon="2.58837"><ele>82.4</ele></trkpt>
    <trkpt lat="48.67778" lon="2.58857"><ele>82.3</ele></trkpt>
    <trkpt lat="48.67988" lon="2.59066"><ele>80.0</ele></trkpt>
    <trkpt lat="48.68001" lon="2.59083"><ele>79.8</ele></trkpt>
    <trkpt lat="48.67996" lon="2.59107"><ele>79.6</ele></trkpt>
    <trkpt lat="48.67943" lon="2.59181"><ele>78.8</ele></trkpt>
    <trkpt lat="48.67882" lon="2.59239"><ele>78.1</ele></trkpt>
    <trkpt lat="48.67848" lon="2.59254"><ele>77.6</ele></trkpt>
    <trkpt lat="48.67794" lon="2.59261"><ele>76.6</ele></trkpt>
    <trkpt lat="48.67686" lon="2.59254"><ele>74.1</ele></trkpt>
    <trkpt lat="48.6758" lon="2.59225"><ele>70.6</ele></trkpt>
    <trkpt lat="48.67544" lon="2.59221"><ele>69.3</ele></trkpt>
    <trkpt lat="48.67508" lon="2.59223"><ele>68.0</ele></trkpt>
    <trkpt lat="48.67421" lon="2.59254"><ele>65.3</ele></trkpt>
    <trkpt lat="48.67367" lon="2.59257"><ele>63.8</ele></trkpt>
    <trkpt lat="48.67332" lon="2.59245"><ele>62.9</ele></trkpt>
    <trkpt lat="48.67129" lon="2.59138"><ele>60.7</ele></trkpt>
    <trkpt lat="48.67076" lon="2.59124"><ele>60.7</ele></trkpt>
    <trkpt lat="48.67022" lon="2.59128"><ele>60.9</ele></trkpt>
    <trkpt lat="48.6699" lon="2.59151"><ele>61.0</ele></trkpt>
    <trkpt lat="48.66951" lon="2.59207"><ele>61.0</ele></trkpt>
    <trkpt lat="48.66861" lon="2.59377"><ele>60.3</ele></trkpt>
    <trkpt lat="48.66818" lon="2.59496"><ele>60.2</ele></trkpt>
    <trkpt lat="48.66819" lon="2.5952"><ele>60.2</ele></trkpt>
    <trkpt lat="48.66907" lon="2.59615"><ele>60.9</ele></trkpt>
    <trkpt lat="48.67031" lon="2.59771"><ele>64.2</ele></trkpt>
    <trkpt lat="48.67064" lon="2.59835"><ele>66.1</ele></trkpt>
    <trkpt lat="48.67078" lon="2.59853"><ele>66.7</ele></trkpt>
    <trkpt lat="48.67175" lon="2.59923"><ele>70.7</ele></trkpt>
    <trkpt lat="48.67245" lon="2.59944"><ele>73.4</ele></trkpt>
    <trkpt lat="48.67279" lon="2.59963"><ele>74.6</ele></trkpt>
    <trkpt lat="48.67309" lon="2.59992"><ele>75.6</ele></trkpt>
    <trkpt lat="48.6732" lon="2.60013"><ele>75.9</ele></trkpt>
    <trkpt lat="48.67353" lon="2.6011"><ele>76.6</ele></trkpt>
    <trkpt lat="48.67427" lon="2.60358"><ele>76.7</ele></trkpt>
    <trkpt lat="48.67458" lon="2.60486"><ele>77.0</ele></trkpt>
    <trkpt lat="48.67469" lon="2.6073"><ele>77.6</ele></trkpt>
    <trkpt lat="48.67472" lon="2.60839"><ele>77.9</ele></trkpt>
    <trkpt lat="48.67467" lon="2.6092"><ele>78.3</ele></trkpt>
    <trkpt lat="48.67474" lon="2.61028"><ele>79.2</ele></trkpt>
    <trkpt lat="48.67487" lon="2.61029"><ele>79.6</ele></trkpt>
    <trkpt lat="48.67521" lon="2.61012"><ele>80.5</ele></trkpt>
    <trkpt lat="48.67602" lon="2.60952"><ele>83.7</ele></trkpt>
    <trkpt lat="48.67683" lon="2.60808"><ele>87.5</ele></trkpt>
    <trkpt lat="48.67699" lon="2.60796"><ele>87.8</ele></trkpt>
    <trkpt lat="48.67734" lon="2.60792"><ele>88.5</ele></trkpt>
    <trkpt lat="48.67752" lon="2.60797"><ele>88.8</ele></trkpt>
    <trkpt lat="48.67761" lon="2.6082"><ele>89.1</ele></trkpt>
    <trkpt lat="48.67811" lon="2.6085"><ele>89.9</ele></trkpt>
    <trkpt lat="48.67889" lon="2.60916"><ele>90.9</ele></trkpt>
    <trkpt lat="48.67924" lon="2.60924"><ele>91.2</ele></trkpt>
    <trkpt lat="48.67937" lon="2.6094"><ele>91.3</ele></trkpt>
    <trkpt lat="48.68044" lon="2.60955"><ele>91.2</ele></trkpt>
    <trkpt lat="48.68053" lon="2.60976"><ele>91.1</ele></trkpt>
    <trkpt lat="48.68063" lon="2.61084"><ele>90.5</ele></trkpt>
    <trkpt lat="48.68052" lon="2.61099"><ele>90.3</ele></trkpt>
    <trkpt lat="48.67968" lon="2.61145"><ele>88.8</ele></trkpt>
    <trkpt lat="48.6792" lon="2.61183"><ele>88.0</ele></trkpt>
    <trkpt lat="48.67828" lon="2.61268"><ele>85.3</ele></trkpt>
    <trkpt lat="48.6777" lon="2.61333"><ele>83.2</ele></trkpt>
    <trkpt lat="48.67691" lon="2.61397"><ele>79.6</ele></trkpt>
    <trkpt lat="48.67575" lon="2.61471"><ele>74.0</ele></trkpt>
    <trkpt lat="48.67488" lon="2.61508"><ele>71.2</ele></trkpt>
    <trkpt lat="48.67387" lon="2.61566"><ele>69.6</ele></trkpt>
    <trkpt lat="48.67352" lon="2.61567"><ele>69.8</ele></trkpt>
    <trkpt lat="48.67325" lon="2.61533"><ele>70.5</ele></trkpt>
    <trkpt lat="48.67308" lon="2.61528"><ele>70.8</ele></trkpt>
    <trkpt lat="48.67296" lon="2.61508"><ele>71.1</ele></trkpt>
    <trkpt lat="48.67279" lon="2.6146"><ele>72.1</ele></trkpt>
    <trkpt lat="48.67267" lon="2.61441"><ele>72.7</ele></trkpt>
    <trkpt lat="48.67249" lon="2.61442"><ele>73.5</ele></trkpt>
    <trkpt lat="48.67197" lon="2.61463"><ele>76.0</ele></trkpt>
    <trkpt lat="48.67133" lon="2.61595"><ele>80.5</ele></trkpt>
    <trkpt lat="48.67025" lon="2.61778"><ele>83.5</ele></trkpt>
    <trkpt lat="48.66975" lon="2.61808"><ele>82.3</ele></trkpt>
    <trkpt lat="48.66814" lon="2.61827"><ele>76.5</ele></trkpt>
    <trkpt lat="48.66733" lon="2.61886"><ele>73.4</ele></trkpt>
    <trkpt lat="48.66709" lon="2.61926"><ele>72.3</ele></trkpt>
    <trkpt lat="48.66664" lon="2.62073"><ele>71.2</ele></trkpt>
    <trkpt lat="48.66677" lon="2.62092"><ele>71.1</ele></trkpt>
    <trkpt lat="48.6677" lon="2.62174"><ele>70.7</ele></trkpt>
    <trkpt lat="48.66775" lon="2.62193"><ele>70.6</ele></trkpt>
    <trkpt lat="48.66696" lon="2.62407"><ele>70.0</ele></trkpt>
    <trkpt lat="48.66689" lon="2.62431"><ele>70.0</ele></trkpt>
    <trkpt lat="48.6669" lon="2.62457"><ele>70.1</ele></trkpt>
    <trkpt lat="48.66783" lon="2.62584"><ele>70.6</ele></trkpt>
    <trkpt lat="48.6691" lon="2.62813"><ele>73.9</ele></trkpt>
    <trkpt lat="48.6694" lon="2.62842"><ele>74.9</ele></trkpt>
    <trkpt lat="48.67008" lon="2.62876"><ele>76.7</ele></trkpt>
    <trkpt lat="48.67013" lon="2.62897"><ele>77.2</ele></trkpt>
    <trkpt lat="48.67012" lon="2.62979"><ele>78.3</ele></trkpt>
    <trkpt lat="48.67017" lon="2.63087"><ele>79.7</ele></trkpt>
    <trkpt lat="48.67026" lon="2.63168"><ele>80.7</ele></trkpt>
    <trkpt lat="48.67046" lon="2.63243"><ele>81.4</ele></trkpt>
    <trkpt lat="48.6708" lon="2.63306"><ele>82.0</ele></trkpt>
    <trkpt lat="48.67137" lon="2.63444"><ele>82.0</ele></trkpt>
    <trkpt lat="48.67142" lon="2.6347"><ele>81.7</ele></trkpt>
    <trkpt lat="48.6714" lon="2.63551"><ele>80.4</ele></trkpt>
    <trkpt lat="48.67153" lon="2.63631"><ele>78.7</ele></trkpt>
    <trkpt lat="48.67141" lon="2.63642"><ele>77.9</ele></trkpt>
    <trkpt lat="48.67123" lon="2.63647"><ele>76.9</ele></trkpt>
    <trkpt lat="48.67016" lon="2.63661"><ele>69.3</ele></trkpt>
    <trkpt lat="48.66999" lon="2.63651"><ele>68.0</ele></trkpt>
    <trkpt lat="48.66987" lon="2.63632"><ele>66.8</ele></trkpt>
    <trkpt lat="48.66891" lon="2.63469"><ele>59.8</ele></trkpt>
    <trkpt lat="48.66876" lon="2.63457"><ele>59.1</ele></trkpt>
    <trkpt lat="48.66858" lon="2.63458"><ele>58.5</ele></trkpt>
    <trkpt lat="48.66751" lon="2.63484"><ele>58.0</ele></trkpt>
    <trkpt lat="48.65816" lon="2.63758"><ele>86.6</ele></trkpt>
    <trkpt lat="48.65818" lon="2.6378"><ele>87.1</ele></trkpt>
    <trkpt lat="48.65837" lon="2.63827"><ele>87.7</ele></trkpt>
    <trkpt lat="48.65899" lon="2.6396"><ele>88.4</ele></trkpt>
    <trkpt lat="48.65992" lon="2.64193"><ele>87.7</ele></trkpt>
    <trkpt lat="48.66004" lon="2.64244"><ele>87.4</ele></trkpt>
    <trkpt lat="48.66006" lon="2.64298"><ele>87.0</ele></trkpt>
    <trkpt lat="48.65997" lon="2.64406"><ele>85.8</ele></trkpt>
    <trkpt lat="48.65976" lon="2.64538"><ele>84.0</ele></trkpt>
    <trkpt lat="48.65981" lon="2.64563"><ele>83.3</ele></trkpt>
    <trkpt lat="48.66015" lon="2.64626"><ele>80.9</ele></trkpt>
    <trkpt lat="48.66042" lon="2.64663"><ele>79.4</ele></trkpt>
    <trkpt lat="48.66088" lon="2.64701"><ele>77.1</ele></trkpt>
    <trkpt lat="48.661" lon="2.64752"><ele>75.5</ele></trkpt>
    <trkpt lat="48.66117" lon="2.64912"><ele>70.5</ele></trkpt>
    <trkpt lat="48.66178" lon="2.65139"><ele>64.5</ele></trkpt>
    <trkpt lat="48.66209" lon="2.65237"><ele>62.3</ele></trkpt>
    <trkpt lat="48.66211" lon="2.65264"><ele>61.7</ele></trkpt>
    <trkpt lat="48.66205" lon="2.65317"><ele>60.7</ele></trkpt>
    <trkpt lat="48.6616" lon="2.65465"><ele>58.1</ele></trkpt>
    <trkpt lat="48.66157" lon="2.65492"><ele>58.0</ele></trkpt>
    <trkpt lat="48.66167" lon="2.65543"><ele>58.3</ele></trkpt>
    <trkpt lat="48.66167" lon="2.65569"><ele>58.7</ele></trkpt>
    <trkpt lat="48.66132" lon="2.65781"><ele>61.9</ele></trkpt>
    <trkpt lat="48.6612" lon="2.65832"><ele>63.0</ele></trkpt>
    <trkpt lat="48.66082" lon="2.65924"><ele>65.5</ele></trkpt>
    <trkpt lat="48.65982" lon="2.6608"><ele>72.7</ele></trkpt>
    <trkpt lat="48.6597" lon="2.66101"><ele>73.7</ele></trkpt>
    <trkpt lat="48.65966" lon="2.66126"><ele>74.7</ele></trkpt>
    <trkpt lat="48.65976" lon="2.66288"><ele>80.6</ele></trkpt>
    <trkpt lat="48.65996" lon="2.66391"><ele>84.4</ele></trkpt>
    <trkpt lat="48.65996" lon="2.66472"><ele>86.6</ele></trkpt>
    <trkpt lat="48.65973" lon="2.66659"><ele>88.4</ele></trkpt>
    <trkpt lat="48.65906" lon="2.6697"><ele>87.3</ele></trkpt>
    <trkpt lat="48.65894" lon="2.67049"><ele>87.0</ele></trkpt>
    <trkpt lat="48.65902" lon="2.67157"><ele>86.6</ele></trkpt>
    <trkpt lat="48.6594" lon="2.67451"><ele>86.3</ele></trkpt>
    <trkpt lat="48.65936" lon="2.67477"><ele>86.3</ele></trkpt>
    <trkpt lat="48.65915" lon="2.67521"><ele>86.3</ele></trkpt>
    <trkpt lat="48.65909" lon="2.67546"><ele>86.3</ele></trkpt>
    <trkpt lat="48.65897" lon="2.67653"><ele>86.4</ele></trkpt>
    <trkpt lat="48.65896" lon="2.67707"><ele>86.4</ele></trkpt>
    <trkpt lat="48.65848" lon="2.67912"><ele>86.0</ele></trkpt>
    <trkpt lat="48.65821" lon="2.6807"><ele>86.0</ele></trkpt>
    <trkpt lat="48.6582" lon="2.68124"><ele>86.1</ele></trkpt>
    <trkpt lat="48.65843" lon="2.68227"><ele>86.4</ele></trkpt>
    <trkpt lat="48.65851" lon="2.68363"><ele>86.7</ele></trkpt>
    <trkpt lat="48.65848" lon="2.6839"><ele>86.7</ele></trkpt>
    <trkpt lat="48.65819" lon="2.68519"><ele>86.9</ele></trkpt>
    <trkpt lat="48.65783" lon="2.68729"><ele>87.4</ele></trkpt>
    <trkpt lat="48.65681" lon="2.69017"><ele>88.5</ele></trkpt>
    <trkpt lat="48.65667" lon="2.69067"><ele>88.6</ele></trkpt>
    <trkpt lat="48.65669" lon="2.69121"><ele>88.5</ele></trkpt>
    <trkpt lat="48.65708" lon="2.69331"><ele>87.5</ele></trkpt>
    <trkpt lat="48.65714" lon="2.69385"><ele>86.8</ele></trkpt>
    <trkpt lat="48.65713" lon="2.69439"><ele>85.8</ele></trkpt>
    <trkpt lat="48.65692" lon="2.69599"><ele>81.7</ele></trkpt>
    <trkpt lat="48.6568" lon="2.6965"><ele>79.4</ele></trkpt>
    <trkpt lat="48.65639" lon="2.69771"><ele>73.1</ele></trkpt>
    <trkpt lat="48.65592" lon="2.6981"><ele>70.1</ele></trkpt>
    <trkpt lat="48.65582" lon="2.69832"><ele>69.3</ele></trkpt>
    <trkpt lat="48.65562" lon="2.6999"><ele>65.3</ele></trkpt>
    <trkpt lat="48.65569" lon="2.70014"><ele>64.9</ele></trkpt>
    <trkpt lat="48.65568" lon="2.70041"><ele>64.8</ele></trkpt>
    <trkpt lat="48.65561" lon="2.70066"><ele>64.8</ele></trkpt>
    <trkpt lat="48.65451" lon="2.70314"><ele>70.4</ele></trkpt>
    <trkpt lat="48.65444" lon="2.70339"><ele>71.0</ele></trkpt>
    <trkpt lat="48.65446" lon="2.70366"><ele>71.7</ele></trkpt>
    <trkpt lat="48.65457" lon="2.70378"><ele>72.4</ele></trkpt>
    <trkpt lat="48.65509" lon="2.70357"><ele>75.0</ele></trkpt>
    <trkpt lat="48.65525" lon="2.70345"><ele>76.0</ele></trkpt>
    <trkpt lat="48.65537" lon="2.70325"><ele>76.9</ele></trkpt>
    <trkpt lat="48.65568" lon="2.70327"><ele>78.1</ele></trkpt>
    <trkpt lat="48.65652" lon="2.70226"><ele>79.6</ele></trkpt>
    <trkpt lat="48.65735" lon="2.70173"><ele>80.2</ele></trkpt>
    <trkpt lat="48.65769" lon="2.70157"><ele>80.4</ele></trkpt>
    <trkpt lat="48.65893" lon="2.70117"><ele>80.9</ele></trkpt>
    <trkpt lat="48.66247" lon="2.70027"><ele>83.5</ele></trkpt>
    <trkpt lat="48.66352" lon="2.69986"><ele>83.5</ele></trkpt>
    <trkpt lat="48.66405" lon="2.69973"><ele>83.4</ele></trkpt>
    <trkpt lat="48.66553" lon="2.69874"><ele>83.1</ele></trkpt>
    <trkpt lat="48.66637" lon="2.69772"><ele>83.2</ele></trkpt>
    <trkpt lat="48.66685" lon="2.6969"><ele>83.4</ele></trkpt>
    <trkpt lat="48.6675" lon="2.69528"><ele>84.0</ele></trkpt>
    <trkpt lat="48.67067" lon="2.68283"><ele>90.0</ele></trkpt>
    <trkpt lat="48.67084" lon="2.68235"><ele>90.2</ele></trkpt>
    <trkpt lat="48.67091" lon="2.68182"><ele>90.4</ele></trkpt>
    <trkpt lat="48.67152" lon="2.67985"><ele>91.2</ele></trkpt>
    <trkpt lat="48.67205" lon="2.67875"><ele>91.8</ele></trkpt>
    <trkpt lat="48.67257" lon="2.67799"><ele>92.4</ele></trkpt>
    <trkpt lat="48.67313" lon="2.67732"><ele>92.9</ele></trkpt>
    <trkpt lat="48.67391" lon="2.67664"><ele>93.5</ele></trkpt>
    <trkpt lat="48.67487" lon="2.67591"><ele>94.4</ele></trkpt>
    <trkpt lat="48.67562" lon="2.67516"><ele>95.2</ele></trkpt>
    <trkpt lat="48.67603" lon="2.67463"><ele>95.6</ele></trkpt>
    <trkpt lat="48.67641" lon="2.67404"><ele>96.0</ele></trkpt>
    <trkpt lat="48.67686" lon="2.67319"><ele>96.6</ele></trkpt>
    <trkpt lat="48.67722" lon="2.67225"><ele>97.0</ele></trkpt>
    <trkpt lat="48.67866" lon="2.66609"><ele>96.8</ele></trkpt>
    <trkpt lat="48.68325" lon="2.64688"><ele>77.8</ele></trkpt>
    <trkpt lat="48.68408" lon="2.64416"><ele>78.5</ele></trkpt>
    <trkpt lat="48.68497" lon="2.64148"><ele>83.3</ele></trkpt>
    <trkpt lat="48.68533" lon="2.64053"><ele>84.9</ele></trkpt>
    <trkpt lat="48.68617" lon="2.63844"><ele>88.6</ele></trkpt>
    <trkpt lat="48.68686" lon="2.63685"><ele>90.3</ele></trkpt>
    <trkpt lat="48.69462" lon="2.62046"><ele>88.9</ele></trkpt>
    <trkpt lat="48.69497" lon="2.61984"><ele>88.9</ele></trkpt>
    <trkpt lat="48.69646" lon="2.61677"><ele>88.1</ele></trkpt>
    <trkpt lat="48.69939" lon="2.6116"><ele>88.6</ele></trkpt>
    <trkpt lat="48.69948" lon="2.61138"><ele>88.6</ele></trkpt>
    <trkpt lat="48.69951" lon="2.61111"><ele>88.6</ele></trkpt>
    <trkpt lat="48.69961" lon="2.61089"><ele>88.5</ele></trkpt>
    <trkpt lat="48.7015" lon="2.60765"><ele>88.2</ele></trkpt>
    <trkpt lat="48.70203" lon="2.60759"><ele>88.2</ele></trkpt>
    <trkpt lat="48.70344" lon="2.60715"><ele>88.6</ele></trkpt>
    <trkpt lat="48.70359" lon="2.60701"><ele>88.9</ele></trkpt>
    <trkpt lat="48.70367" lon="2.60679"><ele>89.1</ele></trkpt>
    <trkpt lat="48.70371" lon="2.60516"><ele>90.6</ele></trkpt>
    <trkpt lat="48.70378" lon="2.60435"><ele>91.3</ele></trkpt>
    <trkpt lat="48.70406" lon="2.60254"><ele>92.3</ele></trkpt>
    <trkpt lat="48.7043" lon="2.60214"><ele>92.4</ele></trkpt>
    <trkpt lat="48.7051" lon="2.60033"><ele>92.6</ele></trkpt>
    <trkpt lat="48.70615" lon="2.59779"><ele>93.4</ele></trkpt>
    <trkpt lat="48.70624" lon="2.59755"><ele>93.5</ele></trkpt>
    <trkpt lat="48.70627" lon="2.59729"><ele>93.6</ele></trkpt>
    <trkpt lat="48.70654" lon="2.59698"><ele>93.8</ele></trkpt>
    <trkpt lat="48.70665" lon="2.59676"><ele>93.9</ele></trkpt>
    <trkpt lat="48.7084" lon="2.59264"><ele>94.9</ele></trkpt>
    <trkpt lat="48.70894" lon="2.59155"><ele>94.9</ele></trkpt>
    <trkpt lat="48.71268" lon="2.58288"><ele>95.1</ele></trkpt>
    <trkpt lat="48.71273" lon="2.58263"><ele>95.1</ele></trkpt>
    <trkpt lat="48.71217" lon="2.58197"><ele>95.2</ele></trkpt>
    <trkpt lat="48.71231" lon="2.5818"><ele>95.2</ele></trkpt>
    <trkpt lat="48.71227" lon="2.58158"><ele>95.2</ele></trkpt>
    <trkpt lat="48.71196" lon="2.58122"><ele>95.2</ele></trkpt>
    <trkpt lat="48.71225" lon="2.58155"><ele>95.2</ele></trkpt>
    <trkpt lat="48.71232" lon="2.58178"><ele>95.2</ele></trkpt>
    <trkpt lat="48.71219" lon="2.58195"><ele>95.2</ele></trkpt>
    <trkpt lat="48.71229" lon="2.58215"><ele>95.2</ele></trkpt>
    <trkpt lat="48.71274" lon="2.58262"><ele>95.2</ele></trkpt>
    <trkpt lat="48.71287" lon="2.58258"><ele>95.2</ele></trkpt>
    <trkpt lat="48.71503" lon="2.57725"><ele>95.8</ele></trkpt>
    <trkpt lat="48.71513" lon="2.57674"><ele>95.9</ele></trkpt>
    <trkpt lat="48.71501" lon="2.57594"><ele>95.9</ele></trkpt>
    <trkpt lat="48.71504" lon="2.57569"><ele>95.9</ele></trkpt>
    <trkpt lat="48.71518" lon="2.57564"><ele>95.8</ele></trkpt>
    <trkpt lat="48.71535" lon="2.57574"><ele>95.8</ele></trkpt>
    <trkpt lat="48.71548" lon="2.57592"><ele>95.8</ele></trkpt>
    <trkpt lat="48.71563" lon="2.57641"><ele>95.6</ele></trkpt>
    <trkpt lat="48.71579" lon="2.57652"><ele>95.5</ele></trkpt>
    <trkpt lat="48.71774" lon="2.57705"><ele>93.2</ele></trkpt>
    <trkpt lat="48.7179" lon="2.57697"><ele>92.9</ele></trkpt>
    <trkpt lat="48.71802" lon="2.57645"><ele>92.2</ele></trkpt>
    <trkpt lat="48.71822" lon="2.57513"><ele>90.7</ele></trkpt>
    <trkpt lat="48.71879" lon="2.57447"><ele>89.6</ele></trkpt>
    <trkpt lat="48.71901" lon="2.57259"><ele>87.3</ele></trkpt>
    <trkpt lat="48.71915" lon="2.57247"><ele>86.8</ele></trkpt>
    <trkpt lat="48.72148" lon="2.57284"><ele>77.2</ele></trkpt>
    <trkpt lat="48.72178" lon="2.57298"><ele>75.3</ele></trkpt>
    <trkpt lat="48.72213" lon="2.57294"><ele>73.8</ele></trkpt>
    <trkpt lat="48.72392" lon="2.57323"><ele>68.3</ele></trkpt>
    <trkpt lat="48.72602" lon="2.57393"><ele>78.1</ele></trkpt>
    <trkpt lat="48.72687" lon="2.57436"><ele>83.0</ele></trkpt>
    <trkpt lat="48.7283" lon="2.57459"><ele>88.5</ele></trkpt>
    <trkpt lat="48.72879" lon="2.57492"><ele>89.4</ele></trkpt>
    <trkpt lat="48.72891" lon="2.57512"><ele>89.7</ele></trkpt>
    <trkpt lat="48.72892" lon="2.57499"><ele>89.9</ele></trkpt>
    <trkpt lat="48.72908" lon="2.57493"><ele>90.1</ele></trkpt>
    <trkpt lat="48.72996" lon="2.5752"><ele>91.0</ele></trkpt>
    <trkpt lat="48.73104" lon="2.57534"><ele>91.9</ele></trkpt>
    <trkpt lat="48.73193" lon="2.57537"><ele>92.7</ele></trkpt>
    <trkpt lat="48.73206" lon="2.57554"><ele>92.9</ele></trkpt>
    <trkpt lat="48.73278" lon="2.57549"><ele>93.7</ele></trkpt>
    <trkpt lat="48.73291" lon="2.57542"><ele>93.9</ele></trkpt>
    <trkpt lat="48.73289" lon="2.57525"><ele>94.1</ele></trkpt>
    <trkpt lat="48.73482" lon="2.57462"><ele>96.5</ele></trkpt>
    <trkpt lat="48.73518" lon="2.57456"><ele>96.8</ele></trkpt>
    <trkpt lat="48.73589" lon="2.5746"><ele>97.1</ele></trkpt>
    <trkpt lat="48.73707" lon="2.57391"><ele>97.2</ele></trkpt>
    <trkpt lat="48.73723" lon="2.57379"><ele>97.2</ele></trkpt>
    <trkpt lat="48.73735" lon="2.57359"><ele>97.2</ele></trkpt>
    <trkpt lat="48.74553" lon="2.55907"><ele>97.3</ele></trkpt>
    <trkpt lat="48.74566" lon="2.55898"><ele>97.2</ele></trkpt>
    <trkpt lat="48.74579" lon="2.56031"><ele>97.1</ele></trkpt>
    <trkpt lat="48.74585" lon="2.56057"><ele>97.1</ele></trkpt>
    <trkpt lat="48.74625" lon="2.56111"><ele>97.1</ele></trkpt>
    <trkpt lat="48.74671" lon="2.56153"><ele>97.1</ele></trkpt>
    <trkpt lat="48.74699" lon="2.56188"><ele>97.1</ele></trkpt>
    <trkpt lat="48.74751" lon="2.5621"><ele>97.2</ele></trkpt>
    <trkpt lat="48.74771" lon="2.56255"><ele>97.3</ele></trkpt>
    <trkpt lat="48.74785" lon="2.56271"><ele>97.3</ele></trkpt>
    <trkpt lat="48.75194" lon="2.56669"><ele>98.0</ele></trkpt>
    <trkpt lat="48.75764" lon="2.5724"><ele>99.2</ele></trkpt>
    <trkpt lat="48.75882" lon="2.57365"><ele>99.9</ele></trkpt>
    <trkpt lat="48.76231" lon="2.577"><ele>100.9</ele></trkpt>
    <trkpt lat="48.76938" lon="2.56429"><ele>101.5</ele></trkpt>
    <trkpt lat="48.76984" lon="2.56312"><ele>101.5</ele></trkpt>
    <trkpt lat="48.77016" lon="2.56286"><ele>101.4</ele></trkpt>
    <trkpt lat="48.77029" lon="2.56267"><ele>101.4</ele></trkpt>
    <trkpt lat="48.77152" lon="2.56036"><ele>100.8</ele></trkpt>
    <trkpt lat="48.76557" lon="2.55286"><ele>101.8</ele></trkpt>
    <trkpt lat="48.76519" lon="2.5523"><ele>101.2</ele></trkpt>
    <trkpt lat="48.76521" lon="2.55203"><ele>100.9</ele></trkpt>
    <trkpt lat="48.76552" lon="2.55046"><ele>100.6</ele></trkpt>
    <trkpt lat="48.76556" lon="2.54993"><ele>100.4</ele></trkpt>
    <trkpt lat="48.76537" lon="2.54695"><ele>98.6</ele></trkpt>
    <trkpt lat="48.76521" lon="2.54341"><ele>95.6</ele></trkpt>
    <trkpt lat="48.76536" lon="2.54207"><ele>94.4</ele></trkpt>
    <trkpt lat="48.7658" lon="2.54058"><ele>93.1</ele></trkpt>
    <trkpt lat="48.76598" lon="2.5401"><ele>92.5</ele></trkpt>
    <trkpt lat="48.7661" lon="2.53991"><ele>92.2</ele></trkpt>
    <trkpt lat="48.76656" lon="2.53948"><ele>91.1</ele></trkpt>
    <trkpt lat="48.76709" lon="2.53936"><ele>90.0</ele></trkpt>
    <trkpt lat="48.7678" lon="2.53943"><ele>88.2</ele></trkpt>
    <trkpt lat="48.76969" lon="2.54029"><ele>82.8</ele></trkpt>
    <trkpt lat="48.76987" lon="2.54029"><ele>82.2</ele></trkpt>
    <trkpt lat="48.77057" lon="2.54004"><ele>79.7</ele></trkpt>
    <trkpt lat="48.77104" lon="2.53965"><ele>77.9</ele></trkpt>
    <trkpt lat="48.77147" lon="2.53916"><ele>76.1</ele></trkpt>
    <trkpt lat="48.77194" lon="2.53875"><ele>74.5</ele></trkpt>
    <trkpt lat="48.77274" lon="2.53728"><ele>72.0</ele></trkpt>
    <trkpt lat="48.77299" lon="2.5369"><ele>71.2</ele></trkpt>
    <trkpt lat="48.77345" lon="2.53648"><ele>70.0</ele></trkpt>
    <trkpt lat="48.77416" lon="2.5364"><ele>68.0</ele></trkpt>
    <trkpt lat="48.77572" lon="2.53575"><ele>63.1</ele></trkpt>
    <trkpt lat="48.77642" lon="2.53555"><ele>61.0</ele></trkpt>
    <trkpt lat="48.77658" lon="2.53542"><ele>60.5</ele></trkpt>
    <trkpt lat="48.77669" lon="2.53521"><ele>60.0</ele></trkpt>
    <trkpt lat="48.77672" lon="2.53495"><ele>59.6</ele></trkpt>
    <trkpt lat="48.7767" lon="2.53468"><ele>59.1</ele></trkpt>
    <trkpt lat="48.77678" lon="2.53449"><ele>58.7</ele></trkpt>
    <trkpt lat="48.77803" lon="2.53427"><ele>57.2</ele></trkpt>
    <trkpt lat="48.77839" lon="2.53427"><ele>57.4</ele></trkpt>
    <trkpt lat="48.77852" lon="2.53445"><ele>57.5</ele></trkpt>
    <trkpt lat="48.77897" lon="2.53594"><ele>60.1</ele></trkpt>
    <trkpt lat="48.77918" lon="2.53638"><ele>61.7</ele></trkpt>
    <trkpt lat="48.7795" lon="2.53664"><ele>63.6</ele></trkpt>
    <trkpt lat="48.78203" lon="2.53805"><ele>79.4</ele></trkpt>
    <trkpt lat="48.78238" lon="2.53813"><ele>81.4</ele></trkpt>
    <trkpt lat="48.78256" lon="2.53809"><ele>82.4</ele></trkpt>
    <trkpt lat="48.7841" lon="2.53733"><ele>90.5</ele></trkpt>
    <trkpt lat="48.78445" lon="2.53733"><ele>91.8</ele></trkpt>
    <trkpt lat="48.78719" lon="2.54374"><ele>97.9</ele></trkpt>
    <trkpt lat="48.78723" lon="2.54399"><ele>97.9</ele></trkpt>
    <trkpt lat="48.7871" lon="2.54414"><ele>98.0</ele></trkpt>
    <trkpt lat="48.78677" lon="2.54437"><ele>97.9</ele></trkpt>
  </trkseg></trk>
</gpx>
