<?xml version="1.0" encoding="UTF-8"?>
<gpx version="1.1" creator="USO Cyclisme" xmlns="http://www.topografix.com/GPX/1/1">
  <metadata><name>Soisy-sur-Seine – 58 km</name><desc>Gravel, 58.3 km, D+ 273 m. Départ et arrivée : centre culturel d'Ormesson-sur-Marne.</desc></metadata>
  <trk><name>Soisy-sur-Seine – 58 km (gravel)</name><trkseg>
    <trkpt lat="48.78667" lon="2.54444"><ele>97.9</ele></trkpt>
    <trkpt lat="48.78713" lon="2.544"><ele>97.9</ele></trkpt>
    <trkpt lat="48.78723" lon="2.54384"><ele>97.9</ele></trkpt>
    <trkpt lat="48.78529" lon="2.53924"><ele>94.9</ele></trkpt>
    <trkpt lat="48.78438" lon="2.53721"><ele>91.6</ele></trkpt>
    <trkpt lat="48.78422" lon="2.53722"><ele>90.9</ele></trkpt>
    <trkpt lat="48.78373" lon="2.53755"><ele>88.5</ele></trkpt>
    <trkpt lat="48.78236" lon="2.53818"><ele>80.8</ele></trkpt>
    <trkpt lat="48.78203" lon="2.5384"><ele>78.2</ele></trkpt>
    <trkpt lat="48.77997" lon="2.5394"><ele>66.9</ele></trkpt>
    <trkpt lat="48.77845" lon="2.54023"><ele>71.6</ele></trkpt>
    <trkpt lat="48.77742" lon="2.54073"><ele>78.1</ele></trkpt>
    <trkpt lat="48.77707" lon="2.54082"><ele>79.8</ele></trkpt>
    <trkpt lat="48.77697" lon="2.5407"><ele>80.3</ele></trkpt>
    <trkpt lat="48.7771" lon="2.54052"><ele>80.5</ele></trkpt>
    <trkpt lat="48.77716" lon="2.54027"><ele>80.4</ele></trkpt>
    <trkpt lat="48.77695" lon="2.53923"><ele>79.7</ele></trkpt>
    <trkpt lat="48.77689" lon="2.53842"><ele>79.2</ele></trkpt>
    <trkpt lat="48.77676" lon="2.53792"><ele>79.3</ele></trkpt>
    <trkpt lat="48.77665" lon="2.5377"><ele>79.5</ele></trkpt>
    <trkpt lat="48.77649" lon="2.53766"><ele>79.7</ele></trkpt>
    <trkpt lat="48.77616" lon="2.53788"><ele>80.3</ele></trkpt>
    <trkpt lat="48.77505" lon="2.53877"><ele>82.0</ele></trkpt>
    <trkpt lat="48.77366" lon="2.53933"><ele>82.2</ele></trkpt>
    <trkpt lat="48.77351" lon="2.53931"><ele>81.6</ele></trkpt>
    <trkpt lat="48.77339" lon="2.53796"><ele>77.4</ele></trkpt>
    <trkpt lat="48.77321" lon="2.5369"><ele>72.9</ele></trkpt>
    <trkpt lat="48.77306" lon="2.53683"><ele>72.1</ele></trkpt>
    <trkpt lat="48.77266" lon="2.53739"><ele>72.2</ele></trkpt>
    <trkpt lat="48.77234" lon="2.53804"><ele>73.0</ele></trkpt>
    <trkpt lat="48.77186" lon="2.53884"><ele>74.7</ele></trkpt>
    <trkpt lat="48.77139" lon="2.53924"><ele>76.4</ele></trkpt>
    <trkpt lat="48.77096" lon="2.53973"><ele>78.2</ele></trkpt>
    <trkpt lat="48.77047" lon="2.54008"><ele>80.1</ele></trkpt>
    <trkpt lat="48.76977" lon="2.5403"><ele>82.5</ele></trkpt>
    <trkpt lat="48.76874" lon="2.53983"><ele>85.7</ele></trkpt>
    <trkpt lat="48.76839" lon="2.53974"><ele>86.6</ele></trkpt>
    <trkpt lat="48.76771" lon="2.5394"><ele>88.5</ele></trkpt>
    <trkpt lat="48.76717" lon="2.53936"><ele>89.8</ele></trkpt>
    <trkpt lat="48.76646" lon="2.53953"><ele>91.3</ele></trkpt>
    <trkpt lat="48.76589" lon="2.54012"><ele>92.8</ele></trkpt>
    <trkpt lat="48.76562" lon="2.53978"><ele>93.4</ele></trkpt>
    <trkpt lat="48.76378" lon="2.53679"><ele>96.6</ele></trkpt>
    <trkpt lat="48.76348" lon="2.53649"><ele>97.1</ele></trkpt>
    <trkpt lat="48.76317" lon="2.53584"><ele>97.5</ele></trkpt>
    <trkpt lat="48.76266" lon="2.53508"><ele>98.0</ele></trkpt>
    <trkpt lat="48.76172" lon="2.53382"><ele>98.7</ele></trkpt>
    <trkpt lat="48.76155" lon="2.53373"><ele>98.8</ele></trkpt>
    <trkpt lat="48.7614" lon="2.53384"><ele>98.8</ele></trkpt>
    <trkpt lat="48.76122" lon="2.53381"><ele>98.9</ele></trkpt>
    <trkpt lat="48.7611" lon="2.53361"><ele>99.0</ele></trkpt>
    <trkpt lat="48.76102" lon="2.53309"><ele>99.0</ele></trkpt>
    <trkpt lat="48.76079" lon="2.53268"><ele>99.1</ele></trkpt>
    <trkpt lat="48.76027" lon="2.53192"><ele>99.0</ele></trkpt>
    <trkpt lat="48.75983" lon="2.53145"><ele>98.9</ele></trkpt>
    <trkpt lat="48.75915" lon="2.53056"><ele>98.7</ele></trkpt>
    <trkpt lat="48.75907" lon="2.53035"><ele>98.6</ele></trkpt>
    <trkpt lat="48.75909" lon="2.5301"><ele>98.6</ele></trkpt>
    <trkpt lat="48.759" lon="2.52958"><ele>98.5</ele></trkpt>
    <trkpt lat="48.7584" lon="2.52729"><ele>98.1</ele></trkpt>
    <trkpt lat="48.75831" lon="2.52707"><ele>98.1</ele></trkpt>
    <trkpt lat="48.75814" lon="2.52702"><ele>98.0</ele></trkpt>
    <trkpt lat="48.75742" lon="2.52702"><ele>97.7</ele></trkpt>
    <trkpt lat="48.75588" lon="2.52628"><ele>97.1</ele></trkpt>
    <trkpt lat="48.75558" lon="2.52598"><ele>97.1</ele></trkpt>
    <trkpt lat="48.75344" lon="2.52307"><ele>97.0</ele></trkpt>
    <trkpt lat="48.75277" lon="2.52271"><ele>96.7</ele></trkpt>
    <trkpt lat="48.7526" lon="2.52275"><ele>96.7</ele></trkpt>
    <trkpt lat="48.7525" lon="2.52355"><ele>96.4</ele></trkpt>
    <trkpt lat="48.75234" lon="2.52367"><ele>96.2</ele></trkpt>
    <trkpt lat="48.74939" lon="2.52488"><ele>93.0</ele></trkpt>
    <trkpt lat="48.74922" lon="2.52491"><ele>93.0</ele></trkpt>
    <trkpt lat="48.74827" lon="2.52367"><ele>92.5</ele></trkpt>
    <trkpt lat="48.74816" lon="2.52346"><ele>92.4</ele></trkpt>
    <trkpt lat="48.74719" lon="2.51569"><ele>90.7</ele></trkpt>
    <trkpt lat="48.74722" lon="2.51543"><ele>90.7</ele></trkpt>
    <trkpt lat="48.74743" lon="2.51499"><ele>90.7</ele></trkpt>
    <trkpt lat="48.7484" lon="2.51338"><ele>90.4</ele></trkpt>
    <trkpt lat="48.74849" lon="2.51315"><ele>90.3</ele></trkpt>
    <trkpt lat="48.74839" lon="2.51299"><ele>90.2</ele></trkpt>
    <trkpt lat="48.74575" lon="2.51214"><ele>89.4</ele></trkpt>
    <trkpt lat="48.74504" lon="2.51198"><ele>90.0</ele></trkpt>
    <trkpt lat="48.74473" lon="2.51174"><ele>90.3</ele></trkpt>
    <trkpt lat="48.7443" lon="2.51126"><ele>90.7</ele></trkpt>
    <trkpt lat="48.7441" lon="2.51092"><ele>90.7</ele></trkpt>
    <trkpt lat="48.74386" lon="2.51116"><ele>90.5</ele></trkpt>
    <trkpt lat="48.74207" lon="2.51087"><ele>89.5</ele></trkpt>
    <trkpt lat="48.74173" lon="2.5107"><ele>89.4</ele></trkpt>
    <trkpt lat="48.74156" lon="2.51072"><ele>89.3</ele></trkpt>
    <trkpt lat="48.7412" lon="2.51061"><ele>89.2</ele></trkpt>
    <trkpt lat="48.74017" lon="2.51014"><ele>89.2</ele></trkpt>
    <trkpt lat="48.7401" lon="2.51037"><ele>89.1</ele></trkpt>
    <trkpt lat="48.74022" lon="2.51087"><ele>88.9</ele></trkpt>
    <trkpt lat="48.74016" lon="2.51112"><ele>89.0</ele></trkpt>
    <trkpt lat="48.74002" lon="2.51127"><ele>89.1</ele></trkpt>
    <trkpt lat="48.73932" lon="2.51146"><ele>90.1</ele></trkpt>
    <trkpt lat="48.73879" lon="2.51145"><ele>90.7</ele></trkpt>
    <trkpt lat="48.73806" lon="2.51221"><ele>91.5</ele></trkpt>
    <trkpt lat="48.73626" lon="2.51227"><ele>92.4</ele></trkpt>
    <trkpt lat="48.73612" lon="2.51218"><ele>92.5</ele></trkpt>
    <trkpt lat="48.73615" lon="2.51165"><ele>92.5</ele></trkpt>
    <trkpt lat="48.73587" lon="2.51137"><ele>92.6</ele></trkpt>
    <trkpt lat="48.73564" lon="2.51096"><ele>92.6</ele></trkpt>
    <trkpt lat="48.73549" lon="2.5108"><ele>92.6</ele></trkpt>
    <trkpt lat="48.73532" lon="2.51033"><ele>92.5</ele></trkpt>
    <trkpt lat="48.7352" lon="2.51013"><ele>92.5</ele></trkpt>
    <trkpt lat="48.73476" lon="2.50966"><ele>92.4</ele></trkpt>
    <trkpt lat="48.7339" lon="2.5093"><ele>92.0</ele></trkpt>
    <trkpt lat="48.73391" lon="2.50904"><ele>91.6</ele></trkpt>
    <trkpt lat="48.73397" lon="2.5088"><ele>91.1</ele></trkpt>
    <trkpt lat="48.73375" lon="2.50808"><ele>89.8</ele></trkpt>
    <trkpt lat="48.73397" lon="2.50483"><ele>88.3</ele></trkpt>
    <trkpt lat="48.73403" lon="2.50458"><ele>88.3</ele></trkpt>
    <trkpt lat="48.73439" lon="2.50397"><ele>88.3</ele></trkpt>
    <trkpt lat="48.73437" lon="2.50373"><ele>88.4</ele></trkpt>
    <trkpt lat="48.73423" lon="2.50324"><ele>88.4</ele></trkpt>
    <trkpt lat="48.73408" lon="2.5031"><ele>88.5</ele></trkpt>
    <trkpt lat="48.73354" lon="2.50314"><ele>88.5</ele></trkpt>
    <trkpt lat="48.73352" lon="2.50287"><ele>88.5</ele></trkpt>
    <trkpt lat="48.7337" lon="2.50099"><ele>88.8</ele></trkpt>
    <trkpt lat="48.73383" lon="2.50021"><ele>89.2</ele></trkpt>
    <trkpt lat="48.73376" lon="2.4994"><ele>89.6</ele></trkpt>
    <trkpt lat="48.73386" lon="2.4986"><ele>89.9</ele></trkpt>
    <trkpt lat="48.73387" lon="2.49805"><ele>90.1</ele></trkpt>
    <trkpt lat="48.73409" lon="2.49703"><ele>90.4</ele></trkpt>
    <trkpt lat="48.73408" lon="2.49676"><ele>90.5</ele></trkpt>
    <trkpt lat="48.73389" lon="2.49632"><ele>90.6</ele></trkpt>
    <trkpt lat="48.73387" lon="2.49605"><ele>90.7</ele></trkpt>
    <trkpt lat="48.73412" lon="2.49391"><ele>90.5</ele></trkpt>
    <trkpt lat="48.73405" lon="2.49369"><ele>90.4</ele></trkpt>
    <trkpt lat="48.73373" lon="2.49359"><ele>90.2</ele></trkpt>
    <trkpt lat="48.73368" lon="2.49333"><ele>90.1</ele></trkpt>
    <trkpt lat="48.7327" lon="2.48668"><ele>87.6</ele></trkpt>
    <trkpt lat="48.73299" lon="2.48637"><ele>87.5</ele></trkpt>
    <trkpt lat="48.73331" lon="2.48613"><ele>87.3</ele></trkpt>
    <trkpt lat="48.73382" lon="2.48587"><ele>87.2</ele></trkpt>
    <trkpt lat="48.73429" lon="2.48546"><ele>87.1</ele></trkpt>
    <trkpt lat="48.73443" lon="2.48529"><ele>87.0</ele></trkpt>
    <trkpt lat="48.73453" lon="2.48506"><ele>87.0</ele></trkpt>
    <trkpt lat="48.73456" lon="2.48481"><ele>87.0</ele></trkpt>
    <trkpt lat="48.73403" lon="2.48465"><ele>87.0</ele></trkpt>
    <trkpt lat="48.73385" lon="2.48465"><ele>87.1</ele></trkpt>
    <trkpt lat="48.73351" lon="2.4848"><ele>87.1</ele></trkpt>
    <trkpt lat="48.73334" lon="2.48472"><ele>87.1</ele></trkpt>
    <trkpt lat="48.73324" lon="2.4845"><ele>87.2</ele></trkpt>
    <trkpt lat="48.73295" lon="2.48352"><ele>87.3</ele></trkpt>
    <trkpt lat="48.73256" lon="2.48262"><ele>87.4</ele></trkpt>
    <trkpt lat="48.73212" lon="2.48223"><ele>87.5</ele></trkpt>
    <trkpt lat="48.73209" lon="2.48197"><ele>87.4</ele></trkpt>
    <trkpt lat="48.73201" lon="2.48177"><ele>87.4</ele></trkpt>
    <trkpt lat="48.73171" lon="2.4815"><ele>87.4</ele></trkpt>
    <trkpt lat="48.7316" lon="2.48128"><ele>87.3</ele></trkpt>
    <trkpt lat="48.73157" lon="2.48075"><ele>87.3</ele></trkpt>
    <trkpt lat="48.73151" lon="2.4805"><ele>87.2</ele></trkpt>
    <trkpt lat="48.73117" lon="2.47987"><ele>87.0</ele></trkpt>
    <trkpt lat="48.73105" lon="2.47937"><ele>86.8</ele></trkpt>
    <trkpt lat="48.73109" lon="2.47912"><ele>86.7</ele></trkpt>
    <trkpt lat="48.73103" lon="2.47888"><ele>86.6</ele></trkpt>
    <trkpt lat="48.73081" lon="2.47846"><ele>86.4</ele></trkpt>
    <trkpt lat="48.73045" lon="2.47721"><ele>86.2</ele></trkpt>
    <trkpt lat="48.73031" lon="2.47705"><ele>86.2</ele></trkpt>
    <trkpt lat="48.73009" lon="2.47661"><ele>86.2</ele></trkpt>
    <trkpt lat="48.72974" lon="2.47649"><ele>86.2</ele></trkpt>
    <trkpt lat="48.72922" lon="2.47668"><ele>86.3</ele></trkpt>
    <trkpt lat="48.72895" lon="2.47704"><ele>86.4</ele></trkpt>
    <trkpt lat="48.72848" lon="2.47744"><ele>86.5</ele></trkpt>
    <trkpt lat="48.72823" lon="2.47779"><ele>86.6</ele></trkpt>
    <trkpt lat="48.72771" lon="2.47791"><ele>86.7</ele></trkpt>
    <trkpt lat="48.72764" lon="2.47766"><ele>86.8</ele></trkpt>
    <trkpt lat="48.72722" lon="2.47678"><ele>86.8</ele></trkpt>
    <trkpt lat="48.72717" lon="2.47652"><ele>86.9</ele></trkpt>
    <trkpt lat="48.72702" lon="2.4764"><ele>86.9</ele></trkpt>
    <trkpt lat="48.72667" lon="2.47644"><ele>86.9</ele></trkpt>
    <trkpt lat="48.72632" lon="2.47633"><ele>87.0</ele></trkpt>
    <trkpt lat="48.72562" lon="2.47655"><ele>87.1</ele></trkpt>
    <trkpt lat="48.72509" lon="2.47641"><ele>87.5</ele></trkpt>
    <trkpt lat="48.72474" lon="2.47642"><ele>88.0</ele></trkpt>
    <trkpt lat="48.72422" lon="2.47664"><ele>89.1</ele></trkpt>
    <trkpt lat="48.72368" lon="2.47672"><ele>90.2</ele></trkpt>
    <trkpt lat="48.72316" lon="2.4769"><ele>91.8</ele></trkpt>
    <trkpt lat="48.72253" lon="2.47742"><ele>94.6</ele></trkpt>
    <trkpt lat="48.72219" lon="2.47805"><ele>96.8</ele></trkpt>
    <trkpt lat="48.72211" lon="2.4783"><ele>97.6</ele></trkpt>
    <trkpt lat="48.72208" lon="2.47883"><ele>99.2</ele></trkpt>
    <trkpt lat="48.72208" lon="2.48183"><ele>107.2</ele></trkpt>
    <trkpt lat="48.7221" lon="2.4821"><ele>107.6</ele></trkpt>
    <trkpt lat="48.72222" lon="2.48261"><ele>108.1</ele></trkpt>
    <trkpt lat="48.72214" lon="2.48229"><ele>108.2</ele></trkpt>
    <trkpt lat="48.72207" lon="2.48238"><ele>108.2</ele></trkpt>
    <trkpt lat="48.72207" lon="2.48265"><ele>108.1</ele></trkpt>
    <trkpt lat="48.7221" lon="2.49928"><ele>90.9</ele></trkpt>
    <trkpt lat="48.72209" lon="2.49955"><ele>91.0</ele></trkpt>
    <trkpt lat="48.72199" lon="2.49977"><ele>91.1</ele></trkpt>
    <trkpt lat="48.72185" lon="2.49993"><ele>91.2</ele></trkpt>
    <trkpt lat="48.71862" lon="2.50035"><ele>87.9</ele></trkpt>
    <trkpt lat="48.7183" lon="2.50021"><ele>87.6</ele></trkpt>
    <trkpt lat="48.7176" lon="2.50045"><ele>86.8</ele></trkpt>
    <trkpt lat="48.71458" lon="2.50117"><ele>80.1</ele></trkpt>
    <trkpt lat="48.71422" lon="2.50116"><ele>78.2</ele></trkpt>
    <trkpt lat="48.71335" lon="2.50086"><ele>72.5</ele></trkpt>
    <trkpt lat="48.71228" lon="2.50105"><ele>64.0</ele></trkpt>
    <trkpt lat="48.71193" lon="2.50102"><ele>61.1</ele></trkpt>
    <trkpt lat="48.71176" lon="2.50093"><ele>59.7</ele></trkpt>
    <trkpt lat="48.71131" lon="2.50049"><ele>55.7</ele></trkpt>
    <trkpt lat="48.71063" lon="2.49959"><ele>49.7</ele></trkpt>
    <trkpt lat="48.70991" lon="2.49879"><ele>43.0</ele></trkpt>
    <trkpt lat="48.70882" lon="2.49783"><ele>39.2</ele></trkpt>
    <trkpt lat="48.70865" lon="2.49777"><ele>39.0</ele></trkpt>
    <trkpt lat="48.70829" lon="2.49781"><ele>38.6</ele></trkpt>
    <trkpt lat="48.70781" lon="2.49816"><ele>38.3</ele></trkpt>
    <trkpt lat="48.70763" lon="2.49822"><ele>38.3</ele></trkpt>
    <trkpt lat="48.70747" lon="2.49815"><ele>38.3</ele></trkpt>
    <trkpt lat="48.70723" lon="2.49775"><ele>38.5</ele></trkpt>
    <trkpt lat="48.70709" lon="2.49725"><ele>38.9</ele></trkpt>
    <trkpt lat="48.70697" lon="2.49645"><ele>39.4</ele></trkpt>
    <trkpt lat="48.70664" lon="2.49632"><ele>39.6</ele></trkpt>
    <trkpt lat="48.70592" lon="2.49628"><ele>39.7</ele></trkpt>
    <trkpt lat="48.70542" lon="2.496"><ele>39.6</ele></trkpt>
    <trkpt lat="48.70452" lon="2.49466"><ele>39.1</ele></trkpt>
    <trkpt lat="48.70422" lon="2.49436"><ele>38.9</ele></trkpt>
    <trkpt lat="48.70321" lon="2.49381"><ele>38.7</ele></trkpt>
    <trkpt lat="48.70268" lon="2.49364"><ele>38.7</ele></trkpt>
    <trkpt lat="48.70214" lon="2.49358"><ele>38.7</ele></trkpt>
    <trkpt lat="48.70161" lon="2.49365"><ele>38.8</ele></trkpt>
    <trkpt lat="48.70148" lon="2.4938"><ele>38.7</ele></trkpt>
    <trkpt lat="48.70152" lon="2.49404"><ele>38.6</ele></trkpt>
    <trkpt lat="48.70066" lon="2.49504"><ele>38.2</ele></trkpt>
    <trkpt lat="48.70035" lon="2.49568"><ele>38.1</ele></trkpt>
    <trkpt lat="48.70018" lon="2.49575"><ele>38.1</ele></trkpt>
    <trkpt lat="48.70005" lon="2.49563"><ele>38.2</ele></trkpt>
    <trkpt lat="48.69985" lon="2.49518"><ele>38.2</ele></trkpt>
    <trkpt lat="48.69953" lon="2.49497"><ele>38.1</ele></trkpt>
    <trkpt lat="48.69935" lon="2.49496"><ele>38.1</ele></trkpt>
    <trkpt lat="48.69919" lon="2.49504"><ele>38.0</ele></trkpt>
    <trkpt lat="48.6989" lon="2.49536"><ele>37.8</ele></trkpt>
    <trkpt lat="48.69878" lon="2.49557"><ele>37.7</ele></trkpt>
    <trkpt lat="48.69875" lon="2.49582"><ele>37.6</ele></trkpt>
    <trkpt lat="48.69879" lon="2.49609"><ele>37.5</ele></trkpt>
    <trkpt lat="48.69873" lon="2.49633"><ele>37.5</ele></trkpt>
    <trkpt lat="48.69847" lon="2.49705"><ele>37.4</ele></trkpt>
    <trkpt lat="48.69862" lon="2.49751"><ele>37.5</ele></trkpt>
    <trkpt lat="48.6981" lon="2.49824"><ele>38.0</ele></trkpt>
    <trkpt lat="48.69765" lon="2.49909"><ele>38.5</ele></trkpt>
    <trkpt lat="48.69691" lon="2.50028"><ele>38.9</ele></trkpt>
    <trkpt lat="48.6965" lon="2.50079"><ele>39.5</ele></trkpt>
    <trkpt lat="48.69634" lon="2.50088"><ele>40.0</ele></trkpt>
    <trkpt lat="48.6957" lon="2.5004"><ele>42.1</ele></trkpt>
    <trkpt lat="48.69552" lon="2.50041"><ele>42.4</ele></trkpt>
    <trkpt lat="48.6954" lon="2.50059"><ele>42.9</ele></trkpt>
    <trkpt lat="48.69472" lon="2.5022"><ele>47.2</ele></trkpt>
    <trkpt lat="48.69458" lon="2.50234"><ele>48.1</ele></trkpt>
    <trkpt lat="48.69404" lon="2.50228"><ele>50.6</ele></trkpt>
    <trkpt lat="48.69352" lon="2.50245"><ele>53.4</ele></trkpt>
    <trkpt lat="48.69281" lon="2.50253"><ele>57.7</ele></trkpt>
    <trkpt lat="48.69267" lon="2.50269"><ele>58.8</ele></trkpt>
    <trkpt lat="48.6925" lon="2.50457"><ele>64.2</ele></trkpt>
    <trkpt lat="48.69238" lon="2.50476"><ele>64.7</ele></trkpt>
    <trkpt lat="48.69227" lon="2.50528"><ele>65.6</ele></trkpt>
    <trkpt lat="48.69219" lon="2.50636"><ele>67.4</ele></trkpt>
    <trkpt lat="48.69209" lon="2.50655"><ele>67.9</ele></trkpt>
    <trkpt lat="48.69155" lon="2.50654"><ele>69.6</ele></trkpt>
    <trkpt lat="48.69143" lon="2.50669"><ele>70.1</ele></trkpt>
    <trkpt lat="48.69138" lon="2.5075"><ele>71.9</ele></trkpt>
    <trkpt lat="48.69126" lon="2.50802"><ele>72.9</ele></trkpt>
    <trkpt lat="48.69116" lon="2.50824"><ele>73.3</ele></trkpt>
    <trkpt lat="48.69101" lon="2.50838"><ele>73.8</ele></trkpt>
    <trkpt lat="48.6905" lon="2.50863"><ele>75.0</ele></trkpt>
    <trkpt lat="48.69038" lon="2.50881"><ele>75.5</ele></trkpt>
    <trkpt lat="48.69024" lon="2.50931"><ele>76.5</ele></trkpt>
    <trkpt lat="48.69004" lon="2.50958"><ele>77.1</ele></trkpt>
    <trkpt lat="48.69013" lon="2.50943"><ele>77.3</ele></trkpt>
    <trkpt lat="48.68968" lon="2.50898"><ele>78.2</ele></trkpt>
    <trkpt lat="48.68884" lon="2.5085"><ele>79.6</ele></trkpt>
    <trkpt lat="48.6882" lon="2.50801"><ele>81.1</ele></trkpt>
    <trkpt lat="48.68786" lon="2.50783"><ele>81.8</ele></trkpt>
    <trkpt lat="48.68733" lon="2.50795"><ele>83.0</ele></trkpt>
    <trkpt lat="48.68683" lon="2.5082"><ele>83.8</ele></trkpt>
    <trkpt lat="48.68615" lon="2.50845"><ele>84.5</ele></trkpt>
    <trkpt lat="48.68579" lon="2.50847"><ele>84.8</ele></trkpt>
    <trkpt lat="48.68473" lon="2.50876"><ele>85.3</ele></trkpt>
    <trkpt lat="48.68443" lon="2.50905"><ele>85.4</ele></trkpt>
    <trkpt lat="48.68417" lon="2.50942"><ele>85.4</ele></trkpt>
    <trkpt lat="48.68401" lon="2.50952"><ele>85.4</ele></trkpt>
    <trkpt lat="48.68383" lon="2.50955"><ele>85.4</ele></trkpt>
    <trkpt lat="48.6833" lon="2.50937"><ele>85.0</ele></trkpt>
    <trkpt lat="48.68315" lon="2.50922"><ele>84.9</ele></trkpt>
    <trkpt lat="48.68306" lon="2.50899"><ele>84.8</ele></trkpt>
    <trkpt lat="48.68294" lon="2.50765"><ele>84.2</ele></trkpt>
    <trkpt lat="48.68281" lon="2.50715"><ele>84.0</ele></trkpt>
    <trkpt lat="48.68269" lon="2.50694"><ele>83.9</ele></trkpt>
    <trkpt lat="48.68256" lon="2.50702"><ele>83.8</ele></trkpt>
    <trkpt lat="48.68187" lon="2.50789"><ele>83.4</ele></trkpt>
    <trkpt lat="48.68175" lon="2.50773"><ele>83.4</ele></trkpt>
    <trkpt lat="48.67956" lon="2.50376"><ele>83.5</ele></trkpt>
    <trkpt lat="48.67953" lon="2.50351"><ele>83.6</ele></trkpt>
    <trkpt lat="48.67994" lon="2.50298"><ele>83.6</ele></trkpt>
    <trkpt lat="48.67994" lon="2.5028"><ele>83.6</ele></trkpt>
    <trkpt lat="48.67909" lon="2.50182"><ele>83.6</ele></trkpt>
    <trkpt lat="48.67896" lon="2.50163"><ele>83.5</ele></trkpt>
    <trkpt lat="48.67889" lon="2.50139"><ele>83.5</ele></trkpt>
    <trkpt lat="48.67876" lon="2.50132"><ele>83.4</ele></trkpt>
    <trkpt lat="48.67858" lon="2.50138"><ele>83.4</ele></trkpt>
    <trkpt lat="48.67829" lon="2.50168"><ele>83.3</ele></trkpt>
    <trkpt lat="48.67775" lon="2.5024"><ele>83.2</ele></trkpt>
    <trkpt lat="48.67704" lon="2.50361"><ele>83.1</ele></trkpt>
    <trkpt lat="48.6767" lon="2.50379"><ele>83.0</ele></trkpt>
    <trkpt lat="48.6764" lon="2.50407"><ele>83.0</ele></trkpt>
    <trkpt lat="48.67605" lon="2.504"><ele>83.0</ele></trkpt>
    <trkpt lat="48.67526" lon="2.50459"><ele>82.9</ele></trkpt>
    <trkpt lat="48.67494" lon="2.50434"><ele>82.9</ele></trkpt>
    <trkpt lat="48.67476" lon="2.50432"><ele>82.9</ele></trkpt>
    <trkpt lat="48.67449" lon="2.50467"><ele>82.9</ele></trkpt>
    <trkpt lat="48.67435" lon="2.50476"><ele>82.9</ele></trkpt>
    <trkpt lat="48.67419" lon="2.50473"><ele>82.9</ele></trkpt>
    <trkpt lat="48.67408" lon="2.50492"><ele>82.9</ele></trkpt>
    <trkpt lat="48.67406" lon="2.50546"><ele>82.8</ele></trkpt>
    <trkpt lat="48.67392" lon="2.50595"><ele>82.8</ele></trkpt>
    <trkpt lat="48.67382" lon="2.50616"><ele>82.8</ele></trkpt>
    <trkpt lat="48.67324" lon="2.50681"><ele>82.7</ele></trkpt>
    <trkpt lat="48.67298" lon="2.50718"><ele>82.7</ele></trkpt>
    <trkpt lat="48.67289" lon="2.5074"><ele>82.7</ele></trkpt>
    <trkpt lat="48.67285" lon="2.50767"><ele>82.7</ele></trkpt>
    <trkpt lat="48.67291" lon="2.50819"><ele>82.8</ele></trkpt>
    <trkpt lat="48.67367" lon="2.51125"><ele>83.5</ele></trkpt>
    <trkpt lat="48.6736" lon="2.51146"><ele>83.5</ele></trkpt>
    <trkpt lat="48.66512" lon="2.52283"><ele>89.0</ele></trkpt>
    <trkpt lat="48.66488" lon="2.52323"><ele>88.9</ele></trkpt>
    <trkpt lat="48.66404" lon="2.52426"><ele>88.6</ele></trkpt>
    <trkpt lat="48.66392" lon="2.52416"><ele>88.6</ele></trkpt>
    <trkpt lat="48.66357" lon="2.52354"><ele>88.5</ele></trkpt>
    <trkpt lat="48.66355" lon="2.52366"><ele>88.5</ele></trkpt>
    <trkpt lat="48.66362" lon="2.52391"><ele>88.5</ele></trkpt>
    <trkpt lat="48.66383" lon="2.52435"><ele>88.5</ele></trkpt>
    <trkpt lat="48.66379" lon="2.52446"><ele>88.5</ele></trkpt>
    <trkpt lat="48.66366" lon="2.52431"><ele>88.5</ele></trkpt>
    <trkpt lat="48.6635" lon="2.52382"><ele>88.5</ele></trkpt>
    <trkpt lat="48.6633" lon="2.52338"><ele>88.4</ele></trkpt>
    <trkpt lat="48.66279" lon="2.5226"><ele>88.2</ele></trkpt>
    <trkpt lat="48.66182" lon="2.52064"><ele>87.3</ele></trkpt>
    <trkpt lat="48.66145" lon="2.52005"><ele>87.0</ele></trkpt>
    <trkpt lat="48.66133" lon="2.51955"><ele>86.8</ele></trkpt>
    <trkpt lat="48.66112" lon="2.51911"><ele>86.6</ele></trkpt>
    <trkpt lat="48.66098" lon="2.51893"><ele>86.6</ele></trkpt>
    <trkpt lat="48.66066" lon="2.51869"><ele>86.5</ele></trkpt>
    <trkpt lat="48.66052" lon="2.5182"><ele>86.3</ele></trkpt>
    <trkpt lat="48.66039" lon="2.51801"><ele>86.3</ele></trkpt>
    <trkpt lat="48.66005" lon="2.51785"><ele>86.2</ele></trkpt>
    <trkpt lat="48.65976" lon="2.51686"><ele>86.0</ele></trkpt>
    <trkpt lat="48.6593" lon="2.51603"><ele>85.9</ele></trkpt>
    <trkpt lat="48.65854" lon="2.51488"><ele>85.1</ele></trkpt>
    <trkpt lat="48.65778" lon="2.51337"><ele>83.9</ele></trkpt>
    <trkpt lat="48.65735" lon="2.51288"><ele>83.3</ele></trkpt>
    <trkpt lat="48.657" lon="2.51277"><ele>82.9</ele></trkpt>
    <trkpt lat="48.65641" lon="2.51175"><ele>82.3</ele></trkpt>
    <trkpt lat="48.65636" lon="2.51152"><ele>82.3</ele></trkpt>
    <trkpt lat="48.65646" lon="2.51112"><ele>82.2</ele></trkpt>
    <trkpt lat="48.65681" lon="2.51116"><ele>82.1</ele></trkpt>
    <trkpt lat="48.65698" lon="2.51111"><ele>82.2</ele></trkpt>
    <trkpt lat="48.65713" lon="2.51116"><ele>82.3</ele></trkpt>
    <trkpt lat="48.65765" lon="2.51259"><ele>83.3</ele></trkpt>
    <trkpt lat="48.65778" lon="2.51252"><ele>83.5</ele></trkpt>
    <trkpt lat="48.65803" lon="2.51211"><ele>83.8</ele></trkpt>
    <trkpt lat="48.65821" lon="2.51166"><ele>84.0</ele></trkpt>
    <trkpt lat="48.65856" lon="2.51156"><ele>83.9</ele></trkpt>
    <trkpt lat="48.65871" lon="2.5114"><ele>83.9</ele></trkpt>
    <trkpt lat="48.66237" lon="2.50701"><ele>82.3</ele></trkpt>
    <trkpt lat="48.6625" lon="2.50682"><ele>82.2</ele></trkpt>
    <trkpt lat="48.66251" lon="2.50656"><ele>82.2</ele></trkpt>
    <trkpt lat="48.66213" lon="2.50504"><ele>82.2</ele></trkpt>
    <trkpt lat="48.66199" lon="2.5049"><ele>82.2</ele></trkpt>
    <trkpt lat="48.66127" lon="2.50494"><ele>82.5</ele></trkpt>
    <trkpt lat="48.66112" lon="2.50487"><ele>82.6</ele></trkpt>
    <trkpt lat="48.66055" lon="2.50348"><ele>83.1</ele></trkpt>
    <trkpt lat="48.66033" lon="2.50306"><ele>83.1</ele></trkpt>
    <trkpt lat="48.66007" lon="2.50234"><ele>82.9</ele></trkpt>
    <trkpt lat="48.65984" lon="2.50193"><ele>82.8</ele></trkpt>
    <trkpt lat="48.6597" lon="2.50177"><ele>82.8</ele></trkpt>
    <trkpt lat="48.65902" lon="2.50143"><ele>82.6</ele></trkpt>
    <trkpt lat="48.65867" lon="2.5014"><ele>82.5</ele></trkpt>
    <trkpt lat="48.65833" lon="2.50125"><ele>82.4</ele></trkpt>
    <trkpt lat="48.65795" lon="2.50035"><ele>82.5</ele></trkpt>
    <trkpt lat="48.6575" lon="2.49991"><ele>82.7</ele></trkpt>
    <trkpt lat="48.65727" lon="2.4995"><ele>82.8</ele></trkpt>
    <trkpt lat="48.65712" lon="2.49935"><ele>82.9</ele></trkpt>
    <trkpt lat="48.65678" lon="2.49948"><ele>83.1</ele></trkpt>
    <trkpt lat="48.65646" lon="2.49925"><ele>83.3</ele></trkpt>
    <trkpt lat="48.65629" lon="2.49925"><ele>83.4</ele></trkpt>
    <trkpt lat="48.65612" lon="2.49935"><ele>83.5</ele></trkpt>
    <trkpt lat="48.65598" lon="2.49933"><ele>83.6</ele></trkpt>
    <trkpt lat="48.65549" lon="2.49821"><ele>84.0</ele></trkpt>
    <trkpt lat="48.65516" lon="2.49828"><ele>84.0</ele></trkpt>
    <trkpt lat="48.65483" lon="2.49807"><ele>84.0</ele></trkpt>
    <trkpt lat="48.6547" lon="2.49788"><ele>84.0</ele></trkpt>
    <trkpt lat="48.65453" lon="2.4974"><ele>84.0</ele></trkpt>
    <trkpt lat="48.65461" lon="2.49555"><ele>83.6</ele></trkpt>
    <trkpt lat="48.65469" lon="2.49502"><ele>83.3</ele></trkpt>
    <trkpt lat="48.65466" lon="2.49421"><ele>83.0</ele></trkpt>
    <trkpt lat="48.65451" lon="2.49374"><ele>82.9</ele></trkpt>
    <trkpt lat="48.65452" lon="2.49324"><ele>82.9</ele></trkpt>
    <trkpt lat="48.65469" lon="2.49328"><ele>82.9</ele></trkpt>
    <trkpt lat="48.6554" lon="2.49312"><ele>82.9</ele></trkpt>
    <trkpt lat="48.65591" lon="2.4929"><ele>82.8</ele></trkpt>
    <trkpt lat="48.65645" lon="2.49277"><ele>82.6</ele></trkpt>
    <trkpt lat="48.65662" lon="2.49269"><ele>82.5</ele></trkpt>
    <trkpt lat="48.65662" lon="2.49245"><ele>82.5</ele></trkpt>
    <trkpt lat="48.65631" lon="2.49258"><ele>82.3</ele></trkpt>
    <trkpt lat="48.65588" lon="2.49209"><ele>82.0</ele></trkpt>
    <trkpt lat="48.65447" lon="2.49089"><ele>81.2</ele></trkpt>
    <trkpt lat="48.65445" lon="2.49071"><ele>81.2</ele></trkpt>
    <trkpt lat="48.65607" lon="2.48898"><ele>81.6</ele></trkpt>
    <trkpt lat="48.65606" lon="2.48878"><ele>81.6</ele></trkpt>
    <trkpt lat="48.65596" lon="2.48855"><ele>81.7</ele></trkpt>
    <trkpt lat="48.65587" lon="2.48723"><ele>82.0</ele></trkpt>
    <trkpt lat="48.65595" lon="2.4867"><ele>82.2</ele></trkpt>
    <trkpt lat="48.65614" lon="2.48593"><ele>82.3</ele></trkpt>
    <trkpt lat="48.65644" lon="2.48527"><ele>82.4</ele></trkpt>
    <trkpt lat="48.6564" lon="2.48505"><ele>82.4</ele></trkpt>
    <trkpt lat="48.65623" lon="2.48499"><ele>82.4</ele></trkpt>
    <trkpt lat="48.65587" lon="2.48499"><ele>82.3</ele></trkpt>
    <trkpt lat="48.65535" lon="2.48519"><ele>82.2</ele></trkpt>
    <trkpt lat="48.65504" lon="2.48494"><ele>82.0</ele></trkpt>
    <trkpt lat="48.65433" lon="2.48481"><ele>81.9</ele></trkpt>
    <trkpt lat="48.65308" lon="2.48501"><ele>82.0</ele></trkpt>
    <trkpt lat="48.65294" lon="2.48495"><ele>82.1</ele></trkpt>
    <trkpt lat="48.65185" lon="2.48034"><ele>84.6</ele></trkpt>
    <trkpt lat="48.65194" lon="2.48016"><ele>84.7</ele></trkpt>
    <trkpt lat="48.65238" lon="2.47969"><ele>85.1</ele></trkpt>
    <trkpt lat="48.65267" lon="2.47902"><ele>85.4</ele></trkpt>
    <trkpt lat="48.65284" lon="2.47896"><ele>85.5</ele></trkpt>
    <trkpt lat="48.65301" lon="2.479"><ele>85.6</ele></trkpt>
    <trkpt lat="48.65317" lon="2.4789"><ele>85.6</ele></trkpt>
    <trkpt lat="48.6532" lon="2.47864"><ele>85.7</ele></trkpt>
    <trkpt lat="48.65317" lon="2.4781"><ele>85.9</ele></trkpt>
    <trkpt lat="48.65302" lon="2.47732"><ele>86.1</ele></trkpt>
    <trkpt lat="48.65294" lon="2.47651"><ele>86.2</ele></trkpt>
    <trkpt lat="48.65299" lon="2.47625"><ele>86.2</ele></trkpt>
    <trkpt lat="48.65355" lon="2.47556"><ele>86.0</ele></trkpt>
    <trkpt lat="48.65376" lon="2.47513"><ele>85.7</ele></trkpt>
    <trkpt lat="48.65408" lon="2.47488"><ele>85.4</ele></trkpt>
    <trkpt lat="48.65431" lon="2.47447"><ele>85.1</ele></trkpt>
    <trkpt lat="48.65446" lon="2.47432"><ele>85.0</ele></trkpt>
    <trkpt lat="48.65478" lon="2.47408"><ele>84.6</ele></trkpt>
    <trkpt lat="48.65514" lon="2.47402"><ele>84.3</ele></trkpt>
    <trkpt lat="48.6553" lon="2.4739"><ele>84.2</ele></trkpt>
    <trkpt lat="48.65593" lon="2.47339"><ele>83.6</ele></trkpt>
    <trkpt lat="48.65647" lon="2.47267"><ele>83.2</ele></trkpt>
    <trkpt lat="48.65713" lon="2.47226"><ele>83.0</ele></trkpt>
    <trkpt lat="48.65727" lon="2.47208"><ele>83.0</ele></trkpt>
    <trkpt lat="48.65735" lon="2.47185"><ele>82.9</ele></trkpt>
    <trkpt lat="48.65739" lon="2.47104"><ele>82.8</ele></trkpt>
    <trkpt lat="48.65754" lon="2.47056"><ele>82.8</ele></trkpt>
    <trkpt lat="48.65782" lon="2.47023"><ele>82.8</ele></trkpt>
    <trkpt lat="48.65845" lon="2.46992"><ele>82.8</ele></trkpt>
    <trkpt lat="48.65778" lon="2.46712"><ele>83.5</ele></trkpt>
    <trkpt lat="48.65812" lon="2.46658"><ele>83.6</ele></trkpt>
    <trkpt lat="48.65828" lon="2.46644"><ele>83.7</ele></trkpt>
    <trkpt lat="48.65863" lon="2.46647"><ele>83.8</ele></trkpt>
    <trkpt lat="48.65879" lon="2.46639"><ele>83.8</ele></trkpt>
    <trkpt lat="48.65905" lon="2.46601"><ele>83.8</ele></trkpt>
    <trkpt lat="48.65958" lon="2.46586"><ele>83.8</ele></trkpt>
    <trkpt lat="48.65974" lon="2.46575"><ele>83.8</ele></trkpt>
    <trkpt lat="48.66004" lon="2.46507"><ele>83.8</ele></trkpt>
    <trkpt lat="48.66017" lon="2.46488"><ele>83.8</ele></trkpt>
    <trkpt lat="48.66031" lon="2.46472"><ele>83.8</ele></trkpt>
    <trkpt lat="48.66066" lon="2.46462"><ele>83.8</ele></trkpt>
    <trkpt lat="48.66097" lon="2.46433"><ele>83.8</ele></trkpt>
    <trkpt lat="48.6612" lon="2.46393"><ele>83.8</ele></trkpt>
    <trkpt lat="48.6635" lon="2.46241"><ele>83.5</ele></trkpt>
    <trkpt lat="48.66471" lon="2.46186"><ele>82.9</ele></trkpt>
    <trkpt lat="48.66554" lon="2.46133"><ele>82.6</ele></trkpt>
    <trkpt lat="48.66618" lon="2.46085"><ele>82.5</ele></trkpt>
    <trkpt lat="48.66851" lon="2.4588"><ele>83.1</ele></trkpt>
    <trkpt lat="48.669" lon="2.45891"><ele>83.1</ele></trkpt>
    <trkpt lat="48.66864" lon="2.45883"><ele>83.2</ele></trkpt>
    <trkpt lat="48.66849" lon="2.45871"><ele>83.2</ele></trkpt>
    <trkpt lat="48.66849" lon="2.45844"><ele>83.2</ele></trkpt>
    <trkpt lat="48.66887" lon="2.45111"><ele>84.2</ele></trkpt>
    <trkpt lat="48.66913" lon="2.4501"><ele>84.4</ele></trkpt>
    <trkpt lat="48.66902" lon="2.44997"><ele>84.4</ele></trkpt>
    <trkpt lat="48.6687" lon="2.45021"><ele>84.3</ele></trkpt>
    <trkpt lat="48.66853" lon="2.45022"><ele>84.3</ele></trkpt>
    <trkpt lat="48.66839" lon="2.4504"><ele>84.2</ele></trkpt>
    <trkpt lat="48.66829" lon="2.45062"><ele>84.2</ele></trkpt>
    <trkpt lat="48.66831" lon="2.45089"><ele>84.1</ele></trkpt>
    <trkpt lat="48.66855" lon="2.4513"><ele>84.0</ele></trkpt>
    <trkpt lat="48.66861" lon="2.45155"><ele>84.0</ele></trkpt>
    <trkpt lat="48.66845" lon="2.45162"><ele>83.9</ele></trkpt>
    <trkpt lat="48.66834" lon="2.45183"><ele>83.9</ele></trkpt>
    <trkpt lat="48.66821" lon="2.45177"><ele>83.9</ele></trkpt>
    <trkpt lat="48.66815" lon="2.45157"><ele>83.8</ele></trkpt>
    <trkpt lat="48.66798" lon="2.45152"><ele>83.8</ele></trkpt>
    <trkpt lat="48.66781" lon="2.45158"><ele>83.8</ele></trkpt>
    <trkpt lat="48.66767" lon="2.45144"><ele>83.8</ele></trkpt>
    <trkpt lat="48.6676" lon="2.45161"><ele>83.8</ele></trkpt>
    <trkpt lat="48.66792" lon="2.45185"><ele>83.8</ele></trkpt>
    <trkpt lat="48.66799" lon="2.452"><ele>83.8</ele></trkpt>
    <trkpt lat="48.66782" lon="2.45194"><ele>83.8</ele></trkpt>
    <trkpt lat="48.66764" lon="2.45198"><ele>83.9</ele></trkpt>
    <trkpt lat="48.66749" lon="2.45188"><ele>83.9</ele></trkpt>
    <trkpt lat="48.66736" lon="2.45195"><ele>84.0</ele></trkpt>
    <trkpt lat="48.66729" lon="2.4522"><ele>84.0</ele></trkpt>
    <trkpt lat="48.66622" lon="2.45235"><ele>84.1</ele></trkpt>
    <trkpt lat="48.66594" lon="2.45262"><ele>84.1</ele></trkpt>
    <trkpt lat="48.66222" lon="2.44561"><ele>83.4</ele></trkpt>
    <trkpt lat="48.66205" lon="2.44515"><ele>83.3</ele></trkpt>
    <trkpt lat="48.66194" lon="2.44511"><ele>83.2</ele></trkpt>
    <trkpt lat="48.66177" lon="2.44515"><ele>83.1</ele></trkpt>
    <trkpt lat="48.65782" lon="2.44483"><ele>79.5</ele></trkpt>
    <trkpt lat="48.65764" lon="2.44487"><ele>79.3</ele></trkpt>
    <trkpt lat="48.65749" lon="2.44501"><ele>79.1</ele></trkpt>
    <trkpt lat="48.65742" lon="2.44527"><ele>79.0</ele></trkpt>
    <trkpt lat="48.65741" lon="2.44553"><ele>79.0</ele></trkpt>
    <trkpt lat="48.65755" lon="2.44602"><ele>78.8</ele></trkpt>
    <trkpt lat="48.65744" lon="2.44654"><ele>78.7</ele></trkpt>
    <trkpt lat="48.65725" lon="2.44695"><ele>78.5</ele></trkpt>
    <trkpt lat="48.65689" lon="2.44754"><ele>78.6</ele></trkpt>
    <trkpt lat="48.65692" lon="2.44835"><ele>78.9</ele></trkpt>
    <trkpt lat="48.65686" lon="2.44861"><ele>79.0</ele></trkpt>
    <trkpt lat="48.65692" lon="2.44881"><ele>79.1</ele></trkpt>
    <trkpt lat="48.65698" lon="2.44855"><ele>79.2</ele></trkpt>
    <trkpt lat="48.65712" lon="2.4484"><ele>79.4</ele></trkpt>
    <trkpt lat="48.65729" lon="2.4484"><ele>79.5</ele></trkpt>
    <trkpt lat="48.65747" lon="2.44847"><ele>79.7</ele></trkpt>
    <trkpt lat="48.65767" lon="2.4489"><ele>79.8</ele></trkpt>
    <trkpt lat="48.65766" lon="2.44866"><ele>79.9</ele></trkpt>
    <trkpt lat="48.65758" lon="2.44842"><ele>80.0</ele></trkpt>
    <trkpt lat="48.65761" lon="2.44819"><ele>80.1</ele></trkpt>
    <trkpt lat="48.65777" lon="2.44813"><ele>80.1</ele></trkpt>
    <trkpt lat="48.65794" lon="2.4482"><ele>80.2</ele></trkpt>
    <trkpt lat="48.65811" lon="2.44813"><ele>80.2</ele></trkpt>
    <trkpt lat="48.65823" lon="2.44797"><ele>80.2</ele></trkpt>
    <trkpt lat="48.65817" lon="2.4478"><ele>80.2</ele></trkpt>
    <trkpt lat="48.65801" lon="2.44767"><ele>80.1</ele></trkpt>
    <trkpt lat="48.65783" lon="2.44721"><ele>80.0</ele></trkpt>
    <trkpt lat="48.65781" lon="2.44667"><ele>79.8</ele></trkpt>
    <trkpt lat="48.65773" lon="2.44642"><ele>79.8</ele></trkpt>
    <trkpt lat="48.65777" lon="2.44617"><ele>79.7</ele></trkpt>
    <trkpt lat="48.65791" lon="2.44604"><ele>79.6</ele></trkpt>
    <trkpt lat="48.65792" lon="2.44549"><ele>79.4</ele></trkpt>
    <trkpt lat="48.65771" lon="2.44476"><ele>79.1</ele></trkpt>
    <trkpt lat="48.65765" lon="2.44396"><ele>78.6</ele></trkpt>
    <trkpt lat="48.65743" lon="2.44324"><ele>77.8</ele></trkpt>
    <trkpt lat="48.65748" lon="2.44298"><ele>77.5</ele></trkpt>
    <trkpt lat="48.65759" lon="2.44277"><ele>77.3</ele></trkpt>
    <trkpt lat="48.65759" lon="2.44253"><ele>77.0</ele></trkpt>
    <trkpt lat="48.65745" lon="2.44258"><ele>76.7</ele></trkpt>
    <trkpt lat="48.65666" lon="2.44321"><ele>74.4</ele></trkpt>
    <trkpt lat="48.65649" lon="2.44317"><ele>73.8</ele></trkpt>
    <trkpt lat="48.65436" lon="2.4417"><ele>65.1</ele></trkpt>
    <trkpt lat="48.65432" lon="2.44146"><ele>64.6</ele></trkpt>
    <trkpt lat="48.65478" lon="2.44"><ele>63.8</ele></trkpt>
    <trkpt lat="48.6556" lon="2.43946"><ele>65.7</ele></trkpt>
    <trkpt lat="48.65613" lon="2.43937"><ele>67.6</ele></trkpt>
    <trkpt lat="48.65643" lon="2.43965"><ele>69.2</ele></trkpt>
    <trkpt lat="48.65656" lon="2.43964"><ele>70.1</ele></trkpt>
    <trkpt lat="48.65665" lon="2.4394"><ele>71.1</ele></trkpt>
    <trkpt lat="48.65681" lon="2.43931"><ele>71.8</ele></trkpt>
    <trkpt lat="48.65713" lon="2.43951"><ele>73.5</ele></trkpt>
    <trkpt lat="48.65737" lon="2.43989"><ele>74.8</ele></trkpt>
    <trkpt lat="48.65768" lon="2.43977"><ele>76.0</ele></trkpt>
    <trkpt lat="48.65782" lon="2.43992"><ele>76.6</ele></trkpt>
    <trkpt lat="48.65793" lon="2.44014"><ele>77.1</ele></trkpt>
    <trkpt lat="48.65836" lon="2.44062"><ele>78.5</ele></trkpt>
    <trkpt lat="48.65853" lon="2.44068"><ele>78.9</ele></trkpt>
    <trkpt lat="48.65869" lon="2.44115"><ele>79.6</ele></trkpt>
    <trkpt lat="48.65875" lon="2.44159"><ele>80.1</ele></trkpt>
    <trkpt lat="48.65927" lon="2.44228"><ele>81.2</ele></trkpt>
    <trkpt lat="48.65944" lon="2.44237"><ele>81.4</ele></trkpt>
    <trkpt lat="48.65958" lon="2.44253"><ele>81.6</ele></trkpt>
    <trkpt lat="48.65975" lon="2.44259"><ele>81.8</ele></trkpt>
    <trkpt lat="48.66008" lon="2.44244"><ele>82.0</ele></trkpt>
    <trkpt lat="48.66026" lon="2.44251"><ele>82.2</ele></trkpt>
    <trkpt lat="48.66074" lon="2.44287"><ele>82.6</ele></trkpt>
    <trkpt lat="48.66088" lon="2.44303"><ele>82.7</ele></trkpt>
    <trkpt lat="48.66198" lon="2.44518"><ele>83.1</ele></trkpt>
    <trkpt lat="48.66481" lon="2.44504"><ele>82.9</ele></trkpt>
    <trkpt lat="48.66841" lon="2.44493"><ele>84.0</ele></trkpt>
    <trkpt lat="48.66858" lon="2.44498"><ele>84.0</ele></trkpt>
    <trkpt lat="48.66875" lon="2.44492"><ele>84.1</ele></trkpt>
    <trkpt lat="48.67325" lon="2.44473"><ele>84.6</ele></trkpt>
    <trkpt lat="48.67378" lon="2.44465"><ele>84.7</ele></trkpt>
    <trkpt lat="48.67394" lon="2.44475"><ele>84.6</ele></trkpt>
    <trkpt lat="48.6756" lon="2.45167"><ele>82.5</ele></trkpt>
    <trkpt lat="48.6772" lon="2.45714"><ele>81.6</ele></trkpt>
    <trkpt lat="48.67745" lon="2.45787"><ele>81.4</ele></trkpt>
    <trkpt lat="48.67756" lon="2.45806"><ele>81.4</ele></trkpt>
    <trkpt lat="48.67763" lon="2.45859"><ele>81.2</ele></trkpt>
    <trkpt lat="48.67773" lon="2.45873"><ele>81.2</ele></trkpt>
    <trkpt lat="48.67805" lon="2.45851"><ele>81.0</ele></trkpt>
    <trkpt lat="48.67841" lon="2.45844"><ele>80.9</ele></trkpt>
    <trkpt lat="48.67892" lon="2.4582"><ele>80.6</ele></trkpt>
    <trkpt lat="48.67959" lon="2.45778"><ele>80.2</ele></trkpt>
    <trkpt lat="48.68016" lon="2.45713"><ele>79.7</ele></trkpt>
    <trkpt lat="48.68078" lon="2.45614"><ele>79.2</ele></trkpt>
    <trkpt lat="48.68107" lon="2.45583"><ele>79.0</ele></trkpt>
    <trkpt lat="48.68155" lon="2.45546"><ele>78.8</ele></trkpt>
    <trkpt lat="48.68225" lon="2.45461"><ele>78.3</ele></trkpt>
    <trkpt lat="48.6824" lon="2.45446"><ele>78.2</ele></trkpt>
    <trkpt lat="48.68293" lon="2.45428"><ele>77.9</ele></trkpt>
    <trkpt lat="48.68342" lon="2.45397"><ele>77.7</ele></trkpt>
    <trkpt lat="48.68384" lon="2.45346"><ele>77.4</ele></trkpt>
    <trkpt lat="48.68419" lon="2.4534"><ele>77.3</ele></trkpt>
    <trkpt lat="48.68468" lon="2.45309"><ele>77.1</ele></trkpt>
    <trkpt lat="48.68503" lon="2.45297"><ele>76.8</ele></trkpt>
    <trkpt lat="48.68583" lon="2.45237"><ele>75.6</ele></trkpt>
    <trkpt lat="48.68601" lon="2.45233"><ele>75.3</ele></trkpt>
    <trkpt lat="48.68617" lon="2.45244"><ele>75.1</ele></trkpt>
    <trkpt lat="48.68653" lon="2.45245"><ele>74.6</ele></trkpt>
    <trkpt lat="48.68722" lon="2.45219"><ele>73.7</ele></trkpt>
    <trkpt lat="48.6874" lon="2.45226"><ele>73.5</ele></trkpt>
    <trkpt lat="48.68773" lon="2.45204"><ele>73.0</ele></trkpt>
    <trkpt lat="48.68842" lon="2.45178"><ele>72.8</ele></trkpt>
    <trkpt lat="48.68855" lon="2.45194"><ele>72.9</ele></trkpt>
    <trkpt lat="48.68911" lon="2.45453"><ele>75.7</ele></trkpt>
    <trkpt lat="48.68946" lon="2.45548"><ele>77.2</ele></trkpt>
    <trkpt lat="48.68968" lon="2.45623"><ele>78.2</ele></trkpt>
    <trkpt lat="48.6898" lon="2.4573"><ele>79.4</ele></trkpt>
    <trkpt lat="48.68973" lon="2.45865"><ele>80.7</ele></trkpt>
    <trkpt lat="48.69001" lon="2.46021"><ele>82.1</ele></trkpt>
    <trkpt lat="48.68991" lon="2.46101"><ele>82.8</ele></trkpt>
    <trkpt lat="48.68972" lon="2.46147"><ele>83.2</ele></trkpt>
    <trkpt lat="48.68967" lon="2.46172"><ele>83.4</ele></trkpt>
    <trkpt lat="48.68964" lon="2.46251"><ele>83.7</ele></trkpt>
    <trkpt lat="48.68946" lon="2.46296"><ele>83.8</ele></trkpt>
    <trkpt lat="48.68939" lon="2.4635"><ele>84.0</ele></trkpt>
    <trkpt lat="48.68938" lon="2.46485"><ele>84.4</ele></trkpt>
    <trkpt lat="48.68931" lon="2.46565"><ele>84.8</ele></trkpt>
    <trkpt lat="48.68936" lon="2.46619"><ele>85.0</ele></trkpt>
    <trkpt lat="48.68926" lon="2.46726"><ele>85.3</ele></trkpt>
    <trkpt lat="48.68935" lon="2.46745"><ele>85.3</ele></trkpt>
    <trkpt lat="48.69057" lon="2.46794"><ele>85.2</ele></trkpt>
    <trkpt lat="48.69045" lon="2.46874"><ele>84.8</ele></trkpt>
    <trkpt lat="48.69052" lon="2.46899"><ele>84.6</ele></trkpt>
    <trkpt lat="48.69055" lon="2.47035"><ele>83.8</ele></trkpt>
    <trkpt lat="48.69064" lon="2.47058"><ele>83.6</ele></trkpt>
    <trkpt lat="48.69109" lon="2.47104"><ele>83.4</ele></trkpt>
    <trkpt lat="48.69118" lon="2.47125"><ele>83.3</ele></trkpt>
    <trkpt lat="48.69136" lon="2.47229"><ele>83.1</ele></trkpt>
    <trkpt lat="48.6919" lon="2.47298"><ele>83.3</ele></trkpt>
    <trkpt lat="48.69239" lon="2.4733"><ele>83.7</ele></trkpt>
    <trkpt lat="48.69254" lon="2.47345"><ele>83.8</ele></trkpt>
    <trkpt lat="48.69264" lon="2.47365"><ele>84.0</ele></trkpt>
    <trkpt lat="48.69258" lon="2.47386"><ele>84.1</ele></trkpt>
    <trkpt lat="48.69224" lon="2.474"><ele>84.2</ele></trkpt>
    <trkpt lat="48.69259" lon="2.47388"><ele>84.2</ele></trkpt>
    <trkpt lat="48.69268" lon="2.47411"><ele>84.2</ele></trkpt>
    <trkpt lat="48.69269" lon="2.47438"><ele>84.2</ele></trkpt>
    <trkpt lat="48.69263" lon="2.47463"><ele>84.2</ele></trkpt>
    <trkpt lat="48.69203" lon="2.47565"><ele>84.1</ele></trkpt>
    <trkpt lat="48.69172" lon="2.47631"><ele>83.9</ele></trkpt>
    <trkpt lat="48.69145" lon="2.47666"><ele>83.7</ele></trkpt>
    <trkpt lat="48.69138" lon="2.47689"><ele>83.6</ele></trkpt>
    <trkpt lat="48.69144" lon="2.47713"><ele>83.5</ele></trkpt>
    <trkpt lat="48.6917" lon="2.47751"><ele>83.5</ele></trkpt>
    <trkpt lat="48.69179" lon="2.47775"><ele>83.4</ele></trkpt>
    <trkpt lat="48.69178" lon="2.47801"><ele>83.4</ele></trkpt>
    <trkpt lat="48.69222" lon="2.47787"><ele>83.5</ele></trkpt>
    <trkpt lat="48.69264" lon="2.47736"><ele>83.5</ele></trkpt>
    <trkpt lat="48.69287" lon="2.47694"><ele>83.6</ele></trkpt>
    <trkpt lat="48.69302" lon="2.47617"><ele>83.8</ele></trkpt>
    <trkpt lat="48.69334" lon="2.47551"><ele>84.0</ele></trkpt>
    <trkpt lat="48.69366" lon="2.4753"><ele>84.1</ele></trkpt>
    <trkpt lat="48.69402" lon="2.47529"><ele>84.3</ele></trkpt>
    <trkpt lat="48.69418" lon="2.47516"><ele>84.4</ele></trkpt>
    <trkpt lat="48.69454" lon="2.47456"><ele>84.6</ele></trkpt>
    <trkpt lat="48.6952" lon="2.47412"><ele>84.9</ele></trkpt>
    <trkpt lat="48.69556" lon="2.47409"><ele>85.0</ele></trkpt>
    <trkpt lat="48.69588" lon="2.47431"><ele>85.0</ele></trkpt>
    <trkpt lat="48.69606" lon="2.47433"><ele>85.0</ele></trkpt>
    <trkpt lat="48.69637" lon="2.47413"><ele>85.0</ele></trkpt>
    <trkpt lat="48.69643" lon="2.47437"><ele>85.0</ele></trkpt>
    <trkpt lat="48.69639" lon="2.47464"><ele>84.9</ele></trkpt>
    <trkpt lat="48.69531" lon="2.47955"><ele>84.1</ele></trkpt>
    <trkpt lat="48.69526" lon="2.47981"><ele>84.1</ele></trkpt>
    <trkpt lat="48.69529" lon="2.48006"><ele>84.1</ele></trkpt>
    <trkpt lat="48.69855" lon="2.48623"><ele>81.1</ele></trkpt>
    <trkpt lat="48.69868" lon="2.48641"><ele>80.5</ele></trkpt>
    <trkpt lat="48.69903" lon="2.48649"><ele>79.1</ele></trkpt>
    <trkpt lat="48.69919" lon="2.48659"><ele>78.1</ele></trkpt>
    <trkpt lat="48.69996" lon="2.48992"><ele>61.5</ele></trkpt>
    <trkpt lat="48.69989" lon="2.49071"><ele>56.4</ele></trkpt>
    <trkpt lat="48.7" lon="2.49122"><ele>53.5</ele></trkpt>
    <trkpt lat="48.70025" lon="2.49161"><ele>50.9</ele></trkpt>
    <trkpt lat="48.70122" lon="2.49232"><ele>43.4</ele></trkpt>
    <trkpt lat="48.70133" lon="2.49253"><ele>42.5</ele></trkpt>
    <trkpt lat="48.70139" lon="2.49334"><ele>40.8</ele></trkpt>
    <trkpt lat="48.70154" lon="2.4935"><ele>40.3</ele></trkpt>
    <trkpt lat="48.7017" lon="2.49361"><ele>39.9</ele></trkpt>
    <trkpt lat="48.70241" lon="2.49359"><ele>38.9</ele></trkpt>
    <trkpt lat="48.70295" lon="2.49372"><ele>38.8</ele></trkpt>
    <trkpt lat="48.70398" lon="2.49421"><ele>38.8</ele></trkpt>
    <trkpt lat="48.70445" lon="2.49458"><ele>39.0</ele></trkpt>
    <trkpt lat="48.70511" lon="2.4955"><ele>39.5</ele></trkpt>
    <trkpt lat="48.70535" lon="2.49592"><ele>39.7</ele></trkpt>
    <trkpt lat="48.7055" lon="2.49606"><ele>39.7</ele></trkpt>
    <trkpt lat="48.70601" lon="2.4963"><ele>39.7</ele></trkpt>
    <trkpt lat="48.70655" lon="2.4963"><ele>39.6</ele></trkpt>
    <trkpt lat="48.7069" lon="2.49642"><ele>39.4</ele></trkpt>
    <trkpt lat="48.707" lon="2.49664"><ele>39.3</ele></trkpt>
    <trkpt lat="48.70706" lon="2.49745"><ele>38.8</ele></trkpt>
    <trkpt lat="48.70721" lon="2.49822"><ele>38.6</ele></trkpt>
    <trkpt lat="48.70719" lon="2.49849"><ele>38.5</ele></trkpt>
    <trkpt lat="48.70726" lon="2.49872"><ele>38.4</ele></trkpt>
    <trkpt lat="48.70741" lon="2.49871"><ele>38.3</ele></trkpt>
    <trkpt lat="48.70755" lon="2.49854"><ele>38.3</ele></trkpt>
    <trkpt lat="48.70818" lon="2.49806"><ele>38.6</ele></trkpt>
    <trkpt lat="48.70853" lon="2.49795"><ele>38.9</ele></trkpt>
    <trkpt lat="48.70871" lon="2.49798"><ele>39.1</ele></trkpt>
    <trkpt lat="48.70905" lon="2.49815"><ele>39.8</ele></trkpt>
    <trkpt lat="48.70996" lon="2.49903"><ele>44.0</ele></trkpt>
    <trkpt lat="48.71054" lon="2.49967"><ele>49.7</ele></trkpt>
    <trkpt lat="48.71165" lon="2.50106"><ele>59.4</ele></trkpt>
    <trkpt lat="48.71181" lon="2.50115"><ele>60.7</ele></trkpt>
    <trkpt lat="48.71217" lon="2.5012"><ele>63.1</ele></trkpt>
    <trkpt lat="48.71307" lon="2.50105"><ele>70.2</ele></trkpt>
    <trkpt lat="48.71342" lon="2.50106"><ele>73.1</ele></trkpt>
    <trkpt lat="48.7136" lon="2.50109"><ele>74.6</ele></trkpt>
    <trkpt lat="48.71427" lon="2.50148"><ele>78.8</ele></trkpt>
    <trkpt lat="48.71515" lon="2.5012"><ele>82.1</ele></trkpt>
    <trkpt lat="48.71834" lon="2.5004"><ele>87.6</ele></trkpt>
    <trkpt lat="48.72371" lon="2.49967"><ele>92.5</ele></trkpt>
    <trkpt lat="48.72461" lon="2.49975"><ele>93.5</ele></trkpt>
    <trkpt lat="48.7258" lon="2.50039"><ele>94.8</ele></trkpt>
    <trkpt lat="48.72651" lon="2.50053"><ele>95.4</ele></trkpt>
    <trkpt lat="48.72686" lon="2.50044"><ele>95.3</ele></trkpt>
    <trkpt lat="48.72909" lon="2.49936"><ele>92.4</ele></trkpt>
    <trkpt lat="48.72944" lon="2.49929"><ele>91.9</ele></trkpt>
    <trkpt lat="48.72962" lon="2.49934"><ele>91.7</ele></trkpt>
    <trkpt lat="48.72976" lon="2.49948"><ele>91.5</ele></trkpt>
    <trkpt lat="48.73009" lon="2.49964"><ele>91.2</ele></trkpt>
    <trkpt lat="48.73166" lon="2.50718"><ele>92.5</ele></trkpt>
    <trkpt lat="48.73181" lon="2.50824"><ele>93.5</ele></trkpt>
    <trkpt lat="48.73188" lon="2.50848"><ele>93.7</ele></trkpt>
    <trkpt lat="48.73203" lon="2.5086"><ele>93.9</ele></trkpt>
    <trkpt lat="48.73465" lon="2.50958"><ele>92.3</ele></trkpt>
    <trkpt lat="48.73479" lon="2.50949"><ele>92.2</ele></trkpt>
    <trkpt lat="48.73506" lon="2.50878"><ele>92.0</ele></trkpt>
    <trkpt lat="48.73529" lon="2.50837"><ele>91.8</ele></trkpt>
    <trkpt lat="48.73609" lon="2.50728"><ele>91.5</ele></trkpt>
    <trkpt lat="48.73633" lon="2.50687"><ele>91.5</ele></trkpt>
    <trkpt lat="48.73643" lon="2.50688"><ele>91.5</ele></trkpt>
    <trkpt lat="48.73689" lon="2.50837"><ele>92.0</ele></trkpt>
    <trkpt lat="48.73701" lon="2.50855"><ele>92.0</ele></trkpt>
    <trkpt lat="48.73768" lon="2.50895"><ele>92.2</ele></trkpt>
    <trkpt lat="48.73923" lon="2.50964"><ele>91.4</ele></trkpt>
    <trkpt lat="48.7399" lon="2.51003"><ele>90.2</ele></trkpt>
    <trkpt lat="48.7411" lon="2.51057"><ele>89.2</ele></trkpt>
    <trkpt lat="48.74181" lon="2.51074"><ele>89.4</ele></trkpt>
    <trkpt lat="48.74215" lon="2.51089"><ele>89.5</ele></trkpt>
    <trkpt lat="48.74376" lon="2.51115"><ele>90.4</ele></trkpt>
    <trkpt lat="48.74412" lon="2.51112"><ele>90.6</ele></trkpt>
    <trkpt lat="48.74501" lon="2.51197"><ele>90.0</ele></trkpt>
    <trkpt lat="48.74572" lon="2.51213"><ele>89.4</ele></trkpt>
    <trkpt lat="48.74836" lon="2.51297"><ele>90.3</ele></trkpt>
    <trkpt lat="48.74848" lon="2.51313"><ele>90.3</ele></trkpt>
    <trkpt lat="48.74841" lon="2.51336"><ele>90.4</ele></trkpt>
    <trkpt lat="48.74722" lon="2.51539"><ele>90.7</ele></trkpt>
    <trkpt lat="48.7472" lon="2.51565"><ele>90.7</ele></trkpt>
    <trkpt lat="48.74723" lon="2.51619"><ele>90.7</ele></trkpt>
    <trkpt lat="48.74815" lon="2.52342"><ele>92.1</ele></trkpt>
    <trkpt lat="48.74825" lon="2.52364"><ele>92.2</ele></trkpt>
    <trkpt lat="48.7492" lon="2.5249"><ele>93.0</ele></trkpt>
    <trkpt lat="48.74937" lon="2.52488"><ele>93.0</ele></trkpt>
    <trkpt lat="48.7525" lon="2.5236"><ele>96.3</ele></trkpt>
    <trkpt lat="48.75258" lon="2.52279"><ele>96.6</ele></trkpt>
    <trkpt lat="48.75274" lon="2.52269"><ele>96.7</ele></trkpt>
    <trkpt lat="48.75341" lon="2.52307"><ele>97.0</ele></trkpt>
    <trkpt lat="48.75356" lon="2.52321"><ele>97.0</ele></trkpt>
    <trkpt lat="48.75556" lon="2.52595"><ele>97.1</ele></trkpt>
    <trkpt lat="48.75586" lon="2.52626"><ele>97.1</ele></trkpt>
    <trkpt lat="48.7574" lon="2.52701"><ele>97.7</ele></trkpt>
    <trkpt lat="48.75829" lon="2.52705"><ele>98.1</ele></trkpt>
    <trkpt lat="48.75839" lon="2.52725"><ele>98.1</ele></trkpt>
    <trkpt lat="48.75898" lon="2.52953"><ele>98.5</ele></trkpt>
    <trkpt lat="48.75908" lon="2.53005"><ele>98.6</ele></trkpt>
    <trkpt lat="48.75907" lon="2.53031"><ele>98.6</ele></trkpt>
    <trkpt lat="48.75914" lon="2.53054"><ele>98.7</ele></trkpt>
    <trkpt lat="48.75982" lon="2.53143"><ele>98.9</ele></trkpt>
    <trkpt lat="48.76026" lon="2.5319"><ele>99.0</ele></trkpt>
    <trkpt lat="48.7609" lon="2.53285"><ele>99.1</ele></trkpt>
    <trkpt lat="48.76101" lon="2.53307"><ele>99.0</ele></trkpt>
    <trkpt lat="48.76109" lon="2.53359"><ele>99.0</ele></trkpt>
    <trkpt lat="48.7612" lon="2.53381"><ele>98.9</ele></trkpt>
    <trkpt lat="48.76137" lon="2.53385"><ele>98.8</ele></trkpt>
    <trkpt lat="48.76152" lon="2.53372"><ele>98.8</ele></trkpt>
    <trkpt lat="48.76169" lon="2.5338"><ele>98.7</ele></trkpt>
    <trkpt lat="48.76264" lon="2.53505"><ele>98.1</ele></trkpt>
    <trkpt lat="48.76327" lon="2.53601"><ele>97.5</ele></trkpt>
    <trkpt lat="48.76346" lon="2.53647"><ele>97.1</ele></trkpt>
    <trkpt lat="48.76376" lon="2.53676"><ele>96.7</ele></trkpt>
    <trkpt lat="48.76586" lon="2.54012"><ele>92.9</ele></trkpt>
    <trkpt lat="48.76599" lon="2.54007"><ele>92.5</ele></trkpt>
    <trkpt lat="48.76642" lon="2.53957"><ele>91.5</ele></trkpt>
    <trkpt lat="48.76658" lon="2.53947"><ele>91.1</ele></trkpt>
    <trkpt lat="48.76712" lon="2.53936"><ele>89.9</ele></trkpt>
    <trkpt lat="48.76765" lon="2.53939"><ele>88.6</ele></trkpt>
    <trkpt lat="48.76833" lon="2.53972"><ele>86.7</ele></trkpt>
    <trkpt lat="48.76904" lon="2.53993"><ele>85.4</ele></trkpt>
    <trkpt lat="48.76912" lon="2.53972"><ele>85.5</ele></trkpt>
    <trkpt lat="48.76926" lon="2.53958"><ele>85.6</ele></trkpt>
    <trkpt lat="48.7698" lon="2.53953"><ele>85.9</ele></trkpt>
    <trkpt lat="48.77004" lon="2.5388"><ele>85.7</ele></trkpt>
    <trkpt lat="48.77019" lon="2.53774"><ele>84.7</ele></trkpt>
    <trkpt lat="48.77109" lon="2.53773"><ele>81.4</ele></trkpt>
    <trkpt lat="48.7716" lon="2.53796"><ele>79.3</ele></trkpt>
    <trkpt lat="48.77177" lon="2.53787"><ele>78.6</ele></trkpt>
    <trkpt lat="48.77191" lon="2.5377"><ele>77.9</ele></trkpt>
    <trkpt lat="48.77214" lon="2.53728"><ele>76.0</ele></trkpt>
    <trkpt lat="48.77229" lon="2.5372"><ele>74.9</ele></trkpt>
    <trkpt lat="48.7726" lon="2.5374"><ele>72.9</ele></trkpt>
    <trkpt lat="48.77301" lon="2.53688"><ele>71.2</ele></trkpt>
    <trkpt lat="48.77347" lon="2.53646"><ele>69.9</ele></trkpt>
    <trkpt lat="48.77419" lon="2.53639"><ele>67.9</ele></trkpt>
    <trkpt lat="48.77574" lon="2.53574"><ele>63.0</ele></trkpt>
    <trkpt lat="48.77644" lon="2.53554"><ele>60.9</ele></trkpt>
    <trkpt lat="48.77659" lon="2.53539"><ele>60.4</ele></trkpt>
    <trkpt lat="48.7767" lon="2.53517"><ele>59.9</ele></trkpt>
    <trkpt lat="48.77669" lon="2.53464"><ele>59.0</ele></trkpt>
    <trkpt lat="48.77681" lon="2.53448"><ele>58.6</ele></trkpt>
    <trkpt lat="48.77824" lon="2.53425"><ele>57.3</ele></trkpt>
    <trkpt lat="48.77841" lon="2.53429"><ele>57.5</ele></trkpt>
    <trkpt lat="48.77853" lon="2.53449"><ele>57.6</ele></trkpt>
    <trkpt lat="48.77899" lon="2.53597"><ele>60.2</ele></trkpt>
    <trkpt lat="48.77921" lon="2.5364"><ele>61.9</ele></trkpt>
    <trkpt lat="48.77952" lon="2.53665"><ele>63.9</ele></trkpt>
    <trkpt lat="48.78206" lon="2.53806"><ele>79.5</ele></trkpt>
    <trkpt lat="48.78241" lon="2.53812"><ele>81.4</ele></trkpt>
    <trkpt lat="48.78259" lon="2.53808"><ele>82.5</ele></trkpt>
    <trkpt lat="48.78413" lon="2.53733"><ele>90.5</ele></trkpt>
    <trkpt lat="48.78431" lon="2.5373"><ele>91.3</ele></trkpt>
    <trkpt lat="48.78446" lon="2.53736"><ele>91.9</ele></trkpt>
    <trkpt lat="48.7871" lon="2.54355"><ele>97.8</ele></trkpt>
    <trkpt lat="48.78714" lon="2.54376"><ele>97.8</ele></trkpt>
    <trkpt lat="48.78675" lon="2.54433"><ele>97.7</ele></trkpt>
  </trkseg></trk>
</gpx>
