<?xml version="1.0" encoding="UTF-8"?>
<gpx version="1.1" creator="USO Cyclisme" xmlns="http://www.topografix.com/GPX/1/1">
  <metadata><name>Yèbles – 76 km</name><desc>Gravel, 75.7 km, D+ 334 m. Départ et arrivée : centre culturel d'Ormesson-sur-Marne.</desc></metadata>
  <trk><name>Yèbles – 76 km (gravel)</name><trkseg>
    <trkpt lat="48.78667" lon="2.54444"><ele>97.8</ele></trkpt>
    <trkpt lat="48.78716" lon="2.54368"><ele>98.2</ele></trkpt>
    <trkpt lat="48.78781" lon="2.54522"><ele>100.5</ele></trkpt>
    <trkpt lat="48.78449" lon="2.53743"><ele>92.1</ele></trkpt>
    <trkpt lat="48.78434" lon="2.5373"><ele>91.5</ele></trkpt>
    <trkpt lat="48.78416" lon="2.5373"><ele>90.8</ele></trkpt>
    <trkpt lat="48.7828" lon="2.53799"><ele>83.6</ele></trkpt>
    <trkpt lat="48.78245" lon="2.53811"><ele>81.6</ele></trkpt>
    <trkpt lat="48.78227" lon="2.53813"><ele>80.7</ele></trkpt>
    <trkpt lat="48.78192" lon="2.53799"><ele>78.8</ele></trkpt>
    <trkpt lat="48.77923" lon="2.53644"><ele>62.3</ele></trkpt>
    <trkpt lat="48.779" lon="2.53603"><ele>60.5</ele></trkpt>
    <trkpt lat="48.77845" lon="2.53432"><ele>57.6</ele></trkpt>
    <trkpt lat="48.77828" lon="2.53424"><ele>57.4</ele></trkpt>
    <trkpt lat="48.77685" lon="2.53447"><ele>59.0</ele></trkpt>
    <trkpt lat="48.77667" lon="2.53444"><ele>60.0</ele></trkpt>
    <trkpt lat="48.77637" lon="2.53415"><ele>62.3</ele></trkpt>
    <trkpt lat="48.77603" lon="2.534"><ele>64.6</ele></trkpt>
    <trkpt lat="48.77466" lon="2.53466"><ele>71.6</ele></trkpt>
    <trkpt lat="48.77451" lon="2.53459"><ele>72.6</ele></trkpt>
    <trkpt lat="48.7741" lon="2.53338"><ele>77.3</ele></trkpt>
    <trkpt lat="48.77399" lon="2.53318"><ele>78.3</ele></trkpt>
    <trkpt lat="48.77382" lon="2.53321"><ele>79.2</ele></trkpt>
    <trkpt lat="48.77349" lon="2.53342"><ele>80.9</ele></trkpt>
    <trkpt lat="48.77286" lon="2.53394"><ele>83.9</ele></trkpt>
    <trkpt lat="48.77269" lon="2.53392"><ele>84.7</ele></trkpt>
    <trkpt lat="48.77212" lon="2.53326"><ele>87.8</ele></trkpt>
    <trkpt lat="48.77147" lon="2.53232"><ele>91.5</ele></trkpt>
    <trkpt lat="48.77132" lon="2.53238"><ele>92.0</ele></trkpt>
    <trkpt lat="48.77114" lon="2.53284"><ele>92.7</ele></trkpt>
    <trkpt lat="48.77032" lon="2.53428"><ele>93.6</ele></trkpt>
    <trkpt lat="48.77021" lon="2.53508"><ele>93.4</ele></trkpt>
    <trkpt lat="48.76993" lon="2.53577"><ele>93.1</ele></trkpt>
    <trkpt lat="48.76939" lon="2.53648"><ele>93.0</ele></trkpt>
    <trkpt lat="48.76874" lon="2.53694"><ele>93.0</ele></trkpt>
    <trkpt lat="48.76803" lon="2.53713"><ele>93.0</ele></trkpt>
    <trkpt lat="48.76749" lon="2.53708"><ele>93.1</ele></trkpt>
    <trkpt lat="48.76697" lon="2.53688"><ele>93.4</ele></trkpt>
    <trkpt lat="48.76632" lon="2.53643"><ele>94.1</ele></trkpt>
    <trkpt lat="48.76603" lon="2.5361"><ele>94.5</ele></trkpt>
    <trkpt lat="48.76567" lon="2.53549"><ele>95.1</ele></trkpt>
    <trkpt lat="48.76551" lon="2.53546"><ele>95.3</ele></trkpt>
    <trkpt lat="48.76533" lon="2.53549"><ele>95.4</ele></trkpt>
    <trkpt lat="48.76517" lon="2.53561"><ele>95.6</ele></trkpt>
    <trkpt lat="48.76475" lon="2.53611"><ele>96.2</ele></trkpt>
    <trkpt lat="48.7644" lon="2.53623"><ele>96.5</ele></trkpt>
    <trkpt lat="48.76388" lon="2.53608"><ele>96.9</ele></trkpt>
    <trkpt lat="48.7637" lon="2.53609"><ele>97.1</ele></trkpt>
    <trkpt lat="48.76342" lon="2.53641"><ele>97.3</ele></trkpt>
    <trkpt lat="48.76324" lon="2.53596"><ele>97.5</ele></trkpt>
    <trkpt lat="48.76273" lon="2.53519"><ele>98.0</ele></trkpt>
    <trkpt lat="48.76165" lon="2.53376"><ele>98.7</ele></trkpt>
    <trkpt lat="48.76148" lon="2.53373"><ele>98.8</ele></trkpt>
    <trkpt lat="48.76133" lon="2.53385"><ele>98.8</ele></trkpt>
    <trkpt lat="48.76117" lon="2.53377"><ele>98.9</ele></trkpt>
    <trkpt lat="48.76108" lon="2.53354"><ele>99.0</ele></trkpt>
    <trkpt lat="48.76099" lon="2.53302"><ele>99.1</ele></trkpt>
    <trkpt lat="48.76088" lon="2.53281"><ele>99.1</ele></trkpt>
    <trkpt lat="48.76023" lon="2.53186"><ele>99.0</ele></trkpt>
    <trkpt lat="48.75979" lon="2.5314"><ele>98.9</ele></trkpt>
    <trkpt lat="48.75912" lon="2.5305"><ele>98.7</ele></trkpt>
    <trkpt lat="48.75897" lon="2.52949"><ele>98.5</ele></trkpt>
    <trkpt lat="48.75838" lon="2.5272"><ele>98.1</ele></trkpt>
    <trkpt lat="48.75826" lon="2.52702"><ele>98.0</ele></trkpt>
    <trkpt lat="48.75755" lon="2.52705"><ele>97.8</ele></trkpt>
    <trkpt lat="48.75737" lon="2.527"><ele>97.7</ele></trkpt>
    <trkpt lat="48.756" lon="2.52635"><ele>97.1</ele></trkpt>
    <trkpt lat="48.75568" lon="2.5261"><ele>97.1</ele></trkpt>
    <trkpt lat="48.75354" lon="2.52318"><ele>97.0</ele></trkpt>
    <trkpt lat="48.75322" lon="2.52296"><ele>97.0</ele></trkpt>
    <trkpt lat="48.75262" lon="2.52195"><ele>97.4</ele></trkpt>
    <trkpt lat="48.74985" lon="2.51846"><ele>95.6</ele></trkpt>
    <trkpt lat="48.74742" lon="2.51522"><ele>91.4</ele></trkpt>
    <trkpt lat="48.74742" lon="2.515"><ele>91.0</ele></trkpt>
    <trkpt lat="48.74839" lon="2.51338"><ele>90.4</ele></trkpt>
    <trkpt lat="48.74848" lon="2.51315"><ele>90.3</ele></trkpt>
    <trkpt lat="48.74839" lon="2.51299"><ele>90.2</ele></trkpt>
    <trkpt lat="48.7454" lon="2.51201"><ele>89.7</ele></trkpt>
    <trkpt lat="48.74504" lon="2.51197"><ele>90.0</ele></trkpt>
    <trkpt lat="48.74469" lon="2.51204"><ele>90.7</ele></trkpt>
    <trkpt lat="48.74324" lon="2.51313"><ele>92.5</ele></trkpt>
    <trkpt lat="48.7343" lon="2.52074"><ele>90.2</ele></trkpt>
    <trkpt lat="48.7342" lon="2.52055"><ele>90.3</ele></trkpt>
    <trkpt lat="48.73418" lon="2.52001"><ele>90.6</ele></trkpt>
    <trkpt lat="48.73408" lon="2.51949"><ele>90.8</ele></trkpt>
    <trkpt lat="48.73278" lon="2.51325"><ele>92.0</ele></trkpt>
    <trkpt lat="48.73267" lon="2.51339"><ele>92.1</ele></trkpt>
    <trkpt lat="48.73207" lon="2.51537"><ele>92.4</ele></trkpt>
    <trkpt lat="48.7318" lon="2.51608"><ele>92.4</ele></trkpt>
    <trkpt lat="48.73086" lon="2.51841"><ele>92.4</ele></trkpt>
    <trkpt lat="48.72985" lon="2.52066"><ele>93.2</ele></trkpt>
    <trkpt lat="48.7285" lon="2.52419"><ele>92.3</ele></trkpt>
    <trkpt lat="48.72788" lon="2.52645"><ele>92.9</ele></trkpt>
    <trkpt lat="48.72763" lon="2.52685"><ele>92.5</ele></trkpt>
    <trkpt lat="48.72724" lon="2.52776"><ele>91.1</ele></trkpt>
    <trkpt lat="48.72695" lon="2.52806"><ele>90.6</ele></trkpt>
    <trkpt lat="48.72632" lon="2.53002"><ele>90.3</ele></trkpt>
    <trkpt lat="48.72619" lon="2.53081"><ele>89.8</ele></trkpt>
    <trkpt lat="48.72616" lon="2.53134"><ele>89.1</ele></trkpt>
    <trkpt lat="48.72607" lon="2.53157"><ele>88.7</ele></trkpt>
    <trkpt lat="48.72602" lon="2.53211"><ele>87.7</ele></trkpt>
    <trkpt lat="48.72603" lon="2.53347"><ele>84.1</ele></trkpt>
    <trkpt lat="48.72631" lon="2.53476"><ele>81.2</ele></trkpt>
    <trkpt lat="48.72632" lon="2.53503"><ele>80.8</ele></trkpt>
    <trkpt lat="48.72624" lon="2.53555"><ele>80.0</ele></trkpt>
    <trkpt lat="48.72636" lon="2.53772"><ele>75.7</ele></trkpt>
    <trkpt lat="48.72629" lon="2.53936"><ele>71.8</ele></trkpt>
    <trkpt lat="48.72599" lon="2.54149"><ele>71.2</ele></trkpt>
    <trkpt lat="48.72555" lon="2.54298"><ele>71.3</ele></trkpt>
    <trkpt lat="48.72505" lon="2.54411"><ele>71.9</ele></trkpt>
    <trkpt lat="48.72419" lon="2.5455"><ele>73.5</ele></trkpt>
    <trkpt lat="48.72332" lon="2.54646"><ele>73.1</ele></trkpt>
    <trkpt lat="48.72301" lon="2.54675"><ele>73.3</ele></trkpt>
    <trkpt lat="48.72236" lon="2.54719"><ele>73.0</ele></trkpt>
    <trkpt lat="48.72151" lon="2.54765"><ele>74.7</ele></trkpt>
    <trkpt lat="48.72062" lon="2.54788"><ele>77.3</ele></trkpt>
    <trkpt lat="48.71883" lon="2.54797"><ele>77.8</ele></trkpt>
    <trkpt lat="48.71524" lon="2.54833"><ele>83.5</ele></trkpt>
    <trkpt lat="48.71417" lon="2.54858"><ele>85.5</ele></trkpt>
    <trkpt lat="48.71332" lon="2.549"><ele>87.1</ele></trkpt>
    <trkpt lat="48.71283" lon="2.54934"><ele>88.1</ele></trkpt>
    <trkpt lat="48.71237" lon="2.54978"><ele>88.9</ele></trkpt>
    <trkpt lat="48.71152" lon="2.55077"><ele>90.3</ele></trkpt>
    <trkpt lat="48.7109" lon="2.55176"><ele>91.3</ele></trkpt>
    <trkpt lat="48.71047" lon="2.55264"><ele>91.9</ele></trkpt>
    <trkpt lat="48.7102" lon="2.55334"><ele>92.2</ele></trkpt>
    <trkpt lat="48.7099" lon="2.55433"><ele>92.5</ele></trkpt>
    <trkpt lat="48.70967" lon="2.55537"><ele>92.6</ele></trkpt>
    <trkpt lat="48.70955" lon="2.55616"><ele>92.7</ele></trkpt>
    <trkpt lat="48.7095" lon="2.55724"><ele>92.7</ele></trkpt>
    <trkpt lat="48.70995" lon="2.55763"><ele>92.6</ele></trkpt>
    <trkpt lat="48.7103" lon="2.5577"><ele>92.3</ele></trkpt>
    <trkpt lat="48.71074" lon="2.55813"><ele>91.9</ele></trkpt>
    <trkpt lat="48.71174" lon="2.55872"><ele>91.6</ele></trkpt>
    <trkpt lat="48.71245" lon="2.55956"><ele>93.3</ele></trkpt>
    <trkpt lat="48.71354" lon="2.5605"><ele>96.6</ele></trkpt>
    <trkpt lat="48.71377" lon="2.56091"><ele>97.6</ele></trkpt>
    <trkpt lat="48.71421" lon="2.5614"><ele>98.9</ele></trkpt>
    <trkpt lat="48.71431" lon="2.56161"><ele>99.1</ele></trkpt>
    <trkpt lat="48.7127" lon="2.56417"><ele>98.6</ele></trkpt>
    <trkpt lat="48.7123" lon="2.56507"><ele>96.9</ele></trkpt>
    <trkpt lat="48.71219" lon="2.56559"><ele>96.0</ele></trkpt>
    <trkpt lat="48.71221" lon="2.56586"><ele>95.6</ele></trkpt>
    <trkpt lat="48.71231" lon="2.56608"><ele>95.3</ele></trkpt>
    <trkpt lat="48.7137" lon="2.56821"><ele>95.2</ele></trkpt>
    <trkpt lat="48.71439" lon="2.5698"><ele>95.0</ele></trkpt>
    <trkpt lat="48.71453" lon="2.57059"><ele>94.7</ele></trkpt>
    <trkpt lat="48.71488" lon="2.57213"><ele>94.6</ele></trkpt>
    <trkpt lat="48.71501" lon="2.57293"><ele>95.1</ele></trkpt>
    <trkpt lat="48.71503" lon="2.57429"><ele>95.6</ele></trkpt>
    <trkpt lat="48.7152" lon="2.57475"><ele>95.7</ele></trkpt>
    <trkpt lat="48.71516" lon="2.57525"><ele>95.8</ele></trkpt>
    <trkpt lat="48.71498" lon="2.57572"><ele>95.9</ele></trkpt>
    <trkpt lat="48.71498" lon="2.57598"><ele>95.9</ele></trkpt>
    <trkpt lat="48.71512" lon="2.57676"><ele>95.9</ele></trkpt>
    <trkpt lat="48.71509" lon="2.57702"><ele>95.9</ele></trkpt>
    <trkpt lat="48.71485" lon="2.57776"><ele>95.8</ele></trkpt>
    <trkpt lat="48.71443" lon="2.57864"><ele>95.6</ele></trkpt>
    <trkpt lat="48.71401" lon="2.57984"><ele>95.4</ele></trkpt>
    <trkpt lat="48.71285" lon="2.5826"><ele>95.2</ele></trkpt>
    <trkpt lat="48.71262" lon="2.58298"><ele>95.1</ele></trkpt>
    <trkpt lat="48.709" lon="2.59143"><ele>94.9</ele></trkpt>
    <trkpt lat="48.70845" lon="2.59251"><ele>94.9</ele></trkpt>
    <trkpt lat="48.7066" lon="2.59686"><ele>93.9</ele></trkpt>
    <trkpt lat="48.70647" lon="2.59706"><ele>93.8</ele></trkpt>
    <trkpt lat="48.7063" lon="2.59715"><ele>93.7</ele></trkpt>
    <trkpt lat="48.7062" lon="2.59767"><ele>93.4</ele></trkpt>
    <trkpt lat="48.70426" lon="2.60225"><ele>92.4</ele></trkpt>
    <trkpt lat="48.704" lon="2.6026"><ele>92.3</ele></trkpt>
    <trkpt lat="48.70399" lon="2.60314"><ele>92.1</ele></trkpt>
    <trkpt lat="48.70378" lon="2.60418"><ele>91.5</ele></trkpt>
    <trkpt lat="48.70372" lon="2.60472"><ele>91.0</ele></trkpt>
    <trkpt lat="48.70364" lon="2.60688"><ele>89.2</ele></trkpt>
    <trkpt lat="48.70352" lon="2.60708"><ele>89.0</ele></trkpt>
    <trkpt lat="48.70336" lon="2.60719"><ele>88.8</ele></trkpt>
    <trkpt lat="48.70143" lon="2.60772"><ele>88.3</ele></trkpt>
    <trkpt lat="48.69954" lon="2.611"><ele>88.7</ele></trkpt>
    <trkpt lat="48.69943" lon="2.61149"><ele>88.6</ele></trkpt>
    <trkpt lat="48.69651" lon="2.61667"><ele>88.1</ele></trkpt>
    <trkpt lat="48.69501" lon="2.61974"><ele>88.8</ele></trkpt>
    <trkpt lat="48.69456" lon="2.62057"><ele>88.8</ele></trkpt>
    <trkpt lat="48.68691" lon="2.63674"><ele>90.4</ele></trkpt>
    <trkpt lat="48.68602" lon="2.63879"><ele>88.1</ele></trkpt>
    <trkpt lat="48.68492" lon="2.64161"><ele>82.9</ele></trkpt>
    <trkpt lat="48.68427" lon="2.64355"><ele>79.3</ele></trkpt>
    <trkpt lat="48.68328" lon="2.64676"><ele>77.7</ele></trkpt>
    <trkpt lat="48.67868" lon="2.66596"><ele>96.8</ele></trkpt>
    <trkpt lat="48.67732" lon="2.67188"><ele>97.1</ele></trkpt>
    <trkpt lat="48.67701" lon="2.67286"><ele>96.8</ele></trkpt>
    <trkpt lat="48.67645" lon="2.67392"><ele>96.1</ele></trkpt>
    <trkpt lat="48.67553" lon="2.67524"><ele>95.1</ele></trkpt>
    <trkpt lat="48.67478" lon="2.67598"><ele>94.3</ele></trkpt>
    <trkpt lat="48.6735" lon="2.67698"><ele>93.2</ele></trkpt>
    <trkpt lat="48.6729" lon="2.67757"><ele>92.7</ele></trkpt>
    <trkpt lat="48.6721" lon="2.67867"><ele>91.8</ele></trkpt>
    <trkpt lat="48.67165" lon="2.67952"><ele>91.3</ele></trkpt>
    <trkpt lat="48.6713" lon="2.68046"><ele>90.8</ele></trkpt>
    <trkpt lat="48.67093" lon="2.68171"><ele>90.4</ele></trkpt>
    <trkpt lat="48.67085" lon="2.68223"><ele>90.2</ele></trkpt>
    <trkpt lat="48.66919" lon="2.68855"><ele>87.1</ele></trkpt>
    <trkpt lat="48.66753" lon="2.69517"><ele>84.0</ele></trkpt>
    <trkpt lat="48.66689" lon="2.69681"><ele>83.5</ele></trkpt>
    <trkpt lat="48.66643" lon="2.69765"><ele>83.3</ele></trkpt>
    <trkpt lat="48.66543" lon="2.69881"><ele>83.1</ele></trkpt>
    <trkpt lat="48.66411" lon="2.69968"><ele>83.4</ele></trkpt>
    <trkpt lat="48.66237" lon="2.7003"><ele>83.5</ele></trkpt>
    <trkpt lat="48.65811" lon="2.70141"><ele>80.5</ele></trkpt>
    <trkpt lat="48.65725" lon="2.70178"><ele>80.2</ele></trkpt>
    <trkpt lat="48.65643" lon="2.70234"><ele>79.6</ele></trkpt>
    <trkpt lat="48.65586" lon="2.703"><ele>78.9</ele></trkpt>
    <trkpt lat="48.65495" lon="2.70432"><ele>78.3</ele></trkpt>
    <trkpt lat="48.65168" lon="2.70939"><ele>73.9</ele></trkpt>
    <trkpt lat="48.65085" lon="2.71082"><ele>73.1</ele></trkpt>
    <trkpt lat="48.65014" lon="2.71238"><ele>72.0</ele></trkpt>
    <trkpt lat="48.64412" lon="2.73096"><ele>78.5</ele></trkpt>
    <trkpt lat="48.64359" lon="2.73298"><ele>78.6</ele></trkpt>
    <trkpt lat="48.64344" lon="2.73404"><ele>77.8</ele></trkpt>
    <trkpt lat="48.64355" lon="2.73425"><ele>77.3</ele></trkpt>
    <trkpt lat="48.64388" lon="2.73442"><ele>75.3</ele></trkpt>
    <trkpt lat="48.64514" lon="2.7343"><ele>65.8</ele></trkpt>
    <trkpt lat="48.64528" lon="2.73445"><ele>65.3</ele></trkpt>
    <trkpt lat="48.64543" lon="2.73482"><ele>64.9</ele></trkpt>
    <trkpt lat="48.64523" lon="2.73438"><ele>65.5</ele></trkpt>
    <trkpt lat="48.64507" lon="2.73429"><ele>66.2</ele></trkpt>
    <trkpt lat="48.64435" lon="2.73436"><ele>70.0</ele></trkpt>
    <trkpt lat="48.64507" lon="2.73429"><ele>66.1</ele></trkpt>
    <trkpt lat="48.64523" lon="2.73439"><ele>65.5</ele></trkpt>
    <trkpt lat="48.6455" lon="2.73508"><ele>65.8</ele></trkpt>
    <trkpt lat="48.64548" lon="2.73533"><ele>66.6</ele></trkpt>
    <trkpt lat="48.64533" lon="2.73539"><ele>67.5</ele></trkpt>
    <trkpt lat="48.64497" lon="2.73537"><ele>69.7</ele></trkpt>
    <trkpt lat="48.64353" lon="2.73523"><ele>78.3</ele></trkpt>
    <trkpt lat="48.64335" lon="2.73527"><ele>79.1</ele></trkpt>
    <trkpt lat="48.64324" lon="2.73577"><ele>80.1</ele></trkpt>
    <trkpt lat="48.64323" lon="2.73849"><ele>83.1</ele></trkpt>
    <trkpt lat="48.64335" lon="2.74393"><ele>87.3</ele></trkpt>
    <trkpt lat="48.6433" lon="2.74638"><ele>88.7</ele></trkpt>
    <trkpt lat="48.6432" lon="2.74746"><ele>88.9</ele></trkpt>
    <trkpt lat="48.64275" lon="2.74981"><ele>90.4</ele></trkpt>
    <trkpt lat="48.64263" lon="2.7506"><ele>91.2</ele></trkpt>
    <trkpt lat="48.6426" lon="2.75114"><ele>91.2</ele></trkpt>
    <trkpt lat="48.64241" lon="2.7522"><ele>91.4</ele></trkpt>
    <trkpt lat="48.64151" lon="2.75858"><ele>93.4</ele></trkpt>
    <trkpt lat="48.64029" lon="2.77371"><ele>93.2</ele></trkpt>
    <trkpt lat="48.64031" lon="2.77398"><ele>93.2</ele></trkpt>
    <trkpt lat="48.64125" lon="2.77526"><ele>92.7</ele></trkpt>
    <trkpt lat="48.64295" lon="2.77726"><ele>90.9</ele></trkpt>
    <trkpt lat="48.6436" lon="2.77857"><ele>90.2</ele></trkpt>
    <trkpt lat="48.64416" lon="2.77924"><ele>90.0</ele></trkpt>
    <trkpt lat="48.64452" lon="2.77985"><ele>89.7</ele></trkpt>
    <trkpt lat="48.64465" lon="2.77994"><ele>89.5</ele></trkpt>
    <trkpt lat="48.64908" lon="2.77102"><ele>68.4</ele></trkpt>
    <trkpt lat="48.64919" lon="2.77081"><ele>68.2</ele></trkpt>
    <trkpt lat="48.64932" lon="2.77074"><ele>68.0</ele></trkpt>
    <trkpt lat="48.64969" lon="2.77133"><ele>67.2</ele></trkpt>
    <trkpt lat="48.64985" lon="2.77145"><ele>67.2</ele></trkpt>
    <trkpt lat="48.65002" lon="2.7715"><ele>67.2</ele></trkpt>
    <trkpt lat="48.65074" lon="2.77144"><ele>67.8</ele></trkpt>
    <trkpt lat="48.65128" lon="2.77148"><ele>68.9</ele></trkpt>
    <trkpt lat="48.65305" lon="2.77197"><ele>78.5</ele></trkpt>
    <trkpt lat="48.65394" lon="2.77215"><ele>81.1</ele></trkpt>
    <trkpt lat="48.65466" lon="2.77206"><ele>82.5</ele></trkpt>
    <trkpt lat="48.65591" lon="2.77201"><ele>84.6</ele></trkpt>
    <trkpt lat="48.65608" lon="2.77193"><ele>84.8</ele></trkpt>
    <trkpt lat="48.6567" lon="2.7714"><ele>87.1</ele></trkpt>
    <trkpt lat="48.65758" lon="2.77164"><ele>88.7</ele></trkpt>
    <trkpt lat="48.65944" lon="2.77265"><ele>92.9</ele></trkpt>
    <trkpt lat="48.65997" lon="2.77276"><ele>94.4</ele></trkpt>
    <trkpt lat="48.66051" lon="2.77264"><ele>95.2</ele></trkpt>
    <trkpt lat="48.66137" lon="2.77229"><ele>96.2</ele></trkpt>
    <trkpt lat="48.66154" lon="2.77235"><ele>96.3</ele></trkpt>
    <trkpt lat="48.66185" lon="2.7726"><ele>96.5</ele></trkpt>
    <trkpt lat="48.662" lon="2.77249"><ele>96.5</ele></trkpt>
    <trkpt lat="48.66236" lon="2.77188"><ele>96.7</ele></trkpt>
    <trkpt lat="48.66252" lon="2.77184"><ele>96.8</ele></trkpt>
    <trkpt lat="48.66423" lon="2.77265"><ele>96.7</ele></trkpt>
    <trkpt lat="48.66513" lon="2.77277"><ele>95.8</ele></trkpt>
    <trkpt lat="48.66707" lon="2.77337"><ele>94.2</ele></trkpt>
    <trkpt lat="48.66827" lon="2.77392"><ele>93.8</ele></trkpt>
    <trkpt lat="48.66916" lon="2.774"><ele>93.6</ele></trkpt>
    <trkpt lat="48.67204" lon="2.77371"><ele>92.7</ele></trkpt>
    <trkpt lat="48.67257" lon="2.77355"><ele>92.4</ele></trkpt>
    <trkpt lat="48.67324" lon="2.77316"><ele>92.6</ele></trkpt>
    <trkpt lat="48.67431" lon="2.77216"><ele>94.3</ele></trkpt>
    <trkpt lat="48.67464" lon="2.77196"><ele>94.6</ele></trkpt>
    <trkpt lat="48.67622" lon="2.77143"><ele>95.2</ele></trkpt>
    <trkpt lat="48.67654" lon="2.77118"><ele>95.3</ele></trkpt>
    <trkpt lat="48.67729" lon="2.77044"><ele>95.9</ele></trkpt>
    <trkpt lat="48.67778" lon="2.77009"><ele>96.2</ele></trkpt>
    <trkpt lat="48.67932" lon="2.76931"><ele>96.6</ele></trkpt>
    <trkpt lat="48.68123" lon="2.76856"><ele>96.3</ele></trkpt>
    <trkpt lat="48.68311" lon="2.76763"><ele>97.5</ele></trkpt>
    <trkpt lat="48.6836" lon="2.76729"><ele>98.0</ele></trkpt>
    <trkpt lat="48.6842" lon="2.76668"><ele>98.6</ele></trkpt>
    <trkpt lat="48.68457" lon="2.7661"><ele>98.9</ele></trkpt>
    <trkpt lat="48.68503" lon="2.76526"><ele>99.1</ele></trkpt>
    <trkpt lat="48.68562" lon="2.7639"><ele>101.4</ele></trkpt>
    <trkpt lat="48.68578" lon="2.76402"><ele>101.6</ele></trkpt>
    <trkpt lat="48.6859" lon="2.76422"><ele>101.5</ele></trkpt>
    <trkpt lat="48.68602" lon="2.76557"><ele>99.3</ele></trkpt>
    <trkpt lat="48.68587" lon="2.76572"><ele>99.1</ele></trkpt>
    <trkpt lat="48.68503" lon="2.76618"><ele>98.9</ele></trkpt>
    <trkpt lat="48.68472" lon="2.76646"><ele>98.6</ele></trkpt>
    <trkpt lat="48.68438" lon="2.76708"><ele>97.7</ele></trkpt>
    <trkpt lat="48.68436" lon="2.76762"><ele>96.7</ele></trkpt>
    <trkpt lat="48.68475" lon="2.76971"><ele>87.7</ele></trkpt>
    <trkpt lat="48.68514" lon="2.77237"><ele>76.1</ele></trkpt>
    <trkpt lat="48.68589" lon="2.77454"><ele>85.6</ele></trkpt>
    <trkpt lat="48.68608" lon="2.77587"><ele>92.0</ele></trkpt>
    <trkpt lat="48.68647" lon="2.7771"><ele>96.0</ele></trkpt>
    <trkpt lat="48.6866" lon="2.77789"><ele>97.5</ele></trkpt>
    <trkpt lat="48.6867" lon="2.77806"><ele>97.9</ele></trkpt>
    <trkpt lat="48.68742" lon="2.77805"><ele>99.4</ele></trkpt>
    <trkpt lat="48.69008" lon="2.77744"><ele>102.1</ele></trkpt>
    <trkpt lat="48.69043" lon="2.7773"><ele>102.1</ele></trkpt>
    <trkpt lat="48.69075" lon="2.77706"><ele>101.9</ele></trkpt>
    <trkpt lat="48.69152" lon="2.77634"><ele>101.7</ele></trkpt>
    <trkpt lat="48.692" lon="2.77599"><ele>101.9</ele></trkpt>
    <trkpt lat="48.69423" lon="2.77493"><ele>102.8</ele></trkpt>
    <trkpt lat="48.69561" lon="2.77434"><ele>103.8</ele></trkpt>
    <trkpt lat="48.69702" lon="2.77313"><ele>105.1</ele></trkpt>
    <trkpt lat="48.69788" lon="2.77215"><ele>105.7</ele></trkpt>
    <trkpt lat="48.69814" lon="2.77177"><ele>105.9</ele></trkpt>
    <trkpt lat="48.69849" lon="2.77114"><ele>106.0</ele></trkpt>
    <trkpt lat="48.69868" lon="2.77039"><ele>105.5</ele></trkpt>
    <trkpt lat="48.69876" lon="2.76986"><ele>104.9</ele></trkpt>
    <trkpt lat="48.69875" lon="2.76959"><ele>104.4</ele></trkpt>
    <trkpt lat="48.69848" lon="2.76858"><ele>101.7</ele></trkpt>
    <trkpt lat="48.69839" lon="2.76806"><ele>100.7</ele></trkpt>
    <trkpt lat="48.69872" lon="2.76566"><ele>96.0</ele></trkpt>
    <trkpt lat="48.69916" lon="2.76482"><ele>96.7</ele></trkpt>
    <trkpt lat="48.69961" lon="2.76439"><ele>97.7</ele></trkpt>
    <trkpt lat="48.70074" lon="2.76355"><ele>98.9</ele></trkpt>
    <trkpt lat="48.70104" lon="2.76324"><ele>98.8</ele></trkpt>
    <trkpt lat="48.70105" lon="2.76301"><ele>98.6</ele></trkpt>
    <trkpt lat="48.70097" lon="2.76276"><ele>98.1</ele></trkpt>
    <trkpt lat="48.70032" lon="2.76113"><ele>91.3</ele></trkpt>
    <trkpt lat="48.69977" lon="2.75941"><ele>81.8</ele></trkpt>
    <trkpt lat="48.6998" lon="2.75917"><ele>80.8</ele></trkpt>
    <trkpt lat="48.70017" lon="2.75858"><ele>80.8</ele></trkpt>
    <trkpt lat="48.70063" lon="2.75815"><ele>83.4</ele></trkpt>
    <trkpt lat="48.70111" lon="2.75735"><ele>87.4</ele></trkpt>
    <trkpt lat="48.70146" lon="2.75729"><ele>89.8</ele></trkpt>
    <trkpt lat="48.702" lon="2.75738"><ele>92.8</ele></trkpt>
    <trkpt lat="48.70286" lon="2.75699"><ele>95.4</ele></trkpt>
    <trkpt lat="48.70289" lon="2.75673"><ele>95.5</ele></trkpt>
    <trkpt lat="48.70277" lon="2.75622"><ele>95.4</ele></trkpt>
    <trkpt lat="48.70269" lon="2.75546"><ele>95.2</ele></trkpt>
    <trkpt lat="48.70233" lon="2.75606"><ele>93.6</ele></trkpt>
    <trkpt lat="48.70217" lon="2.75607"><ele>92.6</ele></trkpt>
    <trkpt lat="48.70009" lon="2.75523"><ele>79.7</ele></trkpt>
    <trkpt lat="48.70002" lon="2.75502"><ele>79.3</ele></trkpt>
    <trkpt lat="48.70006" lon="2.75476"><ele>79.0</ele></trkpt>
    <trkpt lat="48.70035" lon="2.75318"><ele>78.9</ele></trkpt>
    <trkpt lat="48.70056" lon="2.75244"><ele>78.9</ele></trkpt>
    <trkpt lat="48.70126" lon="2.75085"><ele>79.8</ele></trkpt>
    <trkpt lat="48.7014" lon="2.75067"><ele>80.2</ele></trkpt>
    <trkpt lat="48.70208" lon="2.75034"><ele>82.3</ele></trkpt>
    <trkpt lat="48.70289" lon="2.74927"><ele>82.7</ele></trkpt>
    <trkpt lat="48.70327" lon="2.74868"><ele>82.3</ele></trkpt>
    <trkpt lat="48.70342" lon="2.74819"><ele>81.6</ele></trkpt>
    <trkpt lat="48.70493" lon="2.74548"><ele>80.5</ele></trkpt>
    <trkpt lat="48.70518" lon="2.74476"><ele>80.6</ele></trkpt>
    <trkpt lat="48.70528" lon="2.74423"><ele>80.7</ele></trkpt>
    <trkpt lat="48.70559" lon="2.74358"><ele>81.0</ele></trkpt>
    <trkpt lat="48.70566" lon="2.74333"><ele>81.4</ele></trkpt>
    <trkpt lat="48.70549" lon="2.74287"><ele>82.5</ele></trkpt>
    <trkpt lat="48.70553" lon="2.74261"><ele>83.0</ele></trkpt>
    <trkpt lat="48.70548" lon="2.74235"><ele>83.5</ele></trkpt>
    <trkpt lat="48.70525" lon="2.74194"><ele>84.6</ele></trkpt>
    <trkpt lat="48.70497" lon="2.74159"><ele>86.2</ele></trkpt>
    <trkpt lat="48.70487" lon="2.74137"><ele>86.9</ele></trkpt>
    <trkpt lat="48.70486" lon="2.74114"><ele>87.3</ele></trkpt>
    <trkpt lat="48.70516" lon="2.74084"><ele>87.4</ele></trkpt>
    <trkpt lat="48.70551" lon="2.74076"><ele>87.9</ele></trkpt>
    <trkpt lat="48.70566" lon="2.74065"><ele>88.3</ele></trkpt>
    <trkpt lat="48.70571" lon="2.74042"><ele>88.7</ele></trkpt>
    <trkpt lat="48.70562" lon="2.7402"><ele>89.3</ele></trkpt>
    <trkpt lat="48.70546" lon="2.74015"><ele>89.5</ele></trkpt>
    <trkpt lat="48.70475" lon="2.74032"><ele>89.9</ele></trkpt>
    <trkpt lat="48.70442" lon="2.74054"><ele>90.4</ele></trkpt>
    <trkpt lat="48.70425" lon="2.7405"><ele>90.7</ele></trkpt>
    <trkpt lat="48.70414" lon="2.7403"><ele>91.3</ele></trkpt>
    <trkpt lat="48.70379" lon="2.73934"><ele>93.1</ele></trkpt>
    <trkpt lat="48.70375" lon="2.73908"><ele>93.4</ele></trkpt>
    <trkpt lat="48.70386" lon="2.73891"><ele>93.6</ele></trkpt>
    <trkpt lat="48.70404" lon="2.7389"><ele>93.7</ele></trkpt>
    <trkpt lat="48.70418" lon="2.73875"><ele>93.9</ele></trkpt>
    <trkpt lat="48.70417" lon="2.73821"><ele>94.5</ele></trkpt>
    <trkpt lat="48.70452" lon="2.73666"><ele>96.9</ele></trkpt>
    <trkpt lat="48.7045" lon="2.73639"><ele>97.2</ele></trkpt>
    <trkpt lat="48.70327" lon="2.73306"><ele>100.8</ele></trkpt>
    <trkpt lat="48.70336" lon="2.73282"><ele>101.0</ele></trkpt>
    <trkpt lat="48.70469" lon="2.73143"><ele>101.1</ele></trkpt>
    <trkpt lat="48.70496" lon="2.73108"><ele>101.1</ele></trkpt>
    <trkpt lat="48.70498" lon="2.73054"><ele>101.3</ele></trkpt>
    <trkpt lat="48.70474" lon="2.72922"><ele>101.8</ele></trkpt>
    <trkpt lat="48.70474" lon="2.72898"><ele>102.0</ele></trkpt>
    <trkpt lat="48.70527" lon="2.72882"><ele>102.6</ele></trkpt>
    <trkpt lat="48.70611" lon="2.72833"><ele>103.2</ele></trkpt>
    <trkpt lat="48.70645" lon="2.72823"><ele>103.4</ele></trkpt>
    <trkpt lat="48.70653" lon="2.72801"><ele>103.5</ele></trkpt>
    <trkpt lat="48.70634" lon="2.7264"><ele>104.3</ele></trkpt>
    <trkpt lat="48.70632" lon="2.72613"><ele>104.4</ele></trkpt>
    <trkpt lat="48.70639" lon="2.7259"><ele>104.5</ele></trkpt>
    <trkpt lat="48.70884" lon="2.72364"><ele>105.0</ele></trkpt>
    <trkpt lat="48.70979" lon="2.72238"><ele>105.2</ele></trkpt>
    <trkpt lat="48.70994" lon="2.72222"><ele>105.2</ele></trkpt>
    <trkpt lat="48.7101" lon="2.72215"><ele>105.2</ele></trkpt>
    <trkpt lat="48.71024" lon="2.72227"><ele>105.2</ele></trkpt>
    <trkpt lat="48.71111" lon="2.72496"><ele>104.8</ele></trkpt>
    <trkpt lat="48.71125" lon="2.72503"><ele>104.7</ele></trkpt>
    <trkpt lat="48.71624" lon="2.72405"><ele>104.0</ele></trkpt>
    <trkpt lat="48.71629" lon="2.72384"><ele>104.1</ele></trkpt>
    <trkpt lat="48.71627" lon="2.72302"><ele>104.4</ele></trkpt>
    <trkpt lat="48.71596" lon="2.71869"><ele>105.2</ele></trkpt>
    <trkpt lat="48.71619" lon="2.71052"><ele>106.4</ele></trkpt>
    <trkpt lat="48.7161" lon="2.70944"><ele>106.0</ele></trkpt>
    <trkpt lat="48.71579" lon="2.70675"><ele>103.9</ele></trkpt>
    <trkpt lat="48.71602" lon="2.70406"><ele>102.9</ele></trkpt>
    <trkpt lat="48.71557" lon="2.69727"><ele>102.7</ele></trkpt>
    <trkpt lat="48.71543" lon="2.69719"><ele>102.8</ele></trkpt>
    <trkpt lat="48.7008" lon="2.69437"><ele>103.5</ele></trkpt>
    <trkpt lat="48.70069" lon="2.69417"><ele>103.3</ele></trkpt>
    <trkpt lat="48.70111" lon="2.68986"><ele>102.0</ele></trkpt>
    <trkpt lat="48.70133" lon="2.68854"><ele>102.2</ele></trkpt>
    <trkpt lat="48.70177" lon="2.68423"><ele>101.5</ele></trkpt>
    <trkpt lat="48.70205" lon="2.68266"><ele>100.6</ele></trkpt>
    <trkpt lat="48.70257" lon="2.67864"><ele>97.8</ele></trkpt>
    <trkpt lat="48.70258" lon="2.6781"><ele>97.8</ele></trkpt>
    <trkpt lat="48.70252" lon="2.67729"><ele>97.8</ele></trkpt>
    <trkpt lat="48.70268" lon="2.67651"><ele>97.4</ele></trkpt>
    <trkpt lat="48.70283" lon="2.67602"><ele>97.3</ele></trkpt>
    <trkpt lat="48.70294" lon="2.6744"><ele>98.2</ele></trkpt>
    <trkpt lat="48.70308" lon="2.67361"><ele>98.6</ele></trkpt>
    <trkpt lat="48.7034" lon="2.67065"><ele>99.8</ele></trkpt>
    <trkpt lat="48.70354" lon="2.67015"><ele>100.1</ele></trkpt>
    <trkpt lat="48.70369" lon="2.67001"><ele>100.3</ele></trkpt>
    <trkpt lat="48.70455" lon="2.66965"><ele>100.5</ele></trkpt>
    <trkpt lat="48.70491" lon="2.66959"><ele>100.5</ele></trkpt>
    <trkpt lat="48.70526" lon="2.66966"><ele>100.6</ele></trkpt>
    <trkpt lat="48.70592" lon="2.67009"><ele>101.6</ele></trkpt>
    <trkpt lat="48.70607" lon="2.67011"><ele>101.8</ele></trkpt>
    <trkpt lat="48.70606" lon="2.66985"><ele>101.8</ele></trkpt>
    <trkpt lat="48.70575" lon="2.66918"><ele>101.3</ele></trkpt>
    <trkpt lat="48.70574" lon="2.66897"><ele>101.2</ele></trkpt>
    <trkpt lat="48.70589" lon="2.66886"><ele>101.2</ele></trkpt>
    <trkpt lat="48.70817" lon="2.66806"><ele>101.6</ele></trkpt>
    <trkpt lat="48.71869" lon="2.66035"><ele>103.8</ele></trkpt>
    <trkpt lat="48.72218" lon="2.65752"><ele>101.7</ele></trkpt>
    <trkpt lat="48.72227" lon="2.65619"><ele>101.1</ele></trkpt>
    <trkpt lat="48.72238" lon="2.656"><ele>101.0</ele></trkpt>
    <trkpt lat="48.72327" lon="2.65604"><ele>100.6</ele></trkpt>
    <trkpt lat="48.72361" lon="2.65588"><ele>100.5</ele></trkpt>
    <trkpt lat="48.72391" lon="2.65558"><ele>100.4</ele></trkpt>
    <trkpt lat="48.72384" lon="2.65536"><ele>100.5</ele></trkpt>
    <trkpt lat="48.72172" lon="2.65241"><ele>102.0</ele></trkpt>
    <trkpt lat="48.72163" lon="2.65222"><ele>102.0</ele></trkpt>
    <trkpt lat="48.72632" lon="2.64324"><ele>98.3</ele></trkpt>
    <trkpt lat="48.72693" lon="2.6419"><ele>97.6</ele></trkpt>
    <trkpt lat="48.72758" lon="2.64096"><ele>96.9</ele></trkpt>
    <trkpt lat="48.72812" lon="2.63988"><ele>97.1</ele></trkpt>
    <trkpt lat="48.72952" lon="2.63637"><ele>97.4</ele></trkpt>
    <trkpt lat="48.72974" lon="2.63563"><ele>97.2</ele></trkpt>
    <trkpt lat="48.73002" lon="2.63434"><ele>97.4</ele></trkpt>
    <trkpt lat="48.73012" lon="2.63412"><ele>97.4</ele></trkpt>
    <trkpt lat="48.73029" lon="2.63411"><ele>97.2</ele></trkpt>
    <trkpt lat="48.7322" lon="2.63487"><ele>88.0</ele></trkpt>
    <trkpt lat="48.73237" lon="2.63481"><ele>86.9</ele></trkpt>
    <trkpt lat="48.73247" lon="2.6346"><ele>86.0</ele></trkpt>
    <trkpt lat="48.73259" lon="2.63409"><ele>85.1</ele></trkpt>
    <trkpt lat="48.73273" lon="2.63399"><ele>84.8</ele></trkpt>
    <trkpt lat="48.73343" lon="2.63422"><ele>85.8</ele></trkpt>
    <trkpt lat="48.73396" lon="2.63409"><ele>88.5</ele></trkpt>
    <trkpt lat="48.73413" lon="2.63399"><ele>89.6</ele></trkpt>
    <trkpt lat="48.73498" lon="2.63299"><ele>95.7</ele></trkpt>
    <trkpt lat="48.7352" lon="2.63257"><ele>96.9</ele></trkpt>
    <trkpt lat="48.73542" lon="2.63182"><ele>98.2</ele></trkpt>
    <trkpt lat="48.73552" lon="2.6316"><ele>98.5</ele></trkpt>
    <trkpt lat="48.73587" lon="2.63098"><ele>99.2</ele></trkpt>
    <trkpt lat="48.73603" lon="2.63099"><ele>99.4</ele></trkpt>
    <trkpt lat="48.73705" lon="2.6321"><ele>101.0</ele></trkpt>
    <trkpt lat="48.73755" lon="2.63239"><ele>101.2</ele></trkpt>
    <trkpt lat="48.73845" lon="2.63247"><ele>101.6</ele></trkpt>
    <trkpt lat="48.74079" lon="2.63243"><ele>102.6</ele></trkpt>
    <trkpt lat="48.74167" lon="2.63268"><ele>102.3</ele></trkpt>
    <trkpt lat="48.74213" lon="2.63309"><ele>102.1</ele></trkpt>
    <trkpt lat="48.74286" lon="2.63391"><ele>101.9</ele></trkpt>
    <trkpt lat="48.74317" lon="2.63416"><ele>101.7</ele></trkpt>
    <trkpt lat="48.74369" lon="2.63438"><ele>101.4</ele></trkpt>
    <trkpt lat="48.7444" lon="2.63456"><ele>100.9</ele></trkpt>
    <trkpt lat="48.74536" lon="2.63529"><ele>100.1</ele></trkpt>
    <trkpt lat="48.74607" lon="2.63548"><ele>99.5</ele></trkpt>
    <trkpt lat="48.74624" lon="2.63558"><ele>99.4</ele></trkpt>
    <trkpt lat="48.74649" lon="2.63596"><ele>99.6</ele></trkpt>
    <trkpt lat="48.7468" lon="2.63624"><ele>100.0</ele></trkpt>
    <trkpt lat="48.74732" lon="2.63643"><ele>100.3</ele></trkpt>
    <trkpt lat="48.74747" lon="2.63658"><ele>99.9</ele></trkpt>
    <trkpt lat="48.74782" lon="2.6366"><ele>98.7</ele></trkpt>
    <trkpt lat="48.74784" lon="2.63633"><ele>97.9</ele></trkpt>
    <trkpt lat="48.74807" lon="2.63591"><ele>96.4</ele></trkpt>
    <trkpt lat="48.74869" lon="2.63537"><ele>93.5</ele></trkpt>
    <trkpt lat="48.7497" lon="2.63477"><ele>91.7</ele></trkpt>
    <trkpt lat="48.74981" lon="2.63455"><ele>91.8</ele></trkpt>
    <trkpt lat="48.75005" lon="2.63382"><ele>92.4</ele></trkpt>
    <trkpt lat="48.75023" lon="2.63305"><ele>93.1</ele></trkpt>
    <trkpt lat="48.75022" lon="2.63251"><ele>93.5</ele></trkpt>
    <trkpt lat="48.75007" lon="2.63204"><ele>93.9</ele></trkpt>
    <trkpt lat="48.7502" lon="2.63186"><ele>94.2</ele></trkpt>
    <trkpt lat="48.75395" lon="2.62864"><ele>99.9</ele></trkpt>
    <trkpt lat="48.75412" lon="2.62855"><ele>100.1</ele></trkpt>
    <trkpt lat="48.75426" lon="2.62868"><ele>100.2</ele></trkpt>
    <trkpt lat="48.75713" lon="2.63282"><ele>103.1</ele></trkpt>
    <trkpt lat="48.75735" lon="2.63253"><ele>103.5</ele></trkpt>
    <trkpt lat="48.75751" lon="2.63241"><ele>103.6</ele></trkpt>
    <trkpt lat="48.75982" lon="2.63089"><ele>104.6</ele></trkpt>
    <trkpt lat="48.76351" lon="2.62968"><ele>107.5</ele></trkpt>
    <trkpt lat="48.76405" lon="2.62968"><ele>107.3</ele></trkpt>
    <trkpt lat="48.76477" lon="2.62957"><ele>106.5</ele></trkpt>
    <trkpt lat="48.76601" lon="2.62923"><ele>105.2</ele></trkpt>
    <trkpt lat="48.76755" lon="2.62785"><ele>104.3</ele></trkpt>
    <trkpt lat="48.76743" lon="2.62679"><ele>104.2</ele></trkpt>
    <trkpt lat="48.76747" lon="2.62653"><ele>104.2</ele></trkpt>
    <trkpt lat="48.76769" lon="2.6261"><ele>104.3</ele></trkpt>
    <trkpt lat="48.76768" lon="2.62583"><ele>104.3</ele></trkpt>
    <trkpt lat="48.76755" lon="2.62564"><ele>104.4</ele></trkpt>
    <trkpt lat="48.7672" lon="2.62561"><ele>104.6</ele></trkpt>
    <trkpt lat="48.76704" lon="2.62549"><ele>104.7</ele></trkpt>
    <trkpt lat="48.76689" lon="2.62533"><ele>104.8</ele></trkpt>
    <trkpt lat="48.76681" lon="2.62512"><ele>104.9</ele></trkpt>
    <trkpt lat="48.76853" lon="2.61537"><ele>106.2</ele></trkpt>
    <trkpt lat="48.76858" lon="2.61483"><ele>106.2</ele></trkpt>
    <trkpt lat="48.76798" lon="2.61113"><ele>103.9</ele></trkpt>
    <trkpt lat="48.76773" lon="2.61084"><ele>103.4</ele></trkpt>
    <trkpt lat="48.76767" lon="2.61058"><ele>103.2</ele></trkpt>
    <trkpt lat="48.76231" lon="2.57717"><ele>101.3</ele></trkpt>
    <trkpt lat="48.76234" lon="2.57693"><ele>101.0</ele></trkpt>
    <trkpt lat="48.76942" lon="2.56421"><ele>101.5</ele></trkpt>
    <trkpt lat="48.76977" lon="2.56326"><ele>101.5</ele></trkpt>
    <trkpt lat="48.77032" lon="2.56259"><ele>101.4</ele></trkpt>
    <trkpt lat="48.77148" lon="2.5605"><ele>100.9</ele></trkpt>
    <trkpt lat="48.77147" lon="2.56031"><ele>100.8</ele></trkpt>
    <trkpt lat="48.76539" lon="2.55263"><ele>101.6</ele></trkpt>
    <trkpt lat="48.76526" lon="2.55244"><ele>101.4</ele></trkpt>
    <trkpt lat="48.76519" lon="2.5522"><ele>101.2</ele></trkpt>
    <trkpt lat="48.76556" lon="2.5501"><ele>100.5</ele></trkpt>
    <trkpt lat="48.76536" lon="2.54685"><ele>98.5</ele></trkpt>
    <trkpt lat="48.76522" lon="2.54331"><ele>95.5</ele></trkpt>
    <trkpt lat="48.76538" lon="2.54197"><ele>94.3</ele></trkpt>
    <trkpt lat="48.76559" lon="2.54122"><ele>93.7</ele></trkpt>
    <trkpt lat="48.766" lon="2.54001"><ele>92.4</ele></trkpt>
    <trkpt lat="48.76609" lon="2.53949"><ele>92.1</ele></trkpt>
    <trkpt lat="48.76605" lon="2.53895"><ele>92.3</ele></trkpt>
    <trkpt lat="48.76562" lon="2.53658"><ele>94.5</ele></trkpt>
    <trkpt lat="48.76558" lon="2.53577"><ele>95.0</ele></trkpt>
    <trkpt lat="48.76562" lon="2.5355"><ele>95.0</ele></trkpt>
    <trkpt lat="48.76594" lon="2.5361"><ele>94.6</ele></trkpt>
    <trkpt lat="48.76637" lon="2.53658"><ele>94.0</ele></trkpt>
    <trkpt lat="48.76703" lon="2.53702"><ele>93.4</ele></trkpt>
    <trkpt lat="48.76773" lon="2.53723"><ele>93.0</ele></trkpt>
    <trkpt lat="48.76827" lon="2.53721"><ele>93.0</ele></trkpt>
    <trkpt lat="48.7688" lon="2.53701"><ele>93.0</ele></trkpt>
    <trkpt lat="48.76913" lon="2.53681"><ele>93.0</ele></trkpt>
    <trkpt lat="48.76973" lon="2.53622"><ele>93.1</ele></trkpt>
    <trkpt lat="48.7702" lon="2.53539"><ele>93.3</ele></trkpt>
    <trkpt lat="48.77039" lon="2.53434"><ele>93.6</ele></trkpt>
    <trkpt lat="48.77049" lon="2.53411"><ele>93.6</ele></trkpt>
    <trkpt lat="48.7711" lon="2.53311"><ele>92.9</ele></trkpt>
    <trkpt lat="48.7714" lon="2.53243"><ele>92.4</ele></trkpt>
    <trkpt lat="48.77141" lon="2.53216"><ele>92.5</ele></trkpt>
    <trkpt lat="48.77159" lon="2.53139"><ele>93.3</ele></trkpt>
    <trkpt lat="48.7717" lon="2.53003"><ele>93.5</ele></trkpt>
    <trkpt lat="48.77167" lon="2.52922"><ele>93.6</ele></trkpt>
    <trkpt lat="48.77156" lon="2.52842"><ele>93.5</ele></trkpt>
    <trkpt lat="48.77157" lon="2.52815"><ele>93.4</ele></trkpt>
    <trkpt lat="48.7717" lon="2.52764"><ele>92.8</ele></trkpt>
    <trkpt lat="48.77182" lon="2.52751"><ele>92.3</ele></trkpt>
    <trkpt lat="48.77197" lon="2.52765"><ele>91.7</ele></trkpt>
    <trkpt lat="48.77206" lon="2.52788"><ele>91.0</ele></trkpt>
    <trkpt lat="48.77219" lon="2.52802"><ele>89.9</ele></trkpt>
    <trkpt lat="48.77273" lon="2.52808"><ele>85.9</ele></trkpt>
    <trkpt lat="48.7729" lon="2.52817"><ele>84.4</ele></trkpt>
    <trkpt lat="48.77426" lon="2.52949"><ele>71.4</ele></trkpt>
    <trkpt lat="48.77455" lon="2.52982"><ele>68.8</ele></trkpt>
    <trkpt lat="48.77515" lon="2.53083"><ele>64.9</ele></trkpt>
    <trkpt lat="48.77538" lon="2.53157"><ele>65.2</ele></trkpt>
    <trkpt lat="48.77575" lon="2.5325"><ele>66.0</ele></trkpt>
    <trkpt lat="48.77687" lon="2.53427"><ele>58.9</ele></trkpt>
    <trkpt lat="48.77702" lon="2.53441"><ele>58.3</ele></trkpt>
    <trkpt lat="48.77827" lon="2.53424"><ele>57.4</ele></trkpt>
    <trkpt lat="48.77844" lon="2.53432"><ele>57.6</ele></trkpt>
    <trkpt lat="48.7791" lon="2.53624"><ele>61.3</ele></trkpt>
    <trkpt lat="48.77938" lon="2.53656"><ele>63.3</ele></trkpt>
    <trkpt lat="48.78191" lon="2.53799"><ele>78.8</ele></trkpt>
    <trkpt lat="48.78226" lon="2.53812"><ele>80.7</ele></trkpt>
    <trkpt lat="48.78279" lon="2.538"><ele>83.6</ele></trkpt>
    <trkpt lat="48.78415" lon="2.53732"><ele>90.8</ele></trkpt>
    <trkpt lat="48.78433" lon="2.53729"><ele>91.5</ele></trkpt>
    <trkpt lat="48.78449" lon="2.53742"><ele>92.1</ele></trkpt>
    <trkpt lat="48.78722" lon="2.54383"><ele>98.2</ele></trkpt>
    <trkpt lat="48.78722" lon="2.54433"><ele>99.1</ele></trkpt>
    <trkpt lat="48.78759" lon="2.54527"><ele>100.4</ele></trkpt>
    <trkpt lat="48.78775" lon="2.54532"><ele>100.5</ele></trkpt>
    <trkpt lat="48.78806" lon="2.54596"><ele>100.6</ele></trkpt>
    <trkpt lat="48.78801" lon="2.5462"><ele>100.7</ele></trkpt>
    <trkpt lat="48.78709" lon="2.54787"><ele>99.9</ele></trkpt>
    <trkpt lat="48.78656" lon="2.54803"><ele>99.1</ele></trkpt>
    <trkpt lat="48.78622" lon="2.5482"><ele>98.9</ele></trkpt>
    <trkpt lat="48.78708" lon="2.54787"><ele>99.9</ele></trkpt>
    <trkpt lat="48.78722" lon="2.5477"><ele>100.1</ele></trkpt>
    <trkpt lat="48.78809" lon="2.54599"><ele>100.6</ele></trkpt>
    <trkpt lat="48.78803" lon="2.54574"><ele>100.5</ele></trkpt>
    <trkpt lat="48.78754" lon="2.54459"><ele>100.2</ele></trkpt>
    <trkpt lat="48.78742" lon="2.54444"><ele>99.7</ele></trkpt>
    <trkpt lat="48.7867" lon="2.54444"><ele>98.2</ele></trkpt>
  </trkseg></trk>
</gpx>
