<?xml version="1.0" encoding="UTF-8"?>
<gpx version="1.1" creator="USO Cyclisme" xmlns="http://www.topografix.com/GPX/1/1">
  <metadata><name>Yèbles – 73 km</name><desc>Gravel, 72.6 km, D+ 209 m. Départ et arrivée : centre culturel d'Ormesson-sur-Marne.</desc></metadata>
  <trk><name>Yèbles – 73 km (gravel)</name><trkseg>
    <trkpt lat="48.78667" lon="2.54444"><ele>97.7</ele></trkpt>
    <trkpt lat="48.7871" lon="2.54357"><ele>97.8</ele></trkpt>
    <trkpt lat="48.78437" lon="2.53715"><ele>91.5</ele></trkpt>
    <trkpt lat="48.78389" lon="2.53748"><ele>89.3</ele></trkpt>
    <trkpt lat="48.78269" lon="2.53805"><ele>83.0</ele></trkpt>
    <trkpt lat="48.78234" lon="2.53816"><ele>80.7</ele></trkpt>
    <trkpt lat="48.78202" lon="2.53841"><ele>78.0</ele></trkpt>
    <trkpt lat="48.77997" lon="2.53935"><ele>65.1</ele></trkpt>
    <trkpt lat="48.77967" lon="2.53868"><ele>61.1</ele></trkpt>
    <trkpt lat="48.77925" lon="2.53817"><ele>58.8</ele></trkpt>
    <trkpt lat="48.77914" lon="2.53795"><ele>58.3</ele></trkpt>
    <trkpt lat="48.77886" lon="2.53725"><ele>57.0</ele></trkpt>
    <trkpt lat="48.77869" lon="2.53648"><ele>56.3</ele></trkpt>
    <trkpt lat="48.77858" lon="2.5354"><ele>56.9</ele></trkpt>
    <trkpt lat="48.77866" lon="2.53493"><ele>57.6</ele></trkpt>
    <trkpt lat="48.77851" lon="2.53443"><ele>57.5</ele></trkpt>
    <trkpt lat="48.77838" lon="2.53428"><ele>57.4</ele></trkpt>
    <trkpt lat="48.7782" lon="2.53425"><ele>57.3</ele></trkpt>
    <trkpt lat="48.77677" lon="2.53447"><ele>59.2</ele></trkpt>
    <trkpt lat="48.77629" lon="2.53411"><ele>62.7</ele></trkpt>
    <trkpt lat="48.77612" lon="2.53403"><ele>64.1</ele></trkpt>
    <trkpt lat="48.77594" lon="2.53402"><ele>65.1</ele></trkpt>
    <trkpt lat="48.77458" lon="2.5347"><ele>71.8</ele></trkpt>
    <trkpt lat="48.77407" lon="2.53328"><ele>77.8</ele></trkpt>
    <trkpt lat="48.77393" lon="2.53315"><ele>78.7</ele></trkpt>
    <trkpt lat="48.7728" lon="2.53395"><ele>84.2</ele></trkpt>
    <trkpt lat="48.77263" lon="2.53388"><ele>85.0</ele></trkpt>
    <trkpt lat="48.77249" lon="2.53371"><ele>85.8</ele></trkpt>
    <trkpt lat="48.7714" lon="2.53228"><ele>91.7</ele></trkpt>
    <trkpt lat="48.77064" lon="2.53374"><ele>93.5</ele></trkpt>
    <trkpt lat="48.77039" lon="2.53414"><ele>93.6</ele></trkpt>
    <trkpt lat="48.77024" lon="2.53426"><ele>93.6</ele></trkpt>
    <trkpt lat="48.77026" lon="2.53479"><ele>93.5</ele></trkpt>
    <trkpt lat="48.77023" lon="2.53505"><ele>93.4</ele></trkpt>
    <trkpt lat="48.77016" lon="2.53531"><ele>93.3</ele></trkpt>
    <trkpt lat="48.76994" lon="2.53574"><ele>93.1</ele></trkpt>
    <trkpt lat="48.76941" lon="2.53646"><ele>93.0</ele></trkpt>
    <trkpt lat="48.76876" lon="2.53694"><ele>93.0</ele></trkpt>
    <trkpt lat="48.76806" lon="2.53713"><ele>93.0</ele></trkpt>
    <trkpt lat="48.76752" lon="2.53709"><ele>93.1</ele></trkpt>
    <trkpt lat="48.76717" lon="2.53697"><ele>93.3</ele></trkpt>
    <trkpt lat="48.76634" lon="2.53645"><ele>94.1</ele></trkpt>
    <trkpt lat="48.76606" lon="2.53612"><ele>94.5</ele></trkpt>
    <trkpt lat="48.76569" lon="2.53553"><ele>95.1</ele></trkpt>
    <trkpt lat="48.76552" lon="2.53548"><ele>95.2</ele></trkpt>
    <trkpt lat="48.76534" lon="2.5355"><ele>95.4</ele></trkpt>
    <trkpt lat="48.76519" lon="2.5356"><ele>95.6</ele></trkpt>
    <trkpt lat="48.76492" lon="2.53597"><ele>95.9</ele></trkpt>
    <trkpt lat="48.7646" lon="2.53619"><ele>96.3</ele></trkpt>
    <trkpt lat="48.76424" lon="2.53621"><ele>96.6</ele></trkpt>
    <trkpt lat="48.76389" lon="2.53609"><ele>96.9</ele></trkpt>
    <trkpt lat="48.76341" lon="2.53622"><ele>97.3</ele></trkpt>
    <trkpt lat="48.763" lon="2.5371"><ele>97.8</ele></trkpt>
    <trkpt lat="48.76228" lon="2.53928"><ele>98.5</ele></trkpt>
    <trkpt lat="48.76163" lon="2.54409"><ele>98.7</ele></trkpt>
    <trkpt lat="48.76147" lon="2.54543"><ele>99.1</ele></trkpt>
    <trkpt lat="48.76146" lon="2.54597"><ele>99.2</ele></trkpt>
    <trkpt lat="48.7612" lon="2.54867"><ele>99.7</ele></trkpt>
    <trkpt lat="48.76112" lon="2.54891"><ele>99.7</ele></trkpt>
    <trkpt lat="48.75973" lon="2.54946"><ele>99.7</ele></trkpt>
    <trkpt lat="48.75937" lon="2.54953"><ele>99.8</ele></trkpt>
    <trkpt lat="48.758" lon="2.55012"><ele>99.8</ele></trkpt>
    <trkpt lat="48.758" lon="2.55039"><ele>99.8</ele></trkpt>
    <trkpt lat="48.7585" lon="2.5535"><ele>100.2</ele></trkpt>
    <trkpt lat="48.75832" lon="2.55351"><ele>100.3</ele></trkpt>
    <trkpt lat="48.75565" lon="2.55294"><ele>100.4</ele></trkpt>
    <trkpt lat="48.75494" lon="2.55276"><ele>100.4</ele></trkpt>
    <trkpt lat="48.75481" lon="2.55268"><ele>100.3</ele></trkpt>
    <trkpt lat="48.75496" lon="2.54914"><ele>99.6</ele></trkpt>
    <trkpt lat="48.75492" lon="2.54892"><ele>99.5</ele></trkpt>
    <trkpt lat="48.75349" lon="2.54776"><ele>97.9</ele></trkpt>
    <trkpt lat="48.75333" lon="2.54775"><ele>97.8</ele></trkpt>
    <trkpt lat="48.75004" lon="2.5511"><ele>96.8</ele></trkpt>
    <trkpt lat="48.74978" lon="2.55147"><ele>96.6</ele></trkpt>
    <trkpt lat="48.74674" lon="2.55686"><ele>96.7</ele></trkpt>
    <trkpt lat="48.74654" lon="2.55731"><ele>96.9</ele></trkpt>
    <trkpt lat="48.7388" lon="2.57096"><ele>97.6</ele></trkpt>
    <trkpt lat="48.7373" lon="2.57368"><ele>97.2</ele></trkpt>
    <trkpt lat="48.73717" lon="2.57385"><ele>97.2</ele></trkpt>
    <trkpt lat="48.73583" lon="2.5746"><ele>97.1</ele></trkpt>
    <trkpt lat="48.73493" lon="2.57459"><ele>96.6</ele></trkpt>
    <trkpt lat="48.73282" lon="2.57526"><ele>93.8</ele></trkpt>
    <trkpt lat="48.73192" lon="2.57537"><ele>92.7</ele></trkpt>
    <trkpt lat="48.7312" lon="2.57535"><ele>92.1</ele></trkpt>
    <trkpt lat="48.72995" lon="2.57519"><ele>91.0</ele></trkpt>
    <trkpt lat="48.72872" lon="2.57486"><ele>89.4</ele></trkpt>
    <trkpt lat="48.72598" lon="2.57282"><ele>78.9</ele></trkpt>
    <trkpt lat="48.72563" lon="2.57225"><ele>75.6</ele></trkpt>
    <trkpt lat="48.7251" lon="2.57241"><ele>72.6</ele></trkpt>
    <trkpt lat="48.72496" lon="2.5723"><ele>71.8</ele></trkpt>
    <trkpt lat="48.72466" lon="2.57327"><ele>70.0</ele></trkpt>
    <trkpt lat="48.7245" lon="2.57338"><ele>69.7</ele></trkpt>
    <trkpt lat="48.72361" lon="2.57317"><ele>68.3</ele></trkpt>
    <trkpt lat="48.722" lon="2.57292"><ele>74.2</ele></trkpt>
    <trkpt lat="48.72171" lon="2.57276"><ele>75.8</ele></trkpt>
    <trkpt lat="48.72154" lon="2.57283"><ele>76.7</ele></trkpt>
    <trkpt lat="48.72136" lon="2.57282"><ele>77.7</ele></trkpt>
    <trkpt lat="48.71922" lon="2.57248"><ele>86.6</ele></trkpt>
    <trkpt lat="48.71904" lon="2.57251"><ele>87.1</ele></trkpt>
    <trkpt lat="48.7188" lon="2.57436"><ele>89.6</ele></trkpt>
    <trkpt lat="48.71871" lon="2.57458"><ele>89.9</ele></trkpt>
    <trkpt lat="48.71827" lon="2.57506"><ele>90.6</ele></trkpt>
    <trkpt lat="48.71818" lon="2.5753"><ele>90.9</ele></trkpt>
    <trkpt lat="48.71798" lon="2.57662"><ele>92.4</ele></trkpt>
    <trkpt lat="48.71792" lon="2.57688"><ele>92.8</ele></trkpt>
    <trkpt lat="48.7178" lon="2.57706"><ele>93.1</ele></trkpt>
    <trkpt lat="48.71515" lon="2.57634"><ele>95.8</ele></trkpt>
    <trkpt lat="48.7151" lon="2.5765"><ele>95.8</ele></trkpt>
    <trkpt lat="48.71513" lon="2.57677"><ele>95.9</ele></trkpt>
    <trkpt lat="48.71509" lon="2.57703"><ele>95.9</ele></trkpt>
    <trkpt lat="48.71494" lon="2.57752"><ele>95.8</ele></trkpt>
    <trkpt lat="48.71444" lon="2.57865"><ele>95.6</ele></trkpt>
    <trkpt lat="48.71391" lon="2.58007"><ele>95.4</ele></trkpt>
    <trkpt lat="48.71293" lon="2.58235"><ele>95.2</ele></trkpt>
    <trkpt lat="48.71288" lon="2.58261"><ele>95.2</ele></trkpt>
    <trkpt lat="48.71275" lon="2.58272"><ele>95.1</ele></trkpt>
    <trkpt lat="48.70901" lon="2.5914"><ele>94.8</ele></trkpt>
    <trkpt lat="48.70847" lon="2.59248"><ele>94.9</ele></trkpt>
    <trkpt lat="48.70662" lon="2.59683"><ele>93.9</ele></trkpt>
    <trkpt lat="48.70651" lon="2.59704"><ele>93.8</ele></trkpt>
    <trkpt lat="48.70635" lon="2.59715"><ele>93.7</ele></trkpt>
    <trkpt lat="48.70626" lon="2.59737"><ele>93.6</ele></trkpt>
    <trkpt lat="48.70622" lon="2.59763"><ele>93.4</ele></trkpt>
    <trkpt lat="48.70507" lon="2.60039"><ele>92.6</ele></trkpt>
    <trkpt lat="48.70427" lon="2.60221"><ele>92.4</ele></trkpt>
    <trkpt lat="48.70403" lon="2.60258"><ele>92.3</ele></trkpt>
    <trkpt lat="48.704" lon="2.60309"><ele>92.1</ele></trkpt>
    <trkpt lat="48.7038" lon="2.60414"><ele>91.5</ele></trkpt>
    <trkpt lat="48.70372" lon="2.60495"><ele>90.8</ele></trkpt>
    <trkpt lat="48.70365" lon="2.60685"><ele>89.1</ele></trkpt>
    <trkpt lat="48.70355" lon="2.60706"><ele>88.9</ele></trkpt>
    <trkpt lat="48.70339" lon="2.60717"><ele>88.8</ele></trkpt>
    <trkpt lat="48.70146" lon="2.60772"><ele>88.3</ele></trkpt>
    <trkpt lat="48.69955" lon="2.61097"><ele>88.7</ele></trkpt>
    <trkpt lat="48.69945" lon="2.61148"><ele>88.6</ele></trkpt>
    <trkpt lat="48.69652" lon="2.61666"><ele>88.1</ele></trkpt>
    <trkpt lat="48.69503" lon="2.61973"><ele>88.8</ele></trkpt>
    <trkpt lat="48.69457" lon="2.62057"><ele>88.8</ele></trkpt>
    <trkpt lat="48.68692" lon="2.63673"><ele>90.4</ele></trkpt>
    <trkpt lat="48.68603" lon="2.63878"><ele>88.1</ele></trkpt>
    <trkpt lat="48.68501" lon="2.64135"><ele>83.4</ele></trkpt>
    <trkpt lat="48.68404" lon="2.64427"><ele>78.2</ele></trkpt>
    <trkpt lat="48.68329" lon="2.64674"><ele>77.7</ele></trkpt>
    <trkpt lat="48.67869" lon="2.66595"><ele>96.8</ele></trkpt>
    <trkpt lat="48.67727" lon="2.67212"><ele>97.1</ele></trkpt>
    <trkpt lat="48.67691" lon="2.67307"><ele>96.7</ele></trkpt>
    <trkpt lat="48.67611" lon="2.67453"><ele>95.7</ele></trkpt>
    <trkpt lat="48.67556" lon="2.67523"><ele>95.1</ele></trkpt>
    <trkpt lat="48.6748" lon="2.67598"><ele>94.3</ele></trkpt>
    <trkpt lat="48.67321" lon="2.67723"><ele>92.9</ele></trkpt>
    <trkpt lat="48.6725" lon="2.67808"><ele>92.3</ele></trkpt>
    <trkpt lat="48.67212" lon="2.67865"><ele>91.8</ele></trkpt>
    <trkpt lat="48.67157" lon="2.67973"><ele>91.2</ele></trkpt>
    <trkpt lat="48.67094" lon="2.68169"><ele>90.4</ele></trkpt>
    <trkpt lat="48.67081" lon="2.68247"><ele>90.1</ele></trkpt>
    <trkpt lat="48.67071" lon="2.6827"><ele>90.0</ele></trkpt>
    <trkpt lat="48.6692" lon="2.68853"><ele>87.1</ele></trkpt>
    <trkpt lat="48.66765" lon="2.69463"><ele>84.2</ele></trkpt>
    <trkpt lat="48.66755" lon="2.69515"><ele>84.0</ele></trkpt>
    <trkpt lat="48.66691" lon="2.69679"><ele>83.5</ele></trkpt>
    <trkpt lat="48.66644" lon="2.69762"><ele>83.3</ele></trkpt>
    <trkpt lat="48.66561" lon="2.69866"><ele>83.1</ele></trkpt>
    <trkpt lat="48.66513" lon="2.69904"><ele>83.2</ele></trkpt>
    <trkpt lat="48.66397" lon="2.69977"><ele>83.4</ele></trkpt>
    <trkpt lat="48.66344" lon="2.69989"><ele>83.5</ele></trkpt>
    <trkpt lat="48.66239" lon="2.7003"><ele>83.4</ele></trkpt>
    <trkpt lat="48.65814" lon="2.70141"><ele>80.5</ele></trkpt>
    <trkpt lat="48.65727" lon="2.70177"><ele>80.2</ele></trkpt>
    <trkpt lat="48.65645" lon="2.70233"><ele>79.6</ele></trkpt>
    <trkpt lat="48.65588" lon="2.70298"><ele>79.0</ele></trkpt>
    <trkpt lat="48.65497" lon="2.70431"><ele>78.5</ele></trkpt>
    <trkpt lat="48.6517" lon="2.70937"><ele>74.1</ele></trkpt>
    <trkpt lat="48.65087" lon="2.7108"><ele>73.2</ele></trkpt>
    <trkpt lat="48.65015" lon="2.71236"><ele>72.1</ele></trkpt>
    <trkpt lat="48.64414" lon="2.73094"><ele>80.0</ele></trkpt>
    <trkpt lat="48.64366" lon="2.7327"><ele>79.0</ele></trkpt>
    <trkpt lat="48.64347" lon="2.73375"><ele>78.1</ele></trkpt>
    <trkpt lat="48.64343" lon="2.73402"><ele>77.8</ele></trkpt>
    <trkpt lat="48.64353" lon="2.73424"><ele>77.3</ele></trkpt>
    <trkpt lat="48.64386" lon="2.73443"><ele>75.3</ele></trkpt>
    <trkpt lat="48.64512" lon="2.7343"><ele>65.8</ele></trkpt>
    <trkpt lat="48.64527" lon="2.73444"><ele>65.3</ele></trkpt>
    <trkpt lat="48.64552" lon="2.73515"><ele>65.8</ele></trkpt>
    <trkpt lat="48.64548" lon="2.73537"><ele>66.2</ele></trkpt>
    <trkpt lat="48.6453" lon="2.7354"><ele>67.0</ele></trkpt>
    <trkpt lat="48.64351" lon="2.73523"><ele>78.4</ele></trkpt>
    <trkpt lat="48.64335" lon="2.73528"><ele>79.2</ele></trkpt>
    <trkpt lat="48.64328" lon="2.73553"><ele>79.8</ele></trkpt>
    <trkpt lat="48.64323" lon="2.73852"><ele>81.8</ele></trkpt>
    <trkpt lat="48.64336" lon="2.74396"><ele>85.9</ele></trkpt>
    <trkpt lat="48.6433" lon="2.74641"><ele>87.7</ele></trkpt>
    <trkpt lat="48.6432" lon="2.74748"><ele>88.3</ele></trkpt>
    <trkpt lat="48.64267" lon="2.75037"><ele>90.4</ele></trkpt>
    <trkpt lat="48.6426" lon="2.75117"><ele>90.8</ele></trkpt>
    <trkpt lat="48.64242" lon="2.75222"><ele>91.4</ele></trkpt>
    <trkpt lat="48.64151" lon="2.75861"><ele>93.4</ele></trkpt>
    <trkpt lat="48.64029" lon="2.77374"><ele>93.3</ele></trkpt>
    <trkpt lat="48.64023" lon="2.77385"><ele>93.4</ele></trkpt>
    <trkpt lat="48.64007" lon="2.77365"><ele>93.4</ele></trkpt>
    <trkpt lat="48.64127" lon="2.77529"><ele>92.7</ele></trkpt>
    <trkpt lat="48.64298" lon="2.7773"><ele>90.9</ele></trkpt>
    <trkpt lat="48.64362" lon="2.77861"><ele>90.2</ele></trkpt>
    <trkpt lat="48.64419" lon="2.77928"><ele>90.0</ele></trkpt>
    <trkpt lat="48.64454" lon="2.77989"><ele>89.6</ele></trkpt>
    <trkpt lat="48.64469" lon="2.77988"><ele>89.4</ele></trkpt>
    <trkpt lat="48.65127" lon="2.76659"><ele>79.6</ele></trkpt>
    <trkpt lat="48.6514" lon="2.76643"><ele>80.2</ele></trkpt>
    <trkpt lat="48.65155" lon="2.76652"><ele>80.7</ele></trkpt>
    <trkpt lat="48.65197" lon="2.76703"><ele>82.2</ele></trkpt>
    <trkpt lat="48.65256" lon="2.76806"><ele>83.9</ele></trkpt>
    <trkpt lat="48.65341" lon="2.76907"><ele>85.5</ele></trkpt>
    <trkpt lat="48.65418" lon="2.76976"><ele>86.5</ele></trkpt>
    <trkpt lat="48.65622" lon="2.77081"><ele>87.6</ele></trkpt>
    <trkpt lat="48.65651" lon="2.77111"><ele>87.7</ele></trkpt>
    <trkpt lat="48.65659" lon="2.77135"><ele>87.9</ele></trkpt>
    <trkpt lat="48.65763" lon="2.77166"><ele>89.8</ele></trkpt>
    <trkpt lat="48.65931" lon="2.77259"><ele>93.2</ele></trkpt>
    <trkpt lat="48.65984" lon="2.77277"><ele>94.2</ele></trkpt>
    <trkpt lat="48.66037" lon="2.77269"><ele>95.0</ele></trkpt>
    <trkpt lat="48.66124" lon="2.7723"><ele>96.0</ele></trkpt>
    <trkpt lat="48.66141" lon="2.77228"><ele>96.2</ele></trkpt>
    <trkpt lat="48.66189" lon="2.77265"><ele>96.5</ele></trkpt>
    <trkpt lat="48.66238" lon="2.77185"><ele>96.6</ele></trkpt>
    <trkpt lat="48.66324" lon="2.77011"><ele>96.1</ele></trkpt>
    <trkpt lat="48.66434" lon="2.7673"><ele>95.7</ele></trkpt>
    <trkpt lat="48.66501" lon="2.76569"><ele>95.7</ele></trkpt>
    <trkpt lat="48.66534" lon="2.76504"><ele>95.8</ele></trkpt>
    <trkpt lat="48.6656" lon="2.76466"><ele>95.8</ele></trkpt>
    <trkpt lat="48.66603" lon="2.76416"><ele>95.8</ele></trkpt>
    <trkpt lat="48.66711" lon="2.76318"><ele>95.7</ele></trkpt>
    <trkpt lat="48.6674" lon="2.76286"><ele>95.6</ele></trkpt>
    <trkpt lat="48.66853" lon="2.76074"><ele>95.5</ele></trkpt>
    <trkpt lat="48.67013" lon="2.75745"><ele>96.9</ele></trkpt>
    <trkpt lat="48.6704" lon="2.75616"><ele>97.4</ele></trkpt>
    <trkpt lat="48.67048" lon="2.75591"><ele>97.5</ele></trkpt>
    <trkpt lat="48.67061" lon="2.75572"><ele>97.6</ele></trkpt>
    <trkpt lat="48.6715" lon="2.75557"><ele>97.9</ele></trkpt>
    <trkpt lat="48.67275" lon="2.75561"><ele>98.2</ele></trkpt>
    <trkpt lat="48.67291" lon="2.75547"><ele>98.2</ele></trkpt>
    <trkpt lat="48.67305" lon="2.75469"><ele>98.3</ele></trkpt>
    <trkpt lat="48.67334" lon="2.75369"><ele>98.4</ele></trkpt>
    <trkpt lat="48.6737" lon="2.75274"><ele>98.5</ele></trkpt>
    <trkpt lat="48.67424" lon="2.75166"><ele>98.7</ele></trkpt>
    <trkpt lat="48.67479" lon="2.75096"><ele>98.8</ele></trkpt>
    <trkpt lat="48.67526" lon="2.75056"><ele>98.9</ele></trkpt>
    <trkpt lat="48.67594" lon="2.7502"><ele>99.2</ele></trkpt>
    <trkpt lat="48.67626" lon="2.74997"><ele>99.3</ele></trkpt>
    <trkpt lat="48.67657" lon="2.74969"><ele>99.5</ele></trkpt>
    <trkpt lat="48.67682" lon="2.74929"><ele>99.7</ele></trkpt>
    <trkpt lat="48.67734" lon="2.74787"><ele>100.0</ele></trkpt>
    <trkpt lat="48.67733" lon="2.7476"><ele>100.1</ele></trkpt>
    <trkpt lat="48.67707" lon="2.74689"><ele>100.2</ele></trkpt>
    <trkpt lat="48.67702" lon="2.74665"><ele>100.3</ele></trkpt>
    <trkpt lat="48.67716" lon="2.74649"><ele>100.3</ele></trkpt>
    <trkpt lat="48.67765" lon="2.74616"><ele>100.5</ele></trkpt>
    <trkpt lat="48.67779" lon="2.74598"><ele>100.6</ele></trkpt>
    <trkpt lat="48.67824" lon="2.74514"><ele>100.8</ele></trkpt>
    <trkpt lat="48.67911" lon="2.74377"><ele>101.3</ele></trkpt>
    <trkpt lat="48.68288" lon="2.74057"><ele>101.2</ele></trkpt>
    <trkpt lat="48.68336" lon="2.74022"><ele>101.3</ele></trkpt>
    <trkpt lat="48.68371" lon="2.74007"><ele>101.5</ele></trkpt>
    <trkpt lat="48.68407" lon="2.74004"><ele>101.7</ele></trkpt>
    <trkpt lat="48.68766" lon="2.74008"><ele>103.8</ele></trkpt>
    <trkpt lat="48.69468" lon="2.74003"><ele>101.1</ele></trkpt>
    <trkpt lat="48.69484" lon="2.74014"><ele>101.0</ele></trkpt>
    <trkpt lat="48.70045" lon="2.74652"><ele>93.1</ele></trkpt>
    <trkpt lat="48.70074" lon="2.74684"><ele>92.6</ele></trkpt>
    <trkpt lat="48.7009" lon="2.7469"><ele>92.4</ele></trkpt>
    <trkpt lat="48.70172" lon="2.74585"><ele>92.0</ele></trkpt>
    <trkpt lat="48.70218" lon="2.74502"><ele>92.2</ele></trkpt>
    <trkpt lat="48.70248" lon="2.74434"><ele>92.7</ele></trkpt>
    <trkpt lat="48.70316" lon="2.74242"><ele>93.4</ele></trkpt>
    <trkpt lat="48.70328" lon="2.74221"><ele>93.2</ele></trkpt>
    <trkpt lat="48.7043" lon="2.7411"><ele>91.1</ele></trkpt>
    <trkpt lat="48.70476" lon="2.74068"><ele>90.5</ele></trkpt>
    <trkpt lat="48.70565" lon="2.74044"><ele>89.3</ele></trkpt>
    <trkpt lat="48.70566" lon="2.74025"><ele>89.2</ele></trkpt>
    <trkpt lat="48.7055" lon="2.74014"><ele>89.2</ele></trkpt>
    <trkpt lat="48.70479" lon="2.74031"><ele>89.7</ele></trkpt>
    <trkpt lat="48.70447" lon="2.74052"><ele>90.1</ele></trkpt>
    <trkpt lat="48.7043" lon="2.74054"><ele>90.5</ele></trkpt>
    <trkpt lat="48.70417" lon="2.74037"><ele>91.0</ele></trkpt>
    <trkpt lat="48.70382" lon="2.73942"><ele>93.0</ele></trkpt>
    <trkpt lat="48.70376" lon="2.73917"><ele>93.3</ele></trkpt>
    <trkpt lat="48.70383" lon="2.73896"><ele>93.6</ele></trkpt>
    <trkpt lat="48.70415" lon="2.7388"><ele>93.7</ele></trkpt>
    <trkpt lat="48.70422" lon="2.73802"><ele>94.7</ele></trkpt>
    <trkpt lat="48.70451" lon="2.73673"><ele>96.8</ele></trkpt>
    <trkpt lat="48.70451" lon="2.73646"><ele>97.1</ele></trkpt>
    <trkpt lat="48.70331" lon="2.73311"><ele>100.8</ele></trkpt>
    <trkpt lat="48.70334" lon="2.73288"><ele>100.9</ele></trkpt>
    <trkpt lat="48.70347" lon="2.73271"><ele>101.0</ele></trkpt>
    <trkpt lat="48.70493" lon="2.73113"><ele>100.8</ele></trkpt>
    <trkpt lat="48.70499" lon="2.73061"><ele>101.0</ele></trkpt>
    <trkpt lat="48.70476" lon="2.72929"><ele>101.6</ele></trkpt>
    <trkpt lat="48.70475" lon="2.72902"><ele>101.8</ele></trkpt>
    <trkpt lat="48.70543" lon="2.72875"><ele>102.5</ele></trkpt>
    <trkpt lat="48.70609" lon="2.72835"><ele>103.0</ele></trkpt>
    <trkpt lat="48.70645" lon="2.72827"><ele>103.2</ele></trkpt>
    <trkpt lat="48.70653" lon="2.72804"><ele>103.4</ele></trkpt>
    <trkpt lat="48.70631" lon="2.72616"><ele>104.3</ele></trkpt>
    <trkpt lat="48.70637" lon="2.72591"><ele>104.4</ele></trkpt>
    <trkpt lat="48.70898" lon="2.7235"><ele>105.0</ele></trkpt>
    <trkpt lat="48.70978" lon="2.7224"><ele>105.2</ele></trkpt>
    <trkpt lat="48.71009" lon="2.72212"><ele>105.2</ele></trkpt>
    <trkpt lat="48.71024" lon="2.72225"><ele>105.2</ele></trkpt>
    <trkpt lat="48.71102" lon="2.7247"><ele>104.9</ele></trkpt>
    <trkpt lat="48.71123" lon="2.72509"><ele>104.8</ele></trkpt>
    <trkpt lat="48.71158" lon="2.72495"><ele>104.7</ele></trkpt>
    <trkpt lat="48.71604" lon="2.72409"><ele>103.8</ele></trkpt>
    <trkpt lat="48.71621" lon="2.72404"><ele>103.8</ele></trkpt>
    <trkpt lat="48.7163" lon="2.72385"><ele>103.9</ele></trkpt>
    <trkpt lat="48.71597" lon="2.71843"><ele>105.0</ele></trkpt>
    <trkpt lat="48.71608" lon="2.71407"><ele>104.9</ele></trkpt>
    <trkpt lat="48.71609" lon="2.7138"><ele>104.8</ele></trkpt>
    <trkpt lat="48.71619" lon="2.71365"><ele>104.8</ele></trkpt>
    <trkpt lat="48.7248" lon="2.71273"><ele>103.1</ele></trkpt>
    <trkpt lat="48.7275" lon="2.71254"><ele>102.7</ele></trkpt>
    <trkpt lat="48.72762" lon="2.71266"><ele>102.7</ele></trkpt>
    <trkpt lat="48.72765" lon="2.71348"><ele>102.8</ele></trkpt>
    <trkpt lat="48.72832" lon="2.72187"><ele>104.1</ele></trkpt>
    <trkpt lat="48.7284" lon="2.72677"><ele>104.3</ele></trkpt>
    <trkpt lat="48.72848" lon="2.72701"><ele>104.4</ele></trkpt>
    <trkpt lat="48.7308" lon="2.7275"><ele>105.0</ele></trkpt>
    <trkpt lat="48.73097" lon="2.7276"><ele>105.0</ele></trkpt>
    <trkpt lat="48.73109" lon="2.72779"><ele>105.1</ele></trkpt>
    <trkpt lat="48.73114" lon="2.72798"><ele>105.1</ele></trkpt>
    <trkpt lat="48.73131" lon="2.72795"><ele>105.2</ele></trkpt>
    <trkpt lat="48.73361" lon="2.72858"><ele>105.7</ele></trkpt>
    <trkpt lat="48.73371" lon="2.72878"><ele>105.7</ele></trkpt>
    <trkpt lat="48.73375" lon="2.72904"><ele>105.8</ele></trkpt>
    <trkpt lat="48.73404" lon="2.73256"><ele>106.4</ele></trkpt>
    <trkpt lat="48.73409" lon="2.73282"><ele>106.4</ele></trkpt>
    <trkpt lat="48.73422" lon="2.73298"><ele>106.4</ele></trkpt>
    <trkpt lat="48.73458" lon="2.733"><ele>106.4</ele></trkpt>
    <trkpt lat="48.73637" lon="2.73274"><ele>106.1</ele></trkpt>
    <trkpt lat="48.73654" lon="2.73315"><ele>106.1</ele></trkpt>
    <trkpt lat="48.73725" lon="2.73439"><ele>106.0</ele></trkpt>
    <trkpt lat="48.73782" lon="2.73504"><ele>105.8</ele></trkpt>
    <trkpt lat="48.73778" lon="2.73497"><ele>105.8</ele></trkpt>
    <trkpt lat="48.73777" lon="2.7347"><ele>105.7</ele></trkpt>
    <trkpt lat="48.73776" lon="2.73416"><ele>105.6</ele></trkpt>
    <trkpt lat="48.7378" lon="2.7339"><ele>105.6</ele></trkpt>
    <trkpt lat="48.73794" lon="2.73373"><ele>105.6</ele></trkpt>
    <trkpt lat="48.73811" lon="2.73365"><ele>105.5</ele></trkpt>
    <trkpt lat="48.73916" lon="2.73331"><ele>105.3</ele></trkpt>
    <trkpt lat="48.74013" lon="2.73492"><ele>105.1</ele></trkpt>
    <trkpt lat="48.7404" lon="2.73527"><ele>105.0</ele></trkpt>
    <trkpt lat="48.74055" lon="2.73538"><ele>105.0</ele></trkpt>
    <trkpt lat="48.74088" lon="2.73517"><ele>105.0</ele></trkpt>
    <trkpt lat="48.741" lon="2.73523"><ele>105.1</ele></trkpt>
    <trkpt lat="48.74117" lon="2.73601"><ele>105.3</ele></trkpt>
    <trkpt lat="48.74128" lon="2.73602"><ele>105.3</ele></trkpt>
    <trkpt lat="48.74219" lon="2.73514"><ele>106.0</ele></trkpt>
    <trkpt lat="48.74335" lon="2.73441"><ele>106.5</ele></trkpt>
    <trkpt lat="48.74347" lon="2.73422"><ele>106.5</ele></trkpt>
    <trkpt lat="48.74356" lon="2.73397"><ele>106.6</ele></trkpt>
    <trkpt lat="48.74387" lon="2.73185"><ele>107.6</ele></trkpt>
    <trkpt lat="48.74402" lon="2.73135"><ele>107.8</ele></trkpt>
    <trkpt lat="48.74875" lon="2.72506"><ele>109.7</ele></trkpt>
    <trkpt lat="48.74922" lon="2.72466"><ele>109.9</ele></trkpt>
    <trkpt lat="48.75158" lon="2.72332"><ele>111.0</ele></trkpt>
    <trkpt lat="48.75202" lon="2.72286"><ele>111.1</ele></trkpt>
    <trkpt lat="48.75223" lon="2.72241"><ele>111.2</ele></trkpt>
    <trkpt lat="48.75289" lon="2.7205"><ele>111.2</ele></trkpt>
    <trkpt lat="48.75339" lon="2.72081"><ele>111.2</ele></trkpt>
    <trkpt lat="48.76583" lon="2.72519"><ele>112.2</ele></trkpt>
    <trkpt lat="48.76616" lon="2.72524"><ele>112.4</ele></trkpt>
    <trkpt lat="48.76622" lon="2.72498"><ele>112.6</ele></trkpt>
    <trkpt lat="48.76885" lon="2.69881"><ele>110.4</ele></trkpt>
    <trkpt lat="48.76893" lon="2.69865"><ele>110.0</ele></trkpt>
    <trkpt lat="48.77446" lon="2.69974"><ele>109.3</ele></trkpt>
    <trkpt lat="48.77839" lon="2.70039"><ele>109.8</ele></trkpt>
    <trkpt lat="48.78018" lon="2.70002"><ele>109.9</ele></trkpt>
    <trkpt lat="48.79152" lon="2.69703"><ele>114.9</ele></trkpt>
    <trkpt lat="48.79168" lon="2.69695"><ele>114.9</ele></trkpt>
    <trkpt lat="48.79514" lon="2.69401"><ele>113.5</ele></trkpt>
    <trkpt lat="48.79879" lon="2.69107"><ele>112.9</ele></trkpt>
    <trkpt lat="48.8003" lon="2.68959"><ele>113.2</ele></trkpt>
    <trkpt lat="48.80034" lon="2.68934"><ele>113.2</ele></trkpt>
    <trkpt lat="48.80129" lon="2.67604"><ele>112.7</ele></trkpt>
    <trkpt lat="48.80319" lon="2.67016"><ele>112.6</ele></trkpt>
    <trkpt lat="48.80374" lon="2.66946"><ele>112.5</ele></trkpt>
    <trkpt lat="48.80384" lon="2.66925"><ele>112.5</ele></trkpt>
    <trkpt lat="48.80395" lon="2.66873"><ele>112.5</ele></trkpt>
    <trkpt lat="48.80392" lon="2.66819"><ele>112.4</ele></trkpt>
    <trkpt lat="48.80401" lon="2.66767"><ele>112.4</ele></trkpt>
    <trkpt lat="48.80563" lon="2.66249"><ele>112.8</ele></trkpt>
    <trkpt lat="48.80559" lon="2.66195"><ele>112.7</ele></trkpt>
    <trkpt lat="48.80511" lon="2.6582"><ele>111.8</ele></trkpt>
    <trkpt lat="48.80466" lon="2.655"><ele>111.4</ele></trkpt>
    <trkpt lat="48.8042" lon="2.65096"><ele>110.7</ele></trkpt>
    <trkpt lat="48.80382" lon="2.64526"><ele>110.4</ele></trkpt>
    <trkpt lat="48.80381" lon="2.64498"><ele>110.4</ele></trkpt>
    <trkpt lat="48.80389" lon="2.64479"><ele>110.3</ele></trkpt>
    <trkpt lat="48.80392" lon="2.64452"><ele>110.2</ele></trkpt>
    <trkpt lat="48.80386" lon="2.64263"><ele>109.6</ele></trkpt>
    <trkpt lat="48.80379" lon="2.6421"><ele>109.3</ele></trkpt>
    <trkpt lat="48.80363" lon="2.64163"><ele>109.0</ele></trkpt>
    <trkpt lat="48.80373" lon="2.64151"><ele>108.8</ele></trkpt>
    <trkpt lat="48.80499" lon="2.64156"><ele>108.0</ele></trkpt>
    <trkpt lat="48.80533" lon="2.64146"><ele>107.9</ele></trkpt>
    <trkpt lat="48.80546" lon="2.64127"><ele>107.8</ele></trkpt>
    <trkpt lat="48.80569" lon="2.64053"><ele>107.7</ele></trkpt>
    <trkpt lat="48.80589" lon="2.64008"><ele>107.7</ele></trkpt>
    <trkpt lat="48.80645" lon="2.63941"><ele>107.9</ele></trkpt>
    <trkpt lat="48.80656" lon="2.63919"><ele>108.0</ele></trkpt>
    <trkpt lat="48.8066" lon="2.63893"><ele>108.0</ele></trkpt>
    <trkpt lat="48.80647" lon="2.63786"><ele>108.4</ele></trkpt>
    <trkpt lat="48.80613" lon="2.63602"><ele>108.9</ele></trkpt>
    <trkpt lat="48.80586" lon="2.63532"><ele>109.0</ele></trkpt>
    <trkpt lat="48.80511" lon="2.63379"><ele>108.9</ele></trkpt>
    <trkpt lat="48.80497" lon="2.6336"><ele>108.8</ele></trkpt>
    <trkpt lat="48.8044" lon="2.63191"><ele>108.8</ele></trkpt>
    <trkpt lat="48.80438" lon="2.6311"><ele>108.9</ele></trkpt>
    <trkpt lat="48.80428" lon="2.63058"><ele>109.1</ele></trkpt>
    <trkpt lat="48.80424" lon="2.63004"><ele>109.2</ele></trkpt>
    <trkpt lat="48.80406" lon="2.62957"><ele>109.4</ele></trkpt>
    <trkpt lat="48.80408" lon="2.62848"><ele>109.9</ele></trkpt>
    <trkpt lat="48.80397" lon="2.6283"><ele>110.0</ele></trkpt>
    <trkpt lat="48.80428" lon="2.62732"><ele>110.3</ele></trkpt>
    <trkpt lat="48.80431" lon="2.62678"><ele>110.1</ele></trkpt>
    <trkpt lat="48.8041" lon="2.62604"><ele>109.9</ele></trkpt>
    <trkpt lat="48.80402" lon="2.62553"><ele>109.9</ele></trkpt>
    <trkpt lat="48.80472" lon="2.62332"><ele>109.5</ele></trkpt>
    <trkpt lat="48.80492" lon="2.62287"><ele>109.6</ele></trkpt>
    <trkpt lat="48.80521" lon="2.62255"><ele>109.9</ele></trkpt>
    <trkpt lat="48.80747" lon="2.62086"><ele>110.3</ele></trkpt>
    <trkpt lat="48.80762" lon="2.62071"><ele>110.2</ele></trkpt>
    <trkpt lat="48.80782" lon="2.62026"><ele>110.0</ele></trkpt>
    <trkpt lat="48.80793" lon="2.62024"><ele>109.8</ele></trkpt>
    <trkpt lat="48.80809" lon="2.62031"><ele>109.7</ele></trkpt>
    <trkpt lat="48.80822" lon="2.62015"><ele>109.5</ele></trkpt>
    <trkpt lat="48.8088" lon="2.61815"><ele>108.6</ele></trkpt>
    <trkpt lat="48.80903" lon="2.61775"><ele>108.5</ele></trkpt>
    <trkpt lat="48.80919" lon="2.61773"><ele>108.5</ele></trkpt>
    <trkpt lat="48.80954" lon="2.6178"><ele>108.5</ele></trkpt>
    <trkpt lat="48.81005" lon="2.61809"><ele>108.6</ele></trkpt>
    <trkpt lat="48.81022" lon="2.61807"><ele>108.6</ele></trkpt>
    <trkpt lat="48.81048" lon="2.61771"><ele>108.7</ele></trkpt>
    <trkpt lat="48.81093" lon="2.61622"><ele>108.8</ele></trkpt>
    <trkpt lat="48.81123" lon="2.61494"><ele>108.8</ele></trkpt>
    <trkpt lat="48.81171" lon="2.61347"><ele>108.8</ele></trkpt>
    <trkpt lat="48.81207" lon="2.61193"><ele>108.6</ele></trkpt>
    <trkpt lat="48.8123" lon="2.6112"><ele>108.4</ele></trkpt>
    <trkpt lat="48.81204" lon="2.61055"><ele>108.3</ele></trkpt>
    <trkpt lat="48.81252" lon="2.60976"><ele>108.1</ele></trkpt>
    <trkpt lat="48.81285" lon="2.60955"><ele>108.1</ele></trkpt>
    <trkpt lat="48.81357" lon="2.60957"><ele>107.9</ele></trkpt>
    <trkpt lat="48.81428" lon="2.60975"><ele>107.7</ele></trkpt>
    <trkpt lat="48.8148" lon="2.60997"><ele>107.5</ele></trkpt>
    <trkpt lat="48.81599" lon="2.61061"><ele>107.7</ele></trkpt>
    <trkpt lat="48.81612" lon="2.61055"><ele>107.7</ele></trkpt>
    <trkpt lat="48.81609" lon="2.61001"><ele>107.8</ele></trkpt>
    <trkpt lat="48.81599" lon="2.60982"><ele>107.9</ele></trkpt>
    <trkpt lat="48.81412" lon="2.60886"><ele>108.8</ele></trkpt>
    <trkpt lat="48.8138" lon="2.60862"><ele>108.9</ele></trkpt>
    <trkpt lat="48.81329" lon="2.60785"><ele>109.1</ele></trkpt>
    <trkpt lat="48.81289" lon="2.60696"><ele>109.1</ele></trkpt>
    <trkpt lat="48.81273" lon="2.60688"><ele>109.2</ele></trkpt>
    <trkpt lat="48.81258" lon="2.60698"><ele>109.2</ele></trkpt>
    <trkpt lat="48.81245" lon="2.60717"><ele>109.1</ele></trkpt>
    <trkpt lat="48.81229" lon="2.60726"><ele>109.1</ele></trkpt>
    <trkpt lat="48.81182" lon="2.6069"><ele>109.1</ele></trkpt>
    <trkpt lat="48.81113" lon="2.60668"><ele>108.9</ele></trkpt>
    <trkpt lat="48.81097" lon="2.60656"><ele>108.9</ele></trkpt>
    <trkpt lat="48.81091" lon="2.60632"><ele>108.9</ele></trkpt>
    <trkpt lat="48.81095" lon="2.60606"><ele>108.9</ele></trkpt>
    <trkpt lat="48.81113" lon="2.60559"><ele>108.9</ele></trkpt>
    <trkpt lat="48.8111" lon="2.60507"><ele>108.9</ele></trkpt>
    <trkpt lat="48.81117" lon="2.60482"><ele>108.9</ele></trkpt>
    <trkpt lat="48.81132" lon="2.60432"><ele>109.0</ele></trkpt>
    <trkpt lat="48.81187" lon="2.60291"><ele>109.3</ele></trkpt>
    <trkpt lat="48.81281" lon="2.60091"><ele>109.8</ele></trkpt>
    <trkpt lat="48.81396" lon="2.59882"><ele>109.9</ele></trkpt>
    <trkpt lat="48.81447" lon="2.59769"><ele>109.9</ele></trkpt>
    <trkpt lat="48.81486" lon="2.59712"><ele>109.9</ele></trkpt>
    <trkpt lat="48.81542" lon="2.59644"><ele>109.9</ele></trkpt>
    <trkpt lat="48.81549" lon="2.59619"><ele>109.9</ele></trkpt>
    <trkpt lat="48.81549" lon="2.59592"><ele>110.0</ele></trkpt>
    <trkpt lat="48.81543" lon="2.59566"><ele>110.1</ele></trkpt>
    <trkpt lat="48.81532" lon="2.59549"><ele>110.2</ele></trkpt>
    <trkpt lat="48.81426" lon="2.59581"><ele>110.7</ele></trkpt>
    <trkpt lat="48.81409" lon="2.5958"><ele>110.8</ele></trkpt>
    <trkpt lat="48.81375" lon="2.59565"><ele>111.0</ele></trkpt>
    <trkpt lat="48.81252" lon="2.59605"><ele>110.9</ele></trkpt>
    <trkpt lat="48.81109" lon="2.59631"><ele>110.3</ele></trkpt>
    <trkpt lat="48.81074" lon="2.59624"><ele>110.1</ele></trkpt>
    <trkpt lat="48.80986" lon="2.59592"><ele>109.6</ele></trkpt>
    <trkpt lat="48.80915" lon="2.59511"><ele>109.2</ele></trkpt>
    <trkpt lat="48.80849" lon="2.59417"><ele>108.9</ele></trkpt>
    <trkpt lat="48.80765" lon="2.59276"><ele>108.6</ele></trkpt>
    <trkpt lat="48.80724" lon="2.59188"><ele>108.4</ele></trkpt>
    <trkpt lat="48.80715" lon="2.59205"><ele>108.3</ele></trkpt>
    <trkpt lat="48.80686" lon="2.59305"><ele>108.0</ele></trkpt>
    <trkpt lat="48.80668" lon="2.59411"><ele>107.5</ele></trkpt>
    <trkpt lat="48.80649" lon="2.59487"><ele>107.1</ele></trkpt>
    <trkpt lat="48.80592" lon="2.59626"><ele>106.3</ele></trkpt>
    <trkpt lat="48.80579" lon="2.59645"><ele>106.2</ele></trkpt>
    <trkpt lat="48.80562" lon="2.59643"><ele>106.1</ele></trkpt>
    <trkpt lat="48.80111" lon="2.59369"><ele>104.2</ele></trkpt>
    <trkpt lat="48.79997" lon="2.58999"><ele>103.4</ele></trkpt>
    <trkpt lat="48.7998" lon="2.58991"><ele>103.3</ele></trkpt>
    <trkpt lat="48.7973" lon="2.58953"><ele>103.0</ele></trkpt>
    <trkpt lat="48.79603" lon="2.58561"><ele>103.7</ele></trkpt>
    <trkpt lat="48.79615" lon="2.58542"><ele>103.4</ele></trkpt>
    <trkpt lat="48.79827" lon="2.58394"><ele>105.3</ele></trkpt>
    <trkpt lat="48.79841" lon="2.58379"><ele>105.5</ele></trkpt>
    <trkpt lat="48.79831" lon="2.58328"><ele>105.8</ele></trkpt>
    <trkpt lat="48.79832" lon="2.58303"><ele>106.0</ele></trkpt>
    <trkpt lat="48.79927" lon="2.58229"><ele>106.6</ele></trkpt>
    <trkpt lat="48.79932" lon="2.58205"><ele>106.7</ele></trkpt>
    <trkpt lat="48.79923" lon="2.58155"><ele>106.7</ele></trkpt>
    <trkpt lat="48.80067" lon="2.5805"><ele>106.7</ele></trkpt>
    <trkpt lat="48.79973" lon="2.57697"><ele>105.3</ele></trkpt>
    <trkpt lat="48.7998" lon="2.57675"><ele>105.2</ele></trkpt>
    <trkpt lat="48.80075" lon="2.57596"><ele>105.0</ele></trkpt>
    <trkpt lat="48.80101" lon="2.57559"><ele>105.1</ele></trkpt>
    <trkpt lat="48.80129" lon="2.57536"><ele>105.1</ele></trkpt>
    <trkpt lat="48.801" lon="2.57473"><ele>104.4</ele></trkpt>
    <trkpt lat="48.80096" lon="2.57447"><ele>104.2</ele></trkpt>
    <trkpt lat="48.80059" lon="2.57124"><ele>102.7</ele></trkpt>
    <trkpt lat="48.80045" lon="2.57073"><ele>102.4</ele></trkpt>
    <trkpt lat="48.80025" lon="2.57029"><ele>102.1</ele></trkpt>
    <trkpt lat="48.79662" lon="2.56539"><ele>101.1</ele></trkpt>
    <trkpt lat="48.7963" lon="2.56473"><ele>101.0</ele></trkpt>
    <trkpt lat="48.79616" lon="2.56423"><ele>100.8</ele></trkpt>
    <trkpt lat="48.796" lon="2.56412"><ele>100.6</ele></trkpt>
    <trkpt lat="48.79501" lon="2.56185"><ele>99.8</ele></trkpt>
    <trkpt lat="48.79504" lon="2.56201"><ele>99.7</ele></trkpt>
    <trkpt lat="48.79592" lon="2.56407"><ele>100.2</ele></trkpt>
    <trkpt lat="48.79593" lon="2.56395"><ele>100.3</ele></trkpt>
    <trkpt lat="48.79514" lon="2.56212"><ele>99.9</ele></trkpt>
    <trkpt lat="48.79492" lon="2.56137"><ele>99.5</ele></trkpt>
    <trkpt lat="48.79477" lon="2.56124"><ele>99.4</ele></trkpt>
    <trkpt lat="48.79466" lon="2.56103"><ele>99.3</ele></trkpt>
    <trkpt lat="48.79396" lon="2.55944"><ele>98.7</ele></trkpt>
    <trkpt lat="48.79391" lon="2.55918"><ele>98.7</ele></trkpt>
    <trkpt lat="48.79393" lon="2.55893"><ele>98.7</ele></trkpt>
    <trkpt lat="48.7938" lon="2.55877"><ele>98.7</ele></trkpt>
    <trkpt lat="48.79364" lon="2.55874"><ele>98.7</ele></trkpt>
    <trkpt lat="48.79321" lon="2.55786"><ele>98.4</ele></trkpt>
    <trkpt lat="48.79204" lon="2.55513"><ele>97.8</ele></trkpt>
    <trkpt lat="48.79191" lon="2.55495"><ele>97.7</ele></trkpt>
    <trkpt lat="48.7913" lon="2.55328"><ele>97.4</ele></trkpt>
    <trkpt lat="48.78985" lon="2.55017"><ele>99.4</ele></trkpt>
    <trkpt lat="48.7882" lon="2.54627"><ele>100.6</ele></trkpt>
    <trkpt lat="48.78805" lon="2.54578"><ele>100.7</ele></trkpt>
    <trkpt lat="48.78766" lon="2.54486"><ele>100.4</ele></trkpt>
    <trkpt lat="48.78681" lon="2.54449"><ele>98.3</ele></trkpt>
  </trkseg></trk>
</gpx>
