<?xml version="1.0" encoding="UTF-8"?>
<gpx version="1.1" creator="Club Cycliste USO" xmlns="http://www.topografix.com/GPX/1/1">
  <metadata><name>Bouleurs – 107 km</name><desc>106.6 km, D+ 562 m. Départ et arrivée : pont de Champigny.</desc></metadata>
  <trk><name>Bouleurs – 107 km</name><trkseg>
    <trkpt lat="48.81032" lon="2.51002"><ele>42.8</ele></trkpt>
    <trkpt lat="48.80962" lon="2.50978"><ele>40.6</ele></trkpt>
    <trkpt lat="48.80948" lon="2.50985"><ele>39.9</ele></trkpt>
    <trkpt lat="48.80909" lon="2.51417"><ele>36.0</ele></trkpt>
    <trkpt lat="48.80853" lon="2.51646"><ele>35.8</ele></trkpt>
    <trkpt lat="48.80807" lon="2.51764"><ele>35.5</ele></trkpt>
    <trkpt lat="48.80747" lon="2.51865"><ele>35.3</ele></trkpt>
    <trkpt lat="48.80664" lon="2.51971"><ele>35.4</ele></trkpt>
    <trkpt lat="48.80464" lon="2.52147"><ele>35.1</ele></trkpt>
    <trkpt lat="48.80439" lon="2.52176"><ele>35.0</ele></trkpt>
    <trkpt lat="48.80421" lon="2.52175"><ele>35.0</ele></trkpt>
    <trkpt lat="48.80369" lon="2.52194"><ele>34.9</ele></trkpt>
    <trkpt lat="48.80227" lon="2.52227"><ele>34.9</ele></trkpt>
    <trkpt lat="48.80156" lon="2.52229"><ele>34.7</ele></trkpt>
    <trkpt lat="48.79995" lon="2.52199"><ele>34.9</ele></trkpt>
    <trkpt lat="48.79888" lon="2.52207"><ele>35.1</ele></trkpt>
    <trkpt lat="48.79693" lon="2.52244"><ele>35.0</ele></trkpt>
    <trkpt lat="48.79392" lon="2.52185"><ele>35.0</ele></trkpt>
    <trkpt lat="48.79375" lon="2.5219"><ele>35.1</ele></trkpt>
    <trkpt lat="48.79303" lon="2.52184"><ele>35.1</ele></trkpt>
    <trkpt lat="48.79216" lon="2.52154"><ele>35.2</ele></trkpt>
    <trkpt lat="48.792" lon="2.52143"><ele>35.2</ele></trkpt>
    <trkpt lat="48.79195" lon="2.52118"><ele>35.3</ele></trkpt>
    <trkpt lat="48.792" lon="2.52064"><ele>35.4</ele></trkpt>
    <trkpt lat="48.79189" lon="2.52044"><ele>35.4</ele></trkpt>
    <trkpt lat="48.79172" lon="2.52043"><ele>35.5</ele></trkpt>
    <trkpt lat="48.79149" lon="2.52084"><ele>35.9</ele></trkpt>
    <trkpt lat="48.79135" lon="2.52099"><ele>36.1</ele></trkpt>
    <trkpt lat="48.79101" lon="2.52086"><ele>36.1</ele></trkpt>
    <trkpt lat="48.79085" lon="2.52094"><ele>36.1</ele></trkpt>
    <trkpt lat="48.79027" lon="2.52231"><ele>36.2</ele></trkpt>
    <trkpt lat="48.79013" lon="2.52231"><ele>36.3</ele></trkpt>
    <trkpt lat="48.78963" lon="2.522"><ele>36.5</ele></trkpt>
    <trkpt lat="48.78749" lon="2.52056"><ele>38.2</ele></trkpt>
    <trkpt lat="48.78433" lon="2.51651"><ele>39.3</ele></trkpt>
    <trkpt lat="48.78381" lon="2.51541"><ele>39.4</ele></trkpt>
    <trkpt lat="48.78367" lon="2.51526"><ele>39.5</ele></trkpt>
    <trkpt lat="48.78331" lon="2.51516"><ele>39.6</ele></trkpt>
    <trkpt lat="48.78317" lon="2.51501"><ele>39.7</ele></trkpt>
    <trkpt lat="48.78139" lon="2.5127"><ele>39.7</ele></trkpt>
    <trkpt lat="48.78094" lon="2.51225"><ele>39.4</ele></trkpt>
    <trkpt lat="48.77596" lon="2.51122"><ele>38.7</ele></trkpt>
    <trkpt lat="48.77471" lon="2.51106"><ele>39.2</ele></trkpt>
    <trkpt lat="48.77456" lon="2.51095"><ele>39.2</ele></trkpt>
    <trkpt lat="48.77313" lon="2.51065"><ele>39.4</ele></trkpt>
    <trkpt lat="48.77146" lon="2.50906"><ele>38.3</ele></trkpt>
    <trkpt lat="48.77048" lon="2.50838"><ele>37.9</ele></trkpt>
    <trkpt lat="48.7703" lon="2.50832"><ele>37.9</ele></trkpt>
    <trkpt lat="48.77014" lon="2.50837"><ele>37.9</ele></trkpt>
    <trkpt lat="48.76805" lon="2.5105"><ele>40.9</ele></trkpt>
    <trkpt lat="48.76718" lon="2.51147"><ele>43.9</ele></trkpt>
    <trkpt lat="48.76704" lon="2.51164"><ele>44.7</ele></trkpt>
    <trkpt lat="48.76677" lon="2.51234"><ele>47.4</ele></trkpt>
    <trkpt lat="48.76671" lon="2.51288"><ele>49.4</ele></trkpt>
    <trkpt lat="48.76674" lon="2.51396"><ele>53.5</ele></trkpt>
    <trkpt lat="48.76742" lon="2.51679"><ele>64.4</ele></trkpt>
    <trkpt lat="48.7675" lon="2.517"><ele>65.6</ele></trkpt>
    <trkpt lat="48.76821" lon="2.51706"><ele>71.6</ele></trkpt>
    <trkpt lat="48.76846" lon="2.51746"><ele>75.1</ele></trkpt>
    <trkpt lat="48.76865" lon="2.51792"><ele>78.2</ele></trkpt>
    <trkpt lat="48.76906" lon="2.52001"><ele>88.5</ele></trkpt>
    <trkpt lat="48.76916" lon="2.52022"><ele>89.9</ele></trkpt>
    <trkpt lat="48.76943" lon="2.52057"><ele>92.6</ele></trkpt>
    <trkpt lat="48.76904" lon="2.52108"><ele>95.1</ele></trkpt>
    <trkpt lat="48.76908" lon="2.52135"><ele>95.7</ele></trkpt>
    <trkpt lat="48.76895" lon="2.5215"><ele>96.3</ele></trkpt>
    <trkpt lat="48.76781" lon="2.5223"><ele>98.8</ele></trkpt>
    <trkpt lat="48.76691" lon="2.52319"><ele>99.7</ele></trkpt>
    <trkpt lat="48.76605" lon="2.52355"><ele>99.8</ele></trkpt>
    <trkpt lat="48.76572" lon="2.52377"><ele>99.8</ele></trkpt>
    <trkpt lat="48.76466" lon="2.52518"><ele>99.0</ele></trkpt>
    <trkpt lat="48.76449" lon="2.52526"><ele>98.9</ele></trkpt>
    <trkpt lat="48.76437" lon="2.52542"><ele>98.7</ele></trkpt>
    <trkpt lat="48.76422" lon="2.52591"><ele>98.3</ele></trkpt>
    <trkpt lat="48.76413" lon="2.52643"><ele>98.0</ele></trkpt>
    <trkpt lat="48.76403" lon="2.52861"><ele>97.1</ele></trkpt>
    <trkpt lat="48.76368" lon="2.53044"><ele>96.5</ele></trkpt>
    <trkpt lat="48.76312" lon="2.53414"><ele>96.5</ele></trkpt>
    <trkpt lat="48.76306" lon="2.53546"><ele>97.0</ele></trkpt>
    <trkpt lat="48.76339" lon="2.53611"><ele>97.5</ele></trkpt>
    <trkpt lat="48.76335" lon="2.53638"><ele>97.6</ele></trkpt>
    <trkpt lat="48.7633" lon="2.53664"><ele>97.9</ele></trkpt>
    <trkpt lat="48.7631" lon="2.53709"><ele>98.4</ele></trkpt>
    <trkpt lat="48.76294" lon="2.53716"><ele>98.8</ele></trkpt>
    <trkpt lat="48.76284" lon="2.53766"><ele>99.5</ele></trkpt>
    <trkpt lat="48.7623" lon="2.53908"><ele>100.8</ele></trkpt>
    <trkpt lat="48.76161" lon="2.54416"><ele>102.9</ele></trkpt>
    <trkpt lat="48.76108" lon="2.54898"><ele>101.8</ele></trkpt>
    <trkpt lat="48.75812" lon="2.55012"><ele>100.3</ele></trkpt>
    <trkpt lat="48.75804" lon="2.55027"><ele>100.2</ele></trkpt>
    <trkpt lat="48.75834" lon="2.5524"><ele>100.2</ele></trkpt>
    <trkpt lat="48.75843" lon="2.55347"><ele>100.4</ele></trkpt>
    <trkpt lat="48.75736" lon="2.55331"><ele>100.9</ele></trkpt>
    <trkpt lat="48.75487" lon="2.55277"><ele>102.5</ele></trkpt>
    <trkpt lat="48.75478" lon="2.55291"><ele>102.6</ele></trkpt>
    <trkpt lat="48.7546" lon="2.55726"><ele>103.7</ele></trkpt>
    <trkpt lat="48.74705" lon="2.557"><ele>98.6</ele></trkpt>
    <trkpt lat="48.74634" lon="2.5569"><ele>97.7</ele></trkpt>
    <trkpt lat="48.74618" lon="2.55696"><ele>97.5</ele></trkpt>
    <trkpt lat="48.7451" lon="2.55695"><ele>96.7</ele></trkpt>
    <trkpt lat="48.74439" lon="2.55712"><ele>96.3</ele></trkpt>
    <trkpt lat="48.74422" lon="2.55709"><ele>96.3</ele></trkpt>
    <trkpt lat="48.74322" lon="2.55648"><ele>96.1</ele></trkpt>
    <trkpt lat="48.74304" lon="2.55608"><ele>96.0</ele></trkpt>
    <trkpt lat="48.74286" lon="2.55606"><ele>96.0</ele></trkpt>
    <trkpt lat="48.74276" lon="2.55624"><ele>96.0</ele></trkpt>
    <trkpt lat="48.74273" lon="2.55651"><ele>96.1</ele></trkpt>
    <trkpt lat="48.74264" lon="2.55674"><ele>96.1</ele></trkpt>
    <trkpt lat="48.7426" lon="2.557"><ele>96.1</ele></trkpt>
    <trkpt lat="48.74258" lon="2.55755"><ele>96.2</ele></trkpt>
    <trkpt lat="48.74242" lon="2.55861"><ele>96.4</ele></trkpt>
    <trkpt lat="48.7424" lon="2.55997"><ele>96.5</ele></trkpt>
    <trkpt lat="48.74226" lon="2.56075"><ele>96.7</ele></trkpt>
    <trkpt lat="48.742" lon="2.56112"><ele>96.8</ele></trkpt>
    <trkpt lat="48.74167" lon="2.56134"><ele>96.9</ele></trkpt>
    <trkpt lat="48.74113" lon="2.56137"><ele>96.9</ele></trkpt>
    <trkpt lat="48.74097" lon="2.56128"><ele>96.9</ele></trkpt>
    <trkpt lat="48.74086" lon="2.56143"><ele>96.8</ele></trkpt>
    <trkpt lat="48.73996" lon="2.56155"><ele>96.5</ele></trkpt>
    <trkpt lat="48.73943" lon="2.56172"><ele>96.3</ele></trkpt>
    <trkpt lat="48.73894" lon="2.56206"><ele>96.0</ele></trkpt>
    <trkpt lat="48.73853" lon="2.56255"><ele>95.6</ele></trkpt>
    <trkpt lat="48.73846" lon="2.56279"><ele>95.4</ele></trkpt>
    <trkpt lat="48.73839" lon="2.56304"><ele>95.2</ele></trkpt>
    <trkpt lat="48.73832" lon="2.56385"><ele>94.7</ele></trkpt>
    <trkpt lat="48.73834" lon="2.5644"><ele>94.3</ele></trkpt>
    <trkpt lat="48.73814" lon="2.56512"><ele>93.2</ele></trkpt>
    <trkpt lat="48.73707" lon="2.56514"><ele>92.0</ele></trkpt>
    <trkpt lat="48.73564" lon="2.56491"><ele>90.8</ele></trkpt>
    <trkpt lat="48.73547" lon="2.56484"><ele>90.7</ele></trkpt>
    <trkpt lat="48.73529" lon="2.5644"><ele>90.3</ele></trkpt>
    <trkpt lat="48.73512" lon="2.56441"><ele>90.2</ele></trkpt>
    <trkpt lat="48.73492" lon="2.56486"><ele>90.1</ele></trkpt>
    <trkpt lat="48.73477" lon="2.565"><ele>90.1</ele></trkpt>
    <trkpt lat="48.73424" lon="2.56514"><ele>90.2</ele></trkpt>
    <trkpt lat="48.73391" lon="2.56532"><ele>90.3</ele></trkpt>
    <trkpt lat="48.73184" lon="2.567"><ele>91.4</ele></trkpt>
    <trkpt lat="48.73128" lon="2.56768"><ele>92.1</ele></trkpt>
    <trkpt lat="48.73111" lon="2.56772"><ele>92.4</ele></trkpt>
    <trkpt lat="48.73111" lon="2.56849"><ele>93.0</ele></trkpt>
    <trkpt lat="48.73101" lon="2.56957"><ele>93.1</ele></trkpt>
    <trkpt lat="48.73084" lon="2.57091"><ele>93.1</ele></trkpt>
    <trkpt lat="48.73039" lon="2.57382"><ele>92.0</ele></trkpt>
    <trkpt lat="48.72997" lon="2.57591"><ele>90.5</ele></trkpt>
    <trkpt lat="48.72963" lon="2.57654"><ele>89.7</ele></trkpt>
    <trkpt lat="48.72932" lon="2.57681"><ele>89.1</ele></trkpt>
    <trkpt lat="48.72915" lon="2.5769"><ele>88.7</ele></trkpt>
    <trkpt lat="48.72898" lon="2.5769"><ele>88.3</ele></trkpt>
    <trkpt lat="48.72866" lon="2.57674"><ele>87.2</ele></trkpt>
    <trkpt lat="48.72848" lon="2.57677"><ele>86.7</ele></trkpt>
    <trkpt lat="48.72839" lon="2.57699"><ele>86.1</ele></trkpt>
    <trkpt lat="48.72822" lon="2.57709"><ele>85.6</ele></trkpt>
    <trkpt lat="48.72737" lon="2.57752"><ele>84.1</ele></trkpt>
    <trkpt lat="48.72649" lon="2.57781"><ele>82.9</ele></trkpt>
    <trkpt lat="48.72598" lon="2.5781"><ele>82.4</ele></trkpt>
    <trkpt lat="48.72574" lon="2.57844"><ele>82.3</ele></trkpt>
    <trkpt lat="48.72543" lon="2.57972"><ele>82.6</ele></trkpt>
    <trkpt lat="48.7251" lon="2.58156"><ele>83.3</ele></trkpt>
    <trkpt lat="48.72461" lon="2.58302"><ele>84.2</ele></trkpt>
    <trkpt lat="48.72388" lon="2.58489"><ele>85.1</ele></trkpt>
    <trkpt lat="48.72351" lon="2.58672"><ele>85.4</ele></trkpt>
    <trkpt lat="48.72321" lon="2.58911"><ele>85.5</ele></trkpt>
    <trkpt lat="48.7233" lon="2.58934"><ele>85.5</ele></trkpt>
    <trkpt lat="48.72481" lon="2.59459"><ele>85.8</ele></trkpt>
    <trkpt lat="48.72501" lon="2.59504"><ele>86.0</ele></trkpt>
    <trkpt lat="48.72609" lon="2.59687"><ele>87.6</ele></trkpt>
    <trkpt lat="48.72805" lon="2.59926"><ele>89.9</ele></trkpt>
    <trkpt lat="48.72949" lon="2.60131"><ele>91.5</ele></trkpt>
    <trkpt lat="48.72982" lon="2.60154"><ele>91.7</ele></trkpt>
    <trkpt lat="48.72989" lon="2.60178"><ele>91.8</ele></trkpt>
    <trkpt lat="48.7302" lon="2.60205"><ele>91.9</ele></trkpt>
    <trkpt lat="48.73137" lon="2.60277"><ele>91.9</ele></trkpt>
    <trkpt lat="48.73204" lon="2.60314"><ele>91.6</ele></trkpt>
    <trkpt lat="48.7324" lon="2.60321"><ele>91.5</ele></trkpt>
    <trkpt lat="48.73307" lon="2.60358"><ele>91.1</ele></trkpt>
    <trkpt lat="48.7364" lon="2.60562"><ele>91.7</ele></trkpt>
    <trkpt lat="48.73693" lon="2.60578"><ele>92.2</ele></trkpt>
    <trkpt lat="48.7371" lon="2.60577"><ele>92.5</ele></trkpt>
    <trkpt lat="48.73737" lon="2.60607"><ele>93.0</ele></trkpt>
    <trkpt lat="48.73921" lon="2.60716"><ele>95.2</ele></trkpt>
    <trkpt lat="48.74057" lon="2.60787"><ele>97.1</ele></trkpt>
    <trkpt lat="48.74101" lon="2.60834"><ele>97.8</ele></trkpt>
    <trkpt lat="48.74132" lon="2.60856"><ele>98.3</ele></trkpt>
    <trkpt lat="48.74139" lon="2.60879"><ele>98.5</ele></trkpt>
    <trkpt lat="48.74434" lon="2.61234"><ele>98.3</ele></trkpt>
    <trkpt lat="48.74459" lon="2.61272"><ele>98.0</ele></trkpt>
    <trkpt lat="48.74454" lon="2.61286"><ele>97.9</ele></trkpt>
    <trkpt lat="48.74436" lon="2.61288"><ele>97.7</ele></trkpt>
    <trkpt lat="48.74437" lon="2.61313"><ele>97.6</ele></trkpt>
    <trkpt lat="48.74454" lon="2.61321"><ele>97.5</ele></trkpt>
    <trkpt lat="48.74465" lon="2.61342"><ele>97.5</ele></trkpt>
    <trkpt lat="48.74481" lon="2.61355"><ele>97.5</ele></trkpt>
    <trkpt lat="48.74514" lon="2.61374"><ele>97.4</ele></trkpt>
    <trkpt lat="48.74535" lon="2.61447"><ele>97.4</ele></trkpt>
    <trkpt lat="48.7455" lon="2.61462"><ele>97.4</ele></trkpt>
    <trkpt lat="48.74665" lon="2.61539"><ele>97.5</ele></trkpt>
    <trkpt lat="48.74752" lon="2.61566"><ele>97.9</ele></trkpt>
    <trkpt lat="48.7484" lon="2.6166"><ele>97.9</ele></trkpt>
    <trkpt lat="48.74845" lon="2.61681"><ele>97.9</ele></trkpt>
    <trkpt lat="48.74843" lon="2.61706"><ele>97.8</ele></trkpt>
    <trkpt lat="48.74825" lon="2.61753"><ele>97.8</ele></trkpt>
    <trkpt lat="48.74696" lon="2.62008"><ele>96.6</ele></trkpt>
    <trkpt lat="48.74683" lon="2.62058"><ele>96.2</ele></trkpt>
    <trkpt lat="48.7468" lon="2.62112"><ele>95.9</ele></trkpt>
    <trkpt lat="48.7469" lon="2.62164"><ele>95.6</ele></trkpt>
    <trkpt lat="48.74781" lon="2.62333"><ele>94.1</ele></trkpt>
    <trkpt lat="48.74793" lon="2.62467"><ele>92.7</ele></trkpt>
    <trkpt lat="48.7481" lon="2.62543"><ele>91.6</ele></trkpt>
    <trkpt lat="48.74822" lon="2.62554"><ele>91.3</ele></trkpt>
    <trkpt lat="48.74828" lon="2.6258"><ele>91.1</ele></trkpt>
    <trkpt lat="48.74868" lon="2.6267"><ele>90.8</ele></trkpt>
    <trkpt lat="48.74884" lon="2.62719"><ele>90.7</ele></trkpt>
    <trkpt lat="48.74913" lon="2.62988"><ele>91.0</ele></trkpt>
    <trkpt lat="48.74919" lon="2.63014"><ele>91.1</ele></trkpt>
    <trkpt lat="48.74949" lon="2.63113"><ele>91.4</ele></trkpt>
    <trkpt lat="48.75004" lon="2.63219"><ele>92.2</ele></trkpt>
    <trkpt lat="48.7501" lon="2.63244"><ele>92.4</ele></trkpt>
    <trkpt lat="48.75013" lon="2.63298"><ele>92.9</ele></trkpt>
    <trkpt lat="48.75001" lon="2.63378"><ele>93.6</ele></trkpt>
    <trkpt lat="48.74986" lon="2.63427"><ele>94.0</ele></trkpt>
    <trkpt lat="48.74966" lon="2.63472"><ele>94.6</ele></trkpt>
    <trkpt lat="48.74881" lon="2.63516"><ele>96.3</ele></trkpt>
    <trkpt lat="48.748" lon="2.63577"><ele>99.0</ele></trkpt>
    <trkpt lat="48.74787" lon="2.63594"><ele>99.6</ele></trkpt>
    <trkpt lat="48.74779" lon="2.63618"><ele>100.2</ele></trkpt>
    <trkpt lat="48.74776" lon="2.63672"><ele>101.3</ele></trkpt>
    <trkpt lat="48.74782" lon="2.63697"><ele>101.8</ele></trkpt>
    <trkpt lat="48.74868" lon="2.63835"><ele>104.4</ele></trkpt>
    <trkpt lat="48.74998" lon="2.63981"><ele>106.8</ele></trkpt>
    <trkpt lat="48.75022" lon="2.64021"><ele>107.5</ele></trkpt>
    <trkpt lat="48.75029" lon="2.64046"><ele>107.8</ele></trkpt>
    <trkpt lat="48.75077" lon="2.64073"><ele>108.6</ele></trkpt>
    <trkpt lat="48.75108" lon="2.64102"><ele>108.7</ele></trkpt>
    <trkpt lat="48.75141" lon="2.64165"><ele>108.7</ele></trkpt>
    <trkpt lat="48.75207" lon="2.64359"><ele>108.2</ele></trkpt>
    <trkpt lat="48.75235" lon="2.64489"><ele>107.5</ele></trkpt>
    <trkpt lat="48.75251" lon="2.64538"><ele>107.2</ele></trkpt>
    <trkpt lat="48.75281" lon="2.64605"><ele>106.6</ele></trkpt>
    <trkpt lat="48.75322" lon="2.64659"><ele>105.9</ele></trkpt>
    <trkpt lat="48.75351" lon="2.64726"><ele>105.4</ele></trkpt>
    <trkpt lat="48.75398" lon="2.64933"><ele>104.6</ele></trkpt>
    <trkpt lat="48.75454" lon="2.65104"><ele>103.6</ele></trkpt>
    <trkpt lat="48.75511" lon="2.65304"><ele>102.5</ele></trkpt>
    <trkpt lat="48.7565" lon="2.65554"><ele>101.7</ele></trkpt>
    <trkpt lat="48.75793" lon="2.65834"><ele>102.1</ele></trkpt>
    <trkpt lat="48.75878" lon="2.65975"><ele>102.8</ele></trkpt>
    <trkpt lat="48.75942" lon="2.66071"><ele>103.3</ele></trkpt>
    <trkpt lat="48.76077" lon="2.66251"><ele>104.4</ele></trkpt>
    <trkpt lat="48.76087" lon="2.66272"><ele>104.6</ele></trkpt>
    <trkpt lat="48.76143" lon="2.66333"><ele>104.9</ele></trkpt>
    <trkpt lat="48.76221" lon="2.66445"><ele>104.9</ele></trkpt>
    <trkpt lat="48.76264" lon="2.66495"><ele>104.9</ele></trkpt>
    <trkpt lat="48.76315" lon="2.66521"><ele>105.0</ele></trkpt>
    <trkpt lat="48.76403" lon="2.66528"><ele>105.3</ele></trkpt>
    <trkpt lat="48.76457" lon="2.66525"><ele>105.5</ele></trkpt>
    <trkpt lat="48.76582" lon="2.66502"><ele>106.1</ele></trkpt>
    <trkpt lat="48.76617" lon="2.66514"><ele>106.3</ele></trkpt>
    <trkpt lat="48.76646" lon="2.66544"><ele>106.4</ele></trkpt>
    <trkpt lat="48.76698" lon="2.66655"><ele>106.9</ele></trkpt>
    <trkpt lat="48.76726" lon="2.66756"><ele>107.1</ele></trkpt>
    <trkpt lat="48.76751" lon="2.66885"><ele>107.6</ele></trkpt>
    <trkpt lat="48.76761" lon="2.66902"><ele>107.6</ele></trkpt>
    <trkpt lat="48.76803" lon="2.67306"><ele>107.8</ele></trkpt>
    <trkpt lat="48.76834" lon="2.67329"><ele>107.9</ele></trkpt>
    <trkpt lat="48.76844" lon="2.67348"><ele>107.9</ele></trkpt>
    <trkpt lat="48.76898" lon="2.67356"><ele>107.8</ele></trkpt>
    <trkpt lat="48.76932" lon="2.67373"><ele>107.8</ele></trkpt>
    <trkpt lat="48.77275" lon="2.67611"><ele>108.7</ele></trkpt>
    <trkpt lat="48.77302" lon="2.67636"><ele>109.0</ele></trkpt>
    <trkpt lat="48.77387" lon="2.67682"><ele>109.7</ele></trkpt>
    <trkpt lat="48.77567" lon="2.67805"><ele>111.6</ele></trkpt>
    <trkpt lat="48.77578" lon="2.67824"><ele>112.0</ele></trkpt>
    <trkpt lat="48.77596" lon="2.67827"><ele>112.3</ele></trkpt>
    <trkpt lat="48.77858" lon="2.68006"><ele>114.7</ele></trkpt>
    <trkpt lat="48.77883" lon="2.68039"><ele>115.1</ele></trkpt>
    <trkpt lat="48.77917" lon="2.68048"><ele>115.5</ele></trkpt>
    <trkpt lat="48.78" lon="2.68103"><ele>116.0</ele></trkpt>
    <trkpt lat="48.78145" lon="2.68212"><ele>116.7</ele></trkpt>
    <trkpt lat="48.78286" lon="2.68332"><ele>117.0</ele></trkpt>
    <trkpt lat="48.78399" lon="2.68415"><ele>117.2</ele></trkpt>
    <trkpt lat="48.78669" lon="2.68566"><ele>118.5</ele></trkpt>
    <trkpt lat="48.78949" lon="2.68754"><ele>119.3</ele></trkpt>
    <trkpt lat="48.78982" lon="2.68769"><ele>119.3</ele></trkpt>
    <trkpt lat="48.79007" lon="2.68797"><ele>119.3</ele></trkpt>
    <trkpt lat="48.79133" lon="2.6919"><ele>118.9</ele></trkpt>
    <trkpt lat="48.79536" lon="2.70501"><ele>114.6</ele></trkpt>
    <trkpt lat="48.79549" lon="2.70519"><ele>114.6</ele></trkpt>
    <trkpt lat="48.79602" lon="2.70528"><ele>114.4</ele></trkpt>
    <trkpt lat="48.79618" lon="2.70634"><ele>114.4</ele></trkpt>
    <trkpt lat="48.79618" lon="2.70661"><ele>114.4</ele></trkpt>
    <trkpt lat="48.79611" lon="2.7118"><ele>114.7</ele></trkpt>
    <trkpt lat="48.79599" lon="2.71342"><ele>115.1</ele></trkpt>
    <trkpt lat="48.79589" lon="2.71394"><ele>115.3</ele></trkpt>
    <trkpt lat="48.7959" lon="2.71421"><ele>115.4</ele></trkpt>
    <trkpt lat="48.79599" lon="2.71443"><ele>115.5</ele></trkpt>
    <trkpt lat="48.79601" lon="2.7147"><ele>115.6</ele></trkpt>
    <trkpt lat="48.79593" lon="2.72207"><ele>119.7</ele></trkpt>
    <trkpt lat="48.79596" lon="2.72398"><ele>121.4</ele></trkpt>
    <trkpt lat="48.7974" lon="2.72807"><ele>124.1</ele></trkpt>
    <trkpt lat="48.79956" lon="2.73374"><ele>125.3</ele></trkpt>
    <trkpt lat="48.80292" lon="2.74728"><ele>123.2</ele></trkpt>
    <trkpt lat="48.80353" lon="2.74956"><ele>123.2</ele></trkpt>
    <trkpt lat="48.80619" lon="2.75852"><ele>126.1</ele></trkpt>
    <trkpt lat="48.80629" lon="2.75905"><ele>126.5</ele></trkpt>
    <trkpt lat="48.80631" lon="2.75959"><ele>126.9</ele></trkpt>
    <trkpt lat="48.80659" lon="2.76805"><ele>128.6</ele></trkpt>
    <trkpt lat="48.80831" lon="2.77724"><ele>126.6</ele></trkpt>
    <trkpt lat="48.80959" lon="2.78235"><ele>124.5</ele></trkpt>
    <trkpt lat="48.80998" lon="2.78327"><ele>124.0</ele></trkpt>
    <trkpt lat="48.81034" lon="2.78451"><ele>123.0</ele></trkpt>
    <trkpt lat="48.81044" lon="2.78559"><ele>122.2</ele></trkpt>
    <trkpt lat="48.8105" lon="2.78777"><ele>120.6</ele></trkpt>
    <trkpt lat="48.81064" lon="2.78856"><ele>120.1</ele></trkpt>
    <trkpt lat="48.81091" lon="2.78927"><ele>119.6</ele></trkpt>
    <trkpt lat="48.81116" lon="2.78966"><ele>119.3</ele></trkpt>
    <trkpt lat="48.81177" lon="2.79023"><ele>118.9</ele></trkpt>
    <trkpt lat="48.81229" lon="2.79043"><ele>118.8</ele></trkpt>
    <trkpt lat="48.81373" lon="2.79042"><ele>118.8</ele></trkpt>
    <trkpt lat="48.81427" lon="2.79049"><ele>119.0</ele></trkpt>
    <trkpt lat="48.81473" lon="2.7909"><ele>119.3</ele></trkpt>
    <trkpt lat="48.81499" lon="2.79127"><ele>119.5</ele></trkpt>
    <trkpt lat="48.81559" lon="2.79263"><ele>120.3</ele></trkpt>
    <trkpt lat="48.81637" lon="2.79539"><ele>121.3</ele></trkpt>
    <trkpt lat="48.81644" lon="2.79592"><ele>121.6</ele></trkpt>
    <trkpt lat="48.81643" lon="2.79647"><ele>121.8</ele></trkpt>
    <trkpt lat="48.81602" lon="2.79912"><ele>122.3</ele></trkpt>
    <trkpt lat="48.81599" lon="2.79967"><ele>122.4</ele></trkpt>
    <trkpt lat="48.81597" lon="2.80294"><ele>122.7</ele></trkpt>
    <trkpt lat="48.81601" lon="2.80376"><ele>122.6</ele></trkpt>
    <trkpt lat="48.81652" lon="2.80778"><ele>122.6</ele></trkpt>
    <trkpt lat="48.81704" lon="2.81011"><ele>122.8</ele></trkpt>
    <trkpt lat="48.81765" lon="2.81325"><ele>123.3</ele></trkpt>
    <trkpt lat="48.81794" lon="2.81595"><ele>123.9</ele></trkpt>
    <trkpt lat="48.81835" lon="2.81804"><ele>124.2</ele></trkpt>
    <trkpt lat="48.81836" lon="2.81858"><ele>124.4</ele></trkpt>
    <trkpt lat="48.8183" lon="2.81884"><ele>124.5</ele></trkpt>
    <trkpt lat="48.81808" lon="2.81927"><ele>124.7</ele></trkpt>
    <trkpt lat="48.81756" lon="2.82002"><ele>125.1</ele></trkpt>
    <trkpt lat="48.81725" lon="2.82069"><ele>125.4</ele></trkpt>
    <trkpt lat="48.81572" lon="2.82769"><ele>126.9</ele></trkpt>
    <trkpt lat="48.81561" lon="2.8279"><ele>126.9</ele></trkpt>
    <trkpt lat="48.81496" lon="2.82837"><ele>126.6</ele></trkpt>
    <trkpt lat="48.81449" lon="2.82983"><ele>126.1</ele></trkpt>
    <trkpt lat="48.81415" lon="2.82979"><ele>125.9</ele></trkpt>
    <trkpt lat="48.81416" lon="2.83061"><ele>125.6</ele></trkpt>
    <trkpt lat="48.81438" lon="2.83414"><ele>124.4</ele></trkpt>
    <trkpt lat="48.81485" lon="2.83928"><ele>124.7</ele></trkpt>
    <trkpt lat="48.81494" lon="2.84064"><ele>125.6</ele></trkpt>
    <trkpt lat="48.81494" lon="2.84146"><ele>126.3</ele></trkpt>
    <trkpt lat="48.81486" lon="2.84169"><ele>126.6</ele></trkpt>
    <trkpt lat="48.81484" lon="2.84196"><ele>127.0</ele></trkpt>
    <trkpt lat="48.81488" lon="2.84222"><ele>127.5</ele></trkpt>
    <trkpt lat="48.81502" lon="2.84237"><ele>128.0</ele></trkpt>
    <trkpt lat="48.81512" lon="2.8426"><ele>128.5</ele></trkpt>
    <trkpt lat="48.81521" lon="2.84313"><ele>129.4</ele></trkpt>
    <trkpt lat="48.81543" lon="2.84584"><ele>131.8</ele></trkpt>
    <trkpt lat="48.81571" lon="2.84826"><ele>133.5</ele></trkpt>
    <trkpt lat="48.81855" lon="2.86604"><ele>137.1</ele></trkpt>
    <trkpt lat="48.8217" lon="2.87525"><ele>138.9</ele></trkpt>
    <trkpt lat="48.82181" lon="2.87547"><ele>138.9</ele></trkpt>
    <trkpt lat="48.82226" lon="2.87591"><ele>139.0</ele></trkpt>
    <trkpt lat="48.82238" lon="2.87611"><ele>139.0</ele></trkpt>
    <trkpt lat="48.82241" lon="2.87665"><ele>138.8</ele></trkpt>
    <trkpt lat="48.82237" lon="2.87719"><ele>138.6</ele></trkpt>
    <trkpt lat="48.82257" lon="2.87792"><ele>138.3</ele></trkpt>
    <trkpt lat="48.82351" lon="2.88056"><ele>136.9</ele></trkpt>
    <trkpt lat="48.82364" lon="2.88107"><ele>136.4</ele></trkpt>
    <trkpt lat="48.82371" lon="2.88188"><ele>135.4</ele></trkpt>
    <trkpt lat="48.82378" lon="2.88212"><ele>135.0</ele></trkpt>
    <trkpt lat="48.8239" lon="2.88232"><ele>134.7</ele></trkpt>
    <trkpt lat="48.82462" lon="2.88315"><ele>133.0</ele></trkpt>
    <trkpt lat="48.82499" lon="2.88374"><ele>131.7</ele></trkpt>
    <trkpt lat="48.82645" lon="2.88686"><ele>125.0</ele></trkpt>
    <trkpt lat="48.82726" lon="2.88929"><ele>119.1</ele></trkpt>
    <trkpt lat="48.82881" lon="2.89422"><ele>101.6</ele></trkpt>
    <trkpt lat="48.8289" lon="2.89475"><ele>99.2</ele></trkpt>
    <trkpt lat="48.82894" lon="2.89748"><ele>87.2</ele></trkpt>
    <trkpt lat="48.82898" lon="2.89774"><ele>85.4</ele></trkpt>
    <trkpt lat="48.82911" lon="2.89791"><ele>83.2</ele></trkpt>
    <trkpt lat="48.82946" lon="2.89797"><ele>77.5</ele></trkpt>
    <trkpt lat="48.82956" lon="2.89819"><ele>75.0</ele></trkpt>
    <trkpt lat="48.82976" lon="2.89925"><ele>68.0</ele></trkpt>
    <trkpt lat="48.82999" lon="2.90084"><ele>60.0</ele></trkpt>
    <trkpt lat="48.82998" lon="2.90111"><ele>58.2</ele></trkpt>
    <trkpt lat="48.8298" lon="2.90151"><ele>55.0</ele></trkpt>
    <trkpt lat="48.82986" lon="2.90287"><ele>51.2</ele></trkpt>
    <trkpt lat="48.82986" lon="2.90478"><ele>48.1</ele></trkpt>
    <trkpt lat="48.82994" lon="2.90559"><ele>47.8</ele></trkpt>
    <trkpt lat="48.83015" lon="2.90664"><ele>48.1</ele></trkpt>
    <trkpt lat="48.83029" lon="2.90771"><ele>49.4</ele></trkpt>
    <trkpt lat="48.83027" lon="2.90798"><ele>49.9</ele></trkpt>
    <trkpt lat="48.82996" lon="2.90865"><ele>51.9</ele></trkpt>
    <trkpt lat="48.82992" lon="2.90891"><ele>52.9</ele></trkpt>
    <trkpt lat="48.82992" lon="2.90918"><ele>54.0</ele></trkpt>
    <trkpt lat="48.83001" lon="2.9094"><ele>55.2</ele></trkpt>
    <trkpt lat="48.83018" lon="2.90945"><ele>56.4</ele></trkpt>
    <trkpt lat="48.83107" lon="2.90925"><ele>61.2</ele></trkpt>
    <trkpt lat="48.83142" lon="2.90928"><ele>64.0</ele></trkpt>
    <trkpt lat="48.83151" lon="2.90948"><ele>65.8</ele></trkpt>
    <trkpt lat="48.83152" lon="2.90975"><ele>67.7</ele></trkpt>
    <trkpt lat="48.83143" lon="2.90996"><ele>69.5</ele></trkpt>
    <trkpt lat="48.83057" lon="2.91037"><ele>76.4</ele></trkpt>
    <trkpt lat="48.83042" lon="2.91051"><ele>77.9</ele></trkpt>
    <trkpt lat="48.83041" lon="2.91077"><ele>79.6</ele></trkpt>
    <trkpt lat="48.83046" lon="2.911"><ele>81.2</ele></trkpt>
    <trkpt lat="48.83152" lon="2.91128"><ele>89.1</ele></trkpt>
    <trkpt lat="48.83168" lon="2.91139"><ele>90.7</ele></trkpt>
    <trkpt lat="48.83171" lon="2.91165"><ele>92.3</ele></trkpt>
    <trkpt lat="48.83149" lon="2.91239"><ele>96.7</ele></trkpt>
    <trkpt lat="48.83143" lon="2.91292"><ele>99.0</ele></trkpt>
    <trkpt lat="48.83158" lon="2.91399"><ele>102.7</ele></trkpt>
    <trkpt lat="48.83185" lon="2.91529"><ele>106.9</ele></trkpt>
    <trkpt lat="48.83197" lon="2.91719"><ele>112.5</ele></trkpt>
    <trkpt lat="48.83171" lon="2.91878"><ele>115.6</ele></trkpt>
    <trkpt lat="48.83156" lon="2.9215"><ele>118.4</ele></trkpt>
    <trkpt lat="48.83152" lon="2.92396"><ele>119.6</ele></trkpt>
    <trkpt lat="48.83166" lon="2.92558"><ele>120.3</ele></trkpt>
    <trkpt lat="48.83193" lon="2.92659"><ele>120.7</ele></trkpt>
    <trkpt lat="48.832" lon="2.92713"><ele>120.9</ele></trkpt>
    <trkpt lat="48.83197" lon="2.92931"><ele>122.1</ele></trkpt>
    <trkpt lat="48.832" lon="2.93094"><ele>123.3</ele></trkpt>
    <trkpt lat="48.83208" lon="2.93117"><ele>123.6</ele></trkpt>
    <trkpt lat="48.83257" lon="2.93148"><ele>124.8</ele></trkpt>
    <trkpt lat="48.8327" lon="2.93167"><ele>125.2</ele></trkpt>
    <trkpt lat="48.83322" lon="2.9337"><ele>128.5</ele></trkpt>
    <trkpt lat="48.83385" lon="2.93536"><ele>131.4</ele></trkpt>
    <trkpt lat="48.83399" lon="2.93615"><ele>133.2</ele></trkpt>
    <trkpt lat="48.83404" lon="2.93724"><ele>135.4</ele></trkpt>
    <trkpt lat="48.83399" lon="2.94216"><ele>140.7</ele></trkpt>
    <trkpt lat="48.83392" lon="2.94352"><ele>141.5</ele></trkpt>
    <trkpt lat="48.8338" lon="2.94424"><ele>141.9</ele></trkpt>
    <trkpt lat="48.83415" lon="2.94411"><ele>142.1</ele></trkpt>
    <trkpt lat="48.83649" lon="2.94393"><ele>142.6</ele></trkpt>
    <trkpt lat="48.842" lon="2.94267"><ele>148.8</ele></trkpt>
    <trkpt lat="48.84232" lon="2.94244"><ele>149.2</ele></trkpt>
    <trkpt lat="48.84415" lon="2.94069"><ele>150.2</ele></trkpt>
    <trkpt lat="48.84449" lon="2.94053"><ele>150.2</ele></trkpt>
    <trkpt lat="48.8461" lon="2.94055"><ele>149.2</ele></trkpt>
    <trkpt lat="48.847" lon="2.94047"><ele>148.0</ele></trkpt>
    <trkpt lat="48.84771" lon="2.94031"><ele>146.5</ele></trkpt>
    <trkpt lat="48.84804" lon="2.9405"><ele>145.5</ele></trkpt>
    <trkpt lat="48.85074" lon="2.93373"><ele>120.5</ele></trkpt>
    <trkpt lat="48.85109" lon="2.93311"><ele>115.9</ele></trkpt>
    <trkpt lat="48.85153" lon="2.93264"><ele>110.8</ele></trkpt>
    <trkpt lat="48.85479" lon="2.93031"><ele>79.1</ele></trkpt>
    <trkpt lat="48.85604" lon="2.92922"><ele>66.8</ele></trkpt>
    <trkpt lat="48.8581" lon="2.92658"><ele>53.8</ele></trkpt>
    <trkpt lat="48.85839" lon="2.92589"><ele>52.8</ele></trkpt>
    <trkpt lat="48.85844" lon="2.92564"><ele>52.6</ele></trkpt>
    <trkpt lat="48.85925" lon="2.92461"><ele>54.2</ele></trkpt>
    <trkpt lat="48.85929" lon="2.92435"><ele>54.9</ele></trkpt>
    <trkpt lat="48.85928" lon="2.92381"><ele>57.2</ele></trkpt>
    <trkpt lat="48.85932" lon="2.92358"><ele>58.6</ele></trkpt>
    <trkpt lat="48.85948" lon="2.92369"><ele>60.0</ele></trkpt>
    <trkpt lat="48.85991" lon="2.92418"><ele>64.9</ele></trkpt>
    <trkpt lat="48.86009" lon="2.9242"><ele>67.0</ele></trkpt>
    <trkpt lat="48.85996" lon="2.92286"><ele>77.2</ele></trkpt>
    <trkpt lat="48.85999" lon="2.9226"><ele>79.3</ele></trkpt>
    <trkpt lat="48.86013" lon="2.92245"><ele>81.3</ele></trkpt>
    <trkpt lat="48.86192" lon="2.9222"><ele>97.7</ele></trkpt>
    <trkpt lat="48.86245" lon="2.92229"><ele>103.3</ele></trkpt>
    <trkpt lat="48.86295" lon="2.9226"><ele>108.1</ele></trkpt>
    <trkpt lat="48.86313" lon="2.92264"><ele>109.8</ele></trkpt>
    <trkpt lat="48.86331" lon="2.92266"><ele>111.5</ele></trkpt>
    <trkpt lat="48.86365" lon="2.92253"><ele>114.9</ele></trkpt>
    <trkpt lat="48.86418" lon="2.92179"><ele>120.6</ele></trkpt>
    <trkpt lat="48.86601" lon="2.91879"><ele>134.9</ele></trkpt>
    <trkpt lat="48.86615" lon="2.91862"><ele>135.5</ele></trkpt>
    <trkpt lat="48.86751" lon="2.91793"><ele>138.2</ele></trkpt>
    <trkpt lat="48.86839" lon="2.91698"><ele>137.5</ele></trkpt>
    <trkpt lat="48.87065" lon="2.91531"><ele>128.9</ele></trkpt>
    <trkpt lat="48.87144" lon="2.91464"><ele>124.3</ele></trkpt>
    <trkpt lat="48.87245" lon="2.91351"><ele>116.4</ele></trkpt>
    <trkpt lat="48.87278" lon="2.9133"><ele>114.0</ele></trkpt>
    <trkpt lat="48.87347" lon="2.91301"><ele>109.3</ele></trkpt>
    <trkpt lat="48.87479" lon="2.91214"><ele>102.2</ele></trkpt>
    <trkpt lat="48.87514" lon="2.912"><ele>100.3</ele></trkpt>
    <trkpt lat="48.8764" lon="2.91188"><ele>94.9</ele></trkpt>
    <trkpt lat="48.87693" lon="2.91201"><ele>93.1</ele></trkpt>
    <trkpt lat="48.87697" lon="2.91178"><ele>92.6</ele></trkpt>
    <trkpt lat="48.87699" lon="2.90987"><ele>91.2</ele></trkpt>
    <trkpt lat="48.87706" lon="2.90933"><ele>91.2</ele></trkpt>
    <trkpt lat="48.87752" lon="2.90784"><ele>91.9</ele></trkpt>
    <trkpt lat="48.87768" lon="2.90706"><ele>92.9</ele></trkpt>
    <trkpt lat="48.87808" lon="2.90616"><ele>94.8</ele></trkpt>
    <trkpt lat="48.87809" lon="2.90598"><ele>95.3</ele></trkpt>
    <trkpt lat="48.87729" lon="2.90487"><ele>98.8</ele></trkpt>
    <trkpt lat="48.87639" lon="2.90397"><ele>103.2</ele></trkpt>
    <trkpt lat="48.87573" lon="2.90356"><ele>107.1</ele></trkpt>
    <trkpt lat="48.87383" lon="2.90271"><ele>117.5</ele></trkpt>
    <trkpt lat="48.87311" lon="2.90274"><ele>120.9</ele></trkpt>
    <trkpt lat="48.87168" lon="2.90296"><ele>125.2</ele></trkpt>
    <trkpt lat="48.86755" lon="2.90302"><ele>121.0</ele></trkpt>
    <trkpt lat="48.86599" lon="2.90437"><ele>110.6</ele></trkpt>
    <trkpt lat="48.86563" lon="2.90444"><ele>107.6</ele></trkpt>
    <trkpt lat="48.86456" lon="2.90443"><ele>97.6</ele></trkpt>
    <trkpt lat="48.8644" lon="2.9043"><ele>95.5</ele></trkpt>
    <trkpt lat="48.86427" lon="2.90411"><ele>93.3</ele></trkpt>
    <trkpt lat="48.86401" lon="2.9034"><ele>87.1</ele></trkpt>
    <trkpt lat="48.86385" lon="2.90326"><ele>84.6</ele></trkpt>
    <trkpt lat="48.86368" lon="2.90323"><ele>81.9</ele></trkpt>
    <trkpt lat="48.8635" lon="2.90325"><ele>79.2</ele></trkpt>
    <trkpt lat="48.86333" lon="2.90335"><ele>77.0</ele></trkpt>
    <trkpt lat="48.86321" lon="2.90354"><ele>75.1</ele></trkpt>
    <trkpt lat="48.86273" lon="2.9047"><ele>68.5</ele></trkpt>
    <trkpt lat="48.86235" lon="2.90528"><ele>64.7</ele></trkpt>
    <trkpt lat="48.86189" lon="2.90572"><ele>61.5</ele></trkpt>
    <trkpt lat="48.8599" lon="2.90695"><ele>51.8</ele></trkpt>
    <trkpt lat="48.85883" lon="2.90719"><ele>49.1</ele></trkpt>
    <trkpt lat="48.85829" lon="2.90723"><ele>48.1</ele></trkpt>
    <trkpt lat="48.85812" lon="2.90732"><ele>47.8</ele></trkpt>
    <trkpt lat="48.85722" lon="2.90903"><ele>47.3</ele></trkpt>
    <trkpt lat="48.85661" lon="2.91003"><ele>47.7</ele></trkpt>
    <trkpt lat="48.85631" lon="2.91102"><ele>48.5</ele></trkpt>
    <trkpt lat="48.85662" lon="2.91259"><ele>50.0</ele></trkpt>
    <trkpt lat="48.85671" lon="2.91281"><ele>50.3</ele></trkpt>
    <trkpt lat="48.85727" lon="2.91349"><ele>51.3</ele></trkpt>
    <trkpt lat="48.85816" lon="2.91368"><ele>52.4</ele></trkpt>
    <trkpt lat="48.85906" lon="2.91458"><ele>53.7</ele></trkpt>
    <trkpt lat="48.8592" lon="2.91475"><ele>54.0</ele></trkpt>
    <trkpt lat="48.85928" lon="2.91497"><ele>54.2</ele></trkpt>
    <trkpt lat="48.85931" lon="2.91552"><ele>54.7</ele></trkpt>
    <trkpt lat="48.85926" lon="2.91633"><ele>55.2</ele></trkpt>
    <trkpt lat="48.85892" lon="2.91846"><ele>56.0</ele></trkpt>
    <trkpt lat="48.85884" lon="2.91926"><ele>56.2</ele></trkpt>
    <trkpt lat="48.85846" lon="2.92137"><ele>56.7</ele></trkpt>
    <trkpt lat="48.85838" lon="2.92218"><ele>56.8</ele></trkpt>
    <trkpt lat="48.85833" lon="2.92409"><ele>57.3</ele></trkpt>
    <trkpt lat="48.85841" lon="2.92546"><ele>57.6</ele></trkpt>
    <trkpt lat="48.8584" lon="2.92572"><ele>57.7</ele></trkpt>
    <trkpt lat="48.85816" lon="2.92646"><ele>58.0</ele></trkpt>
    <trkpt lat="48.85774" lon="2.92697"><ele>58.2</ele></trkpt>
    <trkpt lat="48.8576" lon="2.9271"><ele>58.3</ele></trkpt>
    <trkpt lat="48.85744" lon="2.9271"><ele>58.3</ele></trkpt>
    <trkpt lat="48.85728" lon="2.92721"><ele>58.3</ele></trkpt>
    <trkpt lat="48.8553" lon="2.9291"><ele>57.3</ele></trkpt>
    <trkpt lat="48.85513" lon="2.92915"><ele>57.0</ele></trkpt>
    <trkpt lat="48.85503" lon="2.92896"><ele>56.8</ele></trkpt>
    <trkpt lat="48.85486" lon="2.92762"><ele>55.2</ele></trkpt>
    <trkpt lat="48.85476" lon="2.92742"><ele>54.9</ele></trkpt>
    <trkpt lat="48.85314" lon="2.92736"><ele>52.8</ele></trkpt>
    <trkpt lat="48.85262" lon="2.92757"><ele>52.2</ele></trkpt>
    <trkpt lat="48.85212" lon="2.92787"><ele>51.6</ele></trkpt>
    <trkpt lat="48.85159" lon="2.92784"><ele>51.1</ele></trkpt>
    <trkpt lat="48.85056" lon="2.92734"><ele>50.5</ele></trkpt>
    <trkpt lat="48.84976" lon="2.92671"><ele>50.1</ele></trkpt>
    <trkpt lat="48.8492" lon="2.92604"><ele>49.8</ele></trkpt>
    <trkpt lat="48.84839" lon="2.92544"><ele>49.7</ele></trkpt>
    <trkpt lat="48.84769" lon="2.92459"><ele>49.6</ele></trkpt>
    <trkpt lat="48.84744" lon="2.92387"><ele>49.6</ele></trkpt>
    <trkpt lat="48.8473" lon="2.92225"><ele>49.7</ele></trkpt>
    <trkpt lat="48.847" lon="2.92159"><ele>49.8</ele></trkpt>
    <trkpt lat="48.84663" lon="2.91919"><ele>50.4</ele></trkpt>
    <trkpt lat="48.84636" lon="2.91511"><ele>52.7</ele></trkpt>
    <trkpt lat="48.84611" lon="2.91352"><ele>54.0</ele></trkpt>
    <trkpt lat="48.84603" lon="2.91327"><ele>54.3</ele></trkpt>
    <trkpt lat="48.84611" lon="2.9131"><ele>54.7</ele></trkpt>
    <trkpt lat="48.84628" lon="2.913"><ele>55.0</ele></trkpt>
    <trkpt lat="48.8463" lon="2.91281"><ele>55.2</ele></trkpt>
    <trkpt lat="48.84588" lon="2.91162"><ele>55.9</ele></trkpt>
    <trkpt lat="48.84467" lon="2.90959"><ele>56.0</ele></trkpt>
    <trkpt lat="48.84304" lon="2.90744"><ele>55.8</ele></trkpt>
    <trkpt lat="48.8426" lon="2.90698"><ele>55.5</ele></trkpt>
    <trkpt lat="48.84209" lon="2.90667"><ele>55.1</ele></trkpt>
    <trkpt lat="48.84175" lon="2.90654"><ele>54.8</ele></trkpt>
    <trkpt lat="48.83623" lon="2.90526"><ele>49.8</ele></trkpt>
    <trkpt lat="48.83571" lon="2.90509"><ele>49.4</ele></trkpt>
    <trkpt lat="48.83369" lon="2.90392"><ele>49.5</ele></trkpt>
    <trkpt lat="48.83039" lon="2.90176"><ele>58.9</ele></trkpt>
    <trkpt lat="48.83027" lon="2.90155"><ele>60.2</ele></trkpt>
    <trkpt lat="48.83003" lon="2.90083"><ele>64.2</ele></trkpt>
    <trkpt lat="48.82955" lon="2.89819"><ele>77.0</ele></trkpt>
    <trkpt lat="48.82945" lon="2.89798"><ele>78.7</ele></trkpt>
    <trkpt lat="48.8291" lon="2.89793"><ele>82.7</ele></trkpt>
    <trkpt lat="48.82898" lon="2.89774"><ele>84.6</ele></trkpt>
    <trkpt lat="48.82894" lon="2.89748"><ele>86.2</ele></trkpt>
    <trkpt lat="48.82892" lon="2.89502"><ele>97.4</ele></trkpt>
    <trkpt lat="48.82887" lon="2.89448"><ele>99.9</ele></trkpt>
    <trkpt lat="48.82726" lon="2.88929"><ele>118.8</ele></trkpt>
    <trkpt lat="48.82636" lon="2.88662"><ele>125.1</ele></trkpt>
    <trkpt lat="48.82499" lon="2.88374"><ele>131.3</ele></trkpt>
    <trkpt lat="48.82462" lon="2.88315"><ele>132.7</ele></trkpt>
    <trkpt lat="48.8239" lon="2.88232"><ele>134.6</ele></trkpt>
    <trkpt lat="48.82378" lon="2.88212"><ele>134.9</ele></trkpt>
    <trkpt lat="48.82371" lon="2.88188"><ele>135.3</ele></trkpt>
    <trkpt lat="48.82364" lon="2.88107"><ele>136.4</ele></trkpt>
    <trkpt lat="48.82351" lon="2.88056"><ele>137.0</ele></trkpt>
    <trkpt lat="48.82259" lon="2.8779"><ele>138.8</ele></trkpt>
    <trkpt lat="48.82262" lon="2.87709"><ele>139.0</ele></trkpt>
    <trkpt lat="48.82247" lon="2.87632"><ele>139.4</ele></trkpt>
    <trkpt lat="48.82225" lon="2.8759"><ele>139.4</ele></trkpt>
    <trkpt lat="48.82194" lon="2.87563"><ele>139.4</ele></trkpt>
    <trkpt lat="48.82169" lon="2.87524"><ele>139.3</ele></trkpt>
    <trkpt lat="48.81854" lon="2.86603"><ele>137.0</ele></trkpt>
    <trkpt lat="48.81571" lon="2.84824"><ele>133.4</ele></trkpt>
    <trkpt lat="48.81543" lon="2.84582"><ele>131.7</ele></trkpt>
    <trkpt lat="48.81533" lon="2.84446"><ele>130.6</ele></trkpt>
    <trkpt lat="48.81526" lon="2.84255"><ele>128.2</ele></trkpt>
    <trkpt lat="48.81536" lon="2.84204"><ele>127.2</ele></trkpt>
    <trkpt lat="48.81536" lon="2.84177"><ele>126.7</ele></trkpt>
    <trkpt lat="48.81528" lon="2.84155"><ele>126.2</ele></trkpt>
    <trkpt lat="48.81512" lon="2.84142"><ele>125.8</ele></trkpt>
    <trkpt lat="48.81498" lon="2.84064"><ele>125.0</ele></trkpt>
    <trkpt lat="48.81433" lon="2.83361"><ele>124.5</ele></trkpt>
    <trkpt lat="48.81415" lon="2.83063"><ele>125.8</ele></trkpt>
    <trkpt lat="48.81414" lon="2.82981"><ele>126.0</ele></trkpt>
    <trkpt lat="48.81402" lon="2.8297"><ele>126.1</ele></trkpt>
    <trkpt lat="48.81437" lon="2.82979"><ele>126.3</ele></trkpt>
    <trkpt lat="48.81451" lon="2.82971"><ele>126.4</ele></trkpt>
    <trkpt lat="48.8149" lon="2.82848"><ele>126.8</ele></trkpt>
    <trkpt lat="48.81503" lon="2.8283"><ele>126.8</ele></trkpt>
    <trkpt lat="48.81553" lon="2.82797"><ele>126.9</ele></trkpt>
    <trkpt lat="48.81567" lon="2.82781"><ele>127.0</ele></trkpt>
    <trkpt lat="48.81728" lon="2.82058"><ele>125.3</ele></trkpt>
    <trkpt lat="48.81749" lon="2.82013"><ele>125.2</ele></trkpt>
    <trkpt lat="48.81814" lon="2.81919"><ele>124.8</ele></trkpt>
    <trkpt lat="48.81843" lon="2.81888"><ele>124.6</ele></trkpt>
    <trkpt lat="48.81879" lon="2.81881"><ele>124.5</ele></trkpt>
    <trkpt lat="48.8189" lon="2.81862"><ele>124.4</ele></trkpt>
    <trkpt lat="48.81886" lon="2.81809"><ele>124.3</ele></trkpt>
    <trkpt lat="48.81854" lon="2.8179"><ele>124.2</ele></trkpt>
    <trkpt lat="48.81841" lon="2.81771"><ele>124.2</ele></trkpt>
    <trkpt lat="48.81803" lon="2.81647"><ele>124.1</ele></trkpt>
    <trkpt lat="48.81766" lon="2.81325"><ele>123.5</ele></trkpt>
    <trkpt lat="48.81704" lon="2.81011"><ele>122.9</ele></trkpt>
    <trkpt lat="48.81652" lon="2.80778"><ele>122.8</ele></trkpt>
    <trkpt lat="48.81601" lon="2.80376"><ele>122.7</ele></trkpt>
    <trkpt lat="48.81596" lon="2.8024"><ele>122.7</ele></trkpt>
    <trkpt lat="48.81599" lon="2.79967"><ele>122.4</ele></trkpt>
    <trkpt lat="48.81602" lon="2.79912"><ele>122.3</ele></trkpt>
    <trkpt lat="48.81643" lon="2.79647"><ele>121.7</ele></trkpt>
    <trkpt lat="48.81644" lon="2.79592"><ele>121.5</ele></trkpt>
    <trkpt lat="48.81637" lon="2.79539"><ele>121.3</ele></trkpt>
    <trkpt lat="48.81559" lon="2.79263"><ele>120.3</ele></trkpt>
    <trkpt lat="48.81499" lon="2.79127"><ele>119.6</ele></trkpt>
    <trkpt lat="48.81473" lon="2.7909"><ele>119.4</ele></trkpt>
    <trkpt lat="48.81427" lon="2.79049"><ele>119.1</ele></trkpt>
    <trkpt lat="48.81373" lon="2.79042"><ele>118.9</ele></trkpt>
    <trkpt lat="48.81229" lon="2.79043"><ele>118.9</ele></trkpt>
    <trkpt lat="48.81177" lon="2.79024"><ele>119.0</ele></trkpt>
    <trkpt lat="48.81147" lon="2.78994"><ele>119.2</ele></trkpt>
    <trkpt lat="48.81096" lon="2.78917"><ele>119.7</ele></trkpt>
    <trkpt lat="48.81069" lon="2.78847"><ele>120.2</ele></trkpt>
    <trkpt lat="48.81055" lon="2.78767"><ele>120.8</ele></trkpt>
    <trkpt lat="48.81048" lon="2.78577"><ele>122.1</ele></trkpt>
    <trkpt lat="48.81032" lon="2.78443"><ele>123.2</ele></trkpt>
    <trkpt lat="48.81003" lon="2.78343"><ele>124.0</ele></trkpt>
    <trkpt lat="48.80957" lon="2.78226"><ele>124.6</ele></trkpt>
    <trkpt lat="48.80835" lon="2.77741"><ele>126.5</ele></trkpt>
    <trkpt lat="48.80663" lon="2.76822"><ele>128.5</ele></trkpt>
    <trkpt lat="48.80659" lon="2.76795"><ele>128.6</ele></trkpt>
    <trkpt lat="48.80632" lon="2.75977"><ele>127.0</ele></trkpt>
    <trkpt lat="48.80623" lon="2.75869"><ele>126.2</ele></trkpt>
    <trkpt lat="48.80351" lon="2.74947"><ele>123.2</ele></trkpt>
    <trkpt lat="48.80289" lon="2.7472"><ele>123.2</ele></trkpt>
    <trkpt lat="48.79961" lon="2.73391"><ele>125.3</ele></trkpt>
    <trkpt lat="48.79737" lon="2.72799"><ele>124.0</ele></trkpt>
    <trkpt lat="48.79601" lon="2.72414"><ele>121.4</ele></trkpt>
    <trkpt lat="48.79595" lon="2.72388"><ele>121.2</ele></trkpt>
    <trkpt lat="48.79594" lon="2.72088"><ele>118.8</ele></trkpt>
    <trkpt lat="48.79603" lon="2.71597"><ele>116.1</ele></trkpt>
    <trkpt lat="48.79614" lon="2.71462"><ele>115.5</ele></trkpt>
    <trkpt lat="48.79625" lon="2.71412"><ele>115.3</ele></trkpt>
    <trkpt lat="48.79625" lon="2.71385"><ele>115.2</ele></trkpt>
    <trkpt lat="48.79615" lon="2.71364"><ele>115.0</ele></trkpt>
    <trkpt lat="48.79611" lon="2.71337"><ele>114.9</ele></trkpt>
    <trkpt lat="48.79618" lon="2.70655"><ele>114.5</ele></trkpt>
    <trkpt lat="48.79607" lon="2.70547"><ele>114.4</ele></trkpt>
    <trkpt lat="48.796" lon="2.70524"><ele>114.5</ele></trkpt>
    <trkpt lat="48.79547" lon="2.70517"><ele>114.6</ele></trkpt>
    <trkpt lat="48.79535" lon="2.70497"><ele>114.7</ele></trkpt>
    <trkpt lat="48.79" lon="2.68767"><ele>119.3</ele></trkpt>
    <trkpt lat="48.78986" lon="2.68759"><ele>119.3</ele></trkpt>
    <trkpt lat="48.78969" lon="2.68762"><ele>119.3</ele></trkpt>
    <trkpt lat="48.78952" lon="2.68755"><ele>119.3</ele></trkpt>
    <trkpt lat="48.78656" lon="2.68558"><ele>118.4</ele></trkpt>
    <trkpt lat="48.78402" lon="2.68417"><ele>117.3</ele></trkpt>
    <trkpt lat="48.78289" lon="2.68334"><ele>117.0</ele></trkpt>
    <trkpt lat="48.78068" lon="2.68151"><ele>116.4</ele></trkpt>
    <trkpt lat="48.77904" lon="2.68037"><ele>115.6</ele></trkpt>
    <trkpt lat="48.77883" lon="2.68005"><ele>115.2</ele></trkpt>
    <trkpt lat="48.77866" lon="2.68007"><ele>115.0</ele></trkpt>
    <trkpt lat="48.77799" lon="2.67966"><ele>114.4</ele></trkpt>
    <trkpt lat="48.77602" lon="2.67831"><ele>112.6</ele></trkpt>
    <trkpt lat="48.77596" lon="2.67807"><ele>112.2</ele></trkpt>
    <trkpt lat="48.77561" lon="2.67799"><ele>111.4</ele></trkpt>
    <trkpt lat="48.77545" lon="2.67789"><ele>111.1</ele></trkpt>
    <trkpt lat="48.77315" lon="2.67632"><ele>109.2</ele></trkpt>
    <trkpt lat="48.77305" lon="2.67613"><ele>109.1</ele></trkpt>
    <trkpt lat="48.77288" lon="2.67611"><ele>109.0</ele></trkpt>
    <trkpt lat="48.77205" lon="2.67559"><ele>108.6</ele></trkpt>
    <trkpt lat="48.76933" lon="2.67124"><ele>108.0</ele></trkpt>
    <trkpt lat="48.76927" lon="2.67101"><ele>108.0</ele></trkpt>
    <trkpt lat="48.76917" lon="2.67083"><ele>107.9</ele></trkpt>
    <trkpt lat="48.76902" lon="2.67071"><ele>107.9</ele></trkpt>
    <trkpt lat="48.76849" lon="2.66996"><ele>107.8</ele></trkpt>
    <trkpt lat="48.76786" lon="2.66899"><ele>107.6</ele></trkpt>
    <trkpt lat="48.76777" lon="2.66877"><ele>107.5</ele></trkpt>
    <trkpt lat="48.76773" lon="2.66852"><ele>107.4</ele></trkpt>
    <trkpt lat="48.76756" lon="2.66846"><ele>107.3</ele></trkpt>
    <trkpt lat="48.76744" lon="2.66826"><ele>107.3</ele></trkpt>
    <trkpt lat="48.76696" lon="2.66651"><ele>106.8</ele></trkpt>
    <trkpt lat="48.76657" lon="2.6656"><ele>106.4</ele></trkpt>
    <trkpt lat="48.76644" lon="2.66541"><ele>106.3</ele></trkpt>
    <trkpt lat="48.76614" lon="2.66512"><ele>106.2</ele></trkpt>
    <trkpt lat="48.76578" lon="2.66502"><ele>106.0</ele></trkpt>
    <trkpt lat="48.76436" lon="2.66528"><ele>105.3</ele></trkpt>
    <trkpt lat="48.76382" lon="2.66529"><ele>105.1</ele></trkpt>
    <trkpt lat="48.7633" lon="2.66515"><ele>104.8</ele></trkpt>
    <trkpt lat="48.76318" lon="2.665"><ele>104.7</ele></trkpt>
    <trkpt lat="48.76265" lon="2.66495"><ele>104.7</ele></trkpt>
    <trkpt lat="48.76209" lon="2.66428"><ele>104.6</ele></trkpt>
    <trkpt lat="48.76117" lon="2.66297"><ele>104.5</ele></trkpt>
    <trkpt lat="48.76097" lon="2.66258"><ele>104.3</ele></trkpt>
    <trkpt lat="48.76081" lon="2.66247"><ele>104.2</ele></trkpt>
    <trkpt lat="48.76039" lon="2.66197"><ele>103.8</ele></trkpt>
    <trkpt lat="48.75943" lon="2.66073"><ele>103.2</ele></trkpt>
    <trkpt lat="48.75879" lon="2.65977"><ele>102.7</ele></trkpt>
    <trkpt lat="48.75794" lon="2.65836"><ele>102.0</ele></trkpt>
    <trkpt lat="48.75651" lon="2.65555"><ele>101.7</ele></trkpt>
    <trkpt lat="48.75511" lon="2.65306"><ele>102.5</ele></trkpt>
    <trkpt lat="48.75455" lon="2.65105"><ele>103.6</ele></trkpt>
    <trkpt lat="48.75398" lon="2.64935"><ele>104.6</ele></trkpt>
    <trkpt lat="48.75344" lon="2.64704"><ele>105.5</ele></trkpt>
    <trkpt lat="48.75322" lon="2.6466"><ele>105.9</ele></trkpt>
    <trkpt lat="48.7527" lon="2.64586"><ele>106.7</ele></trkpt>
    <trkpt lat="48.75251" lon="2.6454"><ele>107.1</ele></trkpt>
    <trkpt lat="48.75236" lon="2.6449"><ele>107.4</ele></trkpt>
    <trkpt lat="48.75208" lon="2.64361"><ele>108.0</ele></trkpt>
    <trkpt lat="48.75142" lon="2.64167"><ele>108.5</ele></trkpt>
    <trkpt lat="48.75108" lon="2.64103"><ele>108.5</ele></trkpt>
    <trkpt lat="48.75046" lon="2.64049"><ele>107.9</ele></trkpt>
    <trkpt lat="48.75038" lon="2.64029"><ele>107.5</ele></trkpt>
    <trkpt lat="48.75022" lon="2.64019"><ele>107.1</ele></trkpt>
    <trkpt lat="48.74998" lon="2.6398"><ele>106.4</ele></trkpt>
    <trkpt lat="48.74868" lon="2.63834"><ele>104.0</ele></trkpt>
    <trkpt lat="48.74781" lon="2.63696"><ele>101.5</ele></trkpt>
    <trkpt lat="48.74775" lon="2.6367"><ele>101.0</ele></trkpt>
    <trkpt lat="48.74776" lon="2.63643"><ele>100.5</ele></trkpt>
    <trkpt lat="48.74787" lon="2.63593"><ele>99.4</ele></trkpt>
    <trkpt lat="48.74817" lon="2.63563"><ele>98.2</ele></trkpt>
    <trkpt lat="48.74882" lon="2.63515"><ele>96.2</ele></trkpt>
    <trkpt lat="48.74951" lon="2.63488"><ele>94.7</ele></trkpt>
    <trkpt lat="48.74967" lon="2.63477"><ele>94.3</ele></trkpt>
    <trkpt lat="48.75005" lon="2.63384"><ele>93.2</ele></trkpt>
    <trkpt lat="48.75018" lon="2.63306"><ele>92.7</ele></trkpt>
    <trkpt lat="48.75019" lon="2.63251"><ele>92.3</ele></trkpt>
    <trkpt lat="48.75014" lon="2.63225"><ele>92.1</ele></trkpt>
    <trkpt lat="48.74994" lon="2.6318"><ele>91.9</ele></trkpt>
    <trkpt lat="48.74958" lon="2.6312"><ele>91.6</ele></trkpt>
    <trkpt lat="48.74934" lon="2.63047"><ele>91.4</ele></trkpt>
    <trkpt lat="48.74917" lon="2.62969"><ele>91.3</ele></trkpt>
    <trkpt lat="48.74886" lon="2.62701"><ele>91.1</ele></trkpt>
    <trkpt lat="48.7487" lon="2.62652"><ele>91.2</ele></trkpt>
    <trkpt lat="48.74838" lon="2.62586"><ele>91.4</ele></trkpt>
    <trkpt lat="48.74833" lon="2.62534"><ele>91.8</ele></trkpt>
    <trkpt lat="48.74824" lon="2.62514"><ele>92.1</ele></trkpt>
    <trkpt lat="48.74807" lon="2.62507"><ele>92.4</ele></trkpt>
    <trkpt lat="48.74797" lon="2.62486"><ele>92.8</ele></trkpt>
    <trkpt lat="48.74779" lon="2.62325"><ele>94.4</ele></trkpt>
    <trkpt lat="48.74698" lon="2.6218"><ele>95.6</ele></trkpt>
    <trkpt lat="48.74682" lon="2.62131"><ele>95.9</ele></trkpt>
    <trkpt lat="48.74684" lon="2.6205"><ele>96.4</ele></trkpt>
    <trkpt lat="48.74699" lon="2.62001"><ele>96.7</ele></trkpt>
    <trkpt lat="48.74756" lon="2.61896"><ele>97.6</ele></trkpt>
    <trkpt lat="48.74772" lon="2.6189"><ele>97.7</ele></trkpt>
    <trkpt lat="48.74783" lon="2.6184"><ele>98.1</ele></trkpt>
    <trkpt lat="48.74848" lon="2.61709"><ele>98.2</ele></trkpt>
    <trkpt lat="48.74862" lon="2.61696"><ele>98.1</ele></trkpt>
    <trkpt lat="48.74868" lon="2.61674"><ele>98.1</ele></trkpt>
    <trkpt lat="48.74748" lon="2.61564"><ele>97.8</ele></trkpt>
    <trkpt lat="48.74701" lon="2.6154"><ele>97.5</ele></trkpt>
    <trkpt lat="48.74666" lon="2.61537"><ele>97.3</ele></trkpt>
    <trkpt lat="48.74632" lon="2.61519"><ele>97.3</ele></trkpt>
    <trkpt lat="48.74535" lon="2.61447"><ele>97.4</ele></trkpt>
    <trkpt lat="48.74514" lon="2.61374"><ele>97.6</ele></trkpt>
    <trkpt lat="48.74466" lon="2.61342"><ele>97.9</ele></trkpt>
    <trkpt lat="48.74457" lon="2.61318"><ele>98.0</ele></trkpt>
    <trkpt lat="48.74455" lon="2.61291"><ele>98.1</ele></trkpt>
    <trkpt lat="48.74442" lon="2.61276"><ele>98.3</ele></trkpt>
    <trkpt lat="48.74423" lon="2.61232"><ele>98.5</ele></trkpt>
    <trkpt lat="48.74307" lon="2.61102"><ele>99.2</ele></trkpt>
    <trkpt lat="48.74129" lon="2.60874"><ele>98.7</ele></trkpt>
    <trkpt lat="48.74037" lon="2.60789"><ele>97.5</ele></trkpt>
    <trkpt lat="48.73734" lon="2.60618"><ele>93.4</ele></trkpt>
    <trkpt lat="48.73708" lon="2.60583"><ele>92.7</ele></trkpt>
    <trkpt lat="48.73673" lon="2.60579"><ele>92.1</ele></trkpt>
    <trkpt lat="48.73604" lon="2.60548"><ele>91.5</ele></trkpt>
    <trkpt lat="48.73181" lon="2.60315"><ele>91.3</ele></trkpt>
    <trkpt lat="48.72997" lon="2.60205"><ele>91.5</ele></trkpt>
    <trkpt lat="48.72985" lon="2.60186"><ele>91.5</ele></trkpt>
    <trkpt lat="48.72981" lon="2.6016"><ele>91.4</ele></trkpt>
    <trkpt lat="48.72968" lon="2.60142"><ele>91.3</ele></trkpt>
    <trkpt lat="48.72951" lon="2.60134"><ele>91.2</ele></trkpt>
    <trkpt lat="48.72807" lon="2.59929"><ele>89.8</ele></trkpt>
    <trkpt lat="48.72611" lon="2.5969"><ele>87.7</ele></trkpt>
    <trkpt lat="48.72492" lon="2.59486"><ele>86.0</ele></trkpt>
    <trkpt lat="48.72313" lon="2.58893"><ele>85.4</ele></trkpt>
    <trkpt lat="48.72352" lon="2.58655"><ele>85.1</ele></trkpt>
    <trkpt lat="48.72384" lon="2.58499"><ele>84.8</ele></trkpt>
    <trkpt lat="48.72398" lon="2.58449"><ele>84.6</ele></trkpt>
    <trkpt lat="48.72429" lon="2.58381"><ele>84.3</ele></trkpt>
    <trkpt lat="48.72512" lon="2.5814"><ele>83.0</ele></trkpt>
    <trkpt lat="48.72572" lon="2.57803"><ele>82.4</ele></trkpt>
    <trkpt lat="48.72607" lon="2.57791"><ele>82.6</ele></trkpt>
    <trkpt lat="48.72641" lon="2.57771"><ele>83.0</ele></trkpt>
    <trkpt lat="48.72798" lon="2.57715"><ele>85.3</ele></trkpt>
    <trkpt lat="48.72831" lon="2.57693"><ele>86.0</ele></trkpt>
    <trkpt lat="48.7286" lon="2.57662"><ele>86.9</ele></trkpt>
    <trkpt lat="48.72894" lon="2.57678"><ele>87.9</ele></trkpt>
    <trkpt lat="48.72929" lon="2.57674"><ele>88.9</ele></trkpt>
    <trkpt lat="48.72971" lon="2.57623"><ele>89.9</ele></trkpt>
    <trkpt lat="48.72992" lon="2.57578"><ele>90.5</ele></trkpt>
    <trkpt lat="48.72998" lon="2.57553"><ele>90.7</ele></trkpt>
    <trkpt lat="48.73039" lon="2.57344"><ele>92.1</ele></trkpt>
    <trkpt lat="48.73052" lon="2.57237"><ele>92.6</ele></trkpt>
    <trkpt lat="48.73073" lon="2.57132"><ele>92.9</ele></trkpt>
    <trkpt lat="48.73102" lon="2.56891"><ele>92.8</ele></trkpt>
    <trkpt lat="48.73105" lon="2.56837"><ele>92.7</ele></trkpt>
    <trkpt lat="48.73127" lon="2.56773"><ele>92.1</ele></trkpt>
    <trkpt lat="48.73182" lon="2.56703"><ele>91.6</ele></trkpt>
    <trkpt lat="48.73404" lon="2.56523"><ele>90.7</ele></trkpt>
    <trkpt lat="48.73474" lon="2.56501"><ele>90.6</ele></trkpt>
    <trkpt lat="48.73508" lon="2.56483"><ele>90.8</ele></trkpt>
    <trkpt lat="48.7374" lon="2.56516"><ele>92.3</ele></trkpt>
    <trkpt lat="48.73812" lon="2.56514"><ele>93.1</ele></trkpt>
    <trkpt lat="48.73841" lon="2.56489"><ele>93.8</ele></trkpt>
    <trkpt lat="48.73834" lon="2.56357"><ele>95.0</ele></trkpt>
    <trkpt lat="48.73839" lon="2.56303"><ele>95.3</ele></trkpt>
    <trkpt lat="48.73854" lon="2.56255"><ele>95.6</ele></trkpt>
    <trkpt lat="48.73895" lon="2.56205"><ele>96.0</ele></trkpt>
    <trkpt lat="48.73927" lon="2.56181"><ele>96.1</ele></trkpt>
    <trkpt lat="48.73979" lon="2.5616"><ele>96.3</ele></trkpt>
    <trkpt lat="48.74051" lon="2.5615"><ele>96.5</ele></trkpt>
    <trkpt lat="48.74087" lon="2.56149"><ele>96.6</ele></trkpt>
    <trkpt lat="48.74102" lon="2.56156"><ele>96.7</ele></trkpt>
    <trkpt lat="48.74115" lon="2.56142"><ele>96.7</ele></trkpt>
    <trkpt lat="48.74168" lon="2.56133"><ele>96.7</ele></trkpt>
    <trkpt lat="48.74215" lon="2.56094"><ele>96.6</ele></trkpt>
    <trkpt lat="48.74243" lon="2.56025"><ele>96.5</ele></trkpt>
    <trkpt lat="48.74245" lon="2.55834"><ele>96.3</ele></trkpt>
    <trkpt lat="48.74258" lon="2.55755"><ele>96.2</ele></trkpt>
    <trkpt lat="48.74264" lon="2.55674"><ele>96.2</ele></trkpt>
    <trkpt lat="48.74278" lon="2.55658"><ele>96.2</ele></trkpt>
    <trkpt lat="48.74295" lon="2.55661"><ele>96.2</ele></trkpt>
    <trkpt lat="48.74311" lon="2.5565"><ele>96.2</ele></trkpt>
    <trkpt lat="48.7443" lon="2.55711"><ele>96.4</ele></trkpt>
    <trkpt lat="48.74536" lon="2.55694"><ele>97.0</ele></trkpt>
    <trkpt lat="48.74626" lon="2.557"><ele>97.8</ele></trkpt>
    <trkpt lat="48.74642" lon="2.55708"><ele>98.1</ele></trkpt>
    <trkpt lat="48.74659" lon="2.55702"><ele>98.3</ele></trkpt>
    <trkpt lat="48.74839" lon="2.55704"><ele>99.9</ele></trkpt>
    <trkpt lat="48.75522" lon="2.55729"><ele>103.0</ele></trkpt>
    <trkpt lat="48.75539" lon="2.55722"><ele>103.0</ele></trkpt>
    <trkpt lat="48.75582" lon="2.55673"><ele>102.9</ele></trkpt>
    <trkpt lat="48.7585" lon="2.55355"><ele>101.1</ele></trkpt>
    <trkpt lat="48.76051" lon="2.55238"><ele>100.6</ele></trkpt>
    <trkpt lat="48.76103" lon="2.55039"><ele>101.0</ele></trkpt>
    <trkpt lat="48.76119" lon="2.54908"><ele>101.8</ele></trkpt>
    <trkpt lat="48.76112" lon="2.54861"><ele>102.4</ele></trkpt>
    <trkpt lat="48.7612" lon="2.54809"><ele>102.9</ele></trkpt>
    <trkpt lat="48.7614" lon="2.54593"><ele>103.4</ele></trkpt>
    <trkpt lat="48.76227" lon="2.53924"><ele>100.9</ele></trkpt>
    <trkpt lat="48.76233" lon="2.53898"><ele>100.7</ele></trkpt>
    <trkpt lat="48.76287" lon="2.53756"><ele>98.7</ele></trkpt>
    <trkpt lat="48.76308" lon="2.53722"><ele>97.8</ele></trkpt>
    <trkpt lat="48.76335" lon="2.53651"><ele>96.7</ele></trkpt>
    <trkpt lat="48.76383" lon="2.53576"><ele>95.7</ele></trkpt>
    <trkpt lat="48.76411" lon="2.53542"><ele>95.4</ele></trkpt>
    <trkpt lat="48.76548" lon="2.53411"><ele>95.1</ele></trkpt>
    <trkpt lat="48.76588" lon="2.53356"><ele>95.4</ele></trkpt>
    <trkpt lat="48.7666" lon="2.53233"><ele>96.2</ele></trkpt>
    <trkpt lat="48.76685" lon="2.532"><ele>96.8</ele></trkpt>
    <trkpt lat="48.76704" lon="2.53123"><ele>97.8</ele></trkpt>
    <trkpt lat="48.76765" lon="2.52989"><ele>99.2</ele></trkpt>
    <trkpt lat="48.76801" lon="2.52894"><ele>100.1</ele></trkpt>
    <trkpt lat="48.76812" lon="2.52873"><ele>100.3</ele></trkpt>
    <trkpt lat="48.76827" lon="2.52859"><ele>100.6</ele></trkpt>
    <trkpt lat="48.76861" lon="2.52844"><ele>101.3</ele></trkpt>
    <trkpt lat="48.76876" lon="2.52794"><ele>101.8</ele></trkpt>
    <trkpt lat="48.77018" lon="2.52415"><ele>101.9</ele></trkpt>
    <trkpt lat="48.77045" lon="2.52256"><ele>99.8</ele></trkpt>
    <trkpt lat="48.77055" lon="2.5224"><ele>99.1</ele></trkpt>
    <trkpt lat="48.77073" lon="2.52239"><ele>98.3</ele></trkpt>
    <trkpt lat="48.77088" lon="2.52228"><ele>97.4</ele></trkpt>
    <trkpt lat="48.77088" lon="2.52174"><ele>95.2</ele></trkpt>
    <trkpt lat="48.77095" lon="2.5215"><ele>94.1</ele></trkpt>
    <trkpt lat="48.77134" lon="2.52094"><ele>90.3</ele></trkpt>
    <trkpt lat="48.77206" lon="2.51972"><ele>82.7</ele></trkpt>
    <trkpt lat="48.77374" lon="2.51727"><ele>66.0</ele></trkpt>
    <trkpt lat="48.7754" lon="2.51517"><ele>49.9</ele></trkpt>
    <trkpt lat="48.7766" lon="2.51397"><ele>40.4</ele></trkpt>
    <trkpt lat="48.77765" lon="2.51248"><ele>35.1</ele></trkpt>
    <trkpt lat="48.77811" lon="2.51171"><ele>33.5</ele></trkpt>
    <trkpt lat="48.78096" lon="2.51226"><ele>35.0</ele></trkpt>
    <trkpt lat="48.78141" lon="2.51271"><ele>36.0</ele></trkpt>
    <trkpt lat="48.78318" lon="2.51502"><ele>38.2</ele></trkpt>
    <trkpt lat="48.78333" lon="2.51517"><ele>38.3</ele></trkpt>
    <trkpt lat="48.78368" lon="2.51527"><ele>38.6</ele></trkpt>
    <trkpt lat="48.78382" lon="2.51542"><ele>38.7</ele></trkpt>
    <trkpt lat="48.78422" lon="2.51633"><ele>39.2</ele></trkpt>
    <trkpt lat="48.78434" lon="2.51653"><ele>39.3</ele></trkpt>
    <trkpt lat="48.78751" lon="2.52057"><ele>39.0</ele></trkpt>
    <trkpt lat="48.79014" lon="2.52232"><ele>36.8</ele></trkpt>
    <trkpt lat="48.79029" lon="2.52232"><ele>36.7</ele></trkpt>
    <trkpt lat="48.79101" lon="2.52087"><ele>36.3</ele></trkpt>
    <trkpt lat="48.79118" lon="2.52097"><ele>36.2</ele></trkpt>
    <trkpt lat="48.79136" lon="2.52098"><ele>36.1</ele></trkpt>
    <trkpt lat="48.7915" lon="2.52083"><ele>35.8</ele></trkpt>
    <trkpt lat="48.79173" lon="2.52042"><ele>35.5</ele></trkpt>
    <trkpt lat="48.7919" lon="2.52045"><ele>35.4</ele></trkpt>
    <trkpt lat="48.792" lon="2.52065"><ele>35.4</ele></trkpt>
    <trkpt lat="48.79195" lon="2.52119"><ele>35.3</ele></trkpt>
    <trkpt lat="48.79201" lon="2.52144"><ele>35.2</ele></trkpt>
    <trkpt lat="48.79217" lon="2.52155"><ele>35.1</ele></trkpt>
    <trkpt lat="48.79304" lon="2.52184"><ele>35.1</ele></trkpt>
    <trkpt lat="48.79376" lon="2.5219"><ele>35.1</ele></trkpt>
    <trkpt lat="48.79393" lon="2.52185"><ele>35.0</ele></trkpt>
    <trkpt lat="48.79693" lon="2.52244"><ele>35.0</ele></trkpt>
    <trkpt lat="48.79889" lon="2.52207"><ele>35.1</ele></trkpt>
    <trkpt lat="48.79996" lon="2.52199"><ele>34.9</ele></trkpt>
    <trkpt lat="48.80157" lon="2.5223"><ele>34.7</ele></trkpt>
    <trkpt lat="48.80192" lon="2.52229"><ele>34.8</ele></trkpt>
    <trkpt lat="48.80245" lon="2.52224"><ele>34.9</ele></trkpt>
    <trkpt lat="48.8037" lon="2.52194"><ele>34.9</ele></trkpt>
    <trkpt lat="48.80422" lon="2.52175"><ele>35.0</ele></trkpt>
    <trkpt lat="48.80439" lon="2.52176"><ele>35.0</ele></trkpt>
    <trkpt lat="48.80465" lon="2.52146"><ele>35.1</ele></trkpt>
    <trkpt lat="48.8065" lon="2.51985"><ele>35.4</ele></trkpt>
    <trkpt lat="48.80747" lon="2.51864"><ele>35.3</ele></trkpt>
    <trkpt lat="48.80808" lon="2.51763"><ele>35.5</ele></trkpt>
    <trkpt lat="48.80845" lon="2.51669"><ele>35.8</ele></trkpt>
    <trkpt lat="48.80904" lon="2.51442"><ele>36.0</ele></trkpt>
    <trkpt lat="48.80921" lon="2.51308"><ele>36.1</ele></trkpt>
    <trkpt lat="48.80948" lon="2.50984"><ele>39.8</ele></trkpt>
    <trkpt lat="48.80963" lon="2.50978"><ele>40.6</ele></trkpt>
    <trkpt lat="48.81015" lon="2.50997"><ele>42.8</ele></trkpt>
  </trkseg></trk>
</gpx>
