<?xml version="1.0" encoding="UTF-8"?>
<gpx version="1.1" creator="Club Cycliste USO" xmlns="http://www.topografix.com/GPX/1/1">
  <metadata><name>Champeaux – 99 km</name><desc>98.7 km, D+ 432 m. Départ et arrivée : pont de Champigny.</desc></metadata>
  <trk><name>Champeaux – 99 km</name><trkseg>
    <trkpt lat="48.81032" lon="2.51002"><ele>42.8</ele></trkpt>
    <trkpt lat="48.80962" lon="2.50978"><ele>41.5</ele></trkpt>
    <trkpt lat="48.80948" lon="2.50985"><ele>40.6</ele></trkpt>
    <trkpt lat="48.80921" lon="2.5131"><ele>36.0</ele></trkpt>
    <trkpt lat="48.80904" lon="2.51443"><ele>36.0</ele></trkpt>
    <trkpt lat="48.80844" lon="2.51671"><ele>35.8</ele></trkpt>
    <trkpt lat="48.80807" lon="2.51764"><ele>35.5</ele></trkpt>
    <trkpt lat="48.80747" lon="2.51865"><ele>35.3</ele></trkpt>
    <trkpt lat="48.8065" lon="2.51986"><ele>35.4</ele></trkpt>
    <trkpt lat="48.80464" lon="2.52147"><ele>35.1</ele></trkpt>
    <trkpt lat="48.80439" lon="2.52176"><ele>35.0</ele></trkpt>
    <trkpt lat="48.80421" lon="2.52175"><ele>35.0</ele></trkpt>
    <trkpt lat="48.80369" lon="2.52194"><ele>34.9</ele></trkpt>
    <trkpt lat="48.80244" lon="2.52224"><ele>34.9</ele></trkpt>
    <trkpt lat="48.80191" lon="2.5223"><ele>34.8</ele></trkpt>
    <trkpt lat="48.80156" lon="2.52229"><ele>34.7</ele></trkpt>
    <trkpt lat="48.79995" lon="2.52199"><ele>34.9</ele></trkpt>
    <trkpt lat="48.79888" lon="2.52207"><ele>35.1</ele></trkpt>
    <trkpt lat="48.79693" lon="2.52244"><ele>35.0</ele></trkpt>
    <trkpt lat="48.79392" lon="2.52185"><ele>35.0</ele></trkpt>
    <trkpt lat="48.79375" lon="2.5219"><ele>35.1</ele></trkpt>
    <trkpt lat="48.79303" lon="2.52184"><ele>35.1</ele></trkpt>
    <trkpt lat="48.79216" lon="2.52154"><ele>35.2</ele></trkpt>
    <trkpt lat="48.792" lon="2.52143"><ele>35.2</ele></trkpt>
    <trkpt lat="48.79195" lon="2.52118"><ele>35.3</ele></trkpt>
    <trkpt lat="48.792" lon="2.52064"><ele>35.4</ele></trkpt>
    <trkpt lat="48.79189" lon="2.52044"><ele>35.4</ele></trkpt>
    <trkpt lat="48.79172" lon="2.52043"><ele>35.5</ele></trkpt>
    <trkpt lat="48.79149" lon="2.52084"><ele>35.8</ele></trkpt>
    <trkpt lat="48.79135" lon="2.52099"><ele>36.1</ele></trkpt>
    <trkpt lat="48.79101" lon="2.52086"><ele>36.7</ele></trkpt>
    <trkpt lat="48.79086" lon="2.52093"><ele>37.4</ele></trkpt>
    <trkpt lat="48.79027" lon="2.5223"><ele>39.4</ele></trkpt>
    <trkpt lat="48.79013" lon="2.52231"><ele>38.9</ele></trkpt>
    <trkpt lat="48.7875" lon="2.52056"><ele>38.3</ele></trkpt>
    <trkpt lat="48.78433" lon="2.51652"><ele>39.2</ele></trkpt>
    <trkpt lat="48.78382" lon="2.51541"><ele>38.4</ele></trkpt>
    <trkpt lat="48.78367" lon="2.51527"><ele>38.2</ele></trkpt>
    <trkpt lat="48.78332" lon="2.51516"><ele>38.1</ele></trkpt>
    <trkpt lat="48.78317" lon="2.51501"><ele>38.0</ele></trkpt>
    <trkpt lat="48.7814" lon="2.5127"><ele>39.7</ele></trkpt>
    <trkpt lat="48.78095" lon="2.51225"><ele>39.5</ele></trkpt>
    <trkpt lat="48.77935" lon="2.51189"><ele>38.4</ele></trkpt>
    <trkpt lat="48.7781" lon="2.51174"><ele>37.4</ele></trkpt>
    <trkpt lat="48.77763" lon="2.51251"><ele>36.9</ele></trkpt>
    <trkpt lat="48.77657" lon="2.514"><ele>39.0</ele></trkpt>
    <trkpt lat="48.77537" lon="2.5152"><ele>48.8</ele></trkpt>
    <trkpt lat="48.77372" lon="2.5173"><ele>63.9</ele></trkpt>
    <trkpt lat="48.77139" lon="2.5207"><ele>88.7</ele></trkpt>
    <trkpt lat="48.77102" lon="2.52131"><ele>92.2</ele></trkpt>
    <trkpt lat="48.77086" lon="2.5214"><ele>93.1</ele></trkpt>
    <trkpt lat="48.77076" lon="2.52155"><ele>93.8</ele></trkpt>
    <trkpt lat="48.77076" lon="2.5221"><ele>94.8</ele></trkpt>
    <trkpt lat="48.77068" lon="2.52227"><ele>95.0</ele></trkpt>
    <trkpt lat="48.77033" lon="2.52236"><ele>95.6</ele></trkpt>
    <trkpt lat="48.76879" lon="2.52377"><ele>101.2</ele></trkpt>
    <trkpt lat="48.76846" lon="2.52397"><ele>102.1</ele></trkpt>
    <trkpt lat="48.76841" lon="2.52417"><ele>102.3</ele></trkpt>
    <trkpt lat="48.76855" lon="2.52466"><ele>102.5</ele></trkpt>
    <trkpt lat="48.76857" lon="2.52493"><ele>102.5</ele></trkpt>
    <trkpt lat="48.76856" lon="2.5282"><ele>100.7</ele></trkpt>
    <trkpt lat="48.76846" lon="2.52838"><ele>100.5</ele></trkpt>
    <trkpt lat="48.76813" lon="2.52858"><ele>100.3</ele></trkpt>
    <trkpt lat="48.76801" lon="2.52878"><ele>100.2</ele></trkpt>
    <trkpt lat="48.76775" lon="2.5295"><ele>99.9</ele></trkpt>
    <trkpt lat="48.76685" lon="2.53154"><ele>99.1</ele></trkpt>
    <trkpt lat="48.76668" lon="2.53202"><ele>98.0</ele></trkpt>
    <trkpt lat="48.76573" lon="2.53365"><ele>96.3</ele></trkpt>
    <trkpt lat="48.76547" lon="2.53402"><ele>96.3</ele></trkpt>
    <trkpt lat="48.7641" lon="2.53533"><ele>96.3</ele></trkpt>
    <trkpt lat="48.76341" lon="2.53617"><ele>97.2</ele></trkpt>
    <trkpt lat="48.76328" lon="2.53667"><ele>97.8</ele></trkpt>
    <trkpt lat="48.76297" lon="2.53732"><ele>98.5</ele></trkpt>
    <trkpt lat="48.76231" lon="2.53926"><ele>100.5</ele></trkpt>
    <trkpt lat="48.76149" lon="2.54541"><ele>102.0</ele></trkpt>
    <trkpt lat="48.76116" lon="2.54891"><ele>101.6</ele></trkpt>
    <trkpt lat="48.76102" lon="2.54904"><ele>101.4</ele></trkpt>
    <trkpt lat="48.75805" lon="2.55015"><ele>100.2</ele></trkpt>
    <trkpt lat="48.75843" lon="2.55333"><ele>101.2</ele></trkpt>
    <trkpt lat="48.75841" lon="2.55359"><ele>101.3</ele></trkpt>
    <trkpt lat="48.75831" lon="2.5538"><ele>101.5</ele></trkpt>
    <trkpt lat="48.75531" lon="2.55729"><ele>103.0</ele></trkpt>
    <trkpt lat="48.74704" lon="2.557"><ele>98.6</ele></trkpt>
    <trkpt lat="48.74634" lon="2.55691"><ele>98.1</ele></trkpt>
    <trkpt lat="48.74617" lon="2.55696"><ele>97.9</ele></trkpt>
    <trkpt lat="48.74509" lon="2.55695"><ele>96.9</ele></trkpt>
    <trkpt lat="48.74439" lon="2.55712"><ele>96.5</ele></trkpt>
    <trkpt lat="48.74421" lon="2.55709"><ele>96.5</ele></trkpt>
    <trkpt lat="48.74321" lon="2.55647"><ele>96.4</ele></trkpt>
    <trkpt lat="48.74303" lon="2.55608"><ele>96.2</ele></trkpt>
    <trkpt lat="48.74286" lon="2.55606"><ele>96.4</ele></trkpt>
    <trkpt lat="48.74276" lon="2.55625"><ele>96.6</ele></trkpt>
    <trkpt lat="48.74273" lon="2.55652"><ele>96.9</ele></trkpt>
    <trkpt lat="48.74264" lon="2.55675"><ele>97.1</ele></trkpt>
    <trkpt lat="48.7426" lon="2.55701"><ele>97.2</ele></trkpt>
    <trkpt lat="48.74258" lon="2.55756"><ele>97.2</ele></trkpt>
    <trkpt lat="48.74242" lon="2.55861"><ele>97.4</ele></trkpt>
    <trkpt lat="48.7424" lon="2.55998"><ele>97.2</ele></trkpt>
    <trkpt lat="48.74226" lon="2.56076"><ele>97.1</ele></trkpt>
    <trkpt lat="48.742" lon="2.56112"><ele>97.1</ele></trkpt>
    <trkpt lat="48.74167" lon="2.56134"><ele>97.2</ele></trkpt>
    <trkpt lat="48.74113" lon="2.56137"><ele>97.5</ele></trkpt>
    <trkpt lat="48.74097" lon="2.56128"><ele>97.5</ele></trkpt>
    <trkpt lat="48.74085" lon="2.56143"><ele>97.3</ele></trkpt>
    <trkpt lat="48.73996" lon="2.56155"><ele>97.0</ele></trkpt>
    <trkpt lat="48.73943" lon="2.56173"><ele>96.9</ele></trkpt>
    <trkpt lat="48.73894" lon="2.56206"><ele>96.7</ele></trkpt>
    <trkpt lat="48.73852" lon="2.56255"><ele>96.4</ele></trkpt>
    <trkpt lat="48.73846" lon="2.5628"><ele>96.3</ele></trkpt>
    <trkpt lat="48.73839" lon="2.56305"><ele>96.1</ele></trkpt>
    <trkpt lat="48.73834" lon="2.56359"><ele>95.7</ele></trkpt>
    <trkpt lat="48.73834" lon="2.56441"><ele>95.3</ele></trkpt>
    <trkpt lat="48.73814" lon="2.56512"><ele>94.7</ele></trkpt>
    <trkpt lat="48.73707" lon="2.56514"><ele>92.6</ele></trkpt>
    <trkpt lat="48.73564" lon="2.56491"><ele>91.0</ele></trkpt>
    <trkpt lat="48.73547" lon="2.56484"><ele>90.8</ele></trkpt>
    <trkpt lat="48.73529" lon="2.56439"><ele>90.5</ele></trkpt>
    <trkpt lat="48.73512" lon="2.56441"><ele>90.5</ele></trkpt>
    <trkpt lat="48.73492" lon="2.56486"><ele>90.5</ele></trkpt>
    <trkpt lat="48.73477" lon="2.565"><ele>90.5</ele></trkpt>
    <trkpt lat="48.73407" lon="2.56521"><ele>90.6</ele></trkpt>
    <trkpt lat="48.73374" lon="2.56544"><ele>90.6</ele></trkpt>
    <trkpt lat="48.73184" lon="2.567"><ele>92.3</ele></trkpt>
    <trkpt lat="48.7313" lon="2.56771"><ele>93.0</ele></trkpt>
    <trkpt lat="48.73119" lon="2.56791"><ele>93.1</ele></trkpt>
    <trkpt lat="48.73115" lon="2.56814"><ele>93.1</ele></trkpt>
    <trkpt lat="48.73086" lon="2.57083"><ele>93.1</ele></trkpt>
    <trkpt lat="48.7304" lon="2.57375"><ele>92.2</ele></trkpt>
    <trkpt lat="48.73005" lon="2.57558"><ele>91.0</ele></trkpt>
    <trkpt lat="48.7299" lon="2.57607"><ele>90.6</ele></trkpt>
    <trkpt lat="48.72967" lon="2.57648"><ele>90.1</ele></trkpt>
    <trkpt lat="48.72937" lon="2.57679"><ele>89.4</ele></trkpt>
    <trkpt lat="48.72903" lon="2.57691"><ele>88.6</ele></trkpt>
    <trkpt lat="48.72885" lon="2.57689"><ele>88.0</ele></trkpt>
    <trkpt lat="48.72871" lon="2.57674"><ele>87.4</ele></trkpt>
    <trkpt lat="48.72853" lon="2.57674"><ele>86.9</ele></trkpt>
    <trkpt lat="48.72842" lon="2.57693"><ele>86.3</ele></trkpt>
    <trkpt lat="48.72827" lon="2.57706"><ele>85.9</ele></trkpt>
    <trkpt lat="48.72742" lon="2.5775"><ele>84.6</ele></trkpt>
    <trkpt lat="48.72637" lon="2.57787"><ele>82.7</ele></trkpt>
    <trkpt lat="48.72603" lon="2.57807"><ele>82.0</ele></trkpt>
    <trkpt lat="48.72576" lon="2.57836"><ele>80.4</ele></trkpt>
    <trkpt lat="48.72545" lon="2.57964"><ele>81.4</ele></trkpt>
    <trkpt lat="48.72512" lon="2.58148"><ele>83.1</ele></trkpt>
    <trkpt lat="48.72464" lon="2.58295"><ele>84.6</ele></trkpt>
    <trkpt lat="48.7239" lon="2.58482"><ele>85.2</ele></trkpt>
    <trkpt lat="48.72352" lon="2.58664"><ele>85.4</ele></trkpt>
    <trkpt lat="48.72334" lon="2.58797"><ele>85.5</ele></trkpt>
    <trkpt lat="48.72312" lon="2.58901"><ele>86.3</ele></trkpt>
    <trkpt lat="48.723" lon="2.58911"><ele>86.6</ele></trkpt>
    <trkpt lat="48.71924" lon="2.58948"><ele>71.9</ele></trkpt>
    <trkpt lat="48.71836" lon="2.58971"><ele>78.8</ele></trkpt>
    <trkpt lat="48.71639" lon="2.58991"><ele>87.3</ele></trkpt>
    <trkpt lat="48.71663" lon="2.59117"><ele>86.7</ele></trkpt>
    <trkpt lat="48.71668" lon="2.59171"><ele>86.4</ele></trkpt>
    <trkpt lat="48.71665" lon="2.59525"><ele>87.8</ele></trkpt>
    <trkpt lat="48.71682" lon="2.59714"><ele>89.3</ele></trkpt>
    <trkpt lat="48.71688" lon="2.59737"><ele>89.5</ele></trkpt>
    <trkpt lat="48.717" lon="2.59755"><ele>89.7</ele></trkpt>
    <trkpt lat="48.71718" lon="2.59802"><ele>89.7</ele></trkpt>
    <trkpt lat="48.71722" lon="2.59828"><ele>89.8</ele></trkpt>
    <trkpt lat="48.71727" lon="2.60046"><ele>90.1</ele></trkpt>
    <trkpt lat="48.71731" lon="2.60099"><ele>90.1</ele></trkpt>
    <trkpt lat="48.71736" lon="2.60126"><ele>90.1</ele></trkpt>
    <trkpt lat="48.71759" lon="2.60199"><ele>90.0</ele></trkpt>
    <trkpt lat="48.71775" lon="2.60277"><ele>90.0</ele></trkpt>
    <trkpt lat="48.71793" lon="2.60411"><ele>90.4</ele></trkpt>
    <trkpt lat="48.71804" lon="2.60546"><ele>90.9</ele></trkpt>
    <trkpt lat="48.71814" lon="2.60599"><ele>91.2</ele></trkpt>
    <trkpt lat="48.71849" lon="2.60753"><ele>92.1</ele></trkpt>
    <trkpt lat="48.71901" lon="2.60927"><ele>92.8</ele></trkpt>
    <trkpt lat="48.71911" lon="2.60949"><ele>93.0</ele></trkpt>
    <trkpt lat="48.72001" lon="2.61038"><ele>94.2</ele></trkpt>
    <trkpt lat="48.72037" lon="2.61099"><ele>94.7</ele></trkpt>
    <trkpt lat="48.722" lon="2.61491"><ele>97.8</ele></trkpt>
    <trkpt lat="48.72571" lon="2.62228"><ele>100.9</ele></trkpt>
    <trkpt lat="48.72587" lon="2.62277"><ele>100.9</ele></trkpt>
    <trkpt lat="48.726" lon="2.62356"><ele>100.9</ele></trkpt>
    <trkpt lat="48.72613" lon="2.62654"><ele>100.3</ele></trkpt>
    <trkpt lat="48.72629" lon="2.62658"><ele>100.1</ele></trkpt>
    <trkpt lat="48.72755" lon="2.62647"><ele>99.0</ele></trkpt>
    <trkpt lat="48.73112" lon="2.62703"><ele>95.8</ele></trkpt>
    <trkpt lat="48.7309" lon="2.63001"><ele>96.4</ele></trkpt>
    <trkpt lat="48.72996" lon="2.6347"><ele>97.3</ele></trkpt>
    <trkpt lat="48.72973" lon="2.63573"><ele>97.3</ele></trkpt>
    <trkpt lat="48.72949" lon="2.63646"><ele>97.3</ele></trkpt>
    <trkpt lat="48.72809" lon="2.63996"><ele>97.4</ele></trkpt>
    <trkpt lat="48.72754" lon="2.64104"><ele>97.5</ele></trkpt>
    <trkpt lat="48.727" lon="2.64175"><ele>97.7</ele></trkpt>
    <trkpt lat="48.7264" lon="2.64311"><ele>98.2</ele></trkpt>
    <trkpt lat="48.72269" lon="2.65013"><ele>100.4</ele></trkpt>
    <trkpt lat="48.72171" lon="2.65209"><ele>101.9</ele></trkpt>
    <trkpt lat="48.72168" lon="2.65229"><ele>101.9</ele></trkpt>
    <trkpt lat="48.72379" lon="2.65527"><ele>101.0</ele></trkpt>
    <trkpt lat="48.72394" lon="2.65541"><ele>100.9</ele></trkpt>
    <trkpt lat="48.72429" lon="2.65539"><ele>100.7</ele></trkpt>
    <trkpt lat="48.72439" lon="2.65557"><ele>100.6</ele></trkpt>
    <trkpt lat="48.72451" lon="2.65665"><ele>100.3</ele></trkpt>
    <trkpt lat="48.72496" lon="2.65928"><ele>100.7</ele></trkpt>
    <trkpt lat="48.72548" lon="2.66413"><ele>100.8</ele></trkpt>
    <trkpt lat="48.72578" lon="2.66511"><ele>100.6</ele></trkpt>
    <trkpt lat="48.72604" lon="2.66612"><ele>100.1</ele></trkpt>
    <trkpt lat="48.72616" lon="2.66627"><ele>99.8</ele></trkpt>
    <trkpt lat="48.72912" lon="2.67561"><ele>101.0</ele></trkpt>
    <trkpt lat="48.73433" lon="2.69914"><ele>108.9</ele></trkpt>
    <trkpt lat="48.7346" lon="2.70044"><ele>108.2</ele></trkpt>
    <trkpt lat="48.7346" lon="2.70071"><ele>108.1</ele></trkpt>
    <trkpt lat="48.73468" lon="2.70093"><ele>108.0</ele></trkpt>
    <trkpt lat="48.73485" lon="2.70098"><ele>107.9</ele></trkpt>
    <trkpt lat="48.73735" lon="2.70141"><ele>106.9</ele></trkpt>
    <trkpt lat="48.73727" lon="2.70219"><ele>106.8</ele></trkpt>
    <trkpt lat="48.73646" lon="2.70365"><ele>106.8</ele></trkpt>
    <trkpt lat="48.73599" lon="2.70481"><ele>107.0</ele></trkpt>
    <trkpt lat="48.73588" lon="2.70533"><ele>107.1</ele></trkpt>
    <trkpt lat="48.73587" lon="2.70588"><ele>107.2</ele></trkpt>
    <trkpt lat="48.73612" lon="2.70719"><ele>107.7</ele></trkpt>
    <trkpt lat="48.74194" lon="2.73357"><ele>106.7</ele></trkpt>
    <trkpt lat="48.7422" lon="2.73487"><ele>106.1</ele></trkpt>
    <trkpt lat="48.74217" lon="2.73512"><ele>106.0</ele></trkpt>
    <trkpt lat="48.74112" lon="2.73616"><ele>105.3</ele></trkpt>
    <trkpt lat="48.74032" lon="2.73797"><ele>104.7</ele></trkpt>
    <trkpt lat="48.73987" lon="2.73881"><ele>103.8</ele></trkpt>
    <trkpt lat="48.73972" lon="2.73878"><ele>103.7</ele></trkpt>
    <trkpt lat="48.73925" lon="2.73794"><ele>104.7</ele></trkpt>
    <trkpt lat="48.73886" lon="2.73703"><ele>105.2</ele></trkpt>
    <trkpt lat="48.73872" lon="2.73688"><ele>105.3</ele></trkpt>
    <trkpt lat="48.73856" lon="2.73699"><ele>105.4</ele></trkpt>
    <trkpt lat="48.73791" lon="2.73793"><ele>105.1</ele></trkpt>
    <trkpt lat="48.73775" lon="2.73798"><ele>105.1</ele></trkpt>
    <trkpt lat="48.73709" lon="2.73755"><ele>105.1</ele></trkpt>
    <trkpt lat="48.73656" lon="2.7374"><ele>105.5</ele></trkpt>
    <trkpt lat="48.73566" lon="2.73744"><ele>106.5</ele></trkpt>
    <trkpt lat="48.73424" lon="2.7377"><ele>105.7</ele></trkpt>
    <trkpt lat="48.73345" lon="2.73835"><ele>105.3</ele></trkpt>
    <trkpt lat="48.73255" lon="2.73926"><ele>104.8</ele></trkpt>
    <trkpt lat="48.7322" lon="2.73939"><ele>104.2</ele></trkpt>
    <trkpt lat="48.73166" lon="2.73938"><ele>104.2</ele></trkpt>
    <trkpt lat="48.73149" lon="2.73934"><ele>104.8</ele></trkpt>
    <trkpt lat="48.7312" lon="2.73917"><ele>105.7</ele></trkpt>
    <trkpt lat="48.73106" lon="2.73927"><ele>105.5</ele></trkpt>
    <trkpt lat="48.72837" lon="2.73895"><ele>102.4</ele></trkpt>
    <trkpt lat="48.72262" lon="2.73881"><ele>95.0</ele></trkpt>
    <trkpt lat="48.72172" lon="2.73866"><ele>95.0</ele></trkpt>
    <trkpt lat="48.72083" lon="2.73868"><ele>95.1</ele></trkpt>
    <trkpt lat="48.71885" lon="2.73854"><ele>93.9</ele></trkpt>
    <trkpt lat="48.7176" lon="2.73875"><ele>96.0</ele></trkpt>
    <trkpt lat="48.71635" lon="2.7385"><ele>96.9</ele></trkpt>
    <trkpt lat="48.71624" lon="2.73864"><ele>96.9</ele></trkpt>
    <trkpt lat="48.71609" lon="2.74026"><ele>96.7</ele></trkpt>
    <trkpt lat="48.71585" lon="2.74157"><ele>95.6</ele></trkpt>
    <trkpt lat="48.71589" lon="2.74182"><ele>94.8</ele></trkpt>
    <trkpt lat="48.71587" lon="2.74237"><ele>93.2</ele></trkpt>
    <trkpt lat="48.71573" lon="2.74344"><ele>91.2</ele></trkpt>
    <trkpt lat="48.71549" lon="2.74475"><ele>88.7</ele></trkpt>
    <trkpt lat="48.71531" lon="2.74522"><ele>87.4</ele></trkpt>
    <trkpt lat="48.71466" lon="2.74652"><ele>83.7</ele></trkpt>
    <trkpt lat="48.71384" lon="2.74797"><ele>82.3</ele></trkpt>
    <trkpt lat="48.71291" lon="2.74925"><ele>83.9</ele></trkpt>
    <trkpt lat="48.7106" lon="2.75307"><ele>101.9</ele></trkpt>
    <trkpt lat="48.71047" lon="2.75322"><ele>103.2</ele></trkpt>
    <trkpt lat="48.71027" lon="2.75366"><ele>105.5</ele></trkpt>
    <trkpt lat="48.70984" lon="2.75414"><ele>104.3</ele></trkpt>
    <trkpt lat="48.70951" lon="2.75435"><ele>104.0</ele></trkpt>
    <trkpt lat="48.70941" lon="2.75452"><ele>104.7</ele></trkpt>
    <trkpt lat="48.70966" lon="2.7552"><ele>105.0</ele></trkpt>
    <trkpt lat="48.70969" lon="2.75574"><ele>104.9</ele></trkpt>
    <trkpt lat="48.70967" lon="2.75628"><ele>104.9</ele></trkpt>
    <trkpt lat="48.70847" lon="2.76256"><ele>102.1</ele></trkpt>
    <trkpt lat="48.70834" lon="2.76271"><ele>101.9</ele></trkpt>
    <trkpt lat="48.70765" lon="2.763"><ele>101.1</ele></trkpt>
    <trkpt lat="48.70715" lon="2.76332"><ele>100.6</ele></trkpt>
    <trkpt lat="48.70481" lon="2.76585"><ele>99.7</ele></trkpt>
    <trkpt lat="48.70389" lon="2.76669"><ele>101.0</ele></trkpt>
    <trkpt lat="48.69992" lon="2.77512"><ele>106.8</ele></trkpt>
    <trkpt lat="48.69979" lon="2.77507"><ele>106.8</ele></trkpt>
    <trkpt lat="48.69885" lon="2.77381"><ele>105.7</ele></trkpt>
    <trkpt lat="48.69799" lon="2.77206"><ele>105.4</ele></trkpt>
    <trkpt lat="48.69697" lon="2.77317"><ele>106.0</ele></trkpt>
    <trkpt lat="48.69559" lon="2.7744"><ele>105.7</ele></trkpt>
    <trkpt lat="48.69489" lon="2.77461"><ele>105.2</ele></trkpt>
    <trkpt lat="48.69231" lon="2.77582"><ele>102.7</ele></trkpt>
    <trkpt lat="48.69164" lon="2.77623"><ele>101.7</ele></trkpt>
    <trkpt lat="48.69073" lon="2.7771"><ele>100.2</ele></trkpt>
    <trkpt lat="48.69023" lon="2.77741"><ele>99.5</ele></trkpt>
    <trkpt lat="48.68739" lon="2.77805"><ele>97.4</ele></trkpt>
    <trkpt lat="48.68704" lon="2.77818"><ele>97.2</ele></trkpt>
    <trkpt lat="48.6861" lon="2.77898"><ele>97.0</ele></trkpt>
    <trkpt lat="48.68557" lon="2.77914"><ele>97.3</ele></trkpt>
    <trkpt lat="48.68471" lon="2.77952"><ele>98.0</ele></trkpt>
    <trkpt lat="48.68445" lon="2.77989"><ele>98.3</ele></trkpt>
    <trkpt lat="48.68421" lon="2.78061"><ele>98.7</ele></trkpt>
    <trkpt lat="48.68151" lon="2.78674"><ele>101.4</ele></trkpt>
    <trkpt lat="48.67981" lon="2.7899"><ele>101.8</ele></trkpt>
    <trkpt lat="48.67902" lon="2.79235"><ele>101.5</ele></trkpt>
    <trkpt lat="48.67866" lon="2.79359"><ele>101.3</ele></trkpt>
    <trkpt lat="48.67864" lon="2.79413"><ele>101.2</ele></trkpt>
    <trkpt lat="48.67874" lon="2.79493"><ele>101.1</ele></trkpt>
    <trkpt lat="48.67863" lon="2.79512"><ele>101.0</ele></trkpt>
    <trkpt lat="48.67733" lon="2.79606"><ele>100.6</ele></trkpt>
    <trkpt lat="48.67722" lon="2.79627"><ele>100.5</ele></trkpt>
    <trkpt lat="48.67717" lon="2.7979"><ele>100.0</ele></trkpt>
    <trkpt lat="48.67718" lon="2.80172"><ele>98.5</ele></trkpt>
    <trkpt lat="48.67727" lon="2.8028"><ele>98.0</ele></trkpt>
    <trkpt lat="48.67742" lon="2.80358"><ele>97.5</ele></trkpt>
    <trkpt lat="48.6774" lon="2.80439"><ele>97.2</ele></trkpt>
    <trkpt lat="48.67726" lon="2.80629"><ele>96.8</ele></trkpt>
    <trkpt lat="48.67715" lon="2.80681"><ele>96.8</ele></trkpt>
    <trkpt lat="48.67678" lon="2.80805"><ele>97.2</ele></trkpt>
    <trkpt lat="48.67652" lon="2.80991"><ele>98.0</ele></trkpt>
    <trkpt lat="48.67637" lon="2.8104"><ele>98.4</ele></trkpt>
    <trkpt lat="48.67501" lon="2.81294"><ele>101.5</ele></trkpt>
    <trkpt lat="48.67478" lon="2.81397"><ele>102.7</ele></trkpt>
    <trkpt lat="48.67407" lon="2.81585"><ele>104.0</ele></trkpt>
    <trkpt lat="48.67367" lon="2.81641"><ele>104.3</ele></trkpt>
    <trkpt lat="48.67323" lon="2.81687"><ele>104.3</ele></trkpt>
    <trkpt lat="48.67222" lon="2.81843"><ele>101.8</ele></trkpt>
    <trkpt lat="48.67209" lon="2.81859"><ele>101.3</ele></trkpt>
    <trkpt lat="48.672" lon="2.81836"><ele>100.7</ele></trkpt>
    <trkpt lat="48.67174" lon="2.81798"><ele>99.5</ele></trkpt>
    <trkpt lat="48.67123" lon="2.81776"><ele>97.5</ele></trkpt>
    <trkpt lat="48.67087" lon="2.81774"><ele>96.1</ele></trkpt>
    <trkpt lat="48.67052" lon="2.81785"><ele>94.5</ele></trkpt>
    <trkpt lat="48.66934" lon="2.81851"><ele>87.9</ele></trkpt>
    <trkpt lat="48.66809" lon="2.81872"><ele>81.6</ele></trkpt>
    <trkpt lat="48.66775" lon="2.81889"><ele>79.7</ele></trkpt>
    <trkpt lat="48.66761" lon="2.81906"><ele>78.7</ele></trkpt>
    <trkpt lat="48.66737" lon="2.81946"><ele>76.7</ele></trkpt>
    <trkpt lat="48.66683" lon="2.82055"><ele>72.5</ele></trkpt>
    <trkpt lat="48.66668" lon="2.82069"><ele>71.6</ele></trkpt>
    <trkpt lat="48.66578" lon="2.82068"><ele>68.8</ele></trkpt>
    <trkpt lat="48.66508" lon="2.82095"><ele>68.3</ele></trkpt>
    <trkpt lat="48.66115" lon="2.82363"><ele>75.9</ele></trkpt>
    <trkpt lat="48.66044" lon="2.82362"><ele>78.5</ele></trkpt>
    <trkpt lat="48.65972" lon="2.82348"><ele>80.6</ele></trkpt>
    <trkpt lat="48.65954" lon="2.82349"><ele>81.0</ele></trkpt>
    <trkpt lat="48.6592" lon="2.82364"><ele>81.7</ele></trkpt>
    <trkpt lat="48.65904" lon="2.82362"><ele>82.3</ele></trkpt>
    <trkpt lat="48.65788" lon="2.82191"><ele>87.7</ele></trkpt>
    <trkpt lat="48.65719" lon="2.82066"><ele>88.1</ele></trkpt>
    <trkpt lat="48.65687" lon="2.82043"><ele>88.4</ele></trkpt>
    <trkpt lat="48.65653" lon="2.81979"><ele>88.9</ele></trkpt>
    <trkpt lat="48.65615" lon="2.81887"><ele>89.0</ele></trkpt>
    <trkpt lat="48.65575" lon="2.81765"><ele>89.6</ele></trkpt>
    <trkpt lat="48.65531" lon="2.81679"><ele>90.4</ele></trkpt>
    <trkpt lat="48.6551" lon="2.81575"><ele>92.4</ele></trkpt>
    <trkpt lat="48.65502" lon="2.81558"><ele>93.0</ele></trkpt>
    <trkpt lat="48.65342" lon="2.81523"><ele>99.6</ele></trkpt>
    <trkpt lat="48.6527" lon="2.81512"><ele>101.9</ele></trkpt>
    <trkpt lat="48.65234" lon="2.81515"><ele>103.1</ele></trkpt>
    <trkpt lat="48.65206" lon="2.81546"><ele>103.9</ele></trkpt>
    <trkpt lat="48.65028" lon="2.81853"><ele>101.3</ele></trkpt>
    <trkpt lat="48.64973" lon="2.81961"><ele>99.0</ele></trkpt>
    <trkpt lat="48.64886" lon="2.82198"><ele>93.7</ele></trkpt>
    <trkpt lat="48.64849" lon="2.82349"><ele>92.4</ele></trkpt>
    <trkpt lat="48.64585" lon="2.83057"><ele>89.0</ele></trkpt>
    <trkpt lat="48.64445" lon="2.83011"><ele>89.0</ele></trkpt>
    <trkpt lat="48.64185" lon="2.82902"><ele>87.8</ele></trkpt>
    <trkpt lat="48.64167" lon="2.82902"><ele>87.6</ele></trkpt>
    <trkpt lat="48.64152" lon="2.82914"><ele>87.6</ele></trkpt>
    <trkpt lat="48.64141" lon="2.82935"><ele>87.6</ele></trkpt>
    <trkpt lat="48.64038" lon="2.83158"><ele>91.7</ele></trkpt>
    <trkpt lat="48.64022" lon="2.8317"><ele>92.5</ele></trkpt>
    <trkpt lat="48.64004" lon="2.83168"><ele>93.3</ele></trkpt>
    <trkpt lat="48.62975" lon="2.82677"><ele>84.5</ele></trkpt>
    <trkpt lat="48.6294" lon="2.82666"><ele>84.2</ele></trkpt>
    <trkpt lat="48.62868" lon="2.82662"><ele>84.6</ele></trkpt>
    <trkpt lat="48.62852" lon="2.82656"><ele>84.8</ele></trkpt>
    <trkpt lat="48.62846" lon="2.82632"><ele>84.9</ele></trkpt>
    <trkpt lat="48.62856" lon="2.82414"><ele>86.1</ele></trkpt>
    <trkpt lat="48.62855" lon="2.82306"><ele>87.0</ele></trkpt>
    <trkpt lat="48.62823" lon="2.82209"><ele>87.3</ele></trkpt>
    <trkpt lat="48.62742" lon="2.81906"><ele>88.4</ele></trkpt>
    <trkpt lat="48.62729" lon="2.81889"><ele>88.6</ele></trkpt>
    <trkpt lat="48.62724" lon="2.81864"><ele>88.8</ele></trkpt>
    <trkpt lat="48.62708" lon="2.81855"><ele>89.0</ele></trkpt>
    <trkpt lat="48.6268" lon="2.81872"><ele>89.4</ele></trkpt>
    <trkpt lat="48.62609" lon="2.81858"><ele>90.2</ele></trkpt>
    <trkpt lat="48.61213" lon="2.81454"><ele>97.1</ele></trkpt>
    <trkpt lat="48.61196" lon="2.81445"><ele>97.0</ele></trkpt>
    <trkpt lat="48.61103" lon="2.81212"><ele>95.9</ele></trkpt>
    <trkpt lat="48.61087" lon="2.8121"><ele>95.8</ele></trkpt>
    <trkpt lat="48.60947" lon="2.81255"><ele>95.6</ele></trkpt>
    <trkpt lat="48.60876" lon="2.81274"><ele>95.6</ele></trkpt>
    <trkpt lat="48.60858" lon="2.81272"><ele>95.6</ele></trkpt>
    <trkpt lat="48.60847" lon="2.81252"><ele>95.6</ele></trkpt>
    <trkpt lat="48.60836" lon="2.812"><ele>95.5</ele></trkpt>
    <trkpt lat="48.60813" lon="2.81159"><ele>95.5</ele></trkpt>
    <trkpt lat="48.60637" lon="2.8097"><ele>96.1</ele></trkpt>
    <trkpt lat="48.60571" lon="2.80878"><ele>96.4</ele></trkpt>
    <trkpt lat="48.60561" lon="2.80856"><ele>96.4</ele></trkpt>
    <trkpt lat="48.6052" lon="2.80705"><ele>94.7</ele></trkpt>
    <trkpt lat="48.60501" lon="2.80659"><ele>93.2</ele></trkpt>
    <trkpt lat="48.60475" lon="2.8062"><ele>91.7</ele></trkpt>
    <trkpt lat="48.60445" lon="2.8059"><ele>90.4</ele></trkpt>
    <trkpt lat="48.60412" lon="2.80569"><ele>89.3</ele></trkpt>
    <trkpt lat="48.6029" lon="2.80527"><ele>85.2</ele></trkpt>
    <trkpt lat="48.60218" lon="2.8053"><ele>82.0</ele></trkpt>
    <trkpt lat="48.60183" lon="2.80543"><ele>80.7</ele></trkpt>
    <trkpt lat="48.601" lon="2.80593"><ele>78.9</ele></trkpt>
    <trkpt lat="48.60082" lon="2.80595"><ele>78.7</ele></trkpt>
    <trkpt lat="48.6001" lon="2.80592"><ele>79.5</ele></trkpt>
    <trkpt lat="48.5994" lon="2.80569"><ele>81.5</ele></trkpt>
    <trkpt lat="48.59887" lon="2.80559"><ele>82.8</ele></trkpt>
    <trkpt lat="48.59779" lon="2.80552"><ele>85.5</ele></trkpt>
    <trkpt lat="48.59743" lon="2.80559"><ele>87.0</ele></trkpt>
    <trkpt lat="48.59662" lon="2.80616"><ele>90.8</ele></trkpt>
    <trkpt lat="48.59554" lon="2.80623"><ele>92.0</ele></trkpt>
    <trkpt lat="48.59483" lon="2.8061"><ele>89.7</ele></trkpt>
    <trkpt lat="48.59271" lon="2.8055"><ele>83.4</ele></trkpt>
    <trkpt lat="48.59199" lon="2.8054"><ele>81.0</ele></trkpt>
    <trkpt lat="48.59019" lon="2.8055"><ele>80.2</ele></trkpt>
    <trkpt lat="48.58948" lon="2.80548"><ele>83.2</ele></trkpt>
    <trkpt lat="48.5875" lon="2.80531"><ele>88.9</ele></trkpt>
    <trkpt lat="48.58644" lon="2.80512"><ele>92.7</ele></trkpt>
    <trkpt lat="48.5859" lon="2.80511"><ele>94.1</ele></trkpt>
    <trkpt lat="48.58554" lon="2.80514"><ele>94.9</ele></trkpt>
    <trkpt lat="48.58519" lon="2.80527"><ele>95.4</ele></trkpt>
    <trkpt lat="48.58479" lon="2.80581"><ele>95.3</ele></trkpt>
    <trkpt lat="48.58446" lon="2.80597"><ele>95.0</ele></trkpt>
    <trkpt lat="48.58443" lon="2.80619"><ele>94.8</ele></trkpt>
    <trkpt lat="48.58449" lon="2.80645"><ele>94.7</ele></trkpt>
    <trkpt lat="48.58434" lon="2.80596"><ele>94.4</ele></trkpt>
    <trkpt lat="48.5841" lon="2.80556"><ele>94.2</ele></trkpt>
    <trkpt lat="48.58351" lon="2.80495"><ele>94.0</ele></trkpt>
    <trkpt lat="48.5834" lon="2.80475"><ele>93.9</ele></trkpt>
    <trkpt lat="48.58322" lon="2.80398"><ele>93.5</ele></trkpt>
    <trkpt lat="48.58272" lon="2.80286"><ele>92.2</ele></trkpt>
    <trkpt lat="48.5827" lon="2.80263"><ele>91.9</ele></trkpt>
    <trkpt lat="48.58277" lon="2.80183"><ele>90.9</ele></trkpt>
    <trkpt lat="48.58454" lon="2.79529"><ele>89.5</ele></trkpt>
    <trkpt lat="48.58566" lon="2.79041"><ele>89.9</ele></trkpt>
    <trkpt lat="48.58648" lon="2.78769"><ele>89.3</ele></trkpt>
    <trkpt lat="48.58734" lon="2.78562"><ele>88.7</ele></trkpt>
    <trkpt lat="48.58766" lon="2.78464"><ele>88.5</ele></trkpt>
    <trkpt lat="48.58801" lon="2.78339"><ele>88.4</ele></trkpt>
    <trkpt lat="48.58817" lon="2.78233"><ele>88.1</ele></trkpt>
    <trkpt lat="48.58819" lon="2.77798"><ele>88.6</ele></trkpt>
    <trkpt lat="48.58843" lon="2.77584"><ele>88.3</ele></trkpt>
    <trkpt lat="48.58845" lon="2.7753"><ele>88.1</ele></trkpt>
    <trkpt lat="48.58841" lon="2.77504"><ele>87.9</ele></trkpt>
    <trkpt lat="48.58787" lon="2.77396"><ele>87.5</ele></trkpt>
    <trkpt lat="48.5877" lon="2.7718"><ele>87.6</ele></trkpt>
    <trkpt lat="48.58696" lon="2.76593"><ele>87.5</ele></trkpt>
    <trkpt lat="48.58676" lon="2.76517"><ele>87.5</ele></trkpt>
    <trkpt lat="48.58645" lon="2.76451"><ele>87.3</ele></trkpt>
    <trkpt lat="48.58603" lon="2.76331"><ele>87.1</ele></trkpt>
    <trkpt lat="48.58569" lon="2.76176"><ele>86.8</ele></trkpt>
    <trkpt lat="48.58597" lon="2.76109"><ele>87.0</ele></trkpt>
    <trkpt lat="48.58687" lon="2.75939"><ele>86.9</ele></trkpt>
    <trkpt lat="48.5874" lon="2.75797"><ele>86.4</ele></trkpt>
    <trkpt lat="48.58783" lon="2.75648"><ele>84.9</ele></trkpt>
    <trkpt lat="48.58811" lon="2.75578"><ele>84.6</ele></trkpt>
    <trkpt lat="48.58835" lon="2.75539"><ele>84.7</ele></trkpt>
    <trkpt lat="48.58865" lon="2.75509"><ele>84.9</ele></trkpt>
    <trkpt lat="48.58899" lon="2.75489"><ele>85.0</ele></trkpt>
    <trkpt lat="48.5902" lon="2.75439"><ele>84.6</ele></trkpt>
    <trkpt lat="48.59049" lon="2.75408"><ele>84.4</ele></trkpt>
    <trkpt lat="48.59192" lon="2.75163"><ele>83.9</ele></trkpt>
    <trkpt lat="48.59525" lon="2.74556"><ele>84.5</ele></trkpt>
    <trkpt lat="48.5955" lon="2.74518"><ele>85.1</ele></trkpt>
    <trkpt lat="48.59656" lon="2.74487"><ele>86.7</ele></trkpt>
    <trkpt lat="48.59672" lon="2.74475"><ele>86.9</ele></trkpt>
    <trkpt lat="48.59713" lon="2.74423"><ele>87.4</ele></trkpt>
    <trkpt lat="48.59784" lon="2.74404"><ele>87.7</ele></trkpt>
    <trkpt lat="48.59936" lon="2.74321"><ele>88.8</ele></trkpt>
    <trkpt lat="48.6043" lon="2.73992"><ele>87.4</ele></trkpt>
    <trkpt lat="48.60514" lon="2.73942"><ele>88.7</ele></trkpt>
    <trkpt lat="48.60555" lon="2.7389"><ele>90.0</ele></trkpt>
    <trkpt lat="48.60607" lon="2.73877"><ele>90.9</ele></trkpt>
    <trkpt lat="48.61727" lon="2.73134"><ele>86.6</ele></trkpt>
    <trkpt lat="48.61825" lon="2.73065"><ele>87.5</ele></trkpt>
    <trkpt lat="48.61882" lon="2.72961"><ele>89.0</ele></trkpt>
    <trkpt lat="48.61899" lon="2.72957"><ele>89.2</ele></trkpt>
    <trkpt lat="48.62013" lon="2.73038"><ele>91.4</ele></trkpt>
    <trkpt lat="48.6203" lon="2.73045"><ele>91.7</ele></trkpt>
    <trkpt lat="48.62047" lon="2.73038"><ele>92.0</ele></trkpt>
    <trkpt lat="48.62074" lon="2.73002"><ele>92.4</ele></trkpt>
    <trkpt lat="48.62124" lon="2.7289"><ele>93.0</ele></trkpt>
    <trkpt lat="48.62139" lon="2.7284"><ele>93.3</ele></trkpt>
    <trkpt lat="48.62184" lon="2.72634"><ele>93.5</ele></trkpt>
    <trkpt lat="48.62288" lon="2.72529"><ele>93.3</ele></trkpt>
    <trkpt lat="48.62657" lon="2.72189"><ele>91.5</ele></trkpt>
    <trkpt lat="48.62759" lon="2.72077"><ele>92.2</ele></trkpt>
    <trkpt lat="48.62791" lon="2.72054"><ele>92.5</ele></trkpt>
    <trkpt lat="48.62911" lon="2.71994"><ele>92.6</ele></trkpt>
    <trkpt lat="48.62959" lon="2.71958"><ele>92.1</ele></trkpt>
    <trkpt lat="48.63095" lon="2.7178"><ele>89.9</ele></trkpt>
    <trkpt lat="48.63187" lon="2.71695"><ele>90.2</ele></trkpt>
    <trkpt lat="48.63221" lon="2.71677"><ele>90.1</ele></trkpt>
    <trkpt lat="48.63256" lon="2.71668"><ele>90.0</ele></trkpt>
    <trkpt lat="48.63418" lon="2.71658"><ele>90.6</ele></trkpt>
    <trkpt lat="48.63646" lon="2.71581"><ele>92.8</ele></trkpt>
    <trkpt lat="48.63807" lon="2.71552"><ele>91.9</ele></trkpt>
    <trkpt lat="48.63895" lon="2.71529"><ele>90.5</ele></trkpt>
    <trkpt lat="48.63965" lon="2.71503"><ele>89.7</ele></trkpt>
    <trkpt lat="48.63997" lon="2.71476"><ele>89.6</ele></trkpt>
    <trkpt lat="48.64067" lon="2.71392"><ele>88.8</ele></trkpt>
    <trkpt lat="48.64069" lon="2.71371"><ele>88.6</ele></trkpt>
    <trkpt lat="48.64048" lon="2.71268"><ele>87.9</ele></trkpt>
    <trkpt lat="48.64042" lon="2.71214"><ele>88.2</ele></trkpt>
    <trkpt lat="48.6404" lon="2.71051"><ele>89.9</ele></trkpt>
    <trkpt lat="48.64041" lon="2.70996"><ele>90.3</ele></trkpt>
    <trkpt lat="48.6406" lon="2.70808"><ele>89.9</ele></trkpt>
    <trkpt lat="48.64074" lon="2.70373"><ele>92.9</ele></trkpt>
    <trkpt lat="48.64089" lon="2.70266"><ele>93.9</ele></trkpt>
    <trkpt lat="48.64101" lon="2.70215"><ele>94.1</ele></trkpt>
    <trkpt lat="48.64158" lon="2.70046"><ele>94.6</ele></trkpt>
    <trkpt lat="48.6417" lon="2.70031"><ele>94.4</ele></trkpt>
    <trkpt lat="48.64315" lon="2.69923"><ele>92.1</ele></trkpt>
    <trkpt lat="48.64365" lon="2.69894"><ele>91.3</ele></trkpt>
    <trkpt lat="48.6458" lon="2.69885"><ele>92.0</ele></trkpt>
    <trkpt lat="48.64741" lon="2.69855"><ele>89.2</ele></trkpt>
    <trkpt lat="48.64795" lon="2.69851"><ele>85.8</ele></trkpt>
    <trkpt lat="48.65137" lon="2.69843"><ele>69.0</ele></trkpt>
    <trkpt lat="48.65173" lon="2.69839"><ele>68.2</ele></trkpt>
    <trkpt lat="48.6526" lon="2.69805"><ele>65.6</ele></trkpt>
    <trkpt lat="48.65349" lon="2.69803"><ele>63.6</ele></trkpt>
    <trkpt lat="48.65298" lon="2.69659"><ele>62.7</ele></trkpt>
    <trkpt lat="48.6526" lon="2.69478"><ele>61.4</ele></trkpt>
    <trkpt lat="48.65259" lon="2.69455"><ele>61.0</ele></trkpt>
    <trkpt lat="48.65305" lon="2.69413"><ele>59.6</ele></trkpt>
    <trkpt lat="48.65318" lon="2.69394"><ele>59.4</ele></trkpt>
    <trkpt lat="48.65327" lon="2.69371"><ele>59.3</ele></trkpt>
    <trkpt lat="48.6533" lon="2.69345"><ele>59.3</ele></trkpt>
    <trkpt lat="48.65322" lon="2.69292"><ele>59.2</ele></trkpt>
    <trkpt lat="48.65265" lon="2.69122"><ele>58.9</ele></trkpt>
    <trkpt lat="48.65238" lon="2.69022"><ele>59.3</ele></trkpt>
    <trkpt lat="48.65244" lon="2.68859"><ele>60.8</ele></trkpt>
    <trkpt lat="48.65254" lon="2.68807"><ele>62.7</ele></trkpt>
    <trkpt lat="48.65273" lon="2.68762"><ele>65.0</ele></trkpt>
    <trkpt lat="48.65336" lon="2.68711"><ele>68.0</ele></trkpt>
    <trkpt lat="48.6536" lon="2.68671"><ele>67.9</ele></trkpt>
    <trkpt lat="48.65456" lon="2.6844"><ele>67.8</ele></trkpt>
    <trkpt lat="48.65468" lon="2.6842"><ele>68.4</ele></trkpt>
    <trkpt lat="48.65482" lon="2.68404"><ele>68.9</ele></trkpt>
    <trkpt lat="48.65567" lon="2.68362"><ele>71.1</ele></trkpt>
    <trkpt lat="48.65597" lon="2.68332"><ele>72.2</ele></trkpt>
    <trkpt lat="48.65648" lon="2.68189"><ele>75.7</ele></trkpt>
    <trkpt lat="48.65653" lon="2.68108"><ele>77.5</ele></trkpt>
    <trkpt lat="48.65668" lon="2.68059"><ele>78.5</ele></trkpt>
    <trkpt lat="48.65709" lon="2.68007"><ele>80.7</ele></trkpt>
    <trkpt lat="48.65749" lon="2.67916"><ele>83.5</ele></trkpt>
    <trkpt lat="48.65796" lon="2.67878"><ele>85.1</ele></trkpt>
    <trkpt lat="48.65809" lon="2.67861"><ele>85.5</ele></trkpt>
    <trkpt lat="48.65852" lon="2.67774"><ele>87.6</ele></trkpt>
    <trkpt lat="48.65882" lon="2.67743"><ele>88.1</ele></trkpt>
    <trkpt lat="48.65893" lon="2.67724"><ele>88.2</ele></trkpt>
    <trkpt lat="48.65909" lon="2.67535"><ele>88.5</ele></trkpt>
    <trkpt lat="48.65916" lon="2.67511"><ele>88.6</ele></trkpt>
    <trkpt lat="48.66011" lon="2.67348"><ele>91.4</ele></trkpt>
    <trkpt lat="48.66028" lon="2.67339"><ele>91.7</ele></trkpt>
    <trkpt lat="48.66064" lon="2.67336"><ele>91.9</ele></trkpt>
    <trkpt lat="48.66098" lon="2.67321"><ele>92.0</ele></trkpt>
    <trkpt lat="48.6621" lon="2.67236"><ele>92.1</ele></trkpt>
    <trkpt lat="48.66882" lon="2.66845"><ele>92.4</ele></trkpt>
    <trkpt lat="48.67102" lon="2.66661"><ele>90.4</ele></trkpt>
    <trkpt lat="48.67221" lon="2.666"><ele>91.4</ele></trkpt>
    <trkpt lat="48.67669" lon="2.66396"><ele>96.1</ele></trkpt>
    <trkpt lat="48.67704" lon="2.66385"><ele>96.2</ele></trkpt>
    <trkpt lat="48.67758" lon="2.66382"><ele>96.3</ele></trkpt>
    <trkpt lat="48.67845" lon="2.66414"><ele>96.4</ele></trkpt>
    <trkpt lat="48.68347" lon="2.66632"><ele>98.4</ele></trkpt>
    <trkpt lat="48.68471" lon="2.66654"><ele>98.1</ele></trkpt>
    <trkpt lat="48.68483" lon="2.66816"><ele>98.2</ele></trkpt>
    <trkpt lat="48.68481" lon="2.66843"><ele>98.2</ele></trkpt>
    <trkpt lat="48.68492" lon="2.66853"><ele>98.0</ele></trkpt>
    <trkpt lat="48.68581" lon="2.66849"><ele>97.1</ele></trkpt>
    <trkpt lat="48.68703" lon="2.66799"><ele>96.0</ele></trkpt>
    <trkpt lat="48.68809" lon="2.66773"><ele>95.7</ele></trkpt>
    <trkpt lat="48.68827" lon="2.66772"><ele>95.6</ele></trkpt>
    <trkpt lat="48.68951" lon="2.66808"><ele>95.1</ele></trkpt>
    <trkpt lat="48.68996" lon="2.66851"><ele>94.9</ele></trkpt>
    <trkpt lat="48.69049" lon="2.66925"><ele>94.8</ele></trkpt>
    <trkpt lat="48.69122" lon="2.67005"><ele>94.5</ele></trkpt>
    <trkpt lat="48.69202" lon="2.67068"><ele>93.8</ele></trkpt>
    <trkpt lat="48.69276" lon="2.67145"><ele>92.9</ele></trkpt>
    <trkpt lat="48.69314" lon="2.67202"><ele>92.9</ele></trkpt>
    <trkpt lat="48.69383" lon="2.67328"><ele>94.1</ele></trkpt>
    <trkpt lat="48.69398" lon="2.67344"><ele>94.2</ele></trkpt>
    <trkpt lat="48.69415" lon="2.6735"><ele>94.1</ele></trkpt>
    <trkpt lat="48.69433" lon="2.67346"><ele>93.9</ele></trkpt>
    <trkpt lat="48.69529" lon="2.67273"><ele>92.4</ele></trkpt>
    <trkpt lat="48.6975" lon="2.67155"><ele>92.0</ele></trkpt>
    <trkpt lat="48.69947" lon="2.67135"><ele>92.3</ele></trkpt>
    <trkpt lat="48.70047" lon="2.67076"><ele>96.5</ele></trkpt>
    <trkpt lat="48.7015" lon="2.67025"><ele>102.7</ele></trkpt>
    <trkpt lat="48.70413" lon="2.66937"><ele>109.1</ele></trkpt>
    <trkpt lat="48.70467" lon="2.66929"><ele>108.1</ele></trkpt>
    <trkpt lat="48.70538" lon="2.66939"><ele>105.6</ele></trkpt>
    <trkpt lat="48.70587" lon="2.66974"><ele>103.3</ele></trkpt>
    <trkpt lat="48.70627" lon="2.67028"><ele>102.1</ele></trkpt>
    <trkpt lat="48.70832" lon="2.67442"><ele>102.7</ele></trkpt>
    <trkpt lat="48.7088" lon="2.67524"><ele>103.0</ele></trkpt>
    <trkpt lat="48.70892" lon="2.67543"><ele>102.9</ele></trkpt>
    <trkpt lat="48.70923" lon="2.67572"><ele>103.0</ele></trkpt>
    <trkpt lat="48.70958" lon="2.67579"><ele>103.0</ele></trkpt>
    <trkpt lat="48.7099" lon="2.67554"><ele>103.1</ele></trkpt>
    <trkpt lat="48.71031" lon="2.67501"><ele>103.2</ele></trkpt>
    <trkpt lat="48.7109" lon="2.67441"><ele>103.3</ele></trkpt>
    <trkpt lat="48.71669" lon="2.67002"><ele>105.0</ele></trkpt>
    <trkpt lat="48.71721" lon="2.66981"><ele>104.6</ele></trkpt>
    <trkpt lat="48.71864" lon="2.66952"><ele>103.4</ele></trkpt>
    <trkpt lat="48.72287" lon="2.66649"><ele>101.6</ele></trkpt>
    <trkpt lat="48.72356" lon="2.66619"><ele>101.4</ele></trkpt>
    <trkpt lat="48.72364" lon="2.666"><ele>101.5</ele></trkpt>
    <trkpt lat="48.72379" lon="2.66493"><ele>101.9</ele></trkpt>
    <trkpt lat="48.72392" lon="2.66358"><ele>102.5</ele></trkpt>
    <trkpt lat="48.72364" lon="2.66034"><ele>103.6</ele></trkpt>
    <trkpt lat="48.72336" lon="2.65935"><ele>103.8</ele></trkpt>
    <trkpt lat="48.72293" lon="2.65755"><ele>104.0</ele></trkpt>
    <trkpt lat="48.72283" lon="2.6574"><ele>104.0</ele></trkpt>
    <trkpt lat="48.7223" lon="2.65755"><ele>103.9</ele></trkpt>
    <trkpt lat="48.72226" lon="2.65734"><ele>103.8</ele></trkpt>
    <trkpt lat="48.72229" lon="2.65625"><ele>103.6</ele></trkpt>
    <trkpt lat="48.72233" lon="2.65602"><ele>103.5</ele></trkpt>
    <trkpt lat="48.72341" lon="2.65601"><ele>102.7</ele></trkpt>
    <trkpt lat="48.72374" lon="2.65579"><ele>101.9</ele></trkpt>
    <trkpt lat="48.72387" lon="2.6556"><ele>101.6</ele></trkpt>
    <trkpt lat="48.72388" lon="2.65541"><ele>101.3</ele></trkpt>
    <trkpt lat="48.72228" lon="2.65321"><ele>101.4</ele></trkpt>
    <trkpt lat="48.72165" lon="2.65224"><ele>101.9</ele></trkpt>
    <trkpt lat="48.72272" lon="2.65007"><ele>100.3</ele></trkpt>
    <trkpt lat="48.72632" lon="2.64326"><ele>98.3</ele></trkpt>
    <trkpt lat="48.72703" lon="2.64169"><ele>97.6</ele></trkpt>
    <trkpt lat="48.72758" lon="2.64099"><ele>97.5</ele></trkpt>
    <trkpt lat="48.72832" lon="2.63944"><ele>97.2</ele></trkpt>
    <trkpt lat="48.72951" lon="2.6364"><ele>97.4</ele></trkpt>
    <trkpt lat="48.72974" lon="2.63566"><ele>97.3</ele></trkpt>
    <trkpt lat="48.72998" lon="2.63463"><ele>97.4</ele></trkpt>
    <trkpt lat="48.73087" lon="2.6302"><ele>96.5</ele></trkpt>
    <trkpt lat="48.73111" lon="2.62723"><ele>95.7</ele></trkpt>
    <trkpt lat="48.73108" lon="2.62701"><ele>95.8</ele></trkpt>
    <trkpt lat="48.72857" lon="2.6266"><ele>98.1</ele></trkpt>
    <trkpt lat="48.72732" lon="2.62646"><ele>99.2</ele></trkpt>
    <trkpt lat="48.72624" lon="2.62659"><ele>100.2</ele></trkpt>
    <trkpt lat="48.72611" lon="2.62648"><ele>100.3</ele></trkpt>
    <trkpt lat="48.72599" lon="2.62349"><ele>100.9</ele></trkpt>
    <trkpt lat="48.72578" lon="2.62245"><ele>100.9</ele></trkpt>
    <trkpt lat="48.72208" lon="2.61507"><ele>97.9</ele></trkpt>
    <trkpt lat="48.72035" lon="2.61092"><ele>94.7</ele></trkpt>
    <trkpt lat="48.71997" lon="2.61034"><ele>94.1</ele></trkpt>
    <trkpt lat="48.71907" lon="2.60944"><ele>92.9</ele></trkpt>
    <trkpt lat="48.71847" lon="2.60746"><ele>91.9</ele></trkpt>
    <trkpt lat="48.71807" lon="2.60565"><ele>91.0</ele></trkpt>
    <trkpt lat="48.71795" lon="2.60431"><ele>90.5</ele></trkpt>
    <trkpt lat="48.71774" lon="2.6027"><ele>89.9</ele></trkpt>
    <trkpt lat="48.71736" lon="2.60117"><ele>90.1</ele></trkpt>
    <trkpt lat="48.71727" lon="2.59818"><ele>89.7</ele></trkpt>
    <trkpt lat="48.71704" lon="2.59745"><ele>89.9</ele></trkpt>
    <trkpt lat="48.71703" lon="2.59718"><ele>89.6</ele></trkpt>
    <trkpt lat="48.71686" lon="2.59672"><ele>89.0</ele></trkpt>
    <trkpt lat="48.71674" lon="2.59592"><ele>88.2</ele></trkpt>
    <trkpt lat="48.71669" lon="2.59484"><ele>87.6</ele></trkpt>
    <trkpt lat="48.71672" lon="2.59184"><ele>86.3</ele></trkpt>
    <trkpt lat="48.71663" lon="2.59104"><ele>86.8</ele></trkpt>
    <trkpt lat="48.71644" lon="2.59027"><ele>87.4</ele></trkpt>
    <trkpt lat="48.71634" lon="2.59008"><ele>87.5</ele></trkpt>
    <trkpt lat="48.7162" lon="2.59001"><ele>87.6</ele></trkpt>
    <trkpt lat="48.71566" lon="2.59006"><ele>88.1</ele></trkpt>
    <trkpt lat="48.7155" lon="2.59016"><ele>88.4</ele></trkpt>
    <trkpt lat="48.71539" lon="2.59038"><ele>88.7</ele></trkpt>
    <trkpt lat="48.71526" lon="2.59117"><ele>89.7</ele></trkpt>
    <trkpt lat="48.71514" lon="2.59136"><ele>90.1</ele></trkpt>
    <trkpt lat="48.71393" lon="2.59255"><ele>92.6</ele></trkpt>
    <trkpt lat="48.71376" lon="2.59259"><ele>92.9</ele></trkpt>
    <trkpt lat="48.71323" lon="2.59252"><ele>93.7</ele></trkpt>
    <trkpt lat="48.71284" lon="2.59161"><ele>94.3</ele></trkpt>
    <trkpt lat="48.71279" lon="2.59136"><ele>94.3</ele></trkpt>
    <trkpt lat="48.7128" lon="2.58999"><ele>94.7</ele></trkpt>
    <trkpt lat="48.71282" lon="2.5889"><ele>95.2</ele></trkpt>
    <trkpt lat="48.71287" lon="2.58865"><ele>95.4</ele></trkpt>
    <trkpt lat="48.71434" lon="2.58522"><ele>95.8</ele></trkpt>
    <trkpt lat="48.71477" lon="2.58374"><ele>96.5</ele></trkpt>
    <trkpt lat="48.71618" lon="2.58163"><ele>97.3</ele></trkpt>
    <trkpt lat="48.71663" lon="2.5812"><ele>97.4</ele></trkpt>
    <trkpt lat="48.71743" lon="2.58057"><ele>97.3</ele></trkpt>
    <trkpt lat="48.71831" lon="2.57853"><ele>96.3</ele></trkpt>
    <trkpt lat="48.71844" lon="2.57747"><ele>95.5</ele></trkpt>
    <trkpt lat="48.71842" lon="2.57725"><ele>95.2</ele></trkpt>
    <trkpt lat="48.71807" lon="2.57714"><ele>94.6</ele></trkpt>
    <trkpt lat="48.71795" lon="2.57703"><ele>94.3</ele></trkpt>
    <trkpt lat="48.71821" lon="2.57516"><ele>92.0</ele></trkpt>
    <trkpt lat="48.71878" lon="2.57451"><ele>89.7</ele></trkpt>
    <trkpt lat="48.71898" lon="2.57263"><ele>86.1</ele></trkpt>
    <trkpt lat="48.71908" lon="2.57251"><ele>85.5</ele></trkpt>
    <trkpt lat="48.72016" lon="2.57263"><ele>82.1</ele></trkpt>
    <trkpt lat="48.72159" lon="2.57285"><ele>76.3</ele></trkpt>
    <trkpt lat="48.72172" lon="2.57299"><ele>75.1</ele></trkpt>
    <trkpt lat="48.72261" lon="2.57302"><ele>70.8</ele></trkpt>
    <trkpt lat="48.7235" lon="2.57314"><ele>68.8</ele></trkpt>
    <trkpt lat="48.72457" lon="2.57341"><ele>66.9</ele></trkpt>
    <trkpt lat="48.72493" lon="2.57251"><ele>65.7</ele></trkpt>
    <trkpt lat="48.72493" lon="2.57116"><ele>64.4</ele></trkpt>
    <trkpt lat="48.725" lon="2.57035"><ele>63.9</ele></trkpt>
    <trkpt lat="48.72506" lon="2.57016"><ele>63.7</ele></trkpt>
    <trkpt lat="48.72521" lon="2.57017"><ele>63.5</ele></trkpt>
    <trkpt lat="48.72669" lon="2.56675"><ele>61.4</ele></trkpt>
    <trkpt lat="48.72735" lon="2.56546"><ele>61.9</ele></trkpt>
    <trkpt lat="48.72801" lon="2.56384"><ele>63.8</ele></trkpt>
    <trkpt lat="48.72887" lon="2.56209"><ele>67.3</ele></trkpt>
    <trkpt lat="48.72912" lon="2.56169"><ele>68.6</ele></trkpt>
    <trkpt lat="48.72956" lon="2.56124"><ele>71.0</ele></trkpt>
    <trkpt lat="48.72967" lon="2.56102"><ele>71.8</ele></trkpt>
    <trkpt lat="48.72999" lon="2.55975"><ele>75.1</ele></trkpt>
    <trkpt lat="48.73064" lon="2.55811"><ele>79.6</ele></trkpt>
    <trkpt lat="48.73077" lon="2.55761"><ele>81.1</ele></trkpt>
    <trkpt lat="48.7311" lon="2.55664"><ele>84.1</ele></trkpt>
    <trkpt lat="48.73119" lon="2.55659"><ele>84.9</ele></trkpt>
    <trkpt lat="48.73134" lon="2.55672"><ele>85.7</ele></trkpt>
    <trkpt lat="48.73239" lon="2.55707"><ele>89.3</ele></trkpt>
    <trkpt lat="48.73418" lon="2.5573"><ele>93.7</ele></trkpt>
    <trkpt lat="48.73537" lon="2.55792"><ele>95.1</ele></trkpt>
    <trkpt lat="48.73582" lon="2.5559"><ele>95.5</ele></trkpt>
    <trkpt lat="48.73595" lon="2.55455"><ele>95.2</ele></trkpt>
    <trkpt lat="48.73604" lon="2.55436"><ele>95.1</ele></trkpt>
    <trkpt lat="48.73676" lon="2.55448"><ele>94.7</ele></trkpt>
    <trkpt lat="48.73693" lon="2.55456"><ele>94.5</ele></trkpt>
    <trkpt lat="48.73711" lon="2.55456"><ele>94.4</ele></trkpt>
    <trkpt lat="48.73727" lon="2.55445"><ele>94.2</ele></trkpt>
    <trkpt lat="48.73738" lon="2.55424"><ele>94.0</ele></trkpt>
    <trkpt lat="48.73753" lon="2.55318"><ele>93.5</ele></trkpt>
    <trkpt lat="48.73767" lon="2.55309"><ele>93.4</ele></trkpt>
    <trkpt lat="48.73848" lon="2.55367"><ele>93.1</ele></trkpt>
    <trkpt lat="48.739" lon="2.55386"><ele>93.0</ele></trkpt>
    <trkpt lat="48.74097" lon="2.5537"><ele>93.5</ele></trkpt>
    <trkpt lat="48.74151" lon="2.55375"><ele>93.8</ele></trkpt>
    <trkpt lat="48.74185" lon="2.55392"><ele>94.1</ele></trkpt>
    <trkpt lat="48.74232" lon="2.55431"><ele>94.4</ele></trkpt>
    <trkpt lat="48.74256" lon="2.55472"><ele>94.7</ele></trkpt>
    <trkpt lat="48.74277" lon="2.55547"><ele>95.4</ele></trkpt>
    <trkpt lat="48.74283" lon="2.556"><ele>96.1</ele></trkpt>
    <trkpt lat="48.74277" lon="2.55625"><ele>96.6</ele></trkpt>
    <trkpt lat="48.74279" lon="2.55651"><ele>96.9</ele></trkpt>
    <trkpt lat="48.74294" lon="2.5566"><ele>97.0</ele></trkpt>
    <trkpt lat="48.74328" lon="2.55658"><ele>96.9</ele></trkpt>
    <trkpt lat="48.7443" lon="2.55711"><ele>96.5</ele></trkpt>
    <trkpt lat="48.74537" lon="2.55694"><ele>97.1</ele></trkpt>
    <trkpt lat="48.74627" lon="2.557"><ele>98.0</ele></trkpt>
    <trkpt lat="48.74642" lon="2.55708"><ele>98.1</ele></trkpt>
    <trkpt lat="48.74678" lon="2.55701"><ele>98.4</ele></trkpt>
    <trkpt lat="48.74821" lon="2.55704"><ele>99.5</ele></trkpt>
    <trkpt lat="48.75523" lon="2.5573"><ele>103.0</ele></trkpt>
    <trkpt lat="48.75538" lon="2.55721"><ele>103.0</ele></trkpt>
    <trkpt lat="48.75582" lon="2.55673"><ele>102.9</ele></trkpt>
    <trkpt lat="48.7585" lon="2.55355"><ele>101.5</ele></trkpt>
    <trkpt lat="48.76051" lon="2.55239"><ele>101.0</ele></trkpt>
    <trkpt lat="48.76103" lon="2.55039"><ele>101.0</ele></trkpt>
    <trkpt lat="48.76119" lon="2.54908"><ele>101.4</ele></trkpt>
    <trkpt lat="48.76148" lon="2.54556"><ele>102.3</ele></trkpt>
    <trkpt lat="48.76234" lon="2.53914"><ele>100.5</ele></trkpt>
    <trkpt lat="48.76332" lon="2.53657"><ele>97.6</ele></trkpt>
    <trkpt lat="48.76393" lon="2.53563"><ele>96.3</ele></trkpt>
    <trkpt lat="48.76558" lon="2.53398"><ele>96.2</ele></trkpt>
    <trkpt lat="48.76585" lon="2.53362"><ele>96.2</ele></trkpt>
    <trkpt lat="48.76669" lon="2.5322"><ele>97.4</ele></trkpt>
    <trkpt lat="48.76684" lon="2.53207"><ele>97.7</ele></trkpt>
    <trkpt lat="48.76693" lon="2.53154"><ele>98.3</ele></trkpt>
    <trkpt lat="48.76701" lon="2.5313"><ele>98.6</ele></trkpt>
    <trkpt lat="48.76763" lon="2.52996"><ele>99.8</ele></trkpt>
    <trkpt lat="48.76808" lon="2.52878"><ele>100.3</ele></trkpt>
    <trkpt lat="48.76822" lon="2.52862"><ele>100.3</ele></trkpt>
    <trkpt lat="48.76856" lon="2.52845"><ele>100.4</ele></trkpt>
    <trkpt lat="48.76865" lon="2.52826"><ele>100.3</ele></trkpt>
    <trkpt lat="48.77007" lon="2.52446"><ele>98.7</ele></trkpt>
    <trkpt lat="48.77032" lon="2.52344"><ele>97.7</ele></trkpt>
    <trkpt lat="48.77044" lon="2.52264"><ele>96.3</ele></trkpt>
    <trkpt lat="48.77051" lon="2.52241"><ele>95.8</ele></trkpt>
    <trkpt lat="48.77086" lon="2.52232"><ele>95.0</ele></trkpt>
    <trkpt lat="48.77092" lon="2.52153"><ele>93.2</ele></trkpt>
    <trkpt lat="48.77106" lon="2.52138"><ele>92.2</ele></trkpt>
    <trkpt lat="48.77203" lon="2.51976"><ele>82.3</ele></trkpt>
    <trkpt lat="48.77372" lon="2.5173"><ele>63.9</ele></trkpt>
    <trkpt lat="48.77537" lon="2.5152"><ele>48.8</ele></trkpt>
    <trkpt lat="48.77657" lon="2.514"><ele>39.1</ele></trkpt>
    <trkpt lat="48.77762" lon="2.51251"><ele>36.9</ele></trkpt>
    <trkpt lat="48.77809" lon="2.51173"><ele>37.4</ele></trkpt>
    <trkpt lat="48.77935" lon="2.51189"><ele>38.4</ele></trkpt>
    <trkpt lat="48.78094" lon="2.51225"><ele>39.5</ele></trkpt>
    <trkpt lat="48.78139" lon="2.5127"><ele>39.7</ele></trkpt>
    <trkpt lat="48.78317" lon="2.51501"><ele>38.0</ele></trkpt>
    <trkpt lat="48.78332" lon="2.51516"><ele>38.1</ele></trkpt>
    <trkpt lat="48.78367" lon="2.51526"><ele>38.3</ele></trkpt>
    <trkpt lat="48.78381" lon="2.51541"><ele>38.6</ele></trkpt>
    <trkpt lat="48.78433" lon="2.51651"><ele>39.2</ele></trkpt>
    <trkpt lat="48.78749" lon="2.52056"><ele>38.3</ele></trkpt>
    <trkpt lat="48.79013" lon="2.52231"><ele>38.9</ele></trkpt>
    <trkpt lat="48.79029" lon="2.52233"><ele>39.4</ele></trkpt>
    <trkpt lat="48.79042" lon="2.52214"><ele>40.1</ele></trkpt>
    <trkpt lat="48.79095" lon="2.52083"><ele>36.7</ele></trkpt>
    <trkpt lat="48.79129" lon="2.521"><ele>36.1</ele></trkpt>
    <trkpt lat="48.79146" lon="2.5209"><ele>35.9</ele></trkpt>
    <trkpt lat="48.79167" lon="2.52047"><ele>35.6</ele></trkpt>
    <trkpt lat="48.79184" lon="2.52042"><ele>35.5</ele></trkpt>
    <trkpt lat="48.79198" lon="2.52056"><ele>35.4</ele></trkpt>
    <trkpt lat="48.79197" lon="2.52136"><ele>35.2</ele></trkpt>
    <trkpt lat="48.79211" lon="2.52152"><ele>35.2</ele></trkpt>
    <trkpt lat="48.79263" lon="2.52172"><ele>35.1</ele></trkpt>
    <trkpt lat="48.79281" lon="2.52172"><ele>35.1</ele></trkpt>
    <trkpt lat="48.79298" lon="2.52183"><ele>35.1</ele></trkpt>
    <trkpt lat="48.79369" lon="2.52189"><ele>35.1</ele></trkpt>
    <trkpt lat="48.79387" lon="2.52186"><ele>35.0</ele></trkpt>
    <trkpt lat="48.79511" lon="2.5221"><ele>35.0</ele></trkpt>
    <trkpt lat="48.79529" lon="2.52207"><ele>34.9</ele></trkpt>
    <trkpt lat="48.79545" lon="2.52218"><ele>34.9</ele></trkpt>
    <trkpt lat="48.79705" lon="2.52246"><ele>34.9</ele></trkpt>
    <trkpt lat="48.79883" lon="2.52208"><ele>35.1</ele></trkpt>
    <trkpt lat="48.7999" lon="2.52199"><ele>34.9</ele></trkpt>
    <trkpt lat="48.80168" lon="2.52231"><ele>34.7</ele></trkpt>
    <trkpt lat="48.80239" lon="2.52225"><ele>34.9</ele></trkpt>
    <trkpt lat="48.80449" lon="2.52169"><ele>35.0</ele></trkpt>
    <trkpt lat="48.80459" lon="2.52151"><ele>35.1</ele></trkpt>
    <trkpt lat="48.80645" lon="2.51991"><ele>35.4</ele></trkpt>
    <trkpt lat="48.80743" lon="2.51871"><ele>35.3</ele></trkpt>
    <trkpt lat="48.80804" lon="2.51771"><ele>35.5</ele></trkpt>
    <trkpt lat="48.80842" lon="2.51678"><ele>35.8</ele></trkpt>
    <trkpt lat="48.80902" lon="2.51451"><ele>36.0</ele></trkpt>
    <trkpt lat="48.80923" lon="2.51291"><ele>36.2</ele></trkpt>
    <trkpt lat="48.80948" lon="2.50993"><ele>40.6</ele></trkpt>
    <trkpt lat="48.80957" lon="2.50975"><ele>41.4</ele></trkpt>
    <trkpt lat="48.81027" lon="2.51001"><ele>42.9</ele></trkpt>
  </trkseg></trk>
</gpx>
