<?xml version="1.0" encoding="UTF-8"?>
<gpx version="1.1" creator="Club Cycliste USO" xmlns="http://www.topografix.com/GPX/1/1">
  <metadata><name>Crécy-la-Chapelle – 108 km</name><desc>108.4 km, D+ 630 m. Départ et arrivée : pont de Champigny.</desc></metadata>
  <trk><name>Crécy-la-Chapelle – 108 km</name><trkseg>
    <trkpt lat="48.81032" lon="2.51002"><ele>42.8</ele></trkpt>
    <trkpt lat="48.80962" lon="2.50978"><ele>41.5</ele></trkpt>
    <trkpt lat="48.80948" lon="2.50985"><ele>40.6</ele></trkpt>
    <trkpt lat="48.80909" lon="2.51417"><ele>36.0</ele></trkpt>
    <trkpt lat="48.80853" lon="2.51646"><ele>35.8</ele></trkpt>
    <trkpt lat="48.80807" lon="2.51764"><ele>35.5</ele></trkpt>
    <trkpt lat="48.80747" lon="2.51865"><ele>35.3</ele></trkpt>
    <trkpt lat="48.80664" lon="2.51971"><ele>35.4</ele></trkpt>
    <trkpt lat="48.80464" lon="2.52147"><ele>35.1</ele></trkpt>
    <trkpt lat="48.80439" lon="2.52176"><ele>35.0</ele></trkpt>
    <trkpt lat="48.80421" lon="2.52175"><ele>35.0</ele></trkpt>
    <trkpt lat="48.80369" lon="2.52194"><ele>34.9</ele></trkpt>
    <trkpt lat="48.80227" lon="2.52227"><ele>34.9</ele></trkpt>
    <trkpt lat="48.80156" lon="2.52229"><ele>34.7</ele></trkpt>
    <trkpt lat="48.79995" lon="2.52199"><ele>34.9</ele></trkpt>
    <trkpt lat="48.79888" lon="2.52207"><ele>35.1</ele></trkpt>
    <trkpt lat="48.79693" lon="2.52244"><ele>35.0</ele></trkpt>
    <trkpt lat="48.79392" lon="2.52185"><ele>35.0</ele></trkpt>
    <trkpt lat="48.79375" lon="2.5219"><ele>35.1</ele></trkpt>
    <trkpt lat="48.79303" lon="2.52184"><ele>35.1</ele></trkpt>
    <trkpt lat="48.79216" lon="2.52154"><ele>35.2</ele></trkpt>
    <trkpt lat="48.792" lon="2.52143"><ele>35.2</ele></trkpt>
    <trkpt lat="48.79195" lon="2.52118"><ele>35.3</ele></trkpt>
    <trkpt lat="48.792" lon="2.52064"><ele>35.4</ele></trkpt>
    <trkpt lat="48.79189" lon="2.52044"><ele>35.4</ele></trkpt>
    <trkpt lat="48.79172" lon="2.52043"><ele>35.5</ele></trkpt>
    <trkpt lat="48.79149" lon="2.52084"><ele>35.8</ele></trkpt>
    <trkpt lat="48.79135" lon="2.52099"><ele>36.1</ele></trkpt>
    <trkpt lat="48.79101" lon="2.52086"><ele>36.7</ele></trkpt>
    <trkpt lat="48.79086" lon="2.52093"><ele>37.4</ele></trkpt>
    <trkpt lat="48.79027" lon="2.5223"><ele>39.4</ele></trkpt>
    <trkpt lat="48.79013" lon="2.52231"><ele>38.9</ele></trkpt>
    <trkpt lat="48.7875" lon="2.52056"><ele>38.3</ele></trkpt>
    <trkpt lat="48.78433" lon="2.51652"><ele>39.2</ele></trkpt>
    <trkpt lat="48.78382" lon="2.51541"><ele>38.4</ele></trkpt>
    <trkpt lat="48.78367" lon="2.51527"><ele>38.2</ele></trkpt>
    <trkpt lat="48.78332" lon="2.51516"><ele>38.1</ele></trkpt>
    <trkpt lat="48.78317" lon="2.51501"><ele>38.0</ele></trkpt>
    <trkpt lat="48.7814" lon="2.5127"><ele>39.7</ele></trkpt>
    <trkpt lat="48.78095" lon="2.51225"><ele>39.5</ele></trkpt>
    <trkpt lat="48.77614" lon="2.51126"><ele>38.6</ele></trkpt>
    <trkpt lat="48.77471" lon="2.51105"><ele>39.2</ele></trkpt>
    <trkpt lat="48.77456" lon="2.51095"><ele>39.2</ele></trkpt>
    <trkpt lat="48.77314" lon="2.51066"><ele>39.4</ele></trkpt>
    <trkpt lat="48.77162" lon="2.50919"><ele>38.8</ele></trkpt>
    <trkpt lat="48.77049" lon="2.50838"><ele>38.5</ele></trkpt>
    <trkpt lat="48.77013" lon="2.50834"><ele>38.4</ele></trkpt>
    <trkpt lat="48.76997" lon="2.50846"><ele>38.5</ele></trkpt>
    <trkpt lat="48.76718" lon="2.51145"><ele>43.8</ele></trkpt>
    <trkpt lat="48.76695" lon="2.51186"><ele>45.4</ele></trkpt>
    <trkpt lat="48.76677" lon="2.51233"><ele>47.2</ele></trkpt>
    <trkpt lat="48.76672" lon="2.51259"><ele>48.2</ele></trkpt>
    <trkpt lat="48.7667" lon="2.51341"><ele>51.3</ele></trkpt>
    <trkpt lat="48.76674" lon="2.51395"><ele>53.3</ele></trkpt>
    <trkpt lat="48.76749" lon="2.517"><ele>64.9</ele></trkpt>
    <trkpt lat="48.76803" lon="2.517"><ele>69.5</ele></trkpt>
    <trkpt lat="48.7682" lon="2.51706"><ele>71.3</ele></trkpt>
    <trkpt lat="48.76846" lon="2.51744"><ele>74.9</ele></trkpt>
    <trkpt lat="48.76871" lon="2.51816"><ele>79.8</ele></trkpt>
    <trkpt lat="48.76906" lon="2.51999"><ele>88.5</ele></trkpt>
    <trkpt lat="48.76916" lon="2.52021"><ele>89.9</ele></trkpt>
    <trkpt lat="48.76942" lon="2.52056"><ele>92.5</ele></trkpt>
    <trkpt lat="48.76904" lon="2.52107"><ele>95.2</ele></trkpt>
    <trkpt lat="48.76908" lon="2.52134"><ele>95.9</ele></trkpt>
    <trkpt lat="48.76896" lon="2.52149"><ele>96.5</ele></trkpt>
    <trkpt lat="48.7683" lon="2.52191"><ele>98.4</ele></trkpt>
    <trkpt lat="48.76799" lon="2.5222"><ele>99.3</ele></trkpt>
    <trkpt lat="48.76795" lon="2.5224"><ele>99.8</ele></trkpt>
    <trkpt lat="48.76806" lon="2.52292"><ele>100.8</ele></trkpt>
    <trkpt lat="48.76827" lon="2.52335"><ele>101.6</ele></trkpt>
    <trkpt lat="48.76839" lon="2.52414"><ele>102.3</ele></trkpt>
    <trkpt lat="48.76848" lon="2.52435"><ele>102.4</ele></trkpt>
    <trkpt lat="48.76857" lon="2.52487"><ele>102.5</ele></trkpt>
    <trkpt lat="48.76857" lon="2.52815"><ele>100.8</ele></trkpt>
    <trkpt lat="48.7685" lon="2.52836"><ele>100.6</ele></trkpt>
    <trkpt lat="48.76816" lon="2.52855"><ele>100.3</ele></trkpt>
    <trkpt lat="48.76803" lon="2.52874"><ele>100.2</ele></trkpt>
    <trkpt lat="48.76767" lon="2.52968"><ele>99.8</ele></trkpt>
    <trkpt lat="48.76687" lon="2.53149"><ele>98.6</ele></trkpt>
    <trkpt lat="48.7667" lon="2.53197"><ele>97.9</ele></trkpt>
    <trkpt lat="48.76613" lon="2.53302"><ele>96.1</ele></trkpt>
    <trkpt lat="48.76549" lon="2.53399"><ele>96.3</ele></trkpt>
    <trkpt lat="48.76413" lon="2.5353"><ele>96.3</ele></trkpt>
    <trkpt lat="48.76342" lon="2.53612"><ele>97.2</ele></trkpt>
    <trkpt lat="48.7633" lon="2.53663"><ele>97.8</ele></trkpt>
    <trkpt lat="48.76298" lon="2.53728"><ele>98.4</ele></trkpt>
    <trkpt lat="48.76232" lon="2.53921"><ele>100.6</ele></trkpt>
    <trkpt lat="48.76147" lon="2.54563"><ele>102.0</ele></trkpt>
    <trkpt lat="48.76118" lon="2.54887"><ele>101.6</ele></trkpt>
    <trkpt lat="48.76105" lon="2.54903"><ele>101.4</ele></trkpt>
    <trkpt lat="48.75808" lon="2.55013"><ele>100.3</ele></trkpt>
    <trkpt lat="48.75804" lon="2.55033"><ele>100.2</ele></trkpt>
    <trkpt lat="48.75835" lon="2.55246"><ele>100.6</ele></trkpt>
    <trkpt lat="48.75843" lon="2.55354"><ele>101.3</ele></trkpt>
    <trkpt lat="48.75833" lon="2.55377"><ele>101.5</ele></trkpt>
    <trkpt lat="48.75534" lon="2.55726"><ele>103.0</ele></trkpt>
    <trkpt lat="48.75445" lon="2.55729"><ele>103.0</ele></trkpt>
    <trkpt lat="48.74708" lon="2.557"><ele>98.6</ele></trkpt>
    <trkpt lat="48.74637" lon="2.55689"><ele>98.1</ele></trkpt>
    <trkpt lat="48.74621" lon="2.55696"><ele>98.0</ele></trkpt>
    <trkpt lat="48.74513" lon="2.55695"><ele>96.9</ele></trkpt>
    <trkpt lat="48.7446" lon="2.5571"><ele>96.6</ele></trkpt>
    <trkpt lat="48.74425" lon="2.55711"><ele>96.6</ele></trkpt>
    <trkpt lat="48.74325" lon="2.55649"><ele>96.4</ele></trkpt>
    <trkpt lat="48.74313" lon="2.55634"><ele>96.3</ele></trkpt>
    <trkpt lat="48.74306" lon="2.55611"><ele>96.2</ele></trkpt>
    <trkpt lat="48.74289" lon="2.55605"><ele>96.4</ele></trkpt>
    <trkpt lat="48.74277" lon="2.55619"><ele>96.6</ele></trkpt>
    <trkpt lat="48.74274" lon="2.55646"><ele>96.9</ele></trkpt>
    <trkpt lat="48.7426" lon="2.55695"><ele>97.5</ele></trkpt>
    <trkpt lat="48.74258" lon="2.5575"><ele>97.5</ele></trkpt>
    <trkpt lat="48.74242" lon="2.55856"><ele>97.2</ele></trkpt>
    <trkpt lat="48.74239" lon="2.56019"><ele>97.2</ele></trkpt>
    <trkpt lat="48.74228" lon="2.56071"><ele>97.1</ele></trkpt>
    <trkpt lat="48.74203" lon="2.56109"><ele>97.2</ele></trkpt>
    <trkpt lat="48.74171" lon="2.56132"><ele>97.3</ele></trkpt>
    <trkpt lat="48.74117" lon="2.56137"><ele>97.5</ele></trkpt>
    <trkpt lat="48.74101" lon="2.56128"><ele>97.5</ele></trkpt>
    <trkpt lat="48.74088" lon="2.56142"><ele>97.4</ele></trkpt>
    <trkpt lat="48.73999" lon="2.56154"><ele>97.1</ele></trkpt>
    <trkpt lat="48.73946" lon="2.5617"><ele>96.9</ele></trkpt>
    <trkpt lat="48.73913" lon="2.56189"><ele>96.7</ele></trkpt>
    <trkpt lat="48.73867" lon="2.56232"><ele>96.6</ele></trkpt>
    <trkpt lat="48.73853" lon="2.56247"><ele>96.4</ele></trkpt>
    <trkpt lat="48.73841" lon="2.56298"><ele>96.1</ele></trkpt>
    <trkpt lat="48.73832" lon="2.56379"><ele>95.6</ele></trkpt>
    <trkpt lat="48.73831" lon="2.5646"><ele>95.1</ele></trkpt>
    <trkpt lat="48.73817" lon="2.56507"><ele>94.8</ele></trkpt>
    <trkpt lat="48.73802" lon="2.56518"><ele>94.6</ele></trkpt>
    <trkpt lat="48.73712" lon="2.56517"><ele>92.8</ele></trkpt>
    <trkpt lat="48.73569" lon="2.56492"><ele>91.1</ele></trkpt>
    <trkpt lat="48.73551" lon="2.56488"><ele>90.9</ele></trkpt>
    <trkpt lat="48.73539" lon="2.56469"><ele>90.7</ele></trkpt>
    <trkpt lat="48.73533" lon="2.56444"><ele>90.6</ele></trkpt>
    <trkpt lat="48.73517" lon="2.56439"><ele>90.5</ele></trkpt>
    <trkpt lat="48.73483" lon="2.56498"><ele>90.5</ele></trkpt>
    <trkpt lat="48.73395" lon="2.56529"><ele>90.6</ele></trkpt>
    <trkpt lat="48.73189" lon="2.56697"><ele>92.1</ele></trkpt>
    <trkpt lat="48.73134" lon="2.56767"><ele>92.8</ele></trkpt>
    <trkpt lat="48.73115" lon="2.56806"><ele>93.1</ele></trkpt>
    <trkpt lat="48.73112" lon="2.5686"><ele>93.0</ele></trkpt>
    <trkpt lat="48.73087" lon="2.57075"><ele>93.2</ele></trkpt>
    <trkpt lat="48.73036" lon="2.57393"><ele>92.1</ele></trkpt>
    <trkpt lat="48.73001" lon="2.57576"><ele>91.0</ele></trkpt>
    <trkpt lat="48.72982" lon="2.57622"><ele>90.6</ele></trkpt>
    <trkpt lat="48.72957" lon="2.57662"><ele>90.0</ele></trkpt>
    <trkpt lat="48.72925" lon="2.57685"><ele>89.2</ele></trkpt>
    <trkpt lat="48.7289" lon="2.5769"><ele>88.2</ele></trkpt>
    <trkpt lat="48.72876" lon="2.57675"><ele>87.6</ele></trkpt>
    <trkpt lat="48.72858" lon="2.57673"><ele>87.0</ele></trkpt>
    <trkpt lat="48.72831" lon="2.57702"><ele>86.1</ele></trkpt>
    <trkpt lat="48.72781" lon="2.57732"><ele>85.2</ele></trkpt>
    <trkpt lat="48.72642" lon="2.57785"><ele>82.7</ele></trkpt>
    <trkpt lat="48.72575" lon="2.57822"><ele>81.7</ele></trkpt>
    <trkpt lat="48.72542" lon="2.57977"><ele>81.4</ele></trkpt>
    <trkpt lat="48.72515" lon="2.58136"><ele>83.1</ele></trkpt>
    <trkpt lat="48.7246" lon="2.58307"><ele>84.6</ele></trkpt>
    <trkpt lat="48.72387" lon="2.58495"><ele>85.2</ele></trkpt>
    <trkpt lat="48.7235" lon="2.58677"><ele>85.4</ele></trkpt>
    <trkpt lat="48.72319" lon="2.5889"><ele>85.5</ele></trkpt>
    <trkpt lat="48.7232" lon="2.58914"><ele>85.5</ele></trkpt>
    <trkpt lat="48.72491" lon="2.59485"><ele>85.8</ele></trkpt>
    <trkpt lat="48.7261" lon="2.59689"><ele>87.6</ele></trkpt>
    <trkpt lat="48.72807" lon="2.59928"><ele>90.0</ele></trkpt>
    <trkpt lat="48.72951" lon="2.60133"><ele>91.5</ele></trkpt>
    <trkpt lat="48.72983" lon="2.60156"><ele>91.7</ele></trkpt>
    <trkpt lat="48.7299" lon="2.60181"><ele>91.8</ele></trkpt>
    <trkpt lat="48.73022" lon="2.60207"><ele>91.9</ele></trkpt>
    <trkpt lat="48.73138" lon="2.60278"><ele>91.8</ele></trkpt>
    <trkpt lat="48.73206" lon="2.60315"><ele>91.6</ele></trkpt>
    <trkpt lat="48.73241" lon="2.60322"><ele>91.4</ele></trkpt>
    <trkpt lat="48.73309" lon="2.60359"><ele>91.1</ele></trkpt>
    <trkpt lat="48.73642" lon="2.60563"><ele>91.6</ele></trkpt>
    <trkpt lat="48.73695" lon="2.60579"><ele>92.1</ele></trkpt>
    <trkpt lat="48.73712" lon="2.60578"><ele>92.3</ele></trkpt>
    <trkpt lat="48.73723" lon="2.60597"><ele>92.6</ele></trkpt>
    <trkpt lat="48.73738" lon="2.60608"><ele>92.9</ele></trkpt>
    <trkpt lat="48.73923" lon="2.60717"><ele>95.3</ele></trkpt>
    <trkpt lat="48.74058" lon="2.60789"><ele>97.2</ele></trkpt>
    <trkpt lat="48.74132" lon="2.60858"><ele>98.3</ele></trkpt>
    <trkpt lat="48.7414" lon="2.60881"><ele>98.5</ele></trkpt>
    <trkpt lat="48.74434" lon="2.61236"><ele>98.1</ele></trkpt>
    <trkpt lat="48.7446" lon="2.61274"><ele>97.8</ele></trkpt>
    <trkpt lat="48.74452" lon="2.61285"><ele>97.6</ele></trkpt>
    <trkpt lat="48.74436" lon="2.6129"><ele>97.6</ele></trkpt>
    <trkpt lat="48.74439" lon="2.61315"><ele>97.6</ele></trkpt>
    <trkpt lat="48.74455" lon="2.61323"><ele>97.5</ele></trkpt>
    <trkpt lat="48.74466" lon="2.61343"><ele>97.5</ele></trkpt>
    <trkpt lat="48.74515" lon="2.61375"><ele>97.4</ele></trkpt>
    <trkpt lat="48.74526" lon="2.61427"><ele>97.4</ele></trkpt>
    <trkpt lat="48.74536" lon="2.61449"><ele>97.4</ele></trkpt>
    <trkpt lat="48.74666" lon="2.6154"><ele>97.5</ele></trkpt>
    <trkpt lat="48.74753" lon="2.61567"><ele>97.9</ele></trkpt>
    <trkpt lat="48.74841" lon="2.61661"><ele>98.1</ele></trkpt>
    <trkpt lat="48.74848" lon="2.61684"><ele>98.1</ele></trkpt>
    <trkpt lat="48.74862" lon="2.61694"><ele>98.1</ele></trkpt>
    <trkpt lat="48.74869" lon="2.61673"><ele>98.2</ele></trkpt>
    <trkpt lat="48.74855" lon="2.61661"><ele>98.2</ele></trkpt>
    <trkpt lat="48.74843" lon="2.61708"><ele>98.1</ele></trkpt>
    <trkpt lat="48.74815" lon="2.61778"><ele>98.1</ele></trkpt>
    <trkpt lat="48.74705" lon="2.61987"><ele>96.9</ele></trkpt>
    <trkpt lat="48.74687" lon="2.62034"><ele>96.6</ele></trkpt>
    <trkpt lat="48.7468" lon="2.62114"><ele>96.1</ele></trkpt>
    <trkpt lat="48.74691" lon="2.62166"><ele>95.8</ele></trkpt>
    <trkpt lat="48.74781" lon="2.62335"><ele>94.1</ele></trkpt>
    <trkpt lat="48.74793" lon="2.62469"><ele>92.4</ele></trkpt>
    <trkpt lat="48.74811" lon="2.62544"><ele>91.1</ele></trkpt>
    <trkpt lat="48.74823" lon="2.62557"><ele>90.9</ele></trkpt>
    <trkpt lat="48.74828" lon="2.62582"><ele>90.8</ele></trkpt>
    <trkpt lat="48.7486" lon="2.62648"><ele>90.8</ele></trkpt>
    <trkpt lat="48.74884" lon="2.62721"><ele>91.0</ele></trkpt>
    <trkpt lat="48.74913" lon="2.6299"><ele>91.3</ele></trkpt>
    <trkpt lat="48.74932" lon="2.63067"><ele>91.5</ele></trkpt>
    <trkpt lat="48.7495" lon="2.63114"><ele>91.6</ele></trkpt>
    <trkpt lat="48.75005" lon="2.6322"><ele>92.3</ele></trkpt>
    <trkpt lat="48.75011" lon="2.63246"><ele>92.5</ele></trkpt>
    <trkpt lat="48.75013" lon="2.633"><ele>92.7</ele></trkpt>
    <trkpt lat="48.75" lon="2.6338"><ele>93.1</ele></trkpt>
    <trkpt lat="48.74985" lon="2.63429"><ele>93.6</ele></trkpt>
    <trkpt lat="48.74965" lon="2.63474"><ele>94.3</ele></trkpt>
    <trkpt lat="48.7488" lon="2.63516"><ele>94.9</ele></trkpt>
    <trkpt lat="48.748" lon="2.63577"><ele>98.5</ele></trkpt>
    <trkpt lat="48.74786" lon="2.63595"><ele>99.2</ele></trkpt>
    <trkpt lat="48.74779" lon="2.63619"><ele>99.9</ele></trkpt>
    <trkpt lat="48.74776" lon="2.63673"><ele>101.2</ele></trkpt>
    <trkpt lat="48.74782" lon="2.63698"><ele>101.7</ele></trkpt>
    <trkpt lat="48.74869" lon="2.63836"><ele>104.2</ele></trkpt>
    <trkpt lat="48.74999" lon="2.63982"><ele>106.7</ele></trkpt>
    <trkpt lat="48.75012" lon="2.64"><ele>107.0</ele></trkpt>
    <trkpt lat="48.75029" lon="2.64047"><ele>107.7</ele></trkpt>
    <trkpt lat="48.75078" lon="2.64074"><ele>108.4</ele></trkpt>
    <trkpt lat="48.75108" lon="2.64103"><ele>108.6</ele></trkpt>
    <trkpt lat="48.75142" lon="2.64166"><ele>108.6</ele></trkpt>
    <trkpt lat="48.75208" lon="2.6436"><ele>108.1</ele></trkpt>
    <trkpt lat="48.75236" lon="2.6449"><ele>107.5</ele></trkpt>
    <trkpt lat="48.75251" lon="2.64539"><ele>107.1</ele></trkpt>
    <trkpt lat="48.75282" lon="2.64606"><ele>106.5</ele></trkpt>
    <trkpt lat="48.75322" lon="2.6466"><ele>105.9</ele></trkpt>
    <trkpt lat="48.75352" lon="2.64727"><ele>105.4</ele></trkpt>
    <trkpt lat="48.75399" lon="2.64933"><ele>104.6</ele></trkpt>
    <trkpt lat="48.75446" lon="2.65081"><ele>103.8</ele></trkpt>
    <trkpt lat="48.75511" lon="2.65306"><ele>102.5</ele></trkpt>
    <trkpt lat="48.75532" lon="2.6535"><ele>102.3</ele></trkpt>
    <trkpt lat="48.75651" lon="2.65555"><ele>101.7</ele></trkpt>
    <trkpt lat="48.75794" lon="2.65835"><ele>102.1</ele></trkpt>
    <trkpt lat="48.75879" lon="2.65976"><ele>102.7</ele></trkpt>
    <trkpt lat="48.75943" lon="2.66072"><ele>103.2</ele></trkpt>
    <trkpt lat="48.76078" lon="2.66252"><ele>104.4</ele></trkpt>
    <trkpt lat="48.76087" lon="2.66273"><ele>104.6</ele></trkpt>
    <trkpt lat="48.76143" lon="2.66334"><ele>104.9</ele></trkpt>
    <trkpt lat="48.76222" lon="2.66446"><ele>104.8</ele></trkpt>
    <trkpt lat="48.76264" lon="2.66496"><ele>104.7</ele></trkpt>
    <trkpt lat="48.76315" lon="2.66522"><ele>104.7</ele></trkpt>
    <trkpt lat="48.76404" lon="2.66528"><ele>105.1</ele></trkpt>
    <trkpt lat="48.76458" lon="2.66525"><ele>105.3</ele></trkpt>
    <trkpt lat="48.76582" lon="2.66502"><ele>106.1</ele></trkpt>
    <trkpt lat="48.76617" lon="2.66514"><ele>106.3</ele></trkpt>
    <trkpt lat="48.76647" lon="2.66545"><ele>106.5</ele></trkpt>
    <trkpt lat="48.76698" lon="2.66656"><ele>106.9</ele></trkpt>
    <trkpt lat="48.76726" lon="2.66757"><ele>107.2</ele></trkpt>
    <trkpt lat="48.76751" lon="2.66886"><ele>107.7</ele></trkpt>
    <trkpt lat="48.76761" lon="2.66903"><ele>107.7</ele></trkpt>
    <trkpt lat="48.76803" lon="2.67307"><ele>107.5</ele></trkpt>
    <trkpt lat="48.76818" lon="2.67322"><ele>107.5</ele></trkpt>
    <trkpt lat="48.76827" lon="2.67342"><ele>107.5</ele></trkpt>
    <trkpt lat="48.76897" lon="2.67355"><ele>107.7</ele></trkpt>
    <trkpt lat="48.76948" lon="2.67384"><ele>107.8</ele></trkpt>
    <trkpt lat="48.77226" lon="2.67576"><ele>108.7</ele></trkpt>
    <trkpt lat="48.77303" lon="2.67636"><ele>109.2</ele></trkpt>
    <trkpt lat="48.77387" lon="2.67682"><ele>109.8</ele></trkpt>
    <trkpt lat="48.77568" lon="2.67805"><ele>111.4</ele></trkpt>
    <trkpt lat="48.77579" lon="2.67824"><ele>111.7</ele></trkpt>
    <trkpt lat="48.77596" lon="2.67827"><ele>112.1</ele></trkpt>
    <trkpt lat="48.77858" lon="2.68006"><ele>113.9</ele></trkpt>
    <trkpt lat="48.77883" lon="2.68039"><ele>114.2</ele></trkpt>
    <trkpt lat="48.77918" lon="2.68048"><ele>115.0</ele></trkpt>
    <trkpt lat="48.78" lon="2.68103"><ele>116.0</ele></trkpt>
    <trkpt lat="48.78145" lon="2.68212"><ele>116.7</ele></trkpt>
    <trkpt lat="48.78334" lon="2.6837"><ele>117.0</ele></trkpt>
    <trkpt lat="48.78399" lon="2.68415"><ele>117.3</ele></trkpt>
    <trkpt lat="48.78669" lon="2.68566"><ele>118.4</ele></trkpt>
    <trkpt lat="48.78949" lon="2.68755"><ele>118.3</ele></trkpt>
    <trkpt lat="48.78982" lon="2.68769"><ele>116.4</ele></trkpt>
    <trkpt lat="48.79007" lon="2.68797"><ele>115.0</ele></trkpt>
    <trkpt lat="48.79141" lon="2.69215"><ele>115.8</ele></trkpt>
    <trkpt lat="48.79536" lon="2.70501"><ele>114.5</ele></trkpt>
    <trkpt lat="48.7955" lon="2.70519"><ele>114.6</ele></trkpt>
    <trkpt lat="48.79602" lon="2.70528"><ele>114.8</ele></trkpt>
    <trkpt lat="48.79618" lon="2.70634"><ele>116.0</ele></trkpt>
    <trkpt lat="48.79611" lon="2.7118"><ele>116.4</ele></trkpt>
    <trkpt lat="48.79599" lon="2.71342"><ele>116.7</ele></trkpt>
    <trkpt lat="48.79589" lon="2.71394"><ele>116.9</ele></trkpt>
    <trkpt lat="48.7959" lon="2.71421"><ele>117.0</ele></trkpt>
    <trkpt lat="48.79599" lon="2.71443"><ele>116.9</ele></trkpt>
    <trkpt lat="48.79601" lon="2.7147"><ele>116.8</ele></trkpt>
    <trkpt lat="48.79593" lon="2.72207"><ele>118.1</ele></trkpt>
    <trkpt lat="48.79593" lon="2.72371"><ele>118.1</ele></trkpt>
    <trkpt lat="48.79597" lon="2.72397"><ele>118.1</ele></trkpt>
    <trkpt lat="48.79739" lon="2.72808"><ele>121.1</ele></trkpt>
    <trkpt lat="48.79957" lon="2.73374"><ele>122.9</ele></trkpt>
    <trkpt lat="48.80285" lon="2.74704"><ele>122.4</ele></trkpt>
    <trkpt lat="48.80346" lon="2.74931"><ele>122.6</ele></trkpt>
    <trkpt lat="48.80619" lon="2.75853"><ele>125.8</ele></trkpt>
    <trkpt lat="48.80631" lon="2.75932"><ele>126.2</ele></trkpt>
    <trkpt lat="48.80661" lon="2.76778"><ele>128.6</ele></trkpt>
    <trkpt lat="48.80668" lon="2.76859"><ele>128.5</ele></trkpt>
    <trkpt lat="48.80831" lon="2.77725"><ele>126.5</ele></trkpt>
    <trkpt lat="48.80959" lon="2.78236"><ele>124.5</ele></trkpt>
    <trkpt lat="48.80998" lon="2.78328"><ele>124.0</ele></trkpt>
    <trkpt lat="48.81034" lon="2.78452"><ele>123.0</ele></trkpt>
    <trkpt lat="48.81044" lon="2.7856"><ele>122.3</ele></trkpt>
    <trkpt lat="48.81048" lon="2.78751"><ele>121.0</ele></trkpt>
    <trkpt lat="48.81054" lon="2.78805"><ele>120.6</ele></trkpt>
    <trkpt lat="48.81064" lon="2.78857"><ele>120.3</ele></trkpt>
    <trkpt lat="48.81092" lon="2.78927"><ele>119.8</ele></trkpt>
    <trkpt lat="48.81117" lon="2.78967"><ele>119.5</ele></trkpt>
    <trkpt lat="48.81178" lon="2.79024"><ele>119.0</ele></trkpt>
    <trkpt lat="48.81212" lon="2.79041"><ele>118.9</ele></trkpt>
    <trkpt lat="48.81248" lon="2.79047"><ele>118.9</ele></trkpt>
    <trkpt lat="48.81409" lon="2.79045"><ele>119.0</ele></trkpt>
    <trkpt lat="48.81444" lon="2.79059"><ele>119.2</ele></trkpt>
    <trkpt lat="48.81473" lon="2.79091"><ele>119.4</ele></trkpt>
    <trkpt lat="48.81499" lon="2.79128"><ele>119.6</ele></trkpt>
    <trkpt lat="48.81559" lon="2.79264"><ele>120.6</ele></trkpt>
    <trkpt lat="48.81631" lon="2.79514"><ele>121.0</ele></trkpt>
    <trkpt lat="48.81641" lon="2.79567"><ele>121.1</ele></trkpt>
    <trkpt lat="48.81643" lon="2.79648"><ele>121.3</ele></trkpt>
    <trkpt lat="48.816" lon="2.79941"><ele>122.2</ele></trkpt>
    <trkpt lat="48.81597" lon="2.80296"><ele>121.5</ele></trkpt>
    <trkpt lat="48.81601" lon="2.80377"><ele>121.2</ele></trkpt>
    <trkpt lat="48.81653" lon="2.80779"><ele>121.5</ele></trkpt>
    <trkpt lat="48.81704" lon="2.81012"><ele>122.5</ele></trkpt>
    <trkpt lat="48.81766" lon="2.81327"><ele>123.8</ele></trkpt>
    <trkpt lat="48.81794" lon="2.81596"><ele>124.7</ele></trkpt>
    <trkpt lat="48.81835" lon="2.81805"><ele>125.1</ele></trkpt>
    <trkpt lat="48.81835" lon="2.8186"><ele>125.3</ele></trkpt>
    <trkpt lat="48.81829" lon="2.81885"><ele>125.3</ele></trkpt>
    <trkpt lat="48.81807" lon="2.81928"><ele>125.5</ele></trkpt>
    <trkpt lat="48.81755" lon="2.82003"><ele>125.5</ele></trkpt>
    <trkpt lat="48.81724" lon="2.8207"><ele>125.8</ele></trkpt>
    <trkpt lat="48.81572" lon="2.8277"><ele>126.6</ele></trkpt>
    <trkpt lat="48.8156" lon="2.8279"><ele>126.6</ele></trkpt>
    <trkpt lat="48.81496" lon="2.82837"><ele>126.3</ele></trkpt>
    <trkpt lat="48.81448" lon="2.82984"><ele>125.8</ele></trkpt>
    <trkpt lat="48.81415" lon="2.8298"><ele>125.8</ele></trkpt>
    <trkpt lat="48.81416" lon="2.83062"><ele>125.9</ele></trkpt>
    <trkpt lat="48.81438" lon="2.83415"><ele>125.0</ele></trkpt>
    <trkpt lat="48.81487" lon="2.83957"><ele>123.6</ele></trkpt>
    <trkpt lat="48.81494" lon="2.84147"><ele>124.3</ele></trkpt>
    <trkpt lat="48.81486" lon="2.8417"><ele>124.6</ele></trkpt>
    <trkpt lat="48.81485" lon="2.84198"><ele>124.7</ele></trkpt>
    <trkpt lat="48.81488" lon="2.84223"><ele>124.8</ele></trkpt>
    <trkpt lat="48.81503" lon="2.84238"><ele>125.0</ele></trkpt>
    <trkpt lat="48.81512" lon="2.84262"><ele>125.1</ele></trkpt>
    <trkpt lat="48.81521" lon="2.84314"><ele>124.9</ele></trkpt>
    <trkpt lat="48.81545" lon="2.84585"><ele>125.5</ele></trkpt>
    <trkpt lat="48.81572" lon="2.84828"><ele>126.5</ele></trkpt>
    <trkpt lat="48.81667" lon="2.85411"><ele>128.5</ele></trkpt>
    <trkpt lat="48.81692" lon="2.85598"><ele>128.8</ele></trkpt>
    <trkpt lat="48.81845" lon="2.86553"><ele>130.8</ele></trkpt>
    <trkpt lat="48.81863" lon="2.86631"><ele>130.9</ele></trkpt>
    <trkpt lat="48.82171" lon="2.87527"><ele>129.8</ele></trkpt>
    <trkpt lat="48.82182" lon="2.87548"><ele>129.8</ele></trkpt>
    <trkpt lat="48.82227" lon="2.87592"><ele>129.6</ele></trkpt>
    <trkpt lat="48.82239" lon="2.87612"><ele>129.6</ele></trkpt>
    <trkpt lat="48.82241" lon="2.87667"><ele>129.6</ele></trkpt>
    <trkpt lat="48.82237" lon="2.8772"><ele>129.5</ele></trkpt>
    <trkpt lat="48.82249" lon="2.8777"><ele>129.4</ele></trkpt>
    <trkpt lat="48.82352" lon="2.88057"><ele>128.2</ele></trkpt>
    <trkpt lat="48.82365" lon="2.88108"><ele>127.9</ele></trkpt>
    <trkpt lat="48.82371" lon="2.88189"><ele>127.3</ele></trkpt>
    <trkpt lat="48.82379" lon="2.88213"><ele>127.0</ele></trkpt>
    <trkpt lat="48.82462" lon="2.88316"><ele>125.1</ele></trkpt>
    <trkpt lat="48.82499" lon="2.88375"><ele>124.1</ele></trkpt>
    <trkpt lat="48.82636" lon="2.88663"><ele>114.4</ele></trkpt>
    <trkpt lat="48.82719" lon="2.88906"><ele>107.2</ele></trkpt>
    <trkpt lat="48.82882" lon="2.89423"><ele>95.9</ele></trkpt>
    <trkpt lat="48.82892" lon="2.89503"><ele>92.6</ele></trkpt>
    <trkpt lat="48.82893" lon="2.89722"><ele>82.9</ele></trkpt>
    <trkpt lat="48.82898" lon="2.89776"><ele>80.3</ele></trkpt>
    <trkpt lat="48.82911" lon="2.89791"><ele>78.8</ele></trkpt>
    <trkpt lat="48.82947" lon="2.89798"><ele>75.9</ele></trkpt>
    <trkpt lat="48.82956" lon="2.89821"><ele>74.2</ele></trkpt>
    <trkpt lat="48.82981" lon="2.89952"><ele>67.0</ele></trkpt>
    <trkpt lat="48.82999" lon="2.90086"><ele>60.4</ele></trkpt>
    <trkpt lat="48.82998" lon="2.90113"><ele>59.2</ele></trkpt>
    <trkpt lat="48.82986" lon="2.90129"><ele>57.9</ele></trkpt>
    <trkpt lat="48.82878" lon="2.90134"><ele>54.5</ele></trkpt>
    <trkpt lat="48.827" lon="2.90168"><ele>56.3</ele></trkpt>
    <trkpt lat="48.82502" lon="2.90174"><ele>58.3</ele></trkpt>
    <trkpt lat="48.82467" lon="2.90189"><ele>57.8</ele></trkpt>
    <trkpt lat="48.82423" lon="2.90234"><ele>56.3</ele></trkpt>
    <trkpt lat="48.82334" lon="2.90247"><ele>56.0</ele></trkpt>
    <trkpt lat="48.82298" lon="2.90258"><ele>56.8</ele></trkpt>
    <trkpt lat="48.82266" lon="2.90282"><ele>57.7</ele></trkpt>
    <trkpt lat="48.82044" lon="2.90514"><ele>60.8</ele></trkpt>
    <trkpt lat="48.82022" lon="2.90556"><ele>60.1</ele></trkpt>
    <trkpt lat="48.82009" lon="2.90607"><ele>59.2</ele></trkpt>
    <trkpt lat="48.81978" lon="2.90931"><ele>56.2</ele></trkpt>
    <trkpt lat="48.81965" lon="2.91006"><ele>56.6</ele></trkpt>
    <trkpt lat="48.81981" lon="2.9102"><ele>56.6</ele></trkpt>
    <trkpt lat="48.81987" lon="2.91044"><ele>56.6</ele></trkpt>
    <trkpt lat="48.81991" lon="2.91235"><ele>55.8</ele></trkpt>
    <trkpt lat="48.82009" lon="2.91312"><ele>55.6</ele></trkpt>
    <trkpt lat="48.82019" lon="2.91328"><ele>55.7</ele></trkpt>
    <trkpt lat="48.82073" lon="2.91323"><ele>56.3</ele></trkpt>
    <trkpt lat="48.82096" lon="2.91362"><ele>56.9</ele></trkpt>
    <trkpt lat="48.82132" lon="2.91363"><ele>57.4</ele></trkpt>
    <trkpt lat="48.82167" lon="2.91353"><ele>58.2</ele></trkpt>
    <trkpt lat="48.82176" lon="2.91371"><ele>58.8</ele></trkpt>
    <trkpt lat="48.82183" lon="2.91424"><ele>60.0</ele></trkpt>
    <trkpt lat="48.8217" lon="2.91532"><ele>61.7</ele></trkpt>
    <trkpt lat="48.82161" lon="2.91695"><ele>62.7</ele></trkpt>
    <trkpt lat="48.82172" lon="2.91858"><ele>63.3</ele></trkpt>
    <trkpt lat="48.82184" lon="2.91869"><ele>62.7</ele></trkpt>
    <trkpt lat="48.82202" lon="2.91871"><ele>62.0</ele></trkpt>
    <trkpt lat="48.82346" lon="2.91866"><ele>55.5</ele></trkpt>
    <trkpt lat="48.82433" lon="2.91895"><ele>54.7</ele></trkpt>
    <trkpt lat="48.82541" lon="2.91893"><ele>55.9</ele></trkpt>
    <trkpt lat="48.82559" lon="2.91896"><ele>56.3</ele></trkpt>
    <trkpt lat="48.8259" lon="2.91922"><ele>57.7</ele></trkpt>
    <trkpt lat="48.82635" lon="2.92071"><ele>65.7</ele></trkpt>
    <trkpt lat="48.8267" lon="2.92132"><ele>70.0</ele></trkpt>
    <trkpt lat="48.82688" lon="2.92179"><ele>72.8</ele></trkpt>
    <trkpt lat="48.82697" lon="2.92231"><ele>75.7</ele></trkpt>
    <trkpt lat="48.8274" lon="2.9228"><ele>80.1</ele></trkpt>
    <trkpt lat="48.82793" lon="2.92354"><ele>86.0</ele></trkpt>
    <trkpt lat="48.82915" lon="2.92553"><ele>100.8</ele></trkpt>
    <trkpt lat="48.82991" lon="2.92628"><ele>107.5</ele></trkpt>
    <trkpt lat="48.83017" lon="2.92665"><ele>109.2</ele></trkpt>
    <trkpt lat="48.83026" lon="2.92745"><ele>111.0</ele></trkpt>
    <trkpt lat="48.83045" lon="2.92821"><ele>113.1</ele></trkpt>
    <trkpt lat="48.83046" lon="2.92903"><ele>115.2</ele></trkpt>
    <trkpt lat="48.83033" lon="2.93175"><ele>118.0</ele></trkpt>
    <trkpt lat="48.8303" lon="2.93284"><ele>119.2</ele></trkpt>
    <trkpt lat="48.83033" lon="2.93394"><ele>120.3</ele></trkpt>
    <trkpt lat="48.83024" lon="2.93446"><ele>120.9</ele></trkpt>
    <trkpt lat="48.83023" lon="2.93528"><ele>121.9</ele></trkpt>
    <trkpt lat="48.83008" lon="2.93663"><ele>123.2</ele></trkpt>
    <trkpt lat="48.83004" lon="2.93799"><ele>124.2</ele></trkpt>
    <trkpt lat="48.8297" lon="2.93862"><ele>125.1</ele></trkpt>
    <trkpt lat="48.82901" lon="2.93949"><ele>125.5</ele></trkpt>
    <trkpt lat="48.8285" lon="2.94026"><ele>125.1</ele></trkpt>
    <trkpt lat="48.82776" lon="2.94105"><ele>125.0</ele></trkpt>
    <trkpt lat="48.82751" lon="2.94143"><ele>124.8</ele></trkpt>
    <trkpt lat="48.82689" lon="2.94198"><ele>124.4</ele></trkpt>
    <trkpt lat="48.82679" lon="2.9422"><ele>124.4</ele></trkpt>
    <trkpt lat="48.8267" lon="2.94244"><ele>124.4</ele></trkpt>
    <trkpt lat="48.8262" lon="2.94477"><ele>124.6</ele></trkpt>
    <trkpt lat="48.82594" lon="2.94515"><ele>124.7</ele></trkpt>
    <trkpt lat="48.82579" lon="2.94527"><ele>124.9</ele></trkpt>
    <trkpt lat="48.82543" lon="2.94526"><ele>125.1</ele></trkpt>
    <trkpt lat="48.82519" lon="2.94765"><ele>124.9</ele></trkpt>
    <trkpt lat="48.82514" lon="2.94901"><ele>122.9</ele></trkpt>
    <trkpt lat="48.82507" lon="2.94918"><ele>122.6</ele></trkpt>
    <trkpt lat="48.82471" lon="2.94921"><ele>122.1</ele></trkpt>
    <trkpt lat="48.82399" lon="2.94914"><ele>120.4</ele></trkpt>
    <trkpt lat="48.82383" lon="2.94925"><ele>119.8</ele></trkpt>
    <trkpt lat="48.82359" lon="2.94965"><ele>118.3</ele></trkpt>
    <trkpt lat="48.82324" lon="2.94972"><ele>116.7</ele></trkpt>
    <trkpt lat="48.82223" lon="2.95026"><ele>109.4</ele></trkpt>
    <trkpt lat="48.8204" lon="2.952"><ele>95.4</ele></trkpt>
    <trkpt lat="48.81976" lon="2.9525"><ele>90.0</ele></trkpt>
    <trkpt lat="48.81949" lon="2.95285"><ele>86.7</ele></trkpt>
    <trkpt lat="48.81938" lon="2.95307"><ele>84.7</ele></trkpt>
    <trkpt lat="48.8194" lon="2.95321"><ele>83.2</ele></trkpt>
    <trkpt lat="48.81975" lon="2.95335"><ele>79.8</ele></trkpt>
    <trkpt lat="48.82046" lon="2.95335"><ele>72.3</ele></trkpt>
    <trkpt lat="48.821" lon="2.95349"><ele>66.2</ele></trkpt>
    <trkpt lat="48.82117" lon="2.95349"><ele>64.5</ele></trkpt>
    <trkpt lat="48.82186" lon="2.95318"><ele>59.8</ele></trkpt>
    <trkpt lat="48.82204" lon="2.9532"><ele>59.1</ele></trkpt>
    <trkpt lat="48.82288" lon="2.95366"><ele>57.1</ele></trkpt>
    <trkpt lat="48.82306" lon="2.95368"><ele>57.1</ele></trkpt>
    <trkpt lat="48.82359" lon="2.95362"><ele>57.7</ele></trkpt>
    <trkpt lat="48.82391" lon="2.95341"><ele>58.0</ele></trkpt>
    <trkpt lat="48.82403" lon="2.95357"><ele>58.1</ele></trkpt>
    <trkpt lat="48.82434" lon="2.95423"><ele>57.7</ele></trkpt>
    <trkpt lat="48.82447" lon="2.95442"><ele>57.7</ele></trkpt>
    <trkpt lat="48.82464" lon="2.95452"><ele>57.7</ele></trkpt>
    <trkpt lat="48.8257" lon="2.95477"><ele>59.1</ele></trkpt>
    <trkpt lat="48.82596" lon="2.95449"><ele>60.2</ele></trkpt>
    <trkpt lat="48.82685" lon="2.95467"><ele>65.9</ele></trkpt>
    <trkpt lat="48.82734" lon="2.955"><ele>70.1</ele></trkpt>
    <trkpt lat="48.82763" lon="2.95533"><ele>72.8</ele></trkpt>
    <trkpt lat="48.82866" lon="2.95721"><ele>87.9</ele></trkpt>
    <trkpt lat="48.82878" lon="2.95715"><ele>89.5</ele></trkpt>
    <trkpt lat="48.82871" lon="2.95607"><ele>95.1</ele></trkpt>
    <trkpt lat="48.82835" lon="2.95283"><ele>111.0</ele></trkpt>
    <trkpt lat="48.82817" lon="2.95207"><ele>114.6</ele></trkpt>
    <trkpt lat="48.82751" lon="2.95044"><ele>123.4</ele></trkpt>
    <trkpt lat="48.82753" lon="2.95017"><ele>124.5</ele></trkpt>
    <trkpt lat="48.82764" lon="2.94996"><ele>125.5</ele></trkpt>
    <trkpt lat="48.83123" lon="2.9482"><ele>144.8</ele></trkpt>
    <trkpt lat="48.83282" lon="2.94599"><ele>147.0</ele></trkpt>
    <trkpt lat="48.83343" lon="2.94499"><ele>146.4</ele></trkpt>
    <trkpt lat="48.83371" lon="2.94429"><ele>145.4</ele></trkpt>
    <trkpt lat="48.83406" lon="2.94415"><ele>144.5</ele></trkpt>
    <trkpt lat="48.83478" lon="2.94405"><ele>142.6</ele></trkpt>
    <trkpt lat="48.83639" lon="2.94395"><ele>140.0</ele></trkpt>
    <trkpt lat="48.84208" lon="2.94264"><ele>149.0</ele></trkpt>
    <trkpt lat="48.84422" lon="2.94062"><ele>146.1</ele></trkpt>
    <trkpt lat="48.84439" lon="2.94056"><ele>145.7</ele></trkpt>
    <trkpt lat="48.84493" lon="2.9405"><ele>145.1</ele></trkpt>
    <trkpt lat="48.84619" lon="2.94054"><ele>144.9</ele></trkpt>
    <trkpt lat="48.84691" lon="2.94048"><ele>143.9</ele></trkpt>
    <trkpt lat="48.84762" lon="2.94033"><ele>141.7</ele></trkpt>
    <trkpt lat="48.84796" lon="2.94047"><ele>140.6</ele></trkpt>
    <trkpt lat="48.84808" lon="2.94039"><ele>140.0</ele></trkpt>
    <trkpt lat="48.85069" lon="2.93385"><ele>118.7</ele></trkpt>
    <trkpt lat="48.85103" lon="2.93321"><ele>114.4</ele></trkpt>
    <trkpt lat="48.85145" lon="2.93271"><ele>109.8</ele></trkpt>
    <trkpt lat="48.85258" lon="2.93185"><ele>100.0</ele></trkpt>
    <trkpt lat="48.8547" lon="2.93037"><ele>82.6</ele></trkpt>
    <trkpt lat="48.85581" lon="2.92946"><ele>73.4</ele></trkpt>
    <trkpt lat="48.8561" lon="2.92915"><ele>70.9</ele></trkpt>
    <trkpt lat="48.85816" lon="2.92649"><ele>54.7</ele></trkpt>
    <trkpt lat="48.85833" lon="2.92601"><ele>54.4</ele></trkpt>
    <trkpt lat="48.8584" lon="2.92576"><ele>54.3</ele></trkpt>
    <trkpt lat="48.85841" lon="2.92549"><ele>54.5</ele></trkpt>
    <trkpt lat="48.85833" lon="2.92385"><ele>54.7</ele></trkpt>
    <trkpt lat="48.85839" lon="2.92194"><ele>54.1</ele></trkpt>
    <trkpt lat="48.85863" lon="2.92035"><ele>55.6</ele></trkpt>
    <trkpt lat="48.85922" lon="2.91719"><ele>56.5</ele></trkpt>
    <trkpt lat="48.85936" lon="2.91612"><ele>57.2</ele></trkpt>
    <trkpt lat="48.8594" lon="2.91503"><ele>56.1</ele></trkpt>
    <trkpt lat="48.85898" lon="2.91451"><ele>54.0</ele></trkpt>
    <trkpt lat="48.85808" lon="2.91362"><ele>51.2</ele></trkpt>
    <trkpt lat="48.85801" lon="2.91339"><ele>51.0</ele></trkpt>
    <trkpt lat="48.85786" lon="2.90957"><ele>50.5</ele></trkpt>
    <trkpt lat="48.85779" lon="2.90876"><ele>50.4</ele></trkpt>
    <trkpt lat="48.85768" lon="2.90872"><ele>50.4</ele></trkpt>
    <trkpt lat="48.8572" lon="2.90907"><ele>50.4</ele></trkpt>
    <trkpt lat="48.85671" lon="2.90987"><ele>50.5</ele></trkpt>
    <trkpt lat="48.85623" lon="2.91096"><ele>50.3</ele></trkpt>
    <trkpt lat="48.85565" lon="2.91031"><ele>50.4</ele></trkpt>
    <trkpt lat="48.85557" lon="2.91007"><ele>50.6</ele></trkpt>
    <trkpt lat="48.85544" lon="2.90989"><ele>50.8</ele></trkpt>
    <trkpt lat="48.85474" lon="2.90982"><ele>51.5</ele></trkpt>
    <trkpt lat="48.85451" lon="2.90879"><ele>53.7</ele></trkpt>
    <trkpt lat="48.85428" lon="2.90748"><ele>58.4</ele></trkpt>
    <trkpt lat="48.85426" lon="2.90638"><ele>62.7</ele></trkpt>
    <trkpt lat="48.85445" lon="2.90367"><ele>73.0</ele></trkpt>
    <trkpt lat="48.85446" lon="2.90285"><ele>75.9</ele></trkpt>
    <trkpt lat="48.85443" lon="2.90121"><ele>81.7</ele></trkpt>
    <trkpt lat="48.85422" lon="2.90045"><ele>84.8</ele></trkpt>
    <trkpt lat="48.85389" lon="2.89981"><ele>87.8</ele></trkpt>
    <trkpt lat="48.85314" lon="2.89907"><ele>92.7</ele></trkpt>
    <trkpt lat="48.85263" lon="2.89879"><ele>95.3</ele></trkpt>
    <trkpt lat="48.85228" lon="2.89868"><ele>97.0</ele></trkpt>
    <trkpt lat="48.85103" lon="2.89856"><ele>103.4</ele></trkpt>
    <trkpt lat="48.85104" lon="2.89748"><ele>104.9</ele></trkpt>
    <trkpt lat="48.85111" lon="2.89639"><ele>105.8</ele></trkpt>
    <trkpt lat="48.84988" lon="2.8962"><ele>107.4</ele></trkpt>
    <trkpt lat="48.84962" lon="2.89519"><ele>108.2</ele></trkpt>
    <trkpt lat="48.84971" lon="2.89438"><ele>109.3</ele></trkpt>
    <trkpt lat="48.84989" lon="2.89332"><ele>110.5</ele></trkpt>
    <trkpt lat="48.8501" lon="2.89257"><ele>110.4</ele></trkpt>
    <trkpt lat="48.85053" lon="2.89137"><ele>108.6</ele></trkpt>
    <trkpt lat="48.85178" lon="2.88983"><ele>102.1</ele></trkpt>
    <trkpt lat="48.85204" lon="2.88945"><ele>100.5</ele></trkpt>
    <trkpt lat="48.85235" lon="2.88878"><ele>98.5</ele></trkpt>
    <trkpt lat="48.85302" lon="2.88787"><ele>95.5</ele></trkpt>
    <trkpt lat="48.85357" lon="2.88718"><ele>92.4</ele></trkpt>
    <trkpt lat="48.85419" lon="2.88661"><ele>87.5</ele></trkpt>
    <trkpt lat="48.85471" lon="2.88644"><ele>82.5</ele></trkpt>
    <trkpt lat="48.85519" lon="2.88606"><ele>77.2</ele></trkpt>
    <trkpt lat="48.85604" lon="2.88562"><ele>68.1</ele></trkpt>
    <trkpt lat="48.85636" lon="2.88538"><ele>64.2</ele></trkpt>
    <trkpt lat="48.85727" lon="2.88449"><ele>53.6</ele></trkpt>
    <trkpt lat="48.85759" lon="2.88427"><ele>51.8</ele></trkpt>
    <trkpt lat="48.85828" lon="2.88394"><ele>50.2</ele></trkpt>
    <trkpt lat="48.85863" lon="2.88384"><ele>50.0</ele></trkpt>
    <trkpt lat="48.85886" lon="2.88281"><ele>49.8</ele></trkpt>
    <trkpt lat="48.85955" lon="2.88089"><ele>51.8</ele></trkpt>
    <trkpt lat="48.85936" lon="2.88051"><ele>52.2</ele></trkpt>
    <trkpt lat="48.85936" lon="2.88024"><ele>52.4</ele></trkpt>
    <trkpt lat="48.8595" lon="2.87974"><ele>52.7</ele></trkpt>
    <trkpt lat="48.86008" lon="2.8787"><ele>53.1</ele></trkpt>
    <trkpt lat="48.86084" lon="2.87717"><ele>53.7</ele></trkpt>
    <trkpt lat="48.86112" lon="2.87503"><ele>60.8</ele></trkpt>
    <trkpt lat="48.86166" lon="2.87271"><ele>70.2</ele></trkpt>
    <trkpt lat="48.86191" lon="2.87168"><ele>73.9</ele></trkpt>
    <trkpt lat="48.86235" lon="2.87049"><ele>79.0</ele></trkpt>
    <trkpt lat="48.86266" lon="2.8695"><ele>83.1</ele></trkpt>
    <trkpt lat="48.8627" lon="2.86897"><ele>85.1</ele></trkpt>
    <trkpt lat="48.86252" lon="2.86851"><ele>87.0</ele></trkpt>
    <trkpt lat="48.86148" lon="2.86742"><ele>94.7</ele></trkpt>
    <trkpt lat="48.86141" lon="2.86719"><ele>95.6</ele></trkpt>
    <trkpt lat="48.86144" lon="2.86692"><ele>96.7</ele></trkpt>
    <trkpt lat="48.86164" lon="2.86616"><ele>99.6</ele></trkpt>
    <trkpt lat="48.86167" lon="2.86589"><ele>100.6</ele></trkpt>
    <trkpt lat="48.86091" lon="2.86516"><ele>104.1</ele></trkpt>
    <trkpt lat="48.85928" lon="2.86302"><ele>113.0</ele></trkpt>
    <trkpt lat="48.85847" lon="2.86245"><ele>117.5</ele></trkpt>
    <trkpt lat="48.85743" lon="2.86136"><ele>121.5</ele></trkpt>
    <trkpt lat="48.85665" lon="2.85953"><ele>127.1</ele></trkpt>
    <trkpt lat="48.8566" lon="2.85926"><ele>128.0</ele></trkpt>
    <trkpt lat="48.85667" lon="2.85876"><ele>129.1</ele></trkpt>
    <trkpt lat="48.8584" lon="2.85562"><ele>133.0</ele></trkpt>
    <trkpt lat="48.8589" lon="2.85483"><ele>133.7</ele></trkpt>
    <trkpt lat="48.8591" lon="2.85438"><ele>133.9</ele></trkpt>
    <trkpt lat="48.85967" lon="2.8515"><ele>134.5</ele></trkpt>
    <trkpt lat="48.85991" lon="2.84963"><ele>134.7</ele></trkpt>
    <trkpt lat="48.85995" lon="2.84854"><ele>134.5</ele></trkpt>
    <trkpt lat="48.86019" lon="2.84722"><ele>134.0</ele></trkpt>
    <trkpt lat="48.85967" lon="2.84708"><ele>133.6</ele></trkpt>
    <trkpt lat="48.85934" lon="2.84691"><ele>133.4</ele></trkpt>
    <trkpt lat="48.85921" lon="2.84706"><ele>133.4</ele></trkpt>
    <trkpt lat="48.85906" lon="2.84785"><ele>133.5</ele></trkpt>
    <trkpt lat="48.85867" lon="2.84877"><ele>133.7</ele></trkpt>
    <trkpt lat="48.85788" lon="2.8506"><ele>133.8</ele></trkpt>
    <trkpt lat="48.85771" lon="2.8506"><ele>134.0</ele></trkpt>
    <trkpt lat="48.85706" lon="2.85011"><ele>135.1</ele></trkpt>
    <trkpt lat="48.85598" lon="2.84914"><ele>136.6</ele></trkpt>
    <trkpt lat="48.85569" lon="2.84881"><ele>136.9</ele></trkpt>
    <trkpt lat="48.85508" lon="2.8478"><ele>136.9</ele></trkpt>
    <trkpt lat="48.85478" lon="2.84751"><ele>136.7</ele></trkpt>
    <trkpt lat="48.85357" lon="2.84699"><ele>138.5</ele></trkpt>
    <trkpt lat="48.85325" lon="2.84694"><ele>138.7</ele></trkpt>
    <trkpt lat="48.85294" lon="2.84716"><ele>138.6</ele></trkpt>
    <trkpt lat="48.85276" lon="2.84715"><ele>138.5</ele></trkpt>
    <trkpt lat="48.85227" lon="2.84682"><ele>138.4</ele></trkpt>
    <trkpt lat="48.85175" lon="2.84662"><ele>138.3</ele></trkpt>
    <trkpt lat="48.85085" lon="2.84653"><ele>137.7</ele></trkpt>
    <trkpt lat="48.84925" lon="2.84621"><ele>136.7</ele></trkpt>
    <trkpt lat="48.84835" lon="2.84612"><ele>136.1</ele></trkpt>
    <trkpt lat="48.84691" lon="2.84617"><ele>135.2</ele></trkpt>
    <trkpt lat="48.84621" lon="2.84607"><ele>135.0</ele></trkpt>
    <trkpt lat="48.84612" lon="2.84627"><ele>134.8</ele></trkpt>
    <trkpt lat="48.84596" lon="2.84633"><ele>134.7</ele></trkpt>
    <trkpt lat="48.84398" lon="2.84634"><ele>132.8</ele></trkpt>
    <trkpt lat="48.84328" lon="2.84606"><ele>132.1</ele></trkpt>
    <trkpt lat="48.8344" lon="2.84161"><ele>129.3</ele></trkpt>
    <trkpt lat="48.82919" lon="2.83949"><ele>128.3</ele></trkpt>
    <trkpt lat="48.82833" lon="2.83909"><ele>128.2</ele></trkpt>
    <trkpt lat="48.8275" lon="2.83855"><ele>128.0</ele></trkpt>
    <trkpt lat="48.825" lon="2.8364"><ele>127.6</ele></trkpt>
    <trkpt lat="48.82485" lon="2.83626"><ele>127.5</ele></trkpt>
    <trkpt lat="48.82408" lon="2.83511"><ele>127.2</ele></trkpt>
    <trkpt lat="48.82375" lon="2.83488"><ele>127.2</ele></trkpt>
    <trkpt lat="48.82353" lon="2.83448"><ele>127.2</ele></trkpt>
    <trkpt lat="48.82339" lon="2.83434"><ele>127.3</ele></trkpt>
    <trkpt lat="48.81983" lon="2.8224"><ele>127.9</ele></trkpt>
    <trkpt lat="48.81934" lon="2.82006"><ele>125.9</ele></trkpt>
    <trkpt lat="48.81901" lon="2.81908"><ele>125.7</ele></trkpt>
    <trkpt lat="48.81893" lon="2.81828"><ele>125.6</ele></trkpt>
    <trkpt lat="48.81884" lon="2.81805"><ele>125.5</ele></trkpt>
    <trkpt lat="48.81851" lon="2.81787"><ele>125.3</ele></trkpt>
    <trkpt lat="48.81839" lon="2.81766"><ele>125.2</ele></trkpt>
    <trkpt lat="48.81808" lon="2.81668"><ele>124.9</ele></trkpt>
    <trkpt lat="48.81797" lon="2.81616"><ele>124.8</ele></trkpt>
    <trkpt lat="48.81777" lon="2.814"><ele>124.1</ele></trkpt>
    <trkpt lat="48.81765" lon="2.8132"><ele>123.7</ele></trkpt>
    <trkpt lat="48.81703" lon="2.81006"><ele>122.4</ele></trkpt>
    <trkpt lat="48.81651" lon="2.80773"><ele>121.5</ele></trkpt>
    <trkpt lat="48.81601" lon="2.80371"><ele>121.2</ele></trkpt>
    <trkpt lat="48.81597" lon="2.80289"><ele>121.6</ele></trkpt>
    <trkpt lat="48.81599" lon="2.79961"><ele>122.2</ele></trkpt>
    <trkpt lat="48.81602" lon="2.79907"><ele>122.1</ele></trkpt>
    <trkpt lat="48.81641" lon="2.79668"><ele>121.3</ele></trkpt>
    <trkpt lat="48.81644" lon="2.79587"><ele>121.1</ele></trkpt>
    <trkpt lat="48.81636" lon="2.79534"><ele>121.0</ele></trkpt>
    <trkpt lat="48.81557" lon="2.79258"><ele>120.6</ele></trkpt>
    <trkpt lat="48.81496" lon="2.79123"><ele>119.6</ele></trkpt>
    <trkpt lat="48.8147" lon="2.79087"><ele>119.4</ele></trkpt>
    <trkpt lat="48.8144" lon="2.79057"><ele>119.2</ele></trkpt>
    <trkpt lat="48.81405" lon="2.79044"><ele>119.0</ele></trkpt>
    <trkpt lat="48.81243" lon="2.79047"><ele>118.9</ele></trkpt>
    <trkpt lat="48.81191" lon="2.79031"><ele>119.0</ele></trkpt>
    <trkpt lat="48.81158" lon="2.79007"><ele>119.1</ele></trkpt>
    <trkpt lat="48.81117" lon="2.78954"><ele>119.5</ele></trkpt>
    <trkpt lat="48.81084" lon="2.7889"><ele>120.0</ele></trkpt>
    <trkpt lat="48.81076" lon="2.78866"><ele>120.2</ele></trkpt>
    <trkpt lat="48.81063" lon="2.78815"><ele>120.6</ele></trkpt>
    <trkpt lat="48.81056" lon="2.78761"><ele>121.0</ele></trkpt>
    <trkpt lat="48.8105" lon="2.78598"><ele>122.1</ele></trkpt>
    <trkpt lat="48.8104" lon="2.78489"><ele>122.8</ele></trkpt>
    <trkpt lat="48.81031" lon="2.78437"><ele>123.2</ele></trkpt>
    <trkpt lat="48.81002" lon="2.78337"><ele>123.9</ele></trkpt>
    <trkpt lat="48.80956" lon="2.7822"><ele>124.5</ele></trkpt>
    <trkpt lat="48.80833" lon="2.77736"><ele>126.5</ele></trkpt>
    <trkpt lat="48.8067" lon="2.76869"><ele>128.5</ele></trkpt>
    <trkpt lat="48.80661" lon="2.76789"><ele>128.6</ele></trkpt>
    <trkpt lat="48.8063" lon="2.75916"><ele>126.2</ele></trkpt>
    <trkpt lat="48.80621" lon="2.75863"><ele>125.8</ele></trkpt>
    <trkpt lat="48.80349" lon="2.74941"><ele>121.8</ele></trkpt>
    <trkpt lat="48.80288" lon="2.74714"><ele>122.8</ele></trkpt>
    <trkpt lat="48.7996" lon="2.73384"><ele>121.7</ele></trkpt>
    <trkpt lat="48.79734" lon="2.72794"><ele>121.6</ele></trkpt>
    <trkpt lat="48.79599" lon="2.72408"><ele>118.5</ele></trkpt>
    <trkpt lat="48.79593" lon="2.72354"><ele>118.1</ele></trkpt>
    <trkpt lat="48.79593" lon="2.7219"><ele>117.7</ele></trkpt>
    <trkpt lat="48.79603" lon="2.7159"><ele>116.5</ele></trkpt>
    <trkpt lat="48.79615" lon="2.71455"><ele>116.1</ele></trkpt>
    <trkpt lat="48.79626" lon="2.71405"><ele>115.8</ele></trkpt>
    <trkpt lat="48.79624" lon="2.71378"><ele>115.8</ele></trkpt>
    <trkpt lat="48.79613" lon="2.71359"><ele>116.0</ele></trkpt>
    <trkpt lat="48.79611" lon="2.71332"><ele>116.2</ele></trkpt>
    <trkpt lat="48.79616" lon="2.70649"><ele>116.1</ele></trkpt>
    <trkpt lat="48.79606" lon="2.70541"><ele>115.0</ele></trkpt>
    <trkpt lat="48.79597" lon="2.70522"><ele>114.8</ele></trkpt>
    <trkpt lat="48.79561" lon="2.70521"><ele>114.5</ele></trkpt>
    <trkpt lat="48.79544" lon="2.70514"><ele>114.6</ele></trkpt>
    <trkpt lat="48.79533" lon="2.70491"><ele>114.6</ele></trkpt>
    <trkpt lat="48.79138" lon="2.69205"><ele>116.2</ele></trkpt>
    <trkpt lat="48.79011" lon="2.68813"><ele>115.4</ele></trkpt>
    <trkpt lat="48.79" lon="2.68762"><ele>115.5</ele></trkpt>
    <trkpt lat="48.78966" lon="2.68762"><ele>117.4</ele></trkpt>
    <trkpt lat="48.7895" lon="2.68753"><ele>118.3</ele></trkpt>
    <trkpt lat="48.7867" lon="2.68566"><ele>118.4</ele></trkpt>
    <trkpt lat="48.784" lon="2.68415"><ele>117.3</ele></trkpt>
    <trkpt lat="48.78286" lon="2.68333"><ele>117.0</ele></trkpt>
    <trkpt lat="48.78065" lon="2.68149"><ele>116.3</ele></trkpt>
    <trkpt lat="48.77902" lon="2.68036"><ele>115.3</ele></trkpt>
    <trkpt lat="48.77894" lon="2.68015"><ele>115.1</ele></trkpt>
    <trkpt lat="48.7788" lon="2.68005"><ele>114.8</ele></trkpt>
    <trkpt lat="48.77863" lon="2.68005"><ele>114.7</ele></trkpt>
    <trkpt lat="48.77797" lon="2.67964"><ele>114.3</ele></trkpt>
    <trkpt lat="48.77616" lon="2.67841"><ele>112.5</ele></trkpt>
    <trkpt lat="48.77601" lon="2.67828"><ele>112.2</ele></trkpt>
    <trkpt lat="48.77594" lon="2.67805"><ele>111.8</ele></trkpt>
    <trkpt lat="48.77559" lon="2.67798"><ele>111.2</ele></trkpt>
    <trkpt lat="48.77313" lon="2.67631"><ele>109.3</ele></trkpt>
    <trkpt lat="48.77303" lon="2.67612"><ele>109.2</ele></trkpt>
    <trkpt lat="48.77286" lon="2.67609"><ele>109.0</ele></trkpt>
    <trkpt lat="48.77252" lon="2.67591"><ele>108.8</ele></trkpt>
    <trkpt lat="48.77203" lon="2.67557"><ele>108.6</ele></trkpt>
    <trkpt lat="48.76931" lon="2.67122"><ele>108.0</ele></trkpt>
    <trkpt lat="48.76927" lon="2.67098"><ele>108.0</ele></trkpt>
    <trkpt lat="48.76848" lon="2.66994"><ele>107.8</ele></trkpt>
    <trkpt lat="48.76785" lon="2.66897"><ele>107.6</ele></trkpt>
    <trkpt lat="48.76771" lon="2.66851"><ele>107.5</ele></trkpt>
    <trkpt lat="48.76754" lon="2.66845"><ele>107.4</ele></trkpt>
    <trkpt lat="48.76735" lon="2.66799"><ele>107.3</ele></trkpt>
    <trkpt lat="48.76718" lon="2.66722"><ele>107.0</ele></trkpt>
    <trkpt lat="48.76695" lon="2.66647"><ele>106.8</ele></trkpt>
    <trkpt lat="48.76655" lon="2.66557"><ele>106.5</ele></trkpt>
    <trkpt lat="48.76642" lon="2.66538"><ele>106.4</ele></trkpt>
    <trkpt lat="48.76611" lon="2.66511"><ele>106.2</ele></trkpt>
    <trkpt lat="48.76576" lon="2.66502"><ele>106.1</ele></trkpt>
    <trkpt lat="48.76451" lon="2.66526"><ele>105.3</ele></trkpt>
    <trkpt lat="48.76361" lon="2.66525"><ele>105.0</ele></trkpt>
    <trkpt lat="48.76344" lon="2.66521"><ele>104.9</ele></trkpt>
    <trkpt lat="48.76316" lon="2.66501"><ele>104.7</ele></trkpt>
    <trkpt lat="48.7628" lon="2.66501"><ele>104.7</ele></trkpt>
    <trkpt lat="48.76262" lon="2.66494"><ele>104.7</ele></trkpt>
    <trkpt lat="48.76234" lon="2.66462"><ele>104.7</ele></trkpt>
    <trkpt lat="48.76094" lon="2.66258"><ele>104.6</ele></trkpt>
    <trkpt lat="48.76036" lon="2.66194"><ele>103.9</ele></trkpt>
    <trkpt lat="48.75954" lon="2.66088"><ele>103.3</ele></trkpt>
    <trkpt lat="48.75877" lon="2.65974"><ele>102.7</ele></trkpt>
    <trkpt lat="48.75793" lon="2.65832"><ele>102.0</ele></trkpt>
    <trkpt lat="48.75649" lon="2.65552"><ele>101.7</ele></trkpt>
    <trkpt lat="48.7553" lon="2.65347"><ele>102.3</ele></trkpt>
    <trkpt lat="48.75502" lon="2.65278"><ele>102.6</ele></trkpt>
    <trkpt lat="48.75445" lon="2.65078"><ele>103.8</ele></trkpt>
    <trkpt lat="48.75398" lon="2.6493"><ele>104.6</ele></trkpt>
    <trkpt lat="48.75351" lon="2.64724"><ele>105.4</ele></trkpt>
    <trkpt lat="48.75321" lon="2.64657"><ele>105.9</ele></trkpt>
    <trkpt lat="48.75269" lon="2.64583"><ele>106.8</ele></trkpt>
    <trkpt lat="48.7525" lon="2.64536"><ele>107.2</ele></trkpt>
    <trkpt lat="48.75207" lon="2.64357"><ele>108.1</ele></trkpt>
    <trkpt lat="48.7514" lon="2.64164"><ele>108.6</ele></trkpt>
    <trkpt lat="48.75107" lon="2.641"><ele>108.6</ele></trkpt>
    <trkpt lat="48.75045" lon="2.64046"><ele>107.9</ele></trkpt>
    <trkpt lat="48.74996" lon="2.63978"><ele>106.6</ele></trkpt>
    <trkpt lat="48.74922" lon="2.63899"><ele>105.4</ele></trkpt>
    <trkpt lat="48.7484" lon="2.63794"><ele>103.4</ele></trkpt>
    <trkpt lat="48.74779" lon="2.63693"><ele>101.5</ele></trkpt>
    <trkpt lat="48.74774" lon="2.63667"><ele>100.9</ele></trkpt>
    <trkpt lat="48.74776" lon="2.63613"><ele>100.0</ele></trkpt>
    <trkpt lat="48.74763" lon="2.6361"><ele>99.6</ele></trkpt>
    <trkpt lat="48.74728" lon="2.63623"><ele>99.4</ele></trkpt>
    <trkpt lat="48.74692" lon="2.63622"><ele>99.2</ele></trkpt>
    <trkpt lat="48.74676" lon="2.6361"><ele>99.1</ele></trkpt>
    <trkpt lat="48.74621" lon="2.6354"><ele>98.8</ele></trkpt>
    <trkpt lat="48.74533" lon="2.63516"><ele>99.7</ele></trkpt>
    <trkpt lat="48.74516" lon="2.63507"><ele>99.9</ele></trkpt>
    <trkpt lat="48.74454" lon="2.63452"><ele>100.3</ele></trkpt>
    <trkpt lat="48.74366" lon="2.63426"><ele>100.7</ele></trkpt>
    <trkpt lat="48.74314" lon="2.63402"><ele>100.9</ele></trkpt>
    <trkpt lat="48.74268" lon="2.6336"><ele>101.2</ele></trkpt>
    <trkpt lat="48.74196" lon="2.63277"><ele>101.4</ele></trkpt>
    <trkpt lat="48.74147" lon="2.63247"><ele>101.5</ele></trkpt>
    <trkpt lat="48.74058" lon="2.63232"><ele>101.8</ele></trkpt>
    <trkpt lat="48.7377" lon="2.63231"><ele>100.8</ele></trkpt>
    <trkpt lat="48.73735" lon="2.63221"><ele>100.6</ele></trkpt>
    <trkpt lat="48.73688" lon="2.6318"><ele>100.1</ele></trkpt>
    <trkpt lat="48.73604" lon="2.63078"><ele>98.4</ele></trkpt>
    <trkpt lat="48.73592" lon="2.63028"><ele>97.6</ele></trkpt>
    <trkpt lat="48.7358" lon="2.6301"><ele>96.9</ele></trkpt>
    <trkpt lat="48.73556" lon="2.62936"><ele>93.8</ele></trkpt>
    <trkpt lat="48.73545" lon="2.62916"><ele>92.4</ele></trkpt>
    <trkpt lat="48.73464" lon="2.62855"><ele>83.9</ele></trkpt>
    <trkpt lat="48.73276" lon="2.62765"><ele>84.0</ele></trkpt>
    <trkpt lat="48.73284" lon="2.62665"><ele>86.6</ele></trkpt>
    <trkpt lat="48.73142" lon="2.62624"><ele>93.2</ele></trkpt>
    <trkpt lat="48.73127" lon="2.62631"><ele>94.0</ele></trkpt>
    <trkpt lat="48.73122" lon="2.62685"><ele>95.0</ele></trkpt>
    <trkpt lat="48.73111" lon="2.62695"><ele>95.5</ele></trkpt>
    <trkpt lat="48.72735" lon="2.62646"><ele>99.2</ele></trkpt>
    <trkpt lat="48.72627" lon="2.62658"><ele>100.2</ele></trkpt>
    <trkpt lat="48.7261" lon="2.62654"><ele>100.3</ele></trkpt>
    <trkpt lat="48.72601" lon="2.6241"><ele>100.8</ele></trkpt>
    <trkpt lat="48.72593" lon="2.62329"><ele>100.9</ele></trkpt>
    <trkpt lat="48.72578" lon="2.62251"><ele>100.9</ele></trkpt>
    <trkpt lat="48.722" lon="2.61488"><ele>97.8</ele></trkpt>
    <trkpt lat="48.72017" lon="2.61051"><ele>94.3</ele></trkpt>
    <trkpt lat="48.71914" lon="2.60943"><ele>93.0</ele></trkpt>
    <trkpt lat="48.71903" lon="2.60921"><ele>92.8</ele></trkpt>
    <trkpt lat="48.7186" lon="2.60771"><ele>92.0</ele></trkpt>
    <trkpt lat="48.71812" lon="2.60566"><ele>91.0</ele></trkpt>
    <trkpt lat="48.71799" lon="2.60431"><ele>90.5</ele></trkpt>
    <trkpt lat="48.71778" lon="2.6027"><ele>89.9</ele></trkpt>
    <trkpt lat="48.71736" lon="2.60121"><ele>90.1</ele></trkpt>
    <trkpt lat="48.71732" lon="2.6004"><ele>90.1</ele></trkpt>
    <trkpt lat="48.71732" lon="2.59904"><ele>89.9</ele></trkpt>
    <trkpt lat="48.71726" lon="2.59822"><ele>89.7</ele></trkpt>
    <trkpt lat="48.71703" lon="2.59749"><ele>89.8</ele></trkpt>
    <trkpt lat="48.71701" lon="2.59723"><ele>89.6</ele></trkpt>
    <trkpt lat="48.71686" lon="2.59676"><ele>89.0</ele></trkpt>
    <trkpt lat="48.71674" lon="2.59596"><ele>88.2</ele></trkpt>
    <trkpt lat="48.7167" lon="2.59515"><ele>87.8</ele></trkpt>
    <trkpt lat="48.71674" lon="2.59242"><ele>86.1</ele></trkpt>
    <trkpt lat="48.71668" lon="2.59134"><ele>86.6</ele></trkpt>
    <trkpt lat="48.71645" lon="2.5903"><ele>87.3</ele></trkpt>
    <trkpt lat="48.71629" lon="2.58987"><ele>88.0</ele></trkpt>
    <trkpt lat="48.71591" lon="2.5872"><ele>90.6</ele></trkpt>
    <trkpt lat="48.71589" lon="2.58639"><ele>91.6</ele></trkpt>
    <trkpt lat="48.71598" lon="2.58562"><ele>92.7</ele></trkpt>
    <trkpt lat="48.71584" lon="2.58512"><ele>93.5</ele></trkpt>
    <trkpt lat="48.71569" lon="2.58498"><ele>93.9</ele></trkpt>
    <trkpt lat="48.71481" lon="2.58477"><ele>95.3</ele></trkpt>
    <trkpt lat="48.71464" lon="2.58467"><ele>95.6</ele></trkpt>
    <trkpt lat="48.71458" lon="2.58447"><ele>95.9</ele></trkpt>
    <trkpt lat="48.71471" lon="2.58397"><ele>96.3</ele></trkpt>
    <trkpt lat="48.71491" lon="2.58352"><ele>96.7</ele></trkpt>
    <trkpt lat="48.71606" lon="2.58179"><ele>97.3</ele></trkpt>
    <trkpt lat="48.7165" lon="2.58132"><ele>97.3</ele></trkpt>
    <trkpt lat="48.71745" lon="2.58056"><ele>97.3</ele></trkpt>
    <trkpt lat="48.71781" lon="2.57963"><ele>96.9</ele></trkpt>
    <trkpt lat="48.71918" lon="2.57676"><ele>91.2</ele></trkpt>
    <trkpt lat="48.72162" lon="2.57446"><ele>78.3</ele></trkpt>
    <trkpt lat="48.72171" lon="2.57312"><ele>74.7</ele></trkpt>
    <trkpt lat="48.72183" lon="2.57296"><ele>73.8</ele></trkpt>
    <trkpt lat="48.72344" lon="2.57313"><ele>68.9</ele></trkpt>
    <trkpt lat="48.7245" lon="2.57339"><ele>67.0</ele></trkpt>
    <trkpt lat="48.72464" lon="2.57331"><ele>66.6</ele></trkpt>
    <trkpt lat="48.72496" lon="2.57235"><ele>65.5</ele></trkpt>
    <trkpt lat="48.72492" lon="2.57126"><ele>64.5</ele></trkpt>
    <trkpt lat="48.72502" lon="2.57018"><ele>65.5</ele></trkpt>
    <trkpt lat="48.72567" lon="2.57063"><ele>74.0</ele></trkpt>
    <trkpt lat="48.72624" lon="2.57127"><ele>79.3</ele></trkpt>
    <trkpt lat="48.7298" lon="2.57053"><ele>91.3</ele></trkpt>
    <trkpt lat="48.73014" lon="2.57038"><ele>92.6</ele></trkpt>
    <trkpt lat="48.73027" lon="2.5702"><ele>93.0</ele></trkpt>
    <trkpt lat="48.73035" lon="2.56996"><ele>93.5</ele></trkpt>
    <trkpt lat="48.73075" lon="2.56815"><ele>94.0</ele></trkpt>
    <trkpt lat="48.73084" lon="2.56792"><ele>93.8</ele></trkpt>
    <trkpt lat="48.73102" lon="2.56788"><ele>93.6</ele></trkpt>
    <trkpt lat="48.73114" lon="2.56803"><ele>93.4</ele></trkpt>
    <trkpt lat="48.73126" lon="2.56801"><ele>93.1</ele></trkpt>
    <trkpt lat="48.73135" lon="2.56778"><ele>93.0</ele></trkpt>
    <trkpt lat="48.73161" lon="2.5674"><ele>92.7</ele></trkpt>
    <trkpt lat="48.7322" lon="2.56678"><ele>91.8</ele></trkpt>
    <trkpt lat="48.73412" lon="2.56527"><ele>90.6</ele></trkpt>
    <trkpt lat="48.73516" lon="2.56487"><ele>90.8</ele></trkpt>
    <trkpt lat="48.73713" lon="2.56517"><ele>92.8</ele></trkpt>
    <trkpt lat="48.73803" lon="2.56518"><ele>94.6</ele></trkpt>
    <trkpt lat="48.73835" lon="2.56499"><ele>95.0</ele></trkpt>
    <trkpt lat="48.73841" lon="2.56477"><ele>95.1</ele></trkpt>
    <trkpt lat="48.73835" lon="2.56454"><ele>95.2</ele></trkpt>
    <trkpt lat="48.73834" lon="2.56372"><ele>95.5</ele></trkpt>
    <trkpt lat="48.73838" lon="2.56318"><ele>95.9</ele></trkpt>
    <trkpt lat="48.73849" lon="2.56266"><ele>96.2</ele></trkpt>
    <trkpt lat="48.73887" lon="2.56213"><ele>96.7</ele></trkpt>
    <trkpt lat="48.73918" lon="2.56186"><ele>96.8</ele></trkpt>
    <trkpt lat="48.73987" lon="2.56158"><ele>97.1</ele></trkpt>
    <trkpt lat="48.74077" lon="2.56149"><ele>97.3</ele></trkpt>
    <trkpt lat="48.74093" lon="2.56156"><ele>97.4</ele></trkpt>
    <trkpt lat="48.74123" lon="2.56141"><ele>97.5</ele></trkpt>
    <trkpt lat="48.74159" lon="2.56136"><ele>97.3</ele></trkpt>
    <trkpt lat="48.74208" lon="2.56105"><ele>97.2</ele></trkpt>
    <trkpt lat="48.7422" lon="2.56085"><ele>97.2</ele></trkpt>
    <trkpt lat="48.74239" lon="2.56038"><ele>97.2</ele></trkpt>
    <trkpt lat="48.74244" lon="2.56013"><ele>97.2</ele></trkpt>
    <trkpt lat="48.74246" lon="2.55822"><ele>97.3</ele></trkpt>
    <trkpt lat="48.74256" lon="2.55769"><ele>97.5</ele></trkpt>
    <trkpt lat="48.74261" lon="2.55688"><ele>97.5</ele></trkpt>
    <trkpt lat="48.7427" lon="2.55666"><ele>97.5</ele></trkpt>
    <trkpt lat="48.7432" lon="2.55654"><ele>96.9</ele></trkpt>
    <trkpt lat="48.74372" lon="2.55677"><ele>96.6</ele></trkpt>
    <trkpt lat="48.74421" lon="2.55709"><ele>96.5</ele></trkpt>
    <trkpt lat="48.74439" lon="2.55712"><ele>96.5</ele></trkpt>
    <trkpt lat="48.74528" lon="2.55694"><ele>97.0</ele></trkpt>
    <trkpt lat="48.74634" lon="2.55705"><ele>98.1</ele></trkpt>
    <trkpt lat="48.7483" lon="2.55704"><ele>99.6</ele></trkpt>
    <trkpt lat="48.75531" lon="2.55729"><ele>103.0</ele></trkpt>
    <trkpt lat="48.75844" lon="2.55361"><ele>101.5</ele></trkpt>
    <trkpt lat="48.76056" lon="2.55231"><ele>101.0</ele></trkpt>
    <trkpt lat="48.76101" lon="2.55053"><ele>101.0</ele></trkpt>
    <trkpt lat="48.76121" lon="2.54894"><ele>101.4</ele></trkpt>
    <trkpt lat="48.76149" lon="2.54542"><ele>102.0</ele></trkpt>
    <trkpt lat="48.76231" lon="2.53927"><ele>100.6</ele></trkpt>
    <trkpt lat="48.76327" lon="2.53668"><ele>97.8</ele></trkpt>
    <trkpt lat="48.76352" lon="2.53631"><ele>97.2</ele></trkpt>
    <trkpt lat="48.76373" lon="2.5359"><ele>96.7</ele></trkpt>
    <trkpt lat="48.764" lon="2.53555"><ele>96.3</ele></trkpt>
    <trkpt lat="48.76537" lon="2.53423"><ele>96.3</ele></trkpt>
    <trkpt lat="48.76565" lon="2.53389"><ele>96.3</ele></trkpt>
    <trkpt lat="48.76662" lon="2.53228"><ele>97.3</ele></trkpt>
    <trkpt lat="48.76677" lon="2.53214"><ele>97.9</ele></trkpt>
    <trkpt lat="48.76686" lon="2.53194"><ele>98.3</ele></trkpt>
    <trkpt lat="48.76706" lon="2.53118"><ele>98.8</ele></trkpt>
    <trkpt lat="48.76758" lon="2.53007"><ele>99.6</ele></trkpt>
    <trkpt lat="48.76803" lon="2.52889"><ele>100.2</ele></trkpt>
    <trkpt lat="48.76815" lon="2.52869"><ele>100.3</ele></trkpt>
    <trkpt lat="48.76863" lon="2.52839"><ele>100.4</ele></trkpt>
    <trkpt lat="48.76877" lon="2.52789"><ele>100.2</ele></trkpt>
    <trkpt lat="48.77011" lon="2.52434"><ele>98.8</ele></trkpt>
    <trkpt lat="48.77029" lon="2.52357"><ele>97.9</ele></trkpt>
    <trkpt lat="48.77046" lon="2.52251"><ele>96.0</ele></trkpt>
    <trkpt lat="48.7706" lon="2.52239"><ele>95.5</ele></trkpt>
    <trkpt lat="48.77078" lon="2.52238"><ele>95.2</ele></trkpt>
    <trkpt lat="48.77088" lon="2.5222"><ele>94.8</ele></trkpt>
    <trkpt lat="48.77089" lon="2.52166"><ele>93.7</ele></trkpt>
    <trkpt lat="48.77099" lon="2.52146"><ele>92.7</ele></trkpt>
    <trkpt lat="48.77197" lon="2.51986"><ele>82.9</ele></trkpt>
    <trkpt lat="48.77378" lon="2.51721"><ele>63.2</ele></trkpt>
    <trkpt lat="48.77544" lon="2.51512"><ele>48.1</ele></trkpt>
    <trkpt lat="48.7765" lon="2.51409"><ele>39.4</ele></trkpt>
    <trkpt lat="48.77769" lon="2.51242"><ele>37.0</ele></trkpt>
    <trkpt lat="48.77803" lon="2.51178"><ele>37.3</ele></trkpt>
    <trkpt lat="48.77818" lon="2.51174"><ele>37.4</ele></trkpt>
    <trkpt lat="48.77926" lon="2.51188"><ele>38.3</ele></trkpt>
    <trkpt lat="48.78086" lon="2.5122"><ele>39.4</ele></trkpt>
    <trkpt lat="48.78102" lon="2.51232"><ele>39.5</ele></trkpt>
    <trkpt lat="48.78133" lon="2.51262"><ele>39.7</ele></trkpt>
    <trkpt lat="48.78324" lon="2.5151"><ele>38.1</ele></trkpt>
    <trkpt lat="48.78375" lon="2.51531"><ele>38.5</ele></trkpt>
    <trkpt lat="48.78426" lon="2.51643"><ele>39.2</ele></trkpt>
    <trkpt lat="48.78742" lon="2.52048"><ele>38.3</ele></trkpt>
    <trkpt lat="48.78954" lon="2.52196"><ele>37.3</ele></trkpt>
    <trkpt lat="48.79021" lon="2.52237"><ele>39.2</ele></trkpt>
    <trkpt lat="48.79034" lon="2.52223"><ele>39.6</ele></trkpt>
    <trkpt lat="48.79096" lon="2.52091"><ele>36.9</ele></trkpt>
    <trkpt lat="48.79129" lon="2.521"><ele>36.2</ele></trkpt>
    <trkpt lat="48.79145" lon="2.5209"><ele>35.9</ele></trkpt>
    <trkpt lat="48.79167" lon="2.52047"><ele>35.6</ele></trkpt>
    <trkpt lat="48.79183" lon="2.52042"><ele>35.5</ele></trkpt>
    <trkpt lat="48.79198" lon="2.52056"><ele>35.4</ele></trkpt>
    <trkpt lat="48.79197" lon="2.52136"><ele>35.2</ele></trkpt>
    <trkpt lat="48.79211" lon="2.52152"><ele>35.2</ele></trkpt>
    <trkpt lat="48.79263" lon="2.52172"><ele>35.1</ele></trkpt>
    <trkpt lat="48.79281" lon="2.52172"><ele>35.1</ele></trkpt>
    <trkpt lat="48.79297" lon="2.52182"><ele>35.1</ele></trkpt>
    <trkpt lat="48.79369" lon="2.52189"><ele>35.1</ele></trkpt>
    <trkpt lat="48.79387" lon="2.52186"><ele>35.0</ele></trkpt>
    <trkpt lat="48.79511" lon="2.5221"><ele>35.0</ele></trkpt>
    <trkpt lat="48.79529" lon="2.52207"><ele>34.9</ele></trkpt>
    <trkpt lat="48.79545" lon="2.52218"><ele>34.9</ele></trkpt>
    <trkpt lat="48.79705" lon="2.52246"><ele>34.9</ele></trkpt>
    <trkpt lat="48.79883" lon="2.52208"><ele>35.1</ele></trkpt>
    <trkpt lat="48.7999" lon="2.52199"><ele>34.9</ele></trkpt>
    <trkpt lat="48.80168" lon="2.52231"><ele>34.7</ele></trkpt>
    <trkpt lat="48.80239" lon="2.52225"><ele>34.9</ele></trkpt>
    <trkpt lat="48.80449" lon="2.52169"><ele>35.0</ele></trkpt>
    <trkpt lat="48.80459" lon="2.52151"><ele>35.1</ele></trkpt>
    <trkpt lat="48.80645" lon="2.51991"><ele>35.4</ele></trkpt>
    <trkpt lat="48.80743" lon="2.51871"><ele>35.3</ele></trkpt>
    <trkpt lat="48.80804" lon="2.51771"><ele>35.5</ele></trkpt>
    <trkpt lat="48.80842" lon="2.51678"><ele>35.8</ele></trkpt>
    <trkpt lat="48.80902" lon="2.51452"><ele>36.0</ele></trkpt>
    <trkpt lat="48.80923" lon="2.51291"><ele>36.2</ele></trkpt>
    <trkpt lat="48.80948" lon="2.50994"><ele>40.3</ele></trkpt>
    <trkpt lat="48.80957" lon="2.50975"><ele>41.1</ele></trkpt>
    <trkpt lat="48.81026" lon="2.51"><ele>42.9</ele></trkpt>
  </trkseg></trk>
</gpx>
