<?xml version="1.0" encoding="UTF-8"?>
<gpx version="1.1" creator="Club Cycliste USO" xmlns="http://www.topografix.com/GPX/1/1">
  <metadata><name>Crécy-la-Chapelle – 102 km</name><desc>101.5 km, D+ 522 m. Départ et arrivée : pont de Champigny.</desc></metadata>
  <trk><name>Crécy-la-Chapelle – 102 km</name><trkseg>
    <trkpt lat="48.81032" lon="2.51002"><ele>41.0</ele></trkpt>
    <trkpt lat="48.81188" lon="2.51068"><ele>37.2</ele></trkpt>
    <trkpt lat="48.81241" lon="2.51083"><ele>37.2</ele></trkpt>
    <trkpt lat="48.8131" lon="2.51113"><ele>39.2</ele></trkpt>
    <trkpt lat="48.81344" lon="2.51119"><ele>40.7</ele></trkpt>
    <trkpt lat="48.81396" lon="2.50945"><ele>41.7</ele></trkpt>
    <trkpt lat="48.81463" lon="2.50784"><ele>41.9</ele></trkpt>
    <trkpt lat="48.81584" lon="2.50358"><ele>41.4</ele></trkpt>
    <trkpt lat="48.81827" lon="2.49215"><ele>43.5</ele></trkpt>
    <trkpt lat="48.81841" lon="2.49108"><ele>43.9</ele></trkpt>
    <trkpt lat="48.81896" lon="2.48848"><ele>43.1</ele></trkpt>
    <trkpt lat="48.81913" lon="2.48801"><ele>43.0</ele></trkpt>
    <trkpt lat="48.8198" lon="2.48489"><ele>43.2</ele></trkpt>
    <trkpt lat="48.81994" lon="2.48439"><ele>43.0</ele></trkpt>
    <trkpt lat="48.82005" lon="2.48425"><ele>42.9</ele></trkpt>
    <trkpt lat="48.82022" lon="2.48503"><ele>42.6</ele></trkpt>
    <trkpt lat="48.82057" lon="2.48598"><ele>42.8</ele></trkpt>
    <trkpt lat="48.8241" lon="2.49794"><ele>48.9</ele></trkpt>
    <trkpt lat="48.82467" lon="2.49994"><ele>52.9</ele></trkpt>
    <trkpt lat="48.82471" lon="2.5002"><ele>53.3</ele></trkpt>
    <trkpt lat="48.82706" lon="2.50818"><ele>62.4</ele></trkpt>
    <trkpt lat="48.8271" lon="2.50843"><ele>62.4</ele></trkpt>
    <trkpt lat="48.82686" lon="2.50975"><ele>62.1</ele></trkpt>
    <trkpt lat="48.82689" lon="2.51001"><ele>62.2</ele></trkpt>
    <trkpt lat="48.82725" lon="2.51094"><ele>64.1</ele></trkpt>
    <trkpt lat="48.82731" lon="2.51176"><ele>66.1</ele></trkpt>
    <trkpt lat="48.82718" lon="2.51476"><ele>69.7</ele></trkpt>
    <trkpt lat="48.82721" lon="2.51667"><ele>72.9</ele></trkpt>
    <trkpt lat="48.82706" lon="2.51856"><ele>78.8</ele></trkpt>
    <trkpt lat="48.82727" lon="2.521"><ele>84.7</ele></trkpt>
    <trkpt lat="48.82746" lon="2.52261"><ele>86.4</ele></trkpt>
    <trkpt lat="48.82761" lon="2.5234"><ele>86.8</ele></trkpt>
    <trkpt lat="48.82787" lon="2.52412"><ele>87.5</ele></trkpt>
    <trkpt lat="48.82821" lon="2.52474"><ele>88.9</ele></trkpt>
    <trkpt lat="48.83056" lon="2.52814"><ele>97.9</ele></trkpt>
    <trkpt lat="48.83191" lon="2.53033"><ele>96.9</ele></trkpt>
    <trkpt lat="48.83235" lon="2.53119"><ele>96.5</ele></trkpt>
    <trkpt lat="48.83242" lon="2.53142"><ele>96.3</ele></trkpt>
    <trkpt lat="48.83222" lon="2.53219"><ele>95.7</ele></trkpt>
    <trkpt lat="48.83197" lon="2.53291"><ele>95.1</ele></trkpt>
    <trkpt lat="48.83169" lon="2.53319"><ele>94.8</ele></trkpt>
    <trkpt lat="48.83171" lon="2.53344"><ele>94.8</ele></trkpt>
    <trkpt lat="48.83185" lon="2.53357"><ele>94.9</ele></trkpt>
    <trkpt lat="48.83202" lon="2.5336"><ele>95.1</ele></trkpt>
    <trkpt lat="48.83217" lon="2.53376"><ele>95.3</ele></trkpt>
    <trkpt lat="48.83278" lon="2.53476"><ele>96.8</ele></trkpt>
    <trkpt lat="48.83357" lon="2.53625"><ele>98.0</ele></trkpt>
    <trkpt lat="48.83496" lon="2.53943"><ele>97.1</ele></trkpt>
    <trkpt lat="48.83512" lon="2.53992"><ele>97.0</ele></trkpt>
    <trkpt lat="48.83528" lon="2.5407"><ele>97.1</ele></trkpt>
    <trkpt lat="48.83534" lon="2.54234"><ele>98.2</ele></trkpt>
    <trkpt lat="48.83527" lon="2.54258"><ele>98.3</ele></trkpt>
    <trkpt lat="48.83515" lon="2.54277"><ele>98.4</ele></trkpt>
    <trkpt lat="48.83516" lon="2.54303"><ele>98.5</ele></trkpt>
    <trkpt lat="48.83527" lon="2.54324"><ele>98.5</ele></trkpt>
    <trkpt lat="48.83533" lon="2.5435"><ele>98.5</ele></trkpt>
    <trkpt lat="48.83534" lon="2.54431"><ele>98.2</ele></trkpt>
    <trkpt lat="48.83528" lon="2.54485"><ele>97.9</ele></trkpt>
    <trkpt lat="48.83493" lon="2.54611"><ele>96.6</ele></trkpt>
    <trkpt lat="48.8349" lon="2.54692"><ele>95.9</ele></trkpt>
    <trkpt lat="48.83495" lon="2.54829"><ele>95.9</ele></trkpt>
    <trkpt lat="48.83493" lon="2.54883"><ele>96.2</ele></trkpt>
    <trkpt lat="48.83486" lon="2.54907"><ele>96.3</ele></trkpt>
    <trkpt lat="48.83475" lon="2.54928"><ele>96.4</ele></trkpt>
    <trkpt lat="48.83324" lon="2.55122"><ele>98.2</ele></trkpt>
    <trkpt lat="48.833" lon="2.55162"><ele>98.7</ele></trkpt>
    <trkpt lat="48.83271" lon="2.55195"><ele>99.1</ele></trkpt>
    <trkpt lat="48.83237" lon="2.55201"><ele>99.6</ele></trkpt>
    <trkpt lat="48.83229" lon="2.55224"><ele>99.7</ele></trkpt>
    <trkpt lat="48.83244" lon="2.55265"><ele>99.9</ele></trkpt>
    <trkpt lat="48.83239" lon="2.5532"><ele>99.7</ele></trkpt>
    <trkpt lat="48.83201" lon="2.55698"><ele>97.2</ele></trkpt>
    <trkpt lat="48.83196" lon="2.55723"><ele>97.0</ele></trkpt>
    <trkpt lat="48.83182" lon="2.55737"><ele>96.8</ele></trkpt>
    <trkpt lat="48.83186" lon="2.55761"><ele>96.7</ele></trkpt>
    <trkpt lat="48.83203" lon="2.55764"><ele>96.6</ele></trkpt>
    <trkpt lat="48.83215" lon="2.55781"><ele>96.7</ele></trkpt>
    <trkpt lat="48.83438" lon="2.56175"><ele>99.0</ele></trkpt>
    <trkpt lat="48.83514" lon="2.56291"><ele>101.6</ele></trkpt>
    <trkpt lat="48.83526" lon="2.56448"><ele>99.7</ele></trkpt>
    <trkpt lat="48.83523" lon="2.56475"><ele>99.1</ele></trkpt>
    <trkpt lat="48.83509" lon="2.56524"><ele>98.1</ele></trkpt>
    <trkpt lat="48.83475" lon="2.56582"><ele>97.5</ele></trkpt>
    <trkpt lat="48.83475" lon="2.56609"><ele>97.6</ele></trkpt>
    <trkpt lat="48.83487" lon="2.56689"><ele>98.0</ele></trkpt>
    <trkpt lat="48.83473" lon="2.56962"><ele>99.3</ele></trkpt>
    <trkpt lat="48.83457" lon="2.56968"><ele>99.5</ele></trkpt>
    <trkpt lat="48.83386" lon="2.56964"><ele>100.2</ele></trkpt>
    <trkpt lat="48.83373" lon="2.56981"><ele>100.3</ele></trkpt>
    <trkpt lat="48.83368" lon="2.57007"><ele>100.5</ele></trkpt>
    <trkpt lat="48.83332" lon="2.57716"><ele>99.2</ele></trkpt>
    <trkpt lat="48.83326" lon="2.57737"><ele>99.1</ele></trkpt>
    <trkpt lat="48.83328" lon="2.57782"><ele>99.0</ele></trkpt>
    <trkpt lat="48.83317" lon="2.58027"><ele>98.9</ele></trkpt>
    <trkpt lat="48.8331" lon="2.58109"><ele>99.0</ele></trkpt>
    <trkpt lat="48.83301" lon="2.58132"><ele>99.1</ele></trkpt>
    <trkpt lat="48.83288" lon="2.5815"><ele>99.1</ele></trkpt>
    <trkpt lat="48.83254" lon="2.58166"><ele>99.2</ele></trkpt>
    <trkpt lat="48.83021" lon="2.58131"><ele>98.7</ele></trkpt>
    <trkpt lat="48.83003" lon="2.5813"><ele>98.7</ele></trkpt>
    <trkpt lat="48.82998" lon="2.58148"><ele>98.7</ele></trkpt>
    <trkpt lat="48.83031" lon="2.58527"><ele>99.0</ele></trkpt>
    <trkpt lat="48.83038" lon="2.58552"><ele>99.0</ele></trkpt>
    <trkpt lat="48.83068" lon="2.5862"><ele>98.9</ele></trkpt>
    <trkpt lat="48.83073" lon="2.58646"><ele>98.9</ele></trkpt>
    <trkpt lat="48.83077" lon="2.58755"><ele>98.4</ele></trkpt>
    <trkpt lat="48.83099" lon="2.58859"><ele>97.8</ele></trkpt>
    <trkpt lat="48.83101" lon="2.58883"><ele>97.7</ele></trkpt>
    <trkpt lat="48.83095" lon="2.58908"><ele>97.4</ele></trkpt>
    <trkpt lat="48.83104" lon="2.58931"><ele>97.1</ele></trkpt>
    <trkpt lat="48.83134" lon="2.5894"><ele>95.9</ele></trkpt>
    <trkpt lat="48.83216" lon="2.59085"><ele>91.3</ele></trkpt>
    <trkpt lat="48.83251" lon="2.59181"><ele>89.5</ele></trkpt>
    <trkpt lat="48.83264" lon="2.5926"><ele>88.8</ele></trkpt>
    <trkpt lat="48.83267" lon="2.59315"><ele>88.7</ele></trkpt>
    <trkpt lat="48.83263" lon="2.59396"><ele>88.7</ele></trkpt>
    <trkpt lat="48.83241" lon="2.595"><ele>89.4</ele></trkpt>
    <trkpt lat="48.83138" lon="2.59724"><ele>96.1</ele></trkpt>
    <trkpt lat="48.83111" lon="2.59854"><ele>99.8</ele></trkpt>
    <trkpt lat="48.83123" lon="2.5986"><ele>100.3</ele></trkpt>
    <trkpt lat="48.83591" lon="2.59843"><ele>93.9</ele></trkpt>
    <trkpt lat="48.83662" lon="2.59856"><ele>92.7</ele></trkpt>
    <trkpt lat="48.83697" lon="2.5987"><ele>92.0</ele></trkpt>
    <trkpt lat="48.83746" lon="2.59902"><ele>90.7</ele></trkpt>
    <trkpt lat="48.8393" lon="2.60074"><ele>81.8</ele></trkpt>
    <trkpt lat="48.83994" lon="2.60111"><ele>81.0</ele></trkpt>
    <trkpt lat="48.84003" lon="2.60134"><ele>81.2</ele></trkpt>
    <trkpt lat="48.8395" lon="2.60242"><ele>83.3</ele></trkpt>
    <trkpt lat="48.83839" lon="2.60516"><ele>91.9</ele></trkpt>
    <trkpt lat="48.83825" lon="2.60595"><ele>94.6</ele></trkpt>
    <trkpt lat="48.83826" lon="2.60649"><ele>95.8</ele></trkpt>
    <trkpt lat="48.83839" lon="2.60729"><ele>96.7</ele></trkpt>
    <trkpt lat="48.83868" lon="2.60798"><ele>97.2</ele></trkpt>
    <trkpt lat="48.84066" lon="2.61075"><ele>96.5</ele></trkpt>
    <trkpt lat="48.841" lon="2.61139"><ele>96.5</ele></trkpt>
    <trkpt lat="48.8412" lon="2.61215"><ele>96.7</ele></trkpt>
    <trkpt lat="48.84129" lon="2.61268"><ele>97.0</ele></trkpt>
    <trkpt lat="48.84132" lon="2.61349"><ele>97.6</ele></trkpt>
    <trkpt lat="48.84136" lon="2.61364"><ele>97.6</ele></trkpt>
    <trkpt lat="48.84134" lon="2.61385"><ele>97.7</ele></trkpt>
    <trkpt lat="48.84137" lon="2.61358"><ele>97.7</ele></trkpt>
    <trkpt lat="48.84131" lon="2.61373"><ele>97.8</ele></trkpt>
    <trkpt lat="48.84107" lon="2.61671"><ele>98.4</ele></trkpt>
    <trkpt lat="48.84088" lon="2.6183"><ele>98.1</ele></trkpt>
    <trkpt lat="48.84347" lon="2.61942"><ele>95.7</ele></trkpt>
    <trkpt lat="48.84375" lon="2.61961"><ele>95.3</ele></trkpt>
    <trkpt lat="48.84462" lon="2.61995"><ele>92.8</ele></trkpt>
    <trkpt lat="48.84603" lon="2.62035"><ele>88.6</ele></trkpt>
    <trkpt lat="48.8474" lon="2.62104"><ele>85.0</ele></trkpt>
    <trkpt lat="48.84829" lon="2.62111"><ele>84.2</ele></trkpt>
    <trkpt lat="48.85062" lon="2.62088"><ele>80.7</ele></trkpt>
    <trkpt lat="48.85097" lon="2.62098"><ele>80.0</ele></trkpt>
    <trkpt lat="48.85139" lon="2.62146"><ele>78.6</ele></trkpt>
    <trkpt lat="48.85156" lon="2.62141"><ele>78.1</ele></trkpt>
    <trkpt lat="48.85169" lon="2.62122"><ele>77.5</ele></trkpt>
    <trkpt lat="48.85203" lon="2.62104"><ele>76.2</ele></trkpt>
    <trkpt lat="48.85257" lon="2.62103"><ele>73.4</ele></trkpt>
    <trkpt lat="48.85529" lon="2.62242"><ele>56.3</ele></trkpt>
    <trkpt lat="48.85559" lon="2.6227"><ele>54.1</ele></trkpt>
    <trkpt lat="48.85609" lon="2.62443"><ele>47.8</ele></trkpt>
    <trkpt lat="48.85616" lon="2.62496"><ele>45.5</ele></trkpt>
    <trkpt lat="48.85623" lon="2.6266"><ele>42.3</ele></trkpt>
    <trkpt lat="48.85621" lon="2.62797"><ele>41.4</ele></trkpt>
    <trkpt lat="48.85605" lon="2.62931"><ele>41.5</ele></trkpt>
    <trkpt lat="48.85586" lon="2.63007"><ele>42.1</ele></trkpt>
    <trkpt lat="48.85591" lon="2.63059"><ele>42.2</ele></trkpt>
    <trkpt lat="48.85585" lon="2.63168"><ele>41.9</ele></trkpt>
    <trkpt lat="48.8559" lon="2.63188"><ele>41.8</ele></trkpt>
    <trkpt lat="48.85584" lon="2.63406"><ele>41.7</ele></trkpt>
    <trkpt lat="48.85589" lon="2.63487"><ele>41.9</ele></trkpt>
    <trkpt lat="48.85612" lon="2.63648"><ele>41.9</ele></trkpt>
    <trkpt lat="48.85701" lon="2.63976"><ele>41.1</ele></trkpt>
    <trkpt lat="48.85799" lon="2.64445"><ele>40.9</ele></trkpt>
    <trkpt lat="48.85827" lon="2.64545"><ele>41.2</ele></trkpt>
    <trkpt lat="48.85838" lon="2.64567"><ele>41.3</ele></trkpt>
    <trkpt lat="48.85853" lon="2.64581"><ele>41.4</ele></trkpt>
    <trkpt lat="48.85937" lon="2.6462"><ele>41.8</ele></trkpt>
    <trkpt lat="48.85954" lon="2.64668"><ele>41.8</ele></trkpt>
    <trkpt lat="48.85942" lon="2.64748"><ele>41.6</ele></trkpt>
    <trkpt lat="48.85956" lon="2.64938"><ele>41.6</ele></trkpt>
    <trkpt lat="48.85953" lon="2.65238"><ele>42.1</ele></trkpt>
    <trkpt lat="48.85962" lon="2.65346"><ele>42.2</ele></trkpt>
    <trkpt lat="48.85982" lon="2.65508"><ele>42.2</ele></trkpt>
    <trkpt lat="48.8598" lon="2.65534"><ele>42.2</ele></trkpt>
    <trkpt lat="48.85959" lon="2.65567"><ele>41.9</ele></trkpt>
    <trkpt lat="48.861" lon="2.66187"><ele>41.7</ele></trkpt>
    <trkpt lat="48.86117" lon="2.66321"><ele>44.6</ele></trkpt>
    <trkpt lat="48.86129" lon="2.66512"><ele>49.2</ele></trkpt>
    <trkpt lat="48.86129" lon="2.66566"><ele>50.1</ele></trkpt>
    <trkpt lat="48.86118" lon="2.66674"><ele>51.3</ele></trkpt>
    <trkpt lat="48.86119" lon="2.66783"><ele>51.4</ele></trkpt>
    <trkpt lat="48.86123" lon="2.6681"><ele>51.3</ele></trkpt>
    <trkpt lat="48.86134" lon="2.66831"><ele>51.0</ele></trkpt>
    <trkpt lat="48.86135" lon="2.66857"><ele>50.6</ele></trkpt>
    <trkpt lat="48.86125" lon="2.66878"><ele>50.2</ele></trkpt>
    <trkpt lat="48.86121" lon="2.66905"><ele>49.7</ele></trkpt>
    <trkpt lat="48.86114" lon="2.67095"><ele>46.3</ele></trkpt>
    <trkpt lat="48.86091" lon="2.67226"><ele>45.0</ele></trkpt>
    <trkpt lat="48.86102" lon="2.67278"><ele>45.0</ele></trkpt>
    <trkpt lat="48.86119" lon="2.67317"><ele>44.9</ele></trkpt>
    <trkpt lat="48.86121" lon="2.67337"><ele>44.8</ele></trkpt>
    <trkpt lat="48.86286" lon="2.675"><ele>44.1</ele></trkpt>
    <trkpt lat="48.86295" lon="2.67523"><ele>44.1</ele></trkpt>
    <trkpt lat="48.86328" lon="2.67536"><ele>44.1</ele></trkpt>
    <trkpt lat="48.8651" lon="2.67714"><ele>48.5</ele></trkpt>
    <trkpt lat="48.86535" lon="2.67753"><ele>49.2</ele></trkpt>
    <trkpt lat="48.86547" lon="2.67759"><ele>49.5</ele></trkpt>
    <trkpt lat="48.86561" lon="2.67808"><ele>50.0</ele></trkpt>
    <trkpt lat="48.86578" lon="2.67814"><ele>50.1</ele></trkpt>
    <trkpt lat="48.86593" lon="2.67801"><ele>50.1</ele></trkpt>
    <trkpt lat="48.86611" lon="2.67803"><ele>50.1</ele></trkpt>
    <trkpt lat="48.86626" lon="2.67816"><ele>50.0</ele></trkpt>
    <trkpt lat="48.86687" lon="2.67875"><ele>50.1</ele></trkpt>
    <trkpt lat="48.867" lon="2.67894"><ele>50.3</ele></trkpt>
    <trkpt lat="48.86714" lon="2.67943"><ele>50.7</ele></trkpt>
    <trkpt lat="48.8673" lon="2.67953"><ele>50.8</ele></trkpt>
    <trkpt lat="48.86747" lon="2.67946"><ele>50.8</ele></trkpt>
    <trkpt lat="48.86779" lon="2.67967"><ele>50.9</ele></trkpt>
    <trkpt lat="48.869" lon="2.68086"><ele>50.7</ele></trkpt>
    <trkpt lat="48.86915" lon="2.68134"><ele>50.3</ele></trkpt>
    <trkpt lat="48.86928" lon="2.68151"><ele>49.8</ele></trkpt>
    <trkpt lat="48.8698" lon="2.68166"><ele>48.2</ele></trkpt>
    <trkpt lat="48.8704" lon="2.68226"><ele>46.9</ele></trkpt>
    <trkpt lat="48.87109" lon="2.68313"><ele>45.7</ele></trkpt>
    <trkpt lat="48.87184" lon="2.68431"><ele>44.7</ele></trkpt>
    <trkpt lat="48.87216" lon="2.68497"><ele>44.6</ele></trkpt>
    <trkpt lat="48.87271" lon="2.68638"><ele>44.8</ele></trkpt>
    <trkpt lat="48.87537" lon="2.69536"><ele>45.0</ele></trkpt>
    <trkpt lat="48.87657" lon="2.69963"><ele>47.2</ele></trkpt>
    <trkpt lat="48.87676" lon="2.70122"><ele>48.7</ele></trkpt>
    <trkpt lat="48.87709" lon="2.70139"><ele>48.1</ele></trkpt>
    <trkpt lat="48.87745" lon="2.70137"><ele>46.8</ele></trkpt>
    <trkpt lat="48.87799" lon="2.70148"><ele>45.0</ele></trkpt>
    <trkpt lat="48.87827" lon="2.70177"><ele>44.3</ele></trkpt>
    <trkpt lat="48.87879" lon="2.70161"><ele>43.8</ele></trkpt>
    <trkpt lat="48.88111" lon="2.70127"><ele>46.5</ele></trkpt>
    <trkpt lat="48.88128" lon="2.70136"><ele>46.7</ele></trkpt>
    <trkpt lat="48.8816" lon="2.702"><ele>47.5</ele></trkpt>
    <trkpt lat="48.88177" lon="2.70206"><ele>47.7</ele></trkpt>
    <trkpt lat="48.88193" lon="2.70194"><ele>47.8</ele></trkpt>
    <trkpt lat="48.88212" lon="2.70149"><ele>47.5</ele></trkpt>
    <trkpt lat="48.88218" lon="2.70043"><ele>45.5</ele></trkpt>
    <trkpt lat="48.88134" lon="2.69017"><ele>42.6</ele></trkpt>
    <trkpt lat="48.88151" lon="2.69023"><ele>43.6</ele></trkpt>
    <trkpt lat="48.88203" lon="2.69134"><ele>50.7</ele></trkpt>
    <trkpt lat="48.8822" lon="2.69142"><ele>51.7</ele></trkpt>
    <trkpt lat="48.88237" lon="2.69137"><ele>52.6</ele></trkpt>
    <trkpt lat="48.88371" lon="2.69058"><ele>52.3</ele></trkpt>
    <trkpt lat="48.88419" lon="2.68977"><ele>49.6</ele></trkpt>
    <trkpt lat="48.88436" lon="2.68971"><ele>49.4</ele></trkpt>
    <trkpt lat="48.88445" lon="2.68951"><ele>49.5</ele></trkpt>
    <trkpt lat="48.88443" lon="2.68925"><ele>49.8</ele></trkpt>
    <trkpt lat="48.88463" lon="2.68882"><ele>50.7</ele></trkpt>
    <trkpt lat="48.88507" lon="2.68834"><ele>52.9</ele></trkpt>
    <trkpt lat="48.88541" lon="2.68819"><ele>54.4</ele></trkpt>
    <trkpt lat="48.88648" lon="2.68797"><ele>57.8</ele></trkpt>
    <trkpt lat="48.88761" lon="2.68775"><ele>61.5</ele></trkpt>
    <trkpt lat="48.88796" lon="2.68774"><ele>62.2</ele></trkpt>
    <trkpt lat="48.88815" lon="2.68701"><ele>62.4</ele></trkpt>
    <trkpt lat="48.88881" lon="2.68247"><ele>59.6</ele></trkpt>
    <trkpt lat="48.88903" lon="2.68143"><ele>58.6</ele></trkpt>
    <trkpt lat="48.88933" lon="2.68044"><ele>58.1</ele></trkpt>
    <trkpt lat="48.88984" lon="2.67931"><ele>57.3</ele></trkpt>
    <trkpt lat="48.89019" lon="2.67868"><ele>57.3</ele></trkpt>
    <trkpt lat="48.89058" lon="2.67812"><ele>57.9</ele></trkpt>
    <trkpt lat="48.89118" lon="2.67751"><ele>59.4</ele></trkpt>
    <trkpt lat="48.89166" lon="2.67716"><ele>61.0</ele></trkpt>
    <trkpt lat="48.89234" lon="2.6768"><ele>63.6</ele></trkpt>
    <trkpt lat="48.89887" lon="2.67372"><ele>71.3</ele></trkpt>
    <trkpt lat="48.89904" lon="2.67362"><ele>71.5</ele></trkpt>
    <trkpt lat="48.8999" lon="2.67263"><ele>71.2</ele></trkpt>
    <trkpt lat="48.90077" lon="2.67233"><ele>70.6</ele></trkpt>
    <trkpt lat="48.90184" lon="2.67087"><ele>70.0</ele></trkpt>
    <trkpt lat="48.90347" lon="2.66833"><ele>74.2</ele></trkpt>
    <trkpt lat="48.90361" lon="2.66821"><ele>74.6</ele></trkpt>
    <trkpt lat="48.90486" lon="2.66929"><ele>82.8</ele></trkpt>
    <trkpt lat="48.90519" lon="2.6695"><ele>85.6</ele></trkpt>
    <trkpt lat="48.90589" lon="2.66974"><ele>91.6</ele></trkpt>
    <trkpt lat="48.90732" lon="2.67004"><ele>102.6</ele></trkpt>
    <trkpt lat="48.90749" lon="2.66998"><ele>103.9</ele></trkpt>
    <trkpt lat="48.90761" lon="2.66979"><ele>105.1</ele></trkpt>
    <trkpt lat="48.90788" lon="2.66878"><ele>110.0</ele></trkpt>
    <trkpt lat="48.90828" lon="2.66823"><ele>113.8</ele></trkpt>
    <trkpt lat="48.90868" lon="2.66733"><ele>117.6</ele></trkpt>
    <trkpt lat="48.90901" lon="2.66711"><ele>118.7</ele></trkpt>
    <trkpt lat="48.90929" lon="2.66677"><ele>119.4</ele></trkpt>
    <trkpt lat="48.90963" lon="2.6666"><ele>120.5</ele></trkpt>
    <trkpt lat="48.90998" lon="2.66655"><ele>121.9</ele></trkpt>
    <trkpt lat="48.91048" lon="2.66687"><ele>123.8</ele></trkpt>
    <trkpt lat="48.911" lon="2.66708"><ele>125.8</ele></trkpt>
    <trkpt lat="48.91124" lon="2.66742"><ele>126.7</ele></trkpt>
    <trkpt lat="48.91186" lon="2.66795"><ele>128.0</ele></trkpt>
    <trkpt lat="48.91201" lon="2.66811"><ele>128.2</ele></trkpt>
    <trkpt lat="48.91253" lon="2.66922"><ele>129.1</ele></trkpt>
    <trkpt lat="48.91265" lon="2.66974"><ele>129.0</ele></trkpt>
    <trkpt lat="48.91277" lon="2.67493"><ele>124.9</ele></trkpt>
    <trkpt lat="48.91221" lon="2.67839"><ele>127.2</ele></trkpt>
    <trkpt lat="48.91225" lon="2.6786"><ele>127.0</ele></trkpt>
    <trkpt lat="48.91222" lon="2.67942"><ele>126.7</ele></trkpt>
    <trkpt lat="48.91229" lon="2.68023"><ele>126.5</ele></trkpt>
    <trkpt lat="48.91239" lon="2.68075"><ele>126.5</ele></trkpt>
    <trkpt lat="48.91294" lon="2.68277"><ele>126.1</ele></trkpt>
    <trkpt lat="48.91464" lon="2.68852"><ele>127.5</ele></trkpt>
    <trkpt lat="48.91485" lon="2.68895"><ele>127.1</ele></trkpt>
    <trkpt lat="48.91482" lon="2.68913"><ele>127.0</ele></trkpt>
    <trkpt lat="48.91486" lon="2.68937"><ele>127.1</ele></trkpt>
    <trkpt lat="48.91501" lon="2.68987"><ele>128.0</ele></trkpt>
    <trkpt lat="48.91509" lon="2.69011"><ele>128.7</ele></trkpt>
    <trkpt lat="48.91522" lon="2.6903"><ele>129.3</ele></trkpt>
    <trkpt lat="48.91554" lon="2.69054"><ele>130.4</ele></trkpt>
    <trkpt lat="48.91566" lon="2.6907"><ele>130.9</ele></trkpt>
    <trkpt lat="48.91558" lon="2.69088"><ele>131.1</ele></trkpt>
    <trkpt lat="48.91529" lon="2.69066"><ele>131.1</ele></trkpt>
    <trkpt lat="48.91517" lon="2.69049"><ele>131.1</ele></trkpt>
    <trkpt lat="48.915" lon="2.69055"><ele>131.0</ele></trkpt>
    <trkpt lat="48.91493" lon="2.69079"><ele>130.9</ele></trkpt>
    <trkpt lat="48.91494" lon="2.69102"><ele>130.9</ele></trkpt>
    <trkpt lat="48.91484" lon="2.69124"><ele>130.9</ele></trkpt>
    <trkpt lat="48.91484" lon="2.69151"><ele>130.8</ele></trkpt>
    <trkpt lat="48.91494" lon="2.69172"><ele>130.8</ele></trkpt>
    <trkpt lat="48.91536" lon="2.69224"><ele>130.8</ele></trkpt>
    <trkpt lat="48.91544" lon="2.69248"><ele>130.9</ele></trkpt>
    <trkpt lat="48.91546" lon="2.69357"><ele>131.1</ele></trkpt>
    <trkpt lat="48.91533" lon="2.69436"><ele>131.2</ele></trkpt>
    <trkpt lat="48.91521" lon="2.69457"><ele>131.2</ele></trkpt>
    <trkpt lat="48.91504" lon="2.69464"><ele>131.3</ele></trkpt>
    <trkpt lat="48.91361" lon="2.6946"><ele>131.4</ele></trkpt>
    <trkpt lat="48.91183" lon="2.69507"><ele>131.5</ele></trkpt>
    <trkpt lat="48.91002" lon="2.69625"><ele>129.1</ele></trkpt>
    <trkpt lat="48.90991" lon="2.69646"><ele>128.8</ele></trkpt>
    <trkpt lat="48.90984" lon="2.69671"><ele>128.5</ele></trkpt>
    <trkpt lat="48.90986" lon="2.69698"><ele>128.2</ele></trkpt>
    <trkpt lat="48.91035" lon="2.69961"><ele>126.9</ele></trkpt>
    <trkpt lat="48.91024" lon="2.70013"><ele>126.5</ele></trkpt>
    <trkpt lat="48.90987" lon="2.70137"><ele>125.9</ele></trkpt>
    <trkpt lat="48.90994" lon="2.70244"><ele>126.0</ele></trkpt>
    <trkpt lat="48.90982" lon="2.70264"><ele>125.9</ele></trkpt>
    <trkpt lat="48.90825" lon="2.70397"><ele>123.1</ele></trkpt>
    <trkpt lat="48.90711" lon="2.70475"><ele>121.2</ele></trkpt>
    <trkpt lat="48.90643" lon="2.70513"><ele>119.8</ele></trkpt>
    <trkpt lat="48.9059" lon="2.70531"><ele>119.4</ele></trkpt>
    <trkpt lat="48.90394" lon="2.70559"><ele>122.5</ele></trkpt>
    <trkpt lat="48.90359" lon="2.70573"><ele>122.5</ele></trkpt>
    <trkpt lat="48.90328" lon="2.70601"><ele>122.2</ele></trkpt>
    <trkpt lat="48.90241" lon="2.70696"><ele>121.3</ele></trkpt>
    <trkpt lat="48.9024" lon="2.7074"><ele>120.1</ele></trkpt>
    <trkpt lat="48.90232" lon="2.70765"><ele>119.4</ele></trkpt>
    <trkpt lat="48.90183" lon="2.70879"><ele>116.3</ele></trkpt>
    <trkpt lat="48.89966" lon="2.71165"><ele>108.6</ele></trkpt>
    <trkpt lat="48.89938" lon="2.71235"><ele>106.7</ele></trkpt>
    <trkpt lat="48.89924" lon="2.71285"><ele>105.8</ele></trkpt>
    <trkpt lat="48.89911" lon="2.71302"><ele>105.6</ele></trkpt>
    <trkpt lat="48.89894" lon="2.71308"><ele>105.5</ele></trkpt>
    <trkpt lat="48.89891" lon="2.71332"><ele>105.3</ele></trkpt>
    <trkpt lat="48.89906" lon="2.7134"><ele>104.8</ele></trkpt>
    <trkpt lat="48.89922" lon="2.71329"><ele>104.1</ele></trkpt>
    <trkpt lat="48.89939" lon="2.71327"><ele>103.2</ele></trkpt>
    <trkpt lat="48.90011" lon="2.71339"><ele>99.0</ele></trkpt>
    <trkpt lat="48.90047" lon="2.7134"><ele>97.0</ele></trkpt>
    <trkpt lat="48.90064" lon="2.71333"><ele>95.9</ele></trkpt>
    <trkpt lat="48.90079" lon="2.71319"><ele>94.9</ele></trkpt>
    <trkpt lat="48.90185" lon="2.7117"><ele>88.9</ele></trkpt>
    <trkpt lat="48.90447" lon="2.70991"><ele>75.7</ele></trkpt>
    <trkpt lat="48.90482" lon="2.70976"><ele>74.9</ele></trkpt>
    <trkpt lat="48.9093" lon="2.71024"><ele>77.4</ele></trkpt>
    <trkpt lat="48.91101" lon="2.71106"><ele>79.2</ele></trkpt>
    <trkpt lat="48.91274" lon="2.71033"><ele>84.8</ele></trkpt>
    <trkpt lat="48.91344" lon="2.71009"><ele>82.7</ele></trkpt>
    <trkpt lat="48.91398" lon="2.71005"><ele>79.3</ele></trkpt>
    <trkpt lat="48.91469" lon="2.71022"><ele>73.7</ele></trkpt>
    <trkpt lat="48.91536" lon="2.71063"><ele>69.5</ele></trkpt>
    <trkpt lat="48.91582" lon="2.71104"><ele>67.2</ele></trkpt>
    <trkpt lat="48.91594" lon="2.71123"><ele>66.7</ele></trkpt>
    <trkpt lat="48.916" lon="2.71149"><ele>66.2</ele></trkpt>
    <trkpt lat="48.91631" lon="2.71216"><ele>63.9</ele></trkpt>
    <trkpt lat="48.91646" lon="2.71266"><ele>61.2</ele></trkpt>
    <trkpt lat="48.91705" lon="2.71495"><ele>49.4</ele></trkpt>
    <trkpt lat="48.91724" lon="2.71541"><ele>47.6</ele></trkpt>
    <trkpt lat="48.91759" lon="2.71604"><ele>45.6</ele></trkpt>
    <trkpt lat="48.91815" lon="2.71671"><ele>44.0</ele></trkpt>
    <trkpt lat="48.92002" lon="2.71835"><ele>43.3</ele></trkpt>
    <trkpt lat="48.92074" lon="2.71917"><ele>43.4</ele></trkpt>
    <trkpt lat="48.92139" lon="2.72012"><ele>43.4</ele></trkpt>
    <trkpt lat="48.92271" lon="2.72237"><ele>43.7</ele></trkpt>
    <trkpt lat="48.92314" lon="2.72324"><ele>43.8</ele></trkpt>
    <trkpt lat="48.92318" lon="2.72351"><ele>43.7</ele></trkpt>
    <trkpt lat="48.92312" lon="2.72373"><ele>43.8</ele></trkpt>
    <trkpt lat="48.92116" lon="2.72506"><ele>45.3</ele></trkpt>
    <trkpt lat="48.92071" lon="2.72552"><ele>44.8</ele></trkpt>
    <trkpt lat="48.92045" lon="2.7259"><ele>44.7</ele></trkpt>
    <trkpt lat="48.92016" lon="2.72659"><ele>44.6</ele></trkpt>
    <trkpt lat="48.91996" lon="2.72764"><ele>44.4</ele></trkpt>
    <trkpt lat="48.91997" lon="2.72845"><ele>44.3</ele></trkpt>
    <trkpt lat="48.92015" lon="2.72951"><ele>44.3</ele></trkpt>
    <trkpt lat="48.92138" lon="2.73253"><ele>44.2</ele></trkpt>
    <trkpt lat="48.92237" lon="2.73514"><ele>44.3</ele></trkpt>
    <trkpt lat="48.92262" lon="2.73617"><ele>44.2</ele></trkpt>
    <trkpt lat="48.92269" lon="2.73698"><ele>44.1</ele></trkpt>
    <trkpt lat="48.92271" lon="2.7378"><ele>44.0</ele></trkpt>
    <trkpt lat="48.92223" lon="2.74212"><ele>44.1</ele></trkpt>
    <trkpt lat="48.92198" lon="2.74285"><ele>44.1</ele></trkpt>
    <trkpt lat="48.92163" lon="2.74346"><ele>44.3</ele></trkpt>
    <trkpt lat="48.92119" lon="2.74394"><ele>45.0</ele></trkpt>
    <trkpt lat="48.92086" lon="2.74415"><ele>46.0</ele></trkpt>
    <trkpt lat="48.92051" lon="2.74427"><ele>47.1</ele></trkpt>
    <trkpt lat="48.92015" lon="2.74432"><ele>48.1</ele></trkpt>
    <trkpt lat="48.91889" lon="2.74429"><ele>51.3</ele></trkpt>
    <trkpt lat="48.91854" lon="2.74417"><ele>51.9</ele></trkpt>
    <trkpt lat="48.9184" lon="2.74401"><ele>52.0</ele></trkpt>
    <trkpt lat="48.91823" lon="2.74404"><ele>52.1</ele></trkpt>
    <trkpt lat="48.91813" lon="2.74425"><ele>52.3</ele></trkpt>
    <trkpt lat="48.91816" lon="2.74452"><ele>52.5</ele></trkpt>
    <trkpt lat="48.91841" lon="2.74489"><ele>52.8</ele></trkpt>
    <trkpt lat="48.91849" lon="2.74513"><ele>53.0</ele></trkpt>
    <trkpt lat="48.91869" lon="2.74618"><ele>53.7</ele></trkpt>
    <trkpt lat="48.91899" lon="2.75053"><ele>57.9</ele></trkpt>
    <trkpt lat="48.91906" lon="2.75299"><ele>57.8</ele></trkpt>
    <trkpt lat="48.9194" lon="2.75651"><ele>57.6</ele></trkpt>
    <trkpt lat="48.91941" lon="2.75679"><ele>57.4</ele></trkpt>
    <trkpt lat="48.91932" lon="2.7576"><ele>56.5</ele></trkpt>
    <trkpt lat="48.91893" lon="2.75941"><ele>56.0</ele></trkpt>
    <trkpt lat="48.91874" lon="2.75988"><ele>56.6</ele></trkpt>
    <trkpt lat="48.91824" lon="2.76066"><ele>57.5</ele></trkpt>
    <trkpt lat="48.91788" lon="2.76161"><ele>55.4</ele></trkpt>
    <trkpt lat="48.91751" lon="2.7622"><ele>52.6</ele></trkpt>
    <trkpt lat="48.91725" lon="2.76291"><ele>51.3</ele></trkpt>
    <trkpt lat="48.91584" lon="2.76258"><ele>55.2</ele></trkpt>
    <trkpt lat="48.91567" lon="2.76266"><ele>55.9</ele></trkpt>
    <trkpt lat="48.91455" lon="2.76514"><ele>61.5</ele></trkpt>
    <trkpt lat="48.9133" lon="2.7671"><ele>63.2</ele></trkpt>
    <trkpt lat="48.91315" lon="2.7676"><ele>63.3</ele></trkpt>
    <trkpt lat="48.91154" lon="2.77457"><ele>44.3</ele></trkpt>
    <trkpt lat="48.90945" lon="2.78"><ele>43.9</ele></trkpt>
    <trkpt lat="48.90915" lon="2.78068"><ele>44.8</ele></trkpt>
    <trkpt lat="48.90953" lon="2.78122"><ele>45.4</ele></trkpt>
    <trkpt lat="48.91089" lon="2.78256"><ele>45.8</ele></trkpt>
    <trkpt lat="48.9128" lon="2.78462"><ele>45.9</ele></trkpt>
    <trkpt lat="48.91891" lon="2.79227"><ele>43.0</ele></trkpt>
    <trkpt lat="48.91916" lon="2.79266"><ele>42.8</ele></trkpt>
    <trkpt lat="48.92135" lon="2.79665"><ele>41.9</ele></trkpt>
    <trkpt lat="48.92165" lon="2.79695"><ele>42.0</ele></trkpt>
    <trkpt lat="48.92278" lon="2.79777"><ele>42.4</ele></trkpt>
    <trkpt lat="48.92347" lon="2.7981"><ele>42.7</ele></trkpt>
    <trkpt lat="48.92841" lon="2.79962"><ele>54.8</ele></trkpt>
    <trkpt lat="48.92876" lon="2.79953"><ele>56.2</ele></trkpt>
    <trkpt lat="48.93155" lon="2.79847"><ele>55.2</ele></trkpt>
    <trkpt lat="48.93191" lon="2.79842"><ele>54.6</ele></trkpt>
    <trkpt lat="48.93226" lon="2.79847"><ele>53.9</ele></trkpt>
    <trkpt lat="48.93312" lon="2.7989"><ele>51.9</ele></trkpt>
    <trkpt lat="48.93473" lon="2.79898"><ele>49.7</ele></trkpt>
    <trkpt lat="48.93773" lon="2.79971"><ele>48.3</ele></trkpt>
    <trkpt lat="48.93933" lon="2.79933"><ele>44.4</ele></trkpt>
    <trkpt lat="48.9404" lon="2.79921"><ele>43.7</ele></trkpt>
    <trkpt lat="48.94165" lon="2.79945"><ele>44.1</ele></trkpt>
    <trkpt lat="48.94182" lon="2.79954"><ele>44.1</ele></trkpt>
    <trkpt lat="48.94197" lon="2.79968"><ele>44.0</ele></trkpt>
    <trkpt lat="48.94209" lon="2.80019"><ele>44.0</ele></trkpt>
    <trkpt lat="48.9423" lon="2.80449"><ele>44.7</ele></trkpt>
    <trkpt lat="48.94195" lon="2.80461"><ele>44.2</ele></trkpt>
    <trkpt lat="48.94141" lon="2.80464"><ele>43.9</ele></trkpt>
    <trkpt lat="48.93932" lon="2.80539"><ele>44.0</ele></trkpt>
    <trkpt lat="48.93919" lon="2.80554"><ele>44.0</ele></trkpt>
    <trkpt lat="48.9396" lon="2.80734"><ele>45.2</ele></trkpt>
    <trkpt lat="48.93953" lon="2.8075"><ele>45.4</ele></trkpt>
    <trkpt lat="48.93747" lon="2.80849"><ele>44.6</ele></trkpt>
    <trkpt lat="48.93619" lon="2.80949"><ele>44.8</ele></trkpt>
    <trkpt lat="48.93569" lon="2.80979"><ele>45.7</ele></trkpt>
    <trkpt lat="48.93516" lon="2.80993"><ele>47.1</ele></trkpt>
    <trkpt lat="48.93301" lon="2.81021"><ele>47.7</ele></trkpt>
    <trkpt lat="48.93285" lon="2.81009"><ele>47.5</ele></trkpt>
    <trkpt lat="48.93274" lon="2.80988"><ele>47.4</ele></trkpt>
    <trkpt lat="48.93225" lon="2.80842"><ele>45.7</ele></trkpt>
    <trkpt lat="48.93216" lon="2.80818"><ele>45.5</ele></trkpt>
    <trkpt lat="48.93202" lon="2.808"><ele>45.4</ele></trkpt>
    <trkpt lat="48.93186" lon="2.80805"><ele>45.3</ele></trkpt>
    <trkpt lat="48.93125" lon="2.80864"><ele>45.6</ele></trkpt>
    <trkpt lat="48.93092" lon="2.80884"><ele>45.7</ele></trkpt>
    <trkpt lat="48.92985" lon="2.80898"><ele>45.3</ele></trkpt>
    <trkpt lat="48.92787" lon="2.809"><ele>45.2</ele></trkpt>
    <trkpt lat="48.92716" lon="2.80921"><ele>45.4</ele></trkpt>
    <trkpt lat="48.92612" lon="2.80963"><ele>45.0</ele></trkpt>
    <trkpt lat="48.9247" lon="2.80999"><ele>45.5</ele></trkpt>
    <trkpt lat="48.92082" lon="2.81119"><ele>46.5</ele></trkpt>
    <trkpt lat="48.91409" lon="2.81504"><ele>47.0</ele></trkpt>
    <trkpt lat="48.91323" lon="2.8154"><ele>46.1</ele></trkpt>
    <trkpt lat="48.91311" lon="2.81553"><ele>46.0</ele></trkpt>
    <trkpt lat="48.91277" lon="2.81532"><ele>46.0</ele></trkpt>
    <trkpt lat="48.91242" lon="2.81525"><ele>46.3</ele></trkpt>
    <trkpt lat="48.90883" lon="2.81491"><ele>45.6</ele></trkpt>
    <trkpt lat="48.90794" lon="2.81471"><ele>45.9</ele></trkpt>
    <trkpt lat="48.9055" lon="2.81377"><ele>51.4</ele></trkpt>
    <trkpt lat="48.90505" lon="2.81332"><ele>52.9</ele></trkpt>
    <trkpt lat="48.90471" lon="2.81269"><ele>54.2</ele></trkpt>
    <trkpt lat="48.90454" lon="2.81263"><ele>54.5</ele></trkpt>
    <trkpt lat="48.90348" lon="2.81295"><ele>54.3</ele></trkpt>
    <trkpt lat="48.90295" lon="2.81305"><ele>52.3</ele></trkpt>
    <trkpt lat="48.90259" lon="2.81307"><ele>50.6</ele></trkpt>
    <trkpt lat="48.90098" lon="2.81283"><ele>45.1</ele></trkpt>
    <trkpt lat="48.9008" lon="2.81278"><ele>45.0</ele></trkpt>
    <trkpt lat="48.90068" lon="2.8126"><ele>45.0</ele></trkpt>
    <trkpt lat="48.90045" lon="2.81185"><ele>45.3</ele></trkpt>
    <trkpt lat="48.90033" lon="2.81166"><ele>45.5</ele></trkpt>
    <trkpt lat="48.89985" lon="2.81129"><ele>46.8</ele></trkpt>
    <trkpt lat="48.89949" lon="2.81125"><ele>48.0</ele></trkpt>
    <trkpt lat="48.89843" lon="2.8115"><ele>49.4</ele></trkpt>
    <trkpt lat="48.89793" lon="2.81126"><ele>49.4</ele></trkpt>
    <trkpt lat="48.89786" lon="2.81148"><ele>49.3</ele></trkpt>
    <trkpt lat="48.89786" lon="2.81174"><ele>49.1</ele></trkpt>
    <trkpt lat="48.8978" lon="2.812"><ele>48.9</ele></trkpt>
    <trkpt lat="48.89717" lon="2.81332"><ele>46.4</ele></trkpt>
    <trkpt lat="48.89666" lon="2.81477"><ele>46.4</ele></trkpt>
    <trkpt lat="48.89651" lon="2.81526"><ele>46.4</ele></trkpt>
    <trkpt lat="48.89651" lon="2.81553"><ele>46.3</ele></trkpt>
    <trkpt lat="48.89639" lon="2.81594"><ele>46.2</ele></trkpt>
    <trkpt lat="48.89624" lon="2.81609"><ele>46.0</ele></trkpt>
    <trkpt lat="48.89469" lon="2.82042"><ele>46.1</ele></trkpt>
    <trkpt lat="48.89436" lon="2.82106"><ele>46.4</ele></trkpt>
    <trkpt lat="48.89236" lon="2.82383"><ele>45.4</ele></trkpt>
    <trkpt lat="48.89173" lon="2.8248"><ele>45.5</ele></trkpt>
    <trkpt lat="48.89104" lon="2.82638"><ele>46.1</ele></trkpt>
    <trkpt lat="48.89054" lon="2.8267"><ele>46.7</ele></trkpt>
    <trkpt lat="48.89041" lon="2.82688"><ele>47.0</ele></trkpt>
    <trkpt lat="48.88515" lon="2.83511"><ele>52.9</ele></trkpt>
    <trkpt lat="48.88442" lon="2.84018"><ele>50.8</ele></trkpt>
    <trkpt lat="48.88307" lon="2.84841"><ele>49.4</ele></trkpt>
    <trkpt lat="48.88266" lon="2.84962"><ele>48.5</ele></trkpt>
    <trkpt lat="48.88262" lon="2.85044"><ele>48.1</ele></trkpt>
    <trkpt lat="48.88276" lon="2.85123"><ele>47.7</ele></trkpt>
    <trkpt lat="48.88395" lon="2.8546"><ele>47.3</ele></trkpt>
    <trkpt lat="48.88402" lon="2.85486"><ele>47.1</ele></trkpt>
    <trkpt lat="48.88408" lon="2.85539"><ele>46.7</ele></trkpt>
    <trkpt lat="48.88398" lon="2.85619"><ele>46.5</ele></trkpt>
    <trkpt lat="48.88407" lon="2.85782"><ele>47.5</ele></trkpt>
    <trkpt lat="48.88392" lon="2.85832"><ele>48.0</ele></trkpt>
    <trkpt lat="48.88342" lon="2.86094"><ele>51.9</ele></trkpt>
    <trkpt lat="48.88327" lon="2.86144"><ele>52.5</ele></trkpt>
    <trkpt lat="48.88305" lon="2.86186"><ele>52.8</ele></trkpt>
    <trkpt lat="48.88278" lon="2.86222"><ele>53.2</ele></trkpt>
    <trkpt lat="48.87983" lon="2.86484"><ele>54.4</ele></trkpt>
    <trkpt lat="48.87835" lon="2.86684"><ele>50.5</ele></trkpt>
    <trkpt lat="48.87763" lon="2.86805"><ele>52.5</ele></trkpt>
    <trkpt lat="48.87425" lon="2.87061"><ele>59.8</ele></trkpt>
    <trkpt lat="48.8739" lon="2.87074"><ele>59.3</ele></trkpt>
    <trkpt lat="48.87373" lon="2.87068"><ele>59.1</ele></trkpt>
    <trkpt lat="48.87357" lon="2.87078"><ele>59.0</ele></trkpt>
    <trkpt lat="48.87352" lon="2.87103"><ele>58.8</ele></trkpt>
    <trkpt lat="48.87341" lon="2.87124"><ele>58.8</ele></trkpt>
    <trkpt lat="48.87311" lon="2.87153"><ele>58.6</ele></trkpt>
    <trkpt lat="48.86749" lon="2.87584"><ele>54.6</ele></trkpt>
    <trkpt lat="48.86722" lon="2.8762"><ele>54.3</ele></trkpt>
    <trkpt lat="48.86429" lon="2.88174"><ele>53.9</ele></trkpt>
    <trkpt lat="48.86359" lon="2.88299"><ele>52.3</ele></trkpt>
    <trkpt lat="48.8632" lon="2.88352"><ele>51.3</ele></trkpt>
    <trkpt lat="48.86141" lon="2.88171"><ele>49.5</ele></trkpt>
    <trkpt lat="48.8604" lon="2.88055"><ele>50.2</ele></trkpt>
    <trkpt lat="48.86023" lon="2.8806"><ele>50.4</ele></trkpt>
    <trkpt lat="48.85991" lon="2.88084"><ele>51.1</ele></trkpt>
    <trkpt lat="48.85974" lon="2.88088"><ele>51.5</ele></trkpt>
    <trkpt lat="48.85943" lon="2.88061"><ele>52.1</ele></trkpt>
    <trkpt lat="48.85932" lon="2.8804"><ele>52.2</ele></trkpt>
    <trkpt lat="48.85937" lon="2.88014"><ele>52.4</ele></trkpt>
    <trkpt lat="48.85955" lon="2.87968"><ele>52.6</ele></trkpt>
    <trkpt lat="48.86012" lon="2.87862"><ele>53.1</ele></trkpt>
    <trkpt lat="48.86076" lon="2.8773"><ele>53.7</ele></trkpt>
    <trkpt lat="48.86084" lon="2.87706"><ele>54.1</ele></trkpt>
    <trkpt lat="48.86115" lon="2.87493"><ele>61.9</ele></trkpt>
    <trkpt lat="48.86194" lon="2.87158"><ele>75.0</ele></trkpt>
    <trkpt lat="48.86272" lon="2.86942"><ele>83.7</ele></trkpt>
    <trkpt lat="48.86276" lon="2.86916"><ele>84.6</ele></trkpt>
    <trkpt lat="48.86274" lon="2.86889"><ele>85.4</ele></trkpt>
    <trkpt lat="48.8625" lon="2.86849"><ele>87.4</ele></trkpt>
    <trkpt lat="48.86147" lon="2.8674"><ele>95.2</ele></trkpt>
    <trkpt lat="48.86138" lon="2.86717"><ele>96.1</ele></trkpt>
    <trkpt lat="48.86141" lon="2.86691"><ele>97.1</ele></trkpt>
    <trkpt lat="48.86168" lon="2.86619"><ele>99.9</ele></trkpt>
    <trkpt lat="48.86169" lon="2.86593"><ele>100.7</ele></trkpt>
    <trkpt lat="48.86158" lon="2.86574"><ele>101.4</ele></trkpt>
    <trkpt lat="48.86081" lon="2.86503"><ele>105.0</ele></trkpt>
    <trkpt lat="48.85932" lon="2.86306"><ele>113.2</ele></trkpt>
    <trkpt lat="48.85851" lon="2.86248"><ele>117.4</ele></trkpt>
    <trkpt lat="48.85747" lon="2.86139"><ele>121.5</ele></trkpt>
    <trkpt lat="48.85726" lon="2.86095"><ele>122.7</ele></trkpt>
    <trkpt lat="48.85658" lon="2.85934"><ele>127.9</ele></trkpt>
    <trkpt lat="48.85661" lon="2.85886"><ele>129.1</ele></trkpt>
    <trkpt lat="48.85634" lon="2.85863"><ele>130.3</ele></trkpt>
    <trkpt lat="48.85339" lon="2.84776"><ele>138.2</ele></trkpt>
    <trkpt lat="48.85332" lon="2.84699"><ele>138.7</ele></trkpt>
    <trkpt lat="48.85316" lon="2.84694"><ele>138.7</ele></trkpt>
    <trkpt lat="48.85304" lon="2.84713"><ele>138.6</ele></trkpt>
    <trkpt lat="48.85287" lon="2.84723"><ele>138.6</ele></trkpt>
    <trkpt lat="48.8527" lon="2.84716"><ele>138.5</ele></trkpt>
    <trkpt lat="48.85222" lon="2.8468"><ele>138.5</ele></trkpt>
    <trkpt lat="48.85187" lon="2.84665"><ele>138.4</ele></trkpt>
    <trkpt lat="48.8508" lon="2.84652"><ele>137.7</ele></trkpt>
    <trkpt lat="48.84848" lon="2.84609"><ele>136.2</ele></trkpt>
    <trkpt lat="48.84686" lon="2.84622"><ele>135.2</ele></trkpt>
    <trkpt lat="48.8465" lon="2.84617"><ele>135.1</ele></trkpt>
    <trkpt lat="48.84635" lon="2.84607"><ele>135.0</ele></trkpt>
    <trkpt lat="48.84618" lon="2.84608"><ele>134.9</ele></trkpt>
    <trkpt lat="48.8461" lon="2.84631"><ele>134.8</ele></trkpt>
    <trkpt lat="48.84485" lon="2.84641"><ele>133.5</ele></trkpt>
    <trkpt lat="48.84413" lon="2.84637"><ele>132.9</ele></trkpt>
    <trkpt lat="48.84343" lon="2.84612"><ele>132.2</ele></trkpt>
    <trkpt lat="48.83438" lon="2.8416"><ele>129.3</ele></trkpt>
    <trkpt lat="48.82831" lon="2.83907"><ele>128.2</ele></trkpt>
    <trkpt lat="48.82764" lon="2.83865"><ele>128.0</ele></trkpt>
    <trkpt lat="48.82685" lon="2.83802"><ele>127.8</ele></trkpt>
    <trkpt lat="48.82513" lon="2.83653"><ele>127.6</ele></trkpt>
    <trkpt lat="48.82483" lon="2.83622"><ele>127.5</ele></trkpt>
    <trkpt lat="48.82419" lon="2.83526"><ele>127.2</ele></trkpt>
    <trkpt lat="48.82373" lon="2.83486"><ele>127.2</ele></trkpt>
    <trkpt lat="48.82351" lon="2.83446"><ele>127.2</ele></trkpt>
    <trkpt lat="48.82333" lon="2.83441"><ele>127.2</ele></trkpt>
    <trkpt lat="48.82317" lon="2.83452"><ele>127.2</ele></trkpt>
    <trkpt lat="48.82304" lon="2.8347"><ele>127.1</ele></trkpt>
    <trkpt lat="48.82287" lon="2.83475"><ele>127.1</ele></trkpt>
    <trkpt lat="48.82237" lon="2.83447"><ele>127.1</ele></trkpt>
    <trkpt lat="48.82209" lon="2.83413"><ele>127.1</ele></trkpt>
    <trkpt lat="48.82177" lon="2.83347"><ele>126.8</ele></trkpt>
    <trkpt lat="48.82139" lon="2.83289"><ele>126.6</ele></trkpt>
    <trkpt lat="48.82035" lon="2.83182"><ele>126.2</ele></trkpt>
    <trkpt lat="48.81988" lon="2.83142"><ele>126.2</ele></trkpt>
    <trkpt lat="48.81954" lon="2.83125"><ele>126.2</ele></trkpt>
    <trkpt lat="48.8174" lon="2.83079"><ele>125.3</ele></trkpt>
    <trkpt lat="48.81634" lon="2.8305"><ele>125.4</ele></trkpt>
    <trkpt lat="48.81476" lon="2.82998"><ele>125.8</ele></trkpt>
    <trkpt lat="48.81458" lon="2.8299"><ele>125.8</ele></trkpt>
    <trkpt lat="48.81451" lon="2.82976"><ele>125.8</ele></trkpt>
    <trkpt lat="48.81489" lon="2.82852"><ele>126.0</ele></trkpt>
    <trkpt lat="48.81501" lon="2.82832"><ele>126.1</ele></trkpt>
    <trkpt lat="48.81565" lon="2.82783"><ele>126.5</ele></trkpt>
    <trkpt lat="48.81574" lon="2.82761"><ele>126.5</ele></trkpt>
    <trkpt lat="48.81727" lon="2.82061"><ele>125.8</ele></trkpt>
    <trkpt lat="48.81748" lon="2.82016"><ele>125.6</ele></trkpt>
    <trkpt lat="48.81799" lon="2.81939"><ele>125.4</ele></trkpt>
    <trkpt lat="48.81842" lon="2.8189"><ele>125.6</ele></trkpt>
    <trkpt lat="48.81876" lon="2.81884"><ele>125.7</ele></trkpt>
    <trkpt lat="48.8189" lon="2.81867"><ele>125.6</ele></trkpt>
    <trkpt lat="48.81895" lon="2.81841"><ele>125.6</ele></trkpt>
    <trkpt lat="48.81889" lon="2.81815"><ele>125.5</ele></trkpt>
    <trkpt lat="48.81876" lon="2.81799"><ele>125.5</ele></trkpt>
    <trkpt lat="48.81858" lon="2.81793"><ele>125.4</ele></trkpt>
    <trkpt lat="48.81845" lon="2.81776"><ele>125.3</ele></trkpt>
    <trkpt lat="48.81834" lon="2.81754"><ele>125.2</ele></trkpt>
    <trkpt lat="48.81805" lon="2.81654"><ele>124.9</ele></trkpt>
    <trkpt lat="48.81795" lon="2.81601"><ele>124.7</ele></trkpt>
    <trkpt lat="48.81777" lon="2.81412"><ele>124.0</ele></trkpt>
    <trkpt lat="48.81762" lon="2.81306"><ele>123.6</ele></trkpt>
    <trkpt lat="48.8165" lon="2.80757"><ele>121.2</ele></trkpt>
    <trkpt lat="48.81597" lon="2.80328"><ele>121.2</ele></trkpt>
    <trkpt lat="48.81594" lon="2.80219"><ele>121.7</ele></trkpt>
    <trkpt lat="48.816" lon="2.79946"><ele>122.1</ele></trkpt>
    <trkpt lat="48.81646" lon="2.79654"><ele>121.2</ele></trkpt>
    <trkpt lat="48.81649" lon="2.796"><ele>121.1</ele></trkpt>
    <trkpt lat="48.81632" lon="2.79523"><ele>120.9</ele></trkpt>
    <trkpt lat="48.81569" lon="2.79297"><ele>120.7</ele></trkpt>
    <trkpt lat="48.81567" lon="2.79275"><ele>120.6</ele></trkpt>
    <trkpt lat="48.81668" lon="2.79219"><ele>120.0</ele></trkpt>
    <trkpt lat="48.8168" lon="2.79204"><ele>120.1</ele></trkpt>
    <trkpt lat="48.81678" lon="2.79151"><ele>120.2</ele></trkpt>
    <trkpt lat="48.8165" lon="2.79021"><ele>120.5</ele></trkpt>
    <trkpt lat="48.81652" lon="2.78967"><ele>120.7</ele></trkpt>
    <trkpt lat="48.81658" lon="2.78942"><ele>120.8</ele></trkpt>
    <trkpt lat="48.81931" lon="2.78203"><ele>129.8</ele></trkpt>
    <trkpt lat="48.82206" lon="2.77562"><ele>126.0</ele></trkpt>
    <trkpt lat="48.82452" lon="2.76864"><ele>137.0</ele></trkpt>
    <trkpt lat="48.82474" lon="2.76821"><ele>138.5</ele></trkpt>
    <trkpt lat="48.82637" lon="2.76651"><ele>142.8</ele></trkpt>
    <trkpt lat="48.8266" lon="2.76609"><ele>142.5</ele></trkpt>
    <trkpt lat="48.82663" lon="2.76582"><ele>142.2</ele></trkpt>
    <trkpt lat="48.8266" lon="2.76556"><ele>141.8</ele></trkpt>
    <trkpt lat="48.82618" lon="2.76435"><ele>139.5</ele></trkpt>
    <trkpt lat="48.8262" lon="2.76382"><ele>138.6</ele></trkpt>
    <trkpt lat="48.82858" lon="2.75708"><ele>132.1</ele></trkpt>
    <trkpt lat="48.82878" lon="2.75662"><ele>132.3</ele></trkpt>
    <trkpt lat="48.82903" lon="2.75623"><ele>132.7</ele></trkpt>
    <trkpt lat="48.82946" lon="2.75577"><ele>133.0</ele></trkpt>
    <trkpt lat="48.83157" lon="2.75512"><ele>128.1</ele></trkpt>
    <trkpt lat="48.83208" lon="2.75487"><ele>126.1</ele></trkpt>
    <trkpt lat="48.83256" lon="2.75451"><ele>124.8</ele></trkpt>
    <trkpt lat="48.83288" lon="2.75127"><ele>122.7</ele></trkpt>
    <trkpt lat="48.83305" lon="2.75049"><ele>123.0</ele></trkpt>
    <trkpt lat="48.83323" lon="2.75001"><ele>123.1</ele></trkpt>
    <trkpt lat="48.83362" lon="2.74946"><ele>123.0</ele></trkpt>
    <trkpt lat="48.83456" lon="2.74866"><ele>122.6</ele></trkpt>
    <trkpt lat="48.83555" lon="2.74801"><ele>122.1</ele></trkpt>
    <trkpt lat="48.8376" lon="2.74697"><ele>122.5</ele></trkpt>
    <trkpt lat="48.83769" lon="2.74681"><ele>122.7</ele></trkpt>
    <trkpt lat="48.83714" lon="2.73948"><ele>124.7</ele></trkpt>
    <trkpt lat="48.837" lon="2.73945"><ele>124.7</ele></trkpt>
    <trkpt lat="48.8347" lon="2.74008"><ele>124.8</ele></trkpt>
    <trkpt lat="48.83463" lon="2.73989"><ele>124.8</ele></trkpt>
    <trkpt lat="48.83275" lon="2.72415"><ele>122.4</ele></trkpt>
    <trkpt lat="48.83273" lon="2.72388"><ele>122.3</ele></trkpt>
    <trkpt lat="48.83279" lon="2.72363"><ele>122.3</ele></trkpt>
    <trkpt lat="48.8329" lon="2.72342"><ele>122.2</ele></trkpt>
    <trkpt lat="48.83295" lon="2.72317"><ele>122.1</ele></trkpt>
    <trkpt lat="48.8329" lon="2.72291"><ele>122.0</ele></trkpt>
    <trkpt lat="48.83261" lon="2.72261"><ele>121.8</ele></trkpt>
    <trkpt lat="48.83253" lon="2.72237"><ele>121.7</ele></trkpt>
    <trkpt lat="48.83112" lon="2.71054"><ele>117.2</ele></trkpt>
    <trkpt lat="48.83109" lon="2.71028"><ele>117.1</ele></trkpt>
    <trkpt lat="48.83113" lon="2.71001"><ele>117.0</ele></trkpt>
    <trkpt lat="48.83124" lon="2.7098"><ele>116.9</ele></trkpt>
    <trkpt lat="48.83126" lon="2.70954"><ele>116.9</ele></trkpt>
    <trkpt lat="48.8311" lon="2.70908"><ele>116.8</ele></trkpt>
    <trkpt lat="48.83111" lon="2.70881"><ele>116.7</ele></trkpt>
    <trkpt lat="48.83131" lon="2.70776"><ele>117.0</ele></trkpt>
    <trkpt lat="48.83133" lon="2.70749"><ele>117.1</ele></trkpt>
    <trkpt lat="48.8312" lon="2.70643"><ele>117.2</ele></trkpt>
    <trkpt lat="48.83134" lon="2.70624"><ele>116.9</ele></trkpt>
    <trkpt lat="48.83169" lon="2.70613"><ele>115.9</ele></trkpt>
    <trkpt lat="48.83258" lon="2.70609"><ele>114.3</ele></trkpt>
    <trkpt lat="48.8329" lon="2.7063"><ele>114.1</ele></trkpt>
    <trkpt lat="48.83307" lon="2.70624"><ele>114.0</ele></trkpt>
    <trkpt lat="48.83315" lon="2.706"><ele>113.9</ele></trkpt>
    <trkpt lat="48.83311" lon="2.70575"><ele>113.8</ele></trkpt>
    <trkpt lat="48.83296" lon="2.70559"><ele>113.6</ele></trkpt>
    <trkpt lat="48.83288" lon="2.70535"><ele>113.5</ele></trkpt>
    <trkpt lat="48.83248" lon="2.70269"><ele>108.9</ele></trkpt>
    <trkpt lat="48.83151" lon="2.69546"><ele>106.7</ele></trkpt>
    <trkpt lat="48.83147" lon="2.6941"><ele>104.0</ele></trkpt>
    <trkpt lat="48.83185" lon="2.6906"><ele>90.9</ele></trkpt>
    <trkpt lat="48.83183" lon="2.68978"><ele>88.9</ele></trkpt>
    <trkpt lat="48.83171" lon="2.68927"><ele>88.1</ele></trkpt>
    <trkpt lat="48.83154" lon="2.68879"><ele>87.7</ele></trkpt>
    <trkpt lat="48.8303" lon="2.68646"><ele>91.6</ele></trkpt>
    <trkpt lat="48.83021" lon="2.68622"><ele>92.6</ele></trkpt>
    <trkpt lat="48.82969" lon="2.68276"><ele>105.1</ele></trkpt>
    <trkpt lat="48.82882" lon="2.68037"><ele>107.7</ele></trkpt>
    <trkpt lat="48.8286" lon="2.67962"><ele>107.8</ele></trkpt>
    <trkpt lat="48.82766" lon="2.68035"><ele>107.5</ele></trkpt>
    <trkpt lat="48.82749" lon="2.68038"><ele>107.5</ele></trkpt>
    <trkpt lat="48.82732" lon="2.68028"><ele>107.5</ele></trkpt>
    <trkpt lat="48.82722" lon="2.68006"><ele>107.4</ele></trkpt>
    <trkpt lat="48.82733" lon="2.67871"><ele>107.7</ele></trkpt>
    <trkpt lat="48.82729" lon="2.67215"><ele>108.7</ele></trkpt>
    <trkpt lat="48.82734" lon="2.66888"><ele>107.0</ele></trkpt>
    <trkpt lat="48.82737" lon="2.66834"><ele>107.3</ele></trkpt>
    <trkpt lat="48.82754" lon="2.66787"><ele>107.5</ele></trkpt>
    <trkpt lat="48.8275" lon="2.66762"><ele>107.4</ele></trkpt>
    <trkpt lat="48.82735" lon="2.66748"><ele>107.3</ele></trkpt>
    <trkpt lat="48.8272" lon="2.66746"><ele>107.1</ele></trkpt>
    <trkpt lat="48.82695" lon="2.66674"><ele>106.5</ele></trkpt>
    <trkpt lat="48.82677" lon="2.66597"><ele>106.1</ele></trkpt>
    <trkpt lat="48.82667" lon="2.66489"><ele>105.6</ele></trkpt>
    <trkpt lat="48.82676" lon="2.66466"><ele>105.5</ele></trkpt>
    <trkpt lat="48.82761" lon="2.66425"><ele>104.9</ele></trkpt>
    <trkpt lat="48.82772" lon="2.66404"><ele>104.8</ele></trkpt>
    <trkpt lat="48.82775" lon="2.66377"><ele>104.7</ele></trkpt>
    <trkpt lat="48.82771" lon="2.66351"><ele>104.5</ele></trkpt>
    <trkpt lat="48.82676" lon="2.66057"><ele>101.2</ele></trkpt>
    <trkpt lat="48.82671" lon="2.66031"><ele>100.9</ele></trkpt>
    <trkpt lat="48.82672" lon="2.66004"><ele>100.6</ele></trkpt>
    <trkpt lat="48.82677" lon="2.65979"><ele>100.4</ele></trkpt>
    <trkpt lat="48.82785" lon="2.6597"><ele>99.7</ele></trkpt>
    <trkpt lat="48.82884" lon="2.65909"><ele>98.4</ele></trkpt>
    <trkpt lat="48.82956" lon="2.65907"><ele>96.8</ele></trkpt>
    <trkpt lat="48.82973" lon="2.659"><ele>96.4</ele></trkpt>
    <trkpt lat="48.82986" lon="2.6588"><ele>95.9</ele></trkpt>
    <trkpt lat="48.83084" lon="2.65559"><ele>93.6</ele></trkpt>
    <trkpt lat="48.83088" lon="2.65532"><ele>93.8</ele></trkpt>
    <trkpt lat="48.83088" lon="2.65505"><ele>94.0</ele></trkpt>
    <trkpt lat="48.83073" lon="2.65399"><ele>95.6</ele></trkpt>
    <trkpt lat="48.8307" lon="2.65044"><ele>99.5</ele></trkpt>
    <trkpt lat="48.83067" lon="2.65017"><ele>99.7</ele></trkpt>
    <trkpt lat="48.83045" lon="2.64942"><ele>100.1</ele></trkpt>
    <trkpt lat="48.83024" lon="2.64897"><ele>100.4</ele></trkpt>
    <trkpt lat="48.82813" lon="2.64489"><ele>102.6</ele></trkpt>
    <trkpt lat="48.82804" lon="2.64466"><ele>102.7</ele></trkpt>
    <trkpt lat="48.82801" lon="2.6444"><ele>102.7</ele></trkpt>
    <trkpt lat="48.82812" lon="2.6442"><ele>102.8</ele></trkpt>
    <trkpt lat="48.82808" lon="2.64396"><ele>102.8</ele></trkpt>
    <trkpt lat="48.82791" lon="2.6439"><ele>102.9</ele></trkpt>
    <trkpt lat="48.82765" lon="2.64423"><ele>103.1</ele></trkpt>
    <trkpt lat="48.82749" lon="2.64415"><ele>103.2</ele></trkpt>
    <trkpt lat="48.82702" lon="2.64332"><ele>103.7</ele></trkpt>
    <trkpt lat="48.82674" lon="2.64298"><ele>103.9</ele></trkpt>
    <trkpt lat="48.82642" lon="2.64272"><ele>104.2</ele></trkpt>
    <trkpt lat="48.82591" lon="2.64246"><ele>104.3</ele></trkpt>
    <trkpt lat="48.82362" lon="2.64177"><ele>104.4</ele></trkpt>
    <trkpt lat="48.82346" lon="2.64165"><ele>104.5</ele></trkpt>
    <trkpt lat="48.82338" lon="2.64142"><ele>104.6</ele></trkpt>
    <trkpt lat="48.82338" lon="2.64117"><ele>104.7</ele></trkpt>
    <trkpt lat="48.82351" lon="2.64099"><ele>104.8</ele></trkpt>
    <trkpt lat="48.82356" lon="2.64073"><ele>104.9</ele></trkpt>
    <trkpt lat="48.82355" lon="2.64047"><ele>104.9</ele></trkpt>
    <trkpt lat="48.82346" lon="2.64024"><ele>105.0</ele></trkpt>
    <trkpt lat="48.82322" lon="2.63986"><ele>105.1</ele></trkpt>
    <trkpt lat="48.82316" lon="2.6396"><ele>105.2</ele></trkpt>
    <trkpt lat="48.82316" lon="2.63933"><ele>105.2</ele></trkpt>
    <trkpt lat="48.82478" lon="2.63152"><ele>106.1</ele></trkpt>
    <trkpt lat="48.82492" lon="2.63073"><ele>106.5</ele></trkpt>
    <trkpt lat="48.82496" lon="2.63018"><ele>106.8</ele></trkpt>
    <trkpt lat="48.82496" lon="2.62882"><ele>107.2</ele></trkpt>
    <trkpt lat="48.8243" lon="2.61992"><ele>107.9</ele></trkpt>
    <trkpt lat="48.82424" lon="2.61973"><ele>107.9</ele></trkpt>
    <trkpt lat="48.82413" lon="2.61865"><ele>107.7</ele></trkpt>
    <trkpt lat="48.82402" lon="2.61813"><ele>107.5</ele></trkpt>
    <trkpt lat="48.82357" lon="2.61664"><ele>106.9</ele></trkpt>
    <trkpt lat="48.82362" lon="2.61638"><ele>106.8</ele></trkpt>
    <trkpt lat="48.8236" lon="2.61612"><ele>106.7</ele></trkpt>
    <trkpt lat="48.82333" lon="2.61576"><ele>106.6</ele></trkpt>
    <trkpt lat="48.82296" lon="2.61483"><ele>106.3</ele></trkpt>
    <trkpt lat="48.82256" lon="2.61428"><ele>106.2</ele></trkpt>
    <trkpt lat="48.82223" lon="2.61405"><ele>106.3</ele></trkpt>
    <trkpt lat="48.8217" lon="2.61397"><ele>106.5</ele></trkpt>
    <trkpt lat="48.82099" lon="2.61413"><ele>107.1</ele></trkpt>
    <trkpt lat="48.82082" lon="2.61408"><ele>107.2</ele></trkpt>
    <trkpt lat="48.82076" lon="2.61383"><ele>107.3</ele></trkpt>
    <trkpt lat="48.82077" lon="2.61356"><ele>107.3</ele></trkpt>
    <trkpt lat="48.8209" lon="2.61337"><ele>107.3</ele></trkpt>
    <trkpt lat="48.82107" lon="2.61333"><ele>107.2</ele></trkpt>
    <trkpt lat="48.82143" lon="2.61343"><ele>107.1</ele></trkpt>
    <trkpt lat="48.8216" lon="2.61339"><ele>107.1</ele></trkpt>
    <trkpt lat="48.82266" lon="2.61309"><ele>107.3</ele></trkpt>
    <trkpt lat="48.82374" lon="2.61294"><ele>107.8</ele></trkpt>
    <trkpt lat="48.82425" lon="2.61271"><ele>108.2</ele></trkpt>
    <trkpt lat="48.82864" lon="2.60896"><ele>104.8</ele></trkpt>
    <trkpt lat="48.82907" lon="2.60847"><ele>103.9</ele></trkpt>
    <trkpt lat="48.82932" lon="2.60808"><ele>103.3</ele></trkpt>
    <trkpt lat="48.82954" lon="2.60764"><ele>102.9</ele></trkpt>
    <trkpt lat="48.82976" lon="2.6069"><ele>102.3</ele></trkpt>
    <trkpt lat="48.83122" lon="2.59788"><ele>98.0</ele></trkpt>
    <trkpt lat="48.83143" lon="2.59712"><ele>95.6</ele></trkpt>
    <trkpt lat="48.83236" lon="2.59512"><ele>89.6</ele></trkpt>
    <trkpt lat="48.83256" lon="2.59436"><ele>88.8</ele></trkpt>
    <trkpt lat="48.83267" lon="2.59329"><ele>88.6</ele></trkpt>
    <trkpt lat="48.83259" lon="2.5922"><ele>89.1</ele></trkpt>
    <trkpt lat="48.8324" lon="2.59144"><ele>90.0</ele></trkpt>
    <trkpt lat="48.83222" lon="2.59097"><ele>91.0</ele></trkpt>
    <trkpt lat="48.83129" lon="2.5893"><ele>96.1</ele></trkpt>
    <trkpt lat="48.83136" lon="2.58907"><ele>96.6</ele></trkpt>
    <trkpt lat="48.83131" lon="2.58882"><ele>97.0</ele></trkpt>
    <trkpt lat="48.83102" lon="2.58868"><ele>97.5</ele></trkpt>
    <trkpt lat="48.83088" lon="2.58817"><ele>98.0</ele></trkpt>
    <trkpt lat="48.83079" lon="2.58765"><ele>98.4</ele></trkpt>
    <trkpt lat="48.8307" lon="2.58629"><ele>98.9</ele></trkpt>
    <trkpt lat="48.83044" lon="2.58559"><ele>98.8</ele></trkpt>
    <trkpt lat="48.83036" lon="2.58505"><ele>98.7</ele></trkpt>
    <trkpt lat="48.83012" lon="2.58318"><ele>98.7</ele></trkpt>
    <trkpt lat="48.82998" lon="2.58156"><ele>98.7</ele></trkpt>
    <trkpt lat="48.83022" lon="2.58131"><ele>98.7</ele></trkpt>
    <trkpt lat="48.83255" lon="2.58166"><ele>99.2</ele></trkpt>
    <trkpt lat="48.83289" lon="2.58149"><ele>99.1</ele></trkpt>
    <trkpt lat="48.83302" lon="2.58131"><ele>99.0</ele></trkpt>
    <trkpt lat="48.83317" lon="2.58082"><ele>99.0</ele></trkpt>
    <trkpt lat="48.83324" lon="2.57946"><ele>98.8</ele></trkpt>
    <trkpt lat="48.83323" lon="2.57891"><ele>98.9</ele></trkpt>
    <trkpt lat="48.83328" lon="2.57782"><ele>99.1</ele></trkpt>
    <trkpt lat="48.83334" lon="2.57737"><ele>99.1</ele></trkpt>
    <trkpt lat="48.83332" lon="2.57713"><ele>99.2</ele></trkpt>
    <trkpt lat="48.83368" lon="2.57005"><ele>100.5</ele></trkpt>
    <trkpt lat="48.83374" lon="2.56979"><ele>100.3</ele></trkpt>
    <trkpt lat="48.83387" lon="2.56963"><ele>100.1</ele></trkpt>
    <trkpt lat="48.83459" lon="2.56968"><ele>99.4</ele></trkpt>
    <trkpt lat="48.83474" lon="2.56959"><ele>99.3</ele></trkpt>
    <trkpt lat="48.83486" lon="2.56687"><ele>97.9</ele></trkpt>
    <trkpt lat="48.83475" lon="2.56607"><ele>97.5</ele></trkpt>
    <trkpt lat="48.83475" lon="2.5658"><ele>97.4</ele></trkpt>
    <trkpt lat="48.83515" lon="2.56537"><ele>97.9</ele></trkpt>
    <trkpt lat="48.8353" lon="2.56489"><ele>98.8</ele></trkpt>
    <trkpt lat="48.83529" lon="2.56461"><ele>99.5</ele></trkpt>
    <trkpt lat="48.83517" lon="2.56326"><ele>101.9</ele></trkpt>
    <trkpt lat="48.83521" lon="2.563"><ele>101.8</ele></trkpt>
    <trkpt lat="48.83432" lon="2.56165"><ele>98.7</ele></trkpt>
    <trkpt lat="48.83209" lon="2.55771"><ele>96.7</ele></trkpt>
    <trkpt lat="48.83211" lon="2.55749"><ele>96.8</ele></trkpt>
    <trkpt lat="48.832" lon="2.55705"><ele>97.3</ele></trkpt>
    <trkpt lat="48.83243" lon="2.55272"><ele>99.8</ele></trkpt>
    <trkpt lat="48.8325" lon="2.55252"><ele>99.8</ele></trkpt>
    <trkpt lat="48.83264" lon="2.55238"><ele>99.7</ele></trkpt>
    <trkpt lat="48.83268" lon="2.55212"><ele>99.6</ele></trkpt>
    <trkpt lat="48.8328" lon="2.55191"><ele>99.4</ele></trkpt>
    <trkpt lat="48.83484" lon="2.54923"><ele>96.5</ele></trkpt>
    <trkpt lat="48.835" lon="2.54912"><ele>96.5</ele></trkpt>
    <trkpt lat="48.83503" lon="2.5489"><ele>96.4</ele></trkpt>
    <trkpt lat="48.83498" lon="2.547"><ele>95.5</ele></trkpt>
    <trkpt lat="48.83501" lon="2.54618"><ele>95.6</ele></trkpt>
    <trkpt lat="48.83511" lon="2.54566"><ele>96.0</ele></trkpt>
    <trkpt lat="48.83533" lon="2.54491"><ele>96.6</ele></trkpt>
    <trkpt lat="48.83539" lon="2.54438"><ele>97.0</ele></trkpt>
    <trkpt lat="48.83541" lon="2.54328"><ele>97.9</ele></trkpt>
    <trkpt lat="48.83553" lon="2.54308"><ele>98.0</ele></trkpt>
    <trkpt lat="48.83557" lon="2.54282"><ele>98.1</ele></trkpt>
    <trkpt lat="48.83541" lon="2.54236"><ele>97.9</ele></trkpt>
    <trkpt lat="48.83539" lon="2.54127"><ele>97.1</ele></trkpt>
    <trkpt lat="48.83531" lon="2.54046"><ele>96.4</ele></trkpt>
    <trkpt lat="48.83504" lon="2.53945"><ele>96.2</ele></trkpt>
    <trkpt lat="48.83364" lon="2.53627"><ele>97.0</ele></trkpt>
    <trkpt lat="48.83285" lon="2.53478"><ele>96.0</ele></trkpt>
    <trkpt lat="48.83212" lon="2.53357"><ele>95.1</ele></trkpt>
    <trkpt lat="48.83203" lon="2.53334"><ele>95.0</ele></trkpt>
    <trkpt lat="48.83204" lon="2.53308"><ele>95.0</ele></trkpt>
    <trkpt lat="48.83239" lon="2.53212"><ele>95.7</ele></trkpt>
    <trkpt lat="48.83258" lon="2.53138"><ele>96.3</ele></trkpt>
    <trkpt lat="48.8301" lon="2.52743"><ele>96.5</ele></trkpt>
    <trkpt lat="48.82826" lon="2.52482"><ele>89.0</ele></trkpt>
    <trkpt lat="48.8278" lon="2.52398"><ele>87.3</ele></trkpt>
    <trkpt lat="48.82763" lon="2.52349"><ele>86.8</ele></trkpt>
    <trkpt lat="48.82744" lon="2.52244"><ele>86.3</ele></trkpt>
    <trkpt lat="48.82706" lon="2.51866"><ele>79.1</ele></trkpt>
    <trkpt lat="48.82709" lon="2.51784"><ele>76.3</ele></trkpt>
    <trkpt lat="48.8272" lon="2.51677"><ele>73.1</ele></trkpt>
    <trkpt lat="48.82718" lon="2.51458"><ele>69.5</ele></trkpt>
    <trkpt lat="48.82732" lon="2.51158"><ele>66.2</ele></trkpt>
    <trkpt lat="48.82752" lon="2.51054"><ele>64.5</ele></trkpt>
    <trkpt lat="48.82756" lon="2.51001"><ele>63.8</ele></trkpt>
    <trkpt lat="48.82734" lon="2.50896"><ele>62.9</ele></trkpt>
    <trkpt lat="48.82665" lon="2.50644"><ele>60.8</ele></trkpt>
    <trkpt lat="48.82487" lon="2.50047"><ele>53.9</ele></trkpt>
    <trkpt lat="48.82461" lon="2.49976"><ele>52.7</ele></trkpt>
    <trkpt lat="48.82051" lon="2.4858"><ele>42.8</ele></trkpt>
    <trkpt lat="48.82041" lon="2.48528"><ele>42.7</ele></trkpt>
    <trkpt lat="48.8203" lon="2.48523"><ele>42.7</ele></trkpt>
    <trkpt lat="48.82" lon="2.48429"><ele>43.1</ele></trkpt>
    <trkpt lat="48.81978" lon="2.48498"><ele>43.2</ele></trkpt>
    <trkpt lat="48.81911" lon="2.4881"><ele>43.0</ele></trkpt>
    <trkpt lat="48.81894" lon="2.48857"><ele>43.1</ele></trkpt>
    <trkpt lat="48.81839" lon="2.49117"><ele>43.9</ele></trkpt>
    <trkpt lat="48.8183" lon="2.49198"><ele>43.5</ele></trkpt>
    <trkpt lat="48.81582" lon="2.50367"><ele>41.5</ele></trkpt>
    <trkpt lat="48.8146" lon="2.50793"><ele>41.9</ele></trkpt>
    <trkpt lat="48.81393" lon="2.50954"><ele>41.7</ele></trkpt>
    <trkpt lat="48.81349" lon="2.51102"><ele>41.0</ele></trkpt>
    <trkpt lat="48.81339" lon="2.51121"><ele>40.4</ele></trkpt>
    <trkpt lat="48.81304" lon="2.51111"><ele>38.9</ele></trkpt>
    <trkpt lat="48.81043" lon="2.51007"><ele>41.0</ele></trkpt>
  </trkseg></trk>
</gpx>
