<?xml version="1.0" encoding="UTF-8"?>
<gpx version="1.1" creator="Club Cycliste USO" xmlns="http://www.topografix.com/GPX/1/1">
  <metadata><name>Crécy-la-Chapelle – 94 km</name><desc>93.5 km, D+ 572 m. Départ et arrivée : pont de Champigny.</desc></metadata>
  <trk><name>Crécy-la-Chapelle – 94 km</name><trkseg>
    <trkpt lat="48.81032" lon="2.51002"><ele>41.0</ele></trkpt>
    <trkpt lat="48.81188" lon="2.51068"><ele>37.2</ele></trkpt>
    <trkpt lat="48.81241" lon="2.51083"><ele>37.2</ele></trkpt>
    <trkpt lat="48.8131" lon="2.51113"><ele>39.2</ele></trkpt>
    <trkpt lat="48.81344" lon="2.51119"><ele>40.7</ele></trkpt>
    <trkpt lat="48.81396" lon="2.50945"><ele>41.7</ele></trkpt>
    <trkpt lat="48.81463" lon="2.50784"><ele>41.9</ele></trkpt>
    <trkpt lat="48.81584" lon="2.50358"><ele>41.4</ele></trkpt>
    <trkpt lat="48.81827" lon="2.49215"><ele>43.5</ele></trkpt>
    <trkpt lat="48.81841" lon="2.49108"><ele>43.9</ele></trkpt>
    <trkpt lat="48.81896" lon="2.48848"><ele>43.1</ele></trkpt>
    <trkpt lat="48.81913" lon="2.48801"><ele>43.0</ele></trkpt>
    <trkpt lat="48.8198" lon="2.48489"><ele>43.2</ele></trkpt>
    <trkpt lat="48.81994" lon="2.48439"><ele>43.0</ele></trkpt>
    <trkpt lat="48.82005" lon="2.48425"><ele>42.9</ele></trkpt>
    <trkpt lat="48.82022" lon="2.48503"><ele>42.6</ele></trkpt>
    <trkpt lat="48.82057" lon="2.48598"><ele>42.8</ele></trkpt>
    <trkpt lat="48.82409" lon="2.49792"><ele>48.9</ele></trkpt>
    <trkpt lat="48.82466" lon="2.49992"><ele>52.9</ele></trkpt>
    <trkpt lat="48.8247" lon="2.50018"><ele>53.2</ele></trkpt>
    <trkpt lat="48.82656" lon="2.5064"><ele>59.6</ele></trkpt>
    <trkpt lat="48.8271" lon="2.50841"><ele>62.4</ele></trkpt>
    <trkpt lat="48.82686" lon="2.50973"><ele>62.1</ele></trkpt>
    <trkpt lat="48.82688" lon="2.50999"><ele>62.2</ele></trkpt>
    <trkpt lat="48.82725" lon="2.51092"><ele>64.0</ele></trkpt>
    <trkpt lat="48.82731" lon="2.51174"><ele>66.1</ele></trkpt>
    <trkpt lat="48.82718" lon="2.51473"><ele>69.7</ele></trkpt>
    <trkpt lat="48.8272" lon="2.51692"><ele>73.4</ele></trkpt>
    <trkpt lat="48.82708" lon="2.518"><ele>76.8</ele></trkpt>
    <trkpt lat="48.82707" lon="2.51881"><ele>79.6</ele></trkpt>
    <trkpt lat="48.82742" lon="2.52232"><ele>86.3</ele></trkpt>
    <trkpt lat="48.8276" lon="2.52338"><ele>86.8</ele></trkpt>
    <trkpt lat="48.82786" lon="2.5241"><ele>87.5</ele></trkpt>
    <trkpt lat="48.8282" lon="2.52473"><ele>88.9</ele></trkpt>
    <trkpt lat="48.83055" lon="2.52812"><ele>97.9</ele></trkpt>
    <trkpt lat="48.8319" lon="2.53031"><ele>97.0</ele></trkpt>
    <trkpt lat="48.83235" lon="2.53117"><ele>96.5</ele></trkpt>
    <trkpt lat="48.83242" lon="2.5314"><ele>96.3</ele></trkpt>
    <trkpt lat="48.83223" lon="2.53217"><ele>95.7</ele></trkpt>
    <trkpt lat="48.83198" lon="2.53289"><ele>95.1</ele></trkpt>
    <trkpt lat="48.8317" lon="2.53317"><ele>94.8</ele></trkpt>
    <trkpt lat="48.8317" lon="2.53342"><ele>94.8</ele></trkpt>
    <trkpt lat="48.83184" lon="2.53357"><ele>94.9</ele></trkpt>
    <trkpt lat="48.83201" lon="2.53359"><ele>95.1</ele></trkpt>
    <trkpt lat="48.83216" lon="2.53374"><ele>95.3</ele></trkpt>
    <trkpt lat="48.83276" lon="2.53472"><ele>96.4</ele></trkpt>
    <trkpt lat="48.83355" lon="2.53621"><ele>98.0</ele></trkpt>
    <trkpt lat="48.83494" lon="2.53939"><ele>97.2</ele></trkpt>
    <trkpt lat="48.83523" lon="2.54039"><ele>97.0</ele></trkpt>
    <trkpt lat="48.8353" lon="2.54093"><ele>97.2</ele></trkpt>
    <trkpt lat="48.83534" lon="2.54229"><ele>98.1</ele></trkpt>
    <trkpt lat="48.83529" lon="2.54255"><ele>98.3</ele></trkpt>
    <trkpt lat="48.83517" lon="2.54273"><ele>98.4</ele></trkpt>
    <trkpt lat="48.83515" lon="2.54299"><ele>98.5</ele></trkpt>
    <trkpt lat="48.83526" lon="2.54319"><ele>98.5</ele></trkpt>
    <trkpt lat="48.83532" lon="2.54345"><ele>98.5</ele></trkpt>
    <trkpt lat="48.83534" lon="2.54426"><ele>98.3</ele></trkpt>
    <trkpt lat="48.8353" lon="2.5448"><ele>97.9</ele></trkpt>
    <trkpt lat="48.83494" lon="2.54606"><ele>96.7</ele></trkpt>
    <trkpt lat="48.8349" lon="2.54687"><ele>95.9</ele></trkpt>
    <trkpt lat="48.83494" lon="2.54878"><ele>96.1</ele></trkpt>
    <trkpt lat="48.83477" lon="2.54924"><ele>96.4</ele></trkpt>
    <trkpt lat="48.83326" lon="2.55119"><ele>98.2</ele></trkpt>
    <trkpt lat="48.83302" lon="2.55159"><ele>98.6</ele></trkpt>
    <trkpt lat="48.83274" lon="2.55192"><ele>99.0</ele></trkpt>
    <trkpt lat="48.83257" lon="2.552"><ele>99.3</ele></trkpt>
    <trkpt lat="48.8324" lon="2.55198"><ele>99.5</ele></trkpt>
    <trkpt lat="48.83229" lon="2.55219"><ele>99.7</ele></trkpt>
    <trkpt lat="48.83234" lon="2.55244"><ele>99.8</ele></trkpt>
    <trkpt lat="48.83244" lon="2.55261"><ele>99.9</ele></trkpt>
    <trkpt lat="48.8324" lon="2.55315"><ele>99.7</ele></trkpt>
    <trkpt lat="48.83198" lon="2.5572"><ele>97.1</ele></trkpt>
    <trkpt lat="48.83184" lon="2.55733"><ele>96.9</ele></trkpt>
    <trkpt lat="48.83184" lon="2.55758"><ele>96.7</ele></trkpt>
    <trkpt lat="48.83213" lon="2.55777"><ele>96.6</ele></trkpt>
    <trkpt lat="48.83436" lon="2.56171"><ele>99.0</ele></trkpt>
    <trkpt lat="48.83512" lon="2.56287"><ele>101.7</ele></trkpt>
    <trkpt lat="48.83519" lon="2.56308"><ele>101.8</ele></trkpt>
    <trkpt lat="48.83526" lon="2.56443"><ele>99.8</ele></trkpt>
    <trkpt lat="48.8352" lon="2.56497"><ele>98.6</ele></trkpt>
    <trkpt lat="48.83511" lon="2.5652"><ele>98.1</ele></trkpt>
    <trkpt lat="48.83475" lon="2.56577"><ele>97.4</ele></trkpt>
    <trkpt lat="48.83486" lon="2.56712"><ele>98.0</ele></trkpt>
    <trkpt lat="48.83474" lon="2.56957"><ele>99.3</ele></trkpt>
    <trkpt lat="48.83461" lon="2.56969"><ele>99.4</ele></trkpt>
    <trkpt lat="48.83389" lon="2.56962"><ele>100.1</ele></trkpt>
    <trkpt lat="48.83375" lon="2.56977"><ele>100.2</ele></trkpt>
    <trkpt lat="48.83369" lon="2.57002"><ele>100.4</ele></trkpt>
    <trkpt lat="48.83332" lon="2.57711"><ele>99.2</ele></trkpt>
    <trkpt lat="48.83323" lon="2.57756"><ele>99.1</ele></trkpt>
    <trkpt lat="48.83328" lon="2.57777"><ele>99.0</ele></trkpt>
    <trkpt lat="48.83316" lon="2.5805"><ele>98.9</ele></trkpt>
    <trkpt lat="48.83311" lon="2.58104"><ele>99.0</ele></trkpt>
    <trkpt lat="48.83303" lon="2.58128"><ele>99.0</ele></trkpt>
    <trkpt lat="48.83291" lon="2.58147"><ele>99.1</ele></trkpt>
    <trkpt lat="48.83257" lon="2.58166"><ele>99.2</ele></trkpt>
    <trkpt lat="48.83024" lon="2.58131"><ele>98.7</ele></trkpt>
    <trkpt lat="48.83007" lon="2.5813"><ele>98.7</ele></trkpt>
    <trkpt lat="48.82998" lon="2.58143"><ele>98.7</ele></trkpt>
    <trkpt lat="48.8303" lon="2.5852"><ele>99.0</ele></trkpt>
    <trkpt lat="48.83036" lon="2.58546"><ele>99.0</ele></trkpt>
    <trkpt lat="48.83073" lon="2.58639"><ele>98.9</ele></trkpt>
    <trkpt lat="48.8308" lon="2.58775"><ele>98.3</ele></trkpt>
    <trkpt lat="48.83104" lon="2.58878"><ele>97.7</ele></trkpt>
    <trkpt lat="48.83095" lon="2.58901"><ele>97.6</ele></trkpt>
    <trkpt lat="48.83101" lon="2.58926"><ele>97.3</ele></trkpt>
    <trkpt lat="48.83116" lon="2.58938"><ele>96.9</ele></trkpt>
    <trkpt lat="48.83131" lon="2.58935"><ele>96.2</ele></trkpt>
    <trkpt lat="48.83214" lon="2.5908"><ele>91.4</ele></trkpt>
    <trkpt lat="48.83242" lon="2.5915"><ele>89.9</ele></trkpt>
    <trkpt lat="48.8326" lon="2.59227"><ele>89.0</ele></trkpt>
    <trkpt lat="48.83266" lon="2.59281"><ele>88.8</ele></trkpt>
    <trkpt lat="48.83265" lon="2.59363"><ele>88.6</ele></trkpt>
    <trkpt lat="48.8326" lon="2.59417"><ele>88.7</ele></trkpt>
    <trkpt lat="48.83234" lon="2.59518"><ele>89.6</ele></trkpt>
    <trkpt lat="48.8315" lon="2.59695"><ele>94.9</ele></trkpt>
    <trkpt lat="48.83127" lon="2.59769"><ele>97.5</ele></trkpt>
    <trkpt lat="48.8298" lon="2.6067"><ele>102.2</ele></trkpt>
    <trkpt lat="48.8296" lon="2.60746"><ele>102.7</ele></trkpt>
    <trkpt lat="48.8293" lon="2.60813"><ele>103.4</ele></trkpt>
    <trkpt lat="48.82876" lon="2.60886"><ele>104.5</ele></trkpt>
    <trkpt lat="48.82421" lon="2.61274"><ele>108.1</ele></trkpt>
    <trkpt lat="48.82369" lon="2.61295"><ele>107.7</ele></trkpt>
    <trkpt lat="48.82262" lon="2.6131"><ele>107.3</ele></trkpt>
    <trkpt lat="48.82156" lon="2.61341"><ele>107.1</ele></trkpt>
    <trkpt lat="48.82138" lon="2.61342"><ele>107.1</ele></trkpt>
    <trkpt lat="48.82086" lon="2.6133"><ele>107.3</ele></trkpt>
    <trkpt lat="48.82072" lon="2.61346"><ele>107.4</ele></trkpt>
    <trkpt lat="48.82066" lon="2.61371"><ele>107.5</ele></trkpt>
    <trkpt lat="48.82068" lon="2.61398"><ele>107.6</ele></trkpt>
    <trkpt lat="48.82061" lon="2.61423"><ele>107.7</ele></trkpt>
    <trkpt lat="48.82067" lon="2.61447"><ele>107.7</ele></trkpt>
    <trkpt lat="48.82084" lon="2.61448"><ele>107.7</ele></trkpt>
    <trkpt lat="48.82097" lon="2.61431"><ele>107.5</ele></trkpt>
    <trkpt lat="48.82115" lon="2.61424"><ele>107.2</ele></trkpt>
    <trkpt lat="48.82168" lon="2.61412"><ele>106.3</ele></trkpt>
    <trkpt lat="48.82204" lon="2.61413"><ele>105.9</ele></trkpt>
    <trkpt lat="48.82254" lon="2.61441"><ele>105.5</ele></trkpt>
    <trkpt lat="48.82281" lon="2.61477"><ele>105.4</ele></trkpt>
    <trkpt lat="48.82302" lon="2.61521"><ele>105.6</ele></trkpt>
    <trkpt lat="48.82318" lon="2.61571"><ele>106.0</ele></trkpt>
    <trkpt lat="48.82324" lon="2.61596"><ele>106.2</ele></trkpt>
    <trkpt lat="48.82322" lon="2.61623"><ele>106.5</ele></trkpt>
    <trkpt lat="48.82326" lon="2.61648"><ele>106.7</ele></trkpt>
    <trkpt lat="48.82351" lon="2.61685"><ele>106.9</ele></trkpt>
    <trkpt lat="48.82398" lon="2.61833"><ele>107.6</ele></trkpt>
    <trkpt lat="48.82418" lon="2.61965"><ele>108.1</ele></trkpt>
    <trkpt lat="48.82495" lon="2.62914"><ele>107.2</ele></trkpt>
    <trkpt lat="48.82496" lon="2.62968"><ele>107.0</ele></trkpt>
    <trkpt lat="48.82477" lon="2.63128"><ele>106.6</ele></trkpt>
    <trkpt lat="48.82391" lon="2.63545"><ele>105.4</ele></trkpt>
    <trkpt lat="48.82365" lon="2.63647"><ele>105.5</ele></trkpt>
    <trkpt lat="48.82288" lon="2.64011"><ele>105.5</ele></trkpt>
    <trkpt lat="48.82279" lon="2.64064"><ele>105.5</ele></trkpt>
    <trkpt lat="48.82282" lon="2.64091"><ele>105.4</ele></trkpt>
    <trkpt lat="48.82293" lon="2.64112"><ele>105.2</ele></trkpt>
    <trkpt lat="48.82309" lon="2.64123"><ele>105.0</ele></trkpt>
    <trkpt lat="48.82327" lon="2.64123"><ele>104.9</ele></trkpt>
    <trkpt lat="48.82337" lon="2.64136"><ele>104.7</ele></trkpt>
    <trkpt lat="48.82343" lon="2.64161"><ele>104.5</ele></trkpt>
    <trkpt lat="48.82358" lon="2.64176"><ele>104.4</ele></trkpt>
    <trkpt lat="48.82605" lon="2.64251"><ele>104.3</ele></trkpt>
    <trkpt lat="48.82655" lon="2.64281"><ele>104.1</ele></trkpt>
    <trkpt lat="48.82699" lon="2.64327"><ele>103.7</ele></trkpt>
    <trkpt lat="48.82758" lon="2.64428"><ele>103.2</ele></trkpt>
    <trkpt lat="48.82801" lon="2.64446"><ele>102.9</ele></trkpt>
    <trkpt lat="48.82806" lon="2.64472"><ele>102.8</ele></trkpt>
    <trkpt lat="48.82826" lon="2.64517"><ele>102.5</ele></trkpt>
    <trkpt lat="48.83037" lon="2.64925"><ele>100.3</ele></trkpt>
    <trkpt lat="48.83062" lon="2.64997"><ele>99.8</ele></trkpt>
    <trkpt lat="48.8307" lon="2.6505"><ele>99.4</ele></trkpt>
    <trkpt lat="48.83073" lon="2.65406"><ele>95.4</ele></trkpt>
    <trkpt lat="48.83088" lon="2.65512"><ele>94.0</ele></trkpt>
    <trkpt lat="48.83087" lon="2.65539"><ele>93.7</ele></trkpt>
    <trkpt lat="48.82993" lon="2.65863"><ele>95.6</ele></trkpt>
    <trkpt lat="48.82983" lon="2.65886"><ele>96.0</ele></trkpt>
    <trkpt lat="48.82969" lon="2.65903"><ele>96.4</ele></trkpt>
    <trkpt lat="48.8288" lon="2.6591"><ele>98.5</ele></trkpt>
    <trkpt lat="48.8278" lon="2.65972"><ele>99.8</ele></trkpt>
    <trkpt lat="48.8269" lon="2.65976"><ele>100.3</ele></trkpt>
    <trkpt lat="48.82674" lon="2.65984"><ele>100.5</ele></trkpt>
    <trkpt lat="48.82672" lon="2.66038"><ele>100.9</ele></trkpt>
    <trkpt lat="48.82678" lon="2.66063"><ele>101.3</ele></trkpt>
    <trkpt lat="48.82765" lon="2.66333"><ele>104.3</ele></trkpt>
    <trkpt lat="48.82775" lon="2.66384"><ele>104.7</ele></trkpt>
    <trkpt lat="48.8277" lon="2.6641"><ele>104.8</ele></trkpt>
    <trkpt lat="48.82757" lon="2.66428"><ele>104.9</ele></trkpt>
    <trkpt lat="48.82687" lon="2.66457"><ele>105.4</ele></trkpt>
    <trkpt lat="48.82672" lon="2.66471"><ele>105.6</ele></trkpt>
    <trkpt lat="48.82667" lon="2.66496"><ele>105.7</ele></trkpt>
    <trkpt lat="48.82678" lon="2.66603"><ele>106.1</ele></trkpt>
    <trkpt lat="48.8269" lon="2.66655"><ele>106.4</ele></trkpt>
    <trkpt lat="48.82722" lon="2.66752"><ele>107.0</ele></trkpt>
    <trkpt lat="48.82712" lon="2.66775"><ele>107.2</ele></trkpt>
    <trkpt lat="48.82716" lon="2.668"><ele>107.2</ele></trkpt>
    <trkpt lat="48.82727" lon="2.66821"><ele>107.2</ele></trkpt>
    <trkpt lat="48.82726" lon="2.66931"><ele>107.3</ele></trkpt>
    <trkpt lat="48.8272" lon="2.67039"><ele>107.5</ele></trkpt>
    <trkpt lat="48.82727" lon="2.67832"><ele>108.0</ele></trkpt>
    <trkpt lat="48.82723" lon="2.67913"><ele>107.7</ele></trkpt>
    <trkpt lat="48.82713" lon="2.67965"><ele>107.6</ele></trkpt>
    <trkpt lat="48.82702" lon="2.67986"><ele>107.6</ele></trkpt>
    <trkpt lat="48.8267" lon="2.68009"><ele>107.6</ele></trkpt>
    <trkpt lat="48.82659" lon="2.6803"><ele>107.6</ele></trkpt>
    <trkpt lat="48.82657" lon="2.68057"><ele>107.7</ele></trkpt>
    <trkpt lat="48.82662" lon="2.68083"><ele>107.7</ele></trkpt>
    <trkpt lat="48.82675" lon="2.68102"><ele>107.8</ele></trkpt>
    <trkpt lat="48.82692" lon="2.68111"><ele>107.8</ele></trkpt>
    <trkpt lat="48.82709" lon="2.68108"><ele>107.8</ele></trkpt>
    <trkpt lat="48.82724" lon="2.68093"><ele>107.7</ele></trkpt>
    <trkpt lat="48.82735" lon="2.68071"><ele>107.7</ele></trkpt>
    <trkpt lat="48.82826" lon="2.67985"><ele>107.7</ele></trkpt>
    <trkpt lat="48.82843" lon="2.67979"><ele>107.8</ele></trkpt>
    <trkpt lat="48.82859" lon="2.67988"><ele>107.8</ele></trkpt>
    <trkpt lat="48.8288" lon="2.68032"><ele>107.7</ele></trkpt>
    <trkpt lat="48.82968" lon="2.68271"><ele>105.1</ele></trkpt>
    <trkpt lat="48.83021" lon="2.68617"><ele>92.8</ele></trkpt>
    <trkpt lat="48.83028" lon="2.68641"><ele>91.8</ele></trkpt>
    <trkpt lat="48.83152" lon="2.68874"><ele>87.6</ele></trkpt>
    <trkpt lat="48.8317" lon="2.68922"><ele>88.0</ele></trkpt>
    <trkpt lat="48.83182" lon="2.68973"><ele>88.8</ele></trkpt>
    <trkpt lat="48.83186" lon="2.69055"><ele>90.7</ele></trkpt>
    <trkpt lat="48.83147" lon="2.69405"><ele>103.9</ele></trkpt>
    <trkpt lat="48.83147" lon="2.69487"><ele>105.8</ele></trkpt>
    <trkpt lat="48.83153" lon="2.69568"><ele>106.9</ele></trkpt>
    <trkpt lat="48.83271" lon="2.70452"><ele>111.7</ele></trkpt>
    <trkpt lat="48.8328" lon="2.7056"><ele>113.5</ele></trkpt>
    <trkpt lat="48.83273" lon="2.70584"><ele>113.8</ele></trkpt>
    <trkpt lat="48.83273" lon="2.70609"><ele>114.0</ele></trkpt>
    <trkpt lat="48.83295" lon="2.7065"><ele>114.0</ele></trkpt>
    <trkpt lat="48.83301" lon="2.70676"><ele>114.0</ele></trkpt>
    <trkpt lat="48.83512" lon="2.72171"><ele>119.7</ele></trkpt>
    <trkpt lat="48.8351" lon="2.72226"><ele>120.0</ele></trkpt>
    <trkpt lat="48.83501" lon="2.72247"><ele>120.1</ele></trkpt>
    <trkpt lat="48.83484" lon="2.72257"><ele>120.2</ele></trkpt>
    <trkpt lat="48.83307" lon="2.72307"><ele>121.6</ele></trkpt>
    <trkpt lat="48.83254" lon="2.72254"><ele>121.9</ele></trkpt>
    <trkpt lat="48.83247" lon="2.72278"><ele>121.9</ele></trkpt>
    <trkpt lat="48.83236" lon="2.72297"><ele>122.0</ele></trkpt>
    <trkpt lat="48.83234" lon="2.72324"><ele>122.1</ele></trkpt>
    <trkpt lat="48.8324" lon="2.72348"><ele>122.2</ele></trkpt>
    <trkpt lat="48.83268" lon="2.72382"><ele>122.3</ele></trkpt>
    <trkpt lat="48.83274" lon="2.72407"><ele>122.3</ele></trkpt>
    <trkpt lat="48.83463" lon="2.73993"><ele>124.9</ele></trkpt>
    <trkpt lat="48.83472" lon="2.74007"><ele>124.9</ele></trkpt>
    <trkpt lat="48.83702" lon="2.73944"><ele>124.7</ele></trkpt>
    <trkpt lat="48.83714" lon="2.73952"><ele>124.7</ele></trkpt>
    <trkpt lat="48.83797" lon="2.75065"><ele>125.6</ele></trkpt>
    <trkpt lat="48.83804" lon="2.75284"><ele>127.5</ele></trkpt>
    <trkpt lat="48.83795" lon="2.75301"><ele>127.7</ele></trkpt>
    <trkpt lat="48.83791" lon="2.75355"><ele>128.0</ele></trkpt>
    <trkpt lat="48.83784" lon="2.76011"><ele>130.6</ele></trkpt>
    <trkpt lat="48.83781" lon="2.77104"><ele>130.5</ele></trkpt>
    <trkpt lat="48.83784" lon="2.7724"><ele>131.0</ele></trkpt>
    <trkpt lat="48.83856" lon="2.78163"><ele>131.5</ele></trkpt>
    <trkpt lat="48.83868" lon="2.78243"><ele>131.5</ele></trkpt>
    <trkpt lat="48.83913" lon="2.7845"><ele>131.5</ele></trkpt>
    <trkpt lat="48.83914" lon="2.78477"><ele>131.5</ele></trkpt>
    <trkpt lat="48.83904" lon="2.78528"><ele>131.4</ele></trkpt>
    <trkpt lat="48.83909" lon="2.78554"><ele>131.4</ele></trkpt>
    <trkpt lat="48.83921" lon="2.78573"><ele>131.4</ele></trkpt>
    <trkpt lat="48.83953" lon="2.78594"><ele>131.4</ele></trkpt>
    <trkpt lat="48.83964" lon="2.78615"><ele>131.5</ele></trkpt>
    <trkpt lat="48.84146" lon="2.7921"><ele>131.2</ele></trkpt>
    <trkpt lat="48.84235" lon="2.79478"><ele>130.6</ele></trkpt>
    <trkpt lat="48.84291" lon="2.79618"><ele>130.4</ele></trkpt>
    <trkpt lat="48.84357" lon="2.79811"><ele>130.3</ele></trkpt>
    <trkpt lat="48.84473" lon="2.80117"><ele>129.9</ele></trkpt>
    <trkpt lat="48.8455" lon="2.80334"><ele>129.7</ele></trkpt>
    <trkpt lat="48.85021" lon="2.81593"><ele>136.1</ele></trkpt>
    <trkpt lat="48.85066" lon="2.81742"><ele>135.9</ele></trkpt>
    <trkpt lat="48.85085" lon="2.81819"><ele>135.8</ele></trkpt>
    <trkpt lat="48.85095" lon="2.81871"><ele>135.9</ele></trkpt>
    <trkpt lat="48.85097" lon="2.81923"><ele>135.9</ele></trkpt>
    <trkpt lat="48.85107" lon="2.81944"><ele>135.9</ele></trkpt>
    <trkpt lat="48.85123" lon="2.82051"><ele>135.8</ele></trkpt>
    <trkpt lat="48.85128" lon="2.8216"><ele>136.0</ele></trkpt>
    <trkpt lat="48.85126" lon="2.82323"><ele>136.4</ele></trkpt>
    <trkpt lat="48.8511" lon="2.82458"><ele>136.2</ele></trkpt>
    <trkpt lat="48.85079" lon="2.82615"><ele>135.9</ele></trkpt>
    <trkpt lat="48.84939" lon="2.83118"><ele>138.5</ele></trkpt>
    <trkpt lat="48.84921" lon="2.83224"><ele>140.3</ele></trkpt>
    <trkpt lat="48.84916" lon="2.83306"><ele>141.3</ele></trkpt>
    <trkpt lat="48.84918" lon="2.83524"><ele>141.0</ele></trkpt>
    <trkpt lat="48.84922" lon="2.83579"><ele>140.3</ele></trkpt>
    <trkpt lat="48.84938" lon="2.83656"><ele>138.5</ele></trkpt>
    <trkpt lat="48.84955" lon="2.83704"><ele>137.3</ele></trkpt>
    <trkpt lat="48.84978" lon="2.83747"><ele>136.5</ele></trkpt>
    <trkpt lat="48.85056" lon="2.8386"><ele>136.1</ele></trkpt>
    <trkpt lat="48.85092" lon="2.83921"><ele>136.3</ele></trkpt>
    <trkpt lat="48.85139" lon="2.84038"><ele>136.7</ele></trkpt>
    <trkpt lat="48.85302" lon="2.84644"><ele>138.6</ele></trkpt>
    <trkpt lat="48.85311" lon="2.84697"><ele>138.6</ele></trkpt>
    <trkpt lat="48.85309" lon="2.84723"><ele>138.6</ele></trkpt>
    <trkpt lat="48.85334" lon="2.8476"><ele>138.3</ele></trkpt>
    <trkpt lat="48.85636" lon="2.85871"><ele>130.0</ele></trkpt>
    <trkpt lat="48.85632" lon="2.85895"><ele>129.4</ele></trkpt>
    <trkpt lat="48.85638" lon="2.85918"><ele>128.8</ele></trkpt>
    <trkpt lat="48.85655" lon="2.85923"><ele>128.2</ele></trkpt>
    <trkpt lat="48.85731" lon="2.86108"><ele>122.3</ele></trkpt>
    <trkpt lat="48.85755" lon="2.86148"><ele>121.2</ele></trkpt>
    <trkpt lat="48.85844" lon="2.86242"><ele>117.7</ele></trkpt>
    <trkpt lat="48.8594" lon="2.86315"><ele>112.7</ele></trkpt>
    <trkpt lat="48.85992" lon="2.8639"><ele>109.4</ele></trkpt>
    <trkpt lat="48.86089" lon="2.86512"><ele>104.5</ele></trkpt>
    <trkpt lat="48.86166" lon="2.86583"><ele>101.1</ele></trkpt>
    <trkpt lat="48.8617" lon="2.86608"><ele>100.3</ele></trkpt>
    <trkpt lat="48.86138" lon="2.86705"><ele>96.5</ele></trkpt>
    <trkpt lat="48.86141" lon="2.86731"><ele>95.5</ele></trkpt>
    <trkpt lat="48.86258" lon="2.86859"><ele>86.8</ele></trkpt>
    <trkpt lat="48.8627" lon="2.86879"><ele>85.8</ele></trkpt>
    <trkpt lat="48.86276" lon="2.86904"><ele>84.9</ele></trkpt>
    <trkpt lat="48.86274" lon="2.86931"><ele>84.1</ele></trkpt>
    <trkpt lat="48.86267" lon="2.86956"><ele>83.2</ele></trkpt>
    <trkpt lat="48.86198" lon="2.87148"><ele>75.2</ele></trkpt>
    <trkpt lat="48.86172" lon="2.87249"><ele>71.4</ele></trkpt>
    <trkpt lat="48.86112" lon="2.87507"><ele>60.9</ele></trkpt>
    <trkpt lat="48.86081" lon="2.8772"><ele>53.8</ele></trkpt>
    <trkpt lat="48.86006" lon="2.87874"><ele>53.0</ele></trkpt>
    <trkpt lat="48.85949" lon="2.8798"><ele>52.5</ele></trkpt>
    <trkpt lat="48.85933" lon="2.88029"><ele>52.2</ele></trkpt>
    <trkpt lat="48.85936" lon="2.88054"><ele>52.0</ele></trkpt>
    <trkpt lat="48.85966" lon="2.88084"><ele>51.5</ele></trkpt>
    <trkpt lat="48.85984" lon="2.88087"><ele>51.2</ele></trkpt>
    <trkpt lat="48.86033" lon="2.88055"><ele>50.2</ele></trkpt>
    <trkpt lat="48.86049" lon="2.88063"><ele>50.0</ele></trkpt>
    <trkpt lat="48.86134" lon="2.88164"><ele>49.5</ele></trkpt>
    <trkpt lat="48.86327" lon="2.88359"><ele>51.0</ele></trkpt>
    <trkpt lat="48.86303" lon="2.88432"><ele>50.9</ele></trkpt>
    <trkpt lat="48.86285" lon="2.8851"><ele>51.0</ele></trkpt>
    <trkpt lat="48.86263" lon="2.88642"><ele>51.5</ele></trkpt>
    <trkpt lat="48.86043" lon="2.89683"><ele>52.0</ele></trkpt>
    <trkpt lat="48.85967" lon="2.90687"><ele>52.7</ele></trkpt>
    <trkpt lat="48.85975" lon="2.90698"><ele>53.0</ele></trkpt>
    <trkpt lat="48.85992" lon="2.90692"><ele>53.3</ele></trkpt>
    <trkpt lat="48.86208" lon="2.90556"><ele>66.8</ele></trkpt>
    <trkpt lat="48.86237" lon="2.90524"><ele>69.7</ele></trkpt>
    <trkpt lat="48.86275" lon="2.90465"><ele>74.0</ele></trkpt>
    <trkpt lat="48.86324" lon="2.90351"><ele>81.1</ele></trkpt>
    <trkpt lat="48.86353" lon="2.90322"><ele>84.0</ele></trkpt>
    <trkpt lat="48.86371" lon="2.9032"><ele>85.7</ele></trkpt>
    <trkpt lat="48.86388" lon="2.90328"><ele>87.2</ele></trkpt>
    <trkpt lat="48.86403" lon="2.90345"><ele>88.4</ele></trkpt>
    <trkpt lat="48.86431" lon="2.90414"><ele>92.8</ele></trkpt>
    <trkpt lat="48.86443" lon="2.90433"><ele>94.2</ele></trkpt>
    <trkpt lat="48.86459" lon="2.90446"><ele>95.6</ele></trkpt>
    <trkpt lat="48.86567" lon="2.90444"><ele>102.9</ele></trkpt>
    <trkpt lat="48.86602" lon="2.90434"><ele>104.8</ele></trkpt>
    <trkpt lat="48.86742" lon="2.9031"><ele>115.4</ele></trkpt>
    <trkpt lat="48.86777" lon="2.90297"><ele>117.8</ele></trkpt>
    <trkpt lat="48.87134" lon="2.90301"><ele>119.6</ele></trkpt>
    <trkpt lat="48.87349" lon="2.90261"><ele>112.2</ele></trkpt>
    <trkpt lat="48.87384" lon="2.90267"><ele>111.1</ele></trkpt>
    <trkpt lat="48.87503" lon="2.90328"><ele>106.5</ele></trkpt>
    <trkpt lat="48.87573" lon="2.90356"><ele>103.1</ele></trkpt>
    <trkpt lat="48.87639" lon="2.904"><ele>100.1</ele></trkpt>
    <trkpt lat="48.87716" lon="2.90471"><ele>95.6</ele></trkpt>
    <trkpt lat="48.8781" lon="2.90597"><ele>91.4</ele></trkpt>
    <trkpt lat="48.87812" lon="2.90614"><ele>91.4</ele></trkpt>
    <trkpt lat="48.87768" lon="2.90701"><ele>92.7</ele></trkpt>
    <trkpt lat="48.87754" lon="2.90779"><ele>93.7</ele></trkpt>
    <trkpt lat="48.87709" lon="2.90929"><ele>95.1</ele></trkpt>
    <trkpt lat="48.87698" lon="2.91009"><ele>95.6</ele></trkpt>
    <trkpt lat="48.87696" lon="2.912"><ele>97.2</ele></trkpt>
    <trkpt lat="48.87683" lon="2.91203"><ele>97.4</ele></trkpt>
    <trkpt lat="48.87631" lon="2.91186"><ele>97.7</ele></trkpt>
    <trkpt lat="48.87505" lon="2.91203"><ele>100.4</ele></trkpt>
    <trkpt lat="48.87338" lon="2.91305"><ele>106.4</ele></trkpt>
    <trkpt lat="48.87252" lon="2.91344"><ele>110.8</ele></trkpt>
    <trkpt lat="48.87151" lon="2.91457"><ele>118.3</ele></trkpt>
    <trkpt lat="48.87073" lon="2.91525"><ele>123.6</ele></trkpt>
    <trkpt lat="48.86846" lon="2.91692"><ele>133.4</ele></trkpt>
    <trkpt lat="48.86742" lon="2.91798"><ele>133.1</ele></trkpt>
    <trkpt lat="48.86639" lon="2.91847"><ele>131.1</ele></trkpt>
    <trkpt lat="48.86607" lon="2.91871"><ele>130.0</ele></trkpt>
    <trkpt lat="48.86423" lon="2.9217"><ele>113.0</ele></trkpt>
    <trkpt lat="48.86356" lon="2.9226"><ele>107.6</ele></trkpt>
    <trkpt lat="48.86321" lon="2.9227"><ele>104.8</ele></trkpt>
    <trkpt lat="48.86219" lon="2.92218"><ele>97.0</ele></trkpt>
    <trkpt lat="48.86183" lon="2.92214"><ele>94.8</ele></trkpt>
    <trkpt lat="48.86022" lon="2.92242"><ele>85.3</ele></trkpt>
    <trkpt lat="48.86005" lon="2.9225"><ele>84.0</ele></trkpt>
    <trkpt lat="48.85993" lon="2.92269"><ele>82.7</ele></trkpt>
    <trkpt lat="48.85991" lon="2.92295"><ele>81.5</ele></trkpt>
    <trkpt lat="48.86013" lon="2.924"><ele>76.6</ele></trkpt>
    <trkpt lat="48.86009" lon="2.92422"><ele>75.6</ele></trkpt>
    <trkpt lat="48.85943" lon="2.92331"><ele>72.2</ele></trkpt>
    <trkpt lat="48.85916" lon="2.9226"><ele>70.3</ele></trkpt>
    <trkpt lat="48.85897" lon="2.92184"><ele>67.5</ele></trkpt>
    <trkpt lat="48.85894" lon="2.91993"><ele>59.4</ele></trkpt>
    <trkpt lat="48.85909" lon="2.91831"><ele>56.1</ele></trkpt>
    <trkpt lat="48.85906" lon="2.91804"><ele>56.1</ele></trkpt>
    <trkpt lat="48.85937" lon="2.91619"><ele>57.4</ele></trkpt>
    <trkpt lat="48.85945" lon="2.9151"><ele>56.8</ele></trkpt>
    <trkpt lat="48.85905" lon="2.91458"><ele>54.2</ele></trkpt>
    <trkpt lat="48.85815" lon="2.91367"><ele>51.2</ele></trkpt>
    <trkpt lat="48.85803" lon="2.91349"><ele>51.0</ele></trkpt>
    <trkpt lat="48.85784" lon="2.90939"><ele>50.5</ele></trkpt>
    <trkpt lat="48.85771" lon="2.90832"><ele>50.4</ele></trkpt>
    <trkpt lat="48.85759" lon="2.90835"><ele>50.4</ele></trkpt>
    <trkpt lat="48.85665" lon="2.91"><ele>50.5</ele></trkpt>
    <trkpt lat="48.85628" lon="2.91094"><ele>50.4</ele></trkpt>
    <trkpt lat="48.85617" lon="2.91096"><ele>50.4</ele></trkpt>
    <trkpt lat="48.85575" lon="2.91044"><ele>50.3</ele></trkpt>
    <trkpt lat="48.85555" lon="2.91"><ele>50.5</ele></trkpt>
    <trkpt lat="48.85542" lon="2.90984"><ele>50.7</ele></trkpt>
    <trkpt lat="48.85472" lon="2.9099"><ele>51.0</ele></trkpt>
    <trkpt lat="48.8545" lon="2.91031"><ele>50.8</ele></trkpt>
    <trkpt lat="48.85432" lon="2.91165"><ele>50.6</ele></trkpt>
    <trkpt lat="48.85433" lon="2.91192"><ele>50.6</ele></trkpt>
    <trkpt lat="48.85516" lon="2.9161"><ele>50.7</ele></trkpt>
    <trkpt lat="48.85519" lon="2.91665"><ele>51.0</ele></trkpt>
    <trkpt lat="48.85511" lon="2.92157"><ele>54.2</ele></trkpt>
    <trkpt lat="48.85501" lon="2.92237"><ele>54.5</ele></trkpt>
    <trkpt lat="48.85455" lon="2.92353"><ele>55.9</ele></trkpt>
    <trkpt lat="48.85438" lon="2.92364"><ele>56.4</ele></trkpt>
    <trkpt lat="48.85385" lon="2.92372"><ele>58.1</ele></trkpt>
    <trkpt lat="48.85367" lon="2.92367"><ele>58.7</ele></trkpt>
    <trkpt lat="48.85088" lon="2.9218"><ele>69.6</ele></trkpt>
    <trkpt lat="48.84942" lon="2.92074"><ele>73.9</ele></trkpt>
    <trkpt lat="48.8479" lon="2.91929"><ele>68.3</ele></trkpt>
    <trkpt lat="48.84717" lon="2.91742"><ele>59.9</ele></trkpt>
    <trkpt lat="48.84648" lon="2.91317"><ele>53.5</ele></trkpt>
    <trkpt lat="48.84615" lon="2.9122"><ele>53.1</ele></trkpt>
    <trkpt lat="48.84582" lon="2.91155"><ele>52.9</ele></trkpt>
    <trkpt lat="48.84462" lon="2.90952"><ele>52.7</ele></trkpt>
    <trkpt lat="48.84313" lon="2.90755"><ele>54.2</ele></trkpt>
    <trkpt lat="48.84269" lon="2.90708"><ele>54.5</ele></trkpt>
    <trkpt lat="48.84202" lon="2.90666"><ele>54.2</ele></trkpt>
    <trkpt lat="48.84168" lon="2.90652"><ele>53.9</ele></trkpt>
    <trkpt lat="48.83581" lon="2.90513"><ele>53.0</ele></trkpt>
    <trkpt lat="48.83363" lon="2.90387"><ele>54.0</ele></trkpt>
    <trkpt lat="48.83034" lon="2.90167"><ele>56.4</ele></trkpt>
    <trkpt lat="48.83006" lon="2.90097"><ele>59.3</ele></trkpt>
    <trkpt lat="48.82952" lon="2.89808"><ele>73.8</ele></trkpt>
    <trkpt lat="48.82937" lon="2.89795"><ele>75.3</ele></trkpt>
    <trkpt lat="48.82919" lon="2.89793"><ele>76.6</ele></trkpt>
    <trkpt lat="48.82903" lon="2.89783"><ele>78.1</ele></trkpt>
    <trkpt lat="48.82894" lon="2.8976"><ele>79.6</ele></trkpt>
    <trkpt lat="48.82891" lon="2.89706"><ele>82.1</ele></trkpt>
    <trkpt lat="48.82895" lon="2.89515"><ele>90.6</ele></trkpt>
    <trkpt lat="48.82883" lon="2.89435"><ele>93.7</ele></trkpt>
    <trkpt lat="48.82722" lon="2.88917"><ele>105.8</ele></trkpt>
    <trkpt lat="48.8264" lon="2.88674"><ele>112.8</ele></trkpt>
    <trkpt lat="48.82504" lon="2.88385"><ele>122.8</ele></trkpt>
    <trkpt lat="48.82468" lon="2.88324"><ele>124.3</ele></trkpt>
    <trkpt lat="48.82397" lon="2.8824"><ele>126.3</ele></trkpt>
    <trkpt lat="48.82374" lon="2.882"><ele>126.8</ele></trkpt>
    <trkpt lat="48.82366" lon="2.88119"><ele>127.6</ele></trkpt>
    <trkpt lat="48.82353" lon="2.88068"><ele>127.9</ele></trkpt>
    <trkpt lat="48.82262" lon="2.87801"><ele>129.2</ele></trkpt>
    <trkpt lat="48.82256" lon="2.87748"><ele>129.3</ele></trkpt>
    <trkpt lat="48.82265" lon="2.87698"><ele>129.4</ele></trkpt>
    <trkpt lat="48.82253" lon="2.87677"><ele>129.4</ele></trkpt>
    <trkpt lat="48.82244" lon="2.87625"><ele>129.5</ele></trkpt>
    <trkpt lat="48.8222" lon="2.87586"><ele>129.6</ele></trkpt>
    <trkpt lat="48.82189" lon="2.87558"><ele>129.7</ele></trkpt>
    <trkpt lat="48.82167" lon="2.87516"><ele>129.8</ele></trkpt>
    <trkpt lat="48.8186" lon="2.86618"><ele>130.8</ele></trkpt>
    <trkpt lat="48.81844" lon="2.8654"><ele>130.7</ele></trkpt>
    <trkpt lat="48.8157" lon="2.84814"><ele>126.4</ele></trkpt>
    <trkpt lat="48.81522" lon="2.84328"><ele>124.8</ele></trkpt>
    <trkpt lat="48.81523" lon="2.84247"><ele>125.0</ele></trkpt>
    <trkpt lat="48.81541" lon="2.842"><ele>125.0</ele></trkpt>
    <trkpt lat="48.81537" lon="2.84174"><ele>125.0</ele></trkpt>
    <trkpt lat="48.81512" lon="2.84139"><ele>124.6</ele></trkpt>
    <trkpt lat="48.81497" lon="2.8406"><ele>123.9</ele></trkpt>
    <trkpt lat="48.81435" lon="2.83384"><ele>125.1</ele></trkpt>
    <trkpt lat="48.81414" lon="2.83058"><ele>125.8</ele></trkpt>
    <trkpt lat="48.81413" lon="2.82977"><ele>125.8</ele></trkpt>
    <trkpt lat="48.81446" lon="2.82985"><ele>125.8</ele></trkpt>
    <trkpt lat="48.81495" lon="2.82841"><ele>126.1</ele></trkpt>
    <trkpt lat="48.81509" lon="2.82825"><ele>126.2</ele></trkpt>
    <trkpt lat="48.81558" lon="2.82791"><ele>126.4</ele></trkpt>
    <trkpt lat="48.81571" lon="2.82773"><ele>126.5</ele></trkpt>
    <trkpt lat="48.81716" lon="2.82098"><ele>125.8</ele></trkpt>
    <trkpt lat="48.81732" lon="2.82049"><ele>125.8</ele></trkpt>
    <trkpt lat="48.81754" lon="2.82006"><ele>125.6</ele></trkpt>
    <trkpt lat="48.81805" lon="2.8193"><ele>125.4</ele></trkpt>
    <trkpt lat="48.8185" lon="2.81885"><ele>125.6</ele></trkpt>
    <trkpt lat="48.81868" lon="2.81886"><ele>125.7</ele></trkpt>
    <trkpt lat="48.81884" lon="2.81877"><ele>125.7</ele></trkpt>
    <trkpt lat="48.81893" lon="2.81854"><ele>125.6</ele></trkpt>
    <trkpt lat="48.81894" lon="2.81827"><ele>125.6</ele></trkpt>
    <trkpt lat="48.81883" lon="2.81806"><ele>125.5</ele></trkpt>
    <trkpt lat="48.81851" lon="2.81786"><ele>125.3</ele></trkpt>
    <trkpt lat="48.81839" lon="2.81765"><ele>125.2</ele></trkpt>
    <trkpt lat="48.81803" lon="2.81641"><ele>124.8</ele></trkpt>
    <trkpt lat="48.81764" lon="2.81319"><ele>123.7</ele></trkpt>
    <trkpt lat="48.81703" lon="2.81004"><ele>122.4</ele></trkpt>
    <trkpt lat="48.81652" lon="2.80771"><ele>121.5</ele></trkpt>
    <trkpt lat="48.81624" lon="2.80529"><ele>120.8</ele></trkpt>
    <trkpt lat="48.81604" lon="2.80396"><ele>121.0</ele></trkpt>
    <trkpt lat="48.81595" lon="2.80288"><ele>121.4</ele></trkpt>
    <trkpt lat="48.81599" lon="2.7996"><ele>122.2</ele></trkpt>
    <trkpt lat="48.81603" lon="2.79906"><ele>122.1</ele></trkpt>
    <trkpt lat="48.8165" lon="2.79614"><ele>121.1</ele></trkpt>
    <trkpt lat="48.81635" lon="2.79536"><ele>121.0</ele></trkpt>
    <trkpt lat="48.81565" lon="2.79284"><ele>120.7</ele></trkpt>
    <trkpt lat="48.81575" lon="2.79269"><ele>120.5</ele></trkpt>
    <trkpt lat="48.81591" lon="2.79258"><ele>120.2</ele></trkpt>
    <trkpt lat="48.81677" lon="2.79215"><ele>120.0</ele></trkpt>
    <trkpt lat="48.81681" lon="2.79164"><ele>120.2</ele></trkpt>
    <trkpt lat="48.81648" lon="2.79008"><ele>120.4</ele></trkpt>
    <trkpt lat="48.81655" lon="2.78954"><ele>120.6</ele></trkpt>
    <trkpt lat="48.81662" lon="2.7893"><ele>120.8</ele></trkpt>
    <trkpt lat="48.81935" lon="2.78192"><ele>129.9</ele></trkpt>
    <trkpt lat="48.8221" lon="2.77551"><ele>125.9</ele></trkpt>
    <trkpt lat="48.82457" lon="2.76852"><ele>137.4</ele></trkpt>
    <trkpt lat="48.82481" lon="2.76813"><ele>138.8</ele></trkpt>
    <trkpt lat="48.82644" lon="2.76643"><ele>142.8</ele></trkpt>
    <trkpt lat="48.82654" lon="2.7662"><ele>142.7</ele></trkpt>
    <trkpt lat="48.82662" lon="2.76596"><ele>142.4</ele></trkpt>
    <trkpt lat="48.82662" lon="2.76569"><ele>142.0</ele></trkpt>
    <trkpt lat="48.82649" lon="2.76518"><ele>141.2</ele></trkpt>
    <trkpt lat="48.82621" lon="2.76448"><ele>139.7</ele></trkpt>
    <trkpt lat="48.82617" lon="2.76422"><ele>139.2</ele></trkpt>
    <trkpt lat="48.82623" lon="2.76369"><ele>138.4</ele></trkpt>
    <trkpt lat="48.8281" lon="2.7584"><ele>132.5</ele></trkpt>
    <trkpt lat="48.82883" lon="2.75651"><ele>132.4</ele></trkpt>
    <trkpt lat="48.8291" lon="2.75615"><ele>132.8</ele></trkpt>
    <trkpt lat="48.82954" lon="2.75572"><ele>133.0</ele></trkpt>
    <trkpt lat="48.83113" lon="2.75527"><ele>129.9</ele></trkpt>
    <trkpt lat="48.83183" lon="2.755"><ele>127.0</ele></trkpt>
    <trkpt lat="48.83411" lon="2.7534"><ele>125.2</ele></trkpt>
    <trkpt lat="48.83445" lon="2.75322"><ele>125.4</ele></trkpt>
    <trkpt lat="48.83714" lon="2.75294"><ele>126.6</ele></trkpt>
    <trkpt lat="48.83947" lon="2.75301"><ele>126.0</ele></trkpt>
    <trkpt lat="48.83983" lon="2.75295"><ele>125.6</ele></trkpt>
    <trkpt lat="48.84017" lon="2.75278"><ele>125.2</ele></trkpt>
    <trkpt lat="48.84114" lon="2.75205"><ele>124.3</ele></trkpt>
    <trkpt lat="48.84237" lon="2.75094"><ele>123.5</ele></trkpt>
    <trkpt lat="48.84352" lon="2.75016"><ele>122.4</ele></trkpt>
    <trkpt lat="48.84365" lon="2.74998"><ele>122.3</ele></trkpt>
    <trkpt lat="48.84499" lon="2.7455"><ele>121.2</ele></trkpt>
    <trkpt lat="48.84514" lon="2.74535"><ele>121.1</ele></trkpt>
    <trkpt lat="48.84531" lon="2.74529"><ele>121.0</ele></trkpt>
    <trkpt lat="48.8454" lon="2.74506"><ele>120.8</ele></trkpt>
    <trkpt lat="48.84534" lon="2.74454"><ele>120.2</ele></trkpt>
    <trkpt lat="48.84536" lon="2.74428"><ele>119.8</ele></trkpt>
    <trkpt lat="48.84565" lon="2.74328"><ele>118.1</ele></trkpt>
    <trkpt lat="48.8483" lon="2.73646"><ele>108.7</ele></trkpt>
    <trkpt lat="48.84865" lon="2.73583"><ele>107.8</ele></trkpt>
    <trkpt lat="48.84951" lon="2.73485"><ele>106.4</ele></trkpt>
    <trkpt lat="48.84967" lon="2.73474"><ele>106.2</ele></trkpt>
    <trkpt lat="48.84984" lon="2.7348"><ele>106.0</ele></trkpt>
    <trkpt lat="48.85001" lon="2.73473"><ele>105.7</ele></trkpt>
    <trkpt lat="48.85009" lon="2.7345"><ele>105.5</ele></trkpt>
    <trkpt lat="48.85005" lon="2.73425"><ele>105.4</ele></trkpt>
    <trkpt lat="48.84995" lon="2.73404"><ele>105.4</ele></trkpt>
    <trkpt lat="48.85" lon="2.73351"><ele>105.4</ele></trkpt>
    <trkpt lat="48.8521" lon="2.72536"><ele>111.8</ele></trkpt>
    <trkpt lat="48.85226" lon="2.72458"><ele>111.8</ele></trkpt>
    <trkpt lat="48.85232" lon="2.72377"><ele>111.4</ele></trkpt>
    <trkpt lat="48.85244" lon="2.71912"><ele>112.4</ele></trkpt>
    <trkpt lat="48.85238" lon="2.71804"><ele>111.9</ele></trkpt>
    <trkpt lat="48.85248" lon="2.71753"><ele>111.3</ele></trkpt>
    <trkpt lat="48.85244" lon="2.71728"><ele>110.9</ele></trkpt>
    <trkpt lat="48.8525" lon="2.71674"><ele>110.1</ele></trkpt>
    <trkpt lat="48.8526" lon="2.71429"><ele>107.5</ele></trkpt>
    <trkpt lat="48.85274" lon="2.71379"><ele>107.0</ele></trkpt>
    <trkpt lat="48.85372" lon="2.7122"><ele>101.5</ele></trkpt>
    <trkpt lat="48.85392" lon="2.71174"><ele>100.6</ele></trkpt>
    <trkpt lat="48.85464" lon="2.70556"><ele>98.5</ele></trkpt>
    <trkpt lat="48.85475" lon="2.70475"><ele>98.2</ele></trkpt>
    <trkpt lat="48.85487" lon="2.70426"><ele>97.2</ele></trkpt>
    <trkpt lat="48.86023" lon="2.70334"><ele>68.7</ele></trkpt>
    <trkpt lat="48.86058" lon="2.70347"><ele>68.1</ele></trkpt>
    <trkpt lat="48.86158" lon="2.70406"><ele>70.5</ele></trkpt>
    <trkpt lat="48.86176" lon="2.70413"><ele>71.6</ele></trkpt>
    <trkpt lat="48.86193" lon="2.7041"><ele>72.7</ele></trkpt>
    <trkpt lat="48.86209" lon="2.70397"><ele>73.9</ele></trkpt>
    <trkpt lat="48.8622" lon="2.70377"><ele>75.0</ele></trkpt>
    <trkpt lat="48.86247" lon="2.70275"><ele>78.8</ele></trkpt>
    <trkpt lat="48.86257" lon="2.70253"><ele>79.7</ele></trkpt>
    <trkpt lat="48.86273" lon="2.7024"><ele>80.8</ele></trkpt>
    <trkpt lat="48.8629" lon="2.70242"><ele>82.0</ele></trkpt>
    <trkpt lat="48.86303" lon="2.7026"><ele>83.4</ele></trkpt>
    <trkpt lat="48.86366" lon="2.70393"><ele>89.7</ele></trkpt>
    <trkpt lat="48.86379" lon="2.70411"><ele>90.5</ele></trkpt>
    <trkpt lat="48.86527" lon="2.70509"><ele>98.8</ele></trkpt>
    <trkpt lat="48.86548" lon="2.70378"><ele>99.5</ele></trkpt>
    <trkpt lat="48.86562" lon="2.70161"><ele>99.2</ele></trkpt>
    <trkpt lat="48.86561" lon="2.70079"><ele>98.5</ele></trkpt>
    <trkpt lat="48.86546" lon="2.69861"><ele>96.1</ele></trkpt>
    <trkpt lat="48.86551" lon="2.69808"><ele>95.5</ele></trkpt>
    <trkpt lat="48.86541" lon="2.69789"><ele>95.0</ele></trkpt>
    <trkpt lat="48.86432" lon="2.69691"><ele>87.2</ele></trkpt>
    <trkpt lat="48.86296" lon="2.69514"><ele>74.7</ele></trkpt>
    <trkpt lat="48.86261" lon="2.69419"><ele>74.0</ele></trkpt>
    <trkpt lat="48.86256" lon="2.69392"><ele>74.4</ele></trkpt>
    <trkpt lat="48.86262" lon="2.69256"><ele>76.6</ele></trkpt>
    <trkpt lat="48.86259" lon="2.69232"><ele>76.4</ele></trkpt>
    <trkpt lat="48.86247" lon="2.69212"><ele>75.7</ele></trkpt>
    <trkpt lat="48.8623" lon="2.69135"><ele>71.1</ele></trkpt>
    <trkpt lat="48.8622" lon="2.69113"><ele>69.1</ele></trkpt>
    <trkpt lat="48.86167" lon="2.69098"><ele>64.0</ele></trkpt>
    <trkpt lat="48.86108" lon="2.69038"><ele>57.7</ele></trkpt>
    <trkpt lat="48.86056" lon="2.69021"><ele>53.6</ele></trkpt>
    <trkpt lat="48.86051" lon="2.69003"><ele>52.9</ele></trkpt>
    <trkpt lat="48.86064" lon="2.68868"><ele>51.5</ele></trkpt>
    <trkpt lat="48.86062" lon="2.68841"><ele>51.4</ele></trkpt>
    <trkpt lat="48.8602" lon="2.68603"><ele>50.2</ele></trkpt>
    <trkpt lat="48.8601" lon="2.68522"><ele>49.7</ele></trkpt>
    <trkpt lat="48.86012" lon="2.68468"><ele>49.3</ele></trkpt>
    <trkpt lat="48.86038" lon="2.68253"><ele>47.9</ele></trkpt>
    <trkpt lat="48.86032" lon="2.68144"><ele>47.1</ele></trkpt>
    <trkpt lat="48.86037" lon="2.68035"><ele>46.4</ele></trkpt>
    <trkpt lat="48.86032" lon="2.67898"><ele>46.1</ele></trkpt>
    <trkpt lat="48.86037" lon="2.67844"><ele>45.9</ele></trkpt>
    <trkpt lat="48.86058" lon="2.67769"><ele>45.4</ele></trkpt>
    <trkpt lat="48.86071" lon="2.6775"><ele>45.3</ele></trkpt>
    <trkpt lat="48.86216" lon="2.67641"><ele>45.0</ele></trkpt>
    <trkpt lat="48.86273" lon="2.67576"><ele>44.4</ele></trkpt>
    <trkpt lat="48.86294" lon="2.67532"><ele>44.2</ele></trkpt>
    <trkpt lat="48.86289" lon="2.67511"><ele>44.2</ele></trkpt>
    <trkpt lat="48.86278" lon="2.67491"><ele>44.1</ele></trkpt>
    <trkpt lat="48.86127" lon="2.67343"><ele>44.7</ele></trkpt>
    <trkpt lat="48.86119" lon="2.67325"><ele>44.9</ele></trkpt>
    <trkpt lat="48.86118" lon="2.67305"><ele>44.9</ele></trkpt>
    <trkpt lat="48.86104" lon="2.67288"><ele>44.9</ele></trkpt>
    <trkpt lat="48.86094" lon="2.67236"><ele>44.9</ele></trkpt>
    <trkpt lat="48.86091" lon="2.6721"><ele>45.0</ele></trkpt>
    <trkpt lat="48.86109" lon="2.67133"><ele>45.7</ele></trkpt>
    <trkpt lat="48.86116" lon="2.67079"><ele>46.5</ele></trkpt>
    <trkpt lat="48.86119" lon="2.66915"><ele>49.5</ele></trkpt>
    <trkpt lat="48.86122" lon="2.66888"><ele>49.9</ele></trkpt>
    <trkpt lat="48.86137" lon="2.66841"><ele>50.9</ele></trkpt>
    <trkpt lat="48.8612" lon="2.66794"><ele>51.4</ele></trkpt>
    <trkpt lat="48.86119" lon="2.66767"><ele>51.6</ele></trkpt>
    <trkpt lat="48.86119" lon="2.66658"><ele>51.2</ele></trkpt>
    <trkpt lat="48.86131" lon="2.6655"><ele>49.9</ele></trkpt>
    <trkpt lat="48.8613" lon="2.66523"><ele>49.4</ele></trkpt>
    <trkpt lat="48.86118" lon="2.66332"><ele>44.9</ele></trkpt>
    <trkpt lat="48.86102" lon="2.66198"><ele>41.8</ele></trkpt>
    <trkpt lat="48.86081" lon="2.66093"><ele>41.0</ele></trkpt>
    <trkpt lat="48.85962" lon="2.65578"><ele>41.9</ele></trkpt>
    <trkpt lat="48.85961" lon="2.65556"><ele>42.0</ele></trkpt>
    <trkpt lat="48.85977" lon="2.65543"><ele>42.1</ele></trkpt>
    <trkpt lat="48.85983" lon="2.65518"><ele>42.2</ele></trkpt>
    <trkpt lat="48.85953" lon="2.65249"><ele>42.1</ele></trkpt>
    <trkpt lat="48.85957" lon="2.64948"><ele>41.6</ele></trkpt>
    <trkpt lat="48.85942" lon="2.64758"><ele>41.5</ele></trkpt>
    <trkpt lat="48.85952" lon="2.64678"><ele>41.8</ele></trkpt>
    <trkpt lat="48.85949" lon="2.64654"><ele>41.8</ele></trkpt>
    <trkpt lat="48.85929" lon="2.64612"><ele>41.7</ele></trkpt>
    <trkpt lat="48.85859" lon="2.64587"><ele>41.4</ele></trkpt>
    <trkpt lat="48.8583" lon="2.64555"><ele>41.3</ele></trkpt>
    <trkpt lat="48.85796" lon="2.64429"><ele>40.9</ele></trkpt>
    <trkpt lat="48.85697" lon="2.63961"><ele>41.2</ele></trkpt>
    <trkpt lat="48.8562" lon="2.63684"><ele>41.8</ele></trkpt>
    <trkpt lat="48.85597" lon="2.63552"><ele>42.0</ele></trkpt>
    <trkpt lat="48.85587" lon="2.63471"><ele>41.9</ele></trkpt>
    <trkpt lat="48.85584" lon="2.63335"><ele>41.5</ele></trkpt>
    <trkpt lat="48.85598" lon="2.6309"><ele>41.9</ele></trkpt>
    <trkpt lat="48.85602" lon="2.63063"><ele>41.9</ele></trkpt>
    <trkpt lat="48.85623" lon="2.6302"><ele>41.9</ele></trkpt>
    <trkpt lat="48.85623" lon="2.62995"><ele>41.8</ele></trkpt>
    <trkpt lat="48.85607" lon="2.62953"><ele>41.6</ele></trkpt>
    <trkpt lat="48.85624" lon="2.62737"><ele>41.7</ele></trkpt>
    <trkpt lat="48.85612" lon="2.62384"><ele>48.4</ele></trkpt>
    <trkpt lat="48.85608" lon="2.6236"><ele>49.3</ele></trkpt>
    <trkpt lat="48.85593" lon="2.62345"><ele>50.2</ele></trkpt>
    <trkpt lat="48.85568" lon="2.62273"><ele>52.9</ele></trkpt>
    <trkpt lat="48.8554" lon="2.6224"><ele>54.7</ele></trkpt>
    <trkpt lat="48.85249" lon="2.621"><ele>73.6</ele></trkpt>
    <trkpt lat="48.85177" lon="2.621"><ele>77.2</ele></trkpt>
    <trkpt lat="48.85163" lon="2.62084"><ele>77.9</ele></trkpt>
    <trkpt lat="48.85154" lon="2.62061"><ele>78.6</ele></trkpt>
    <trkpt lat="48.85158" lon="2.62007"><ele>79.5</ele></trkpt>
    <trkpt lat="48.85266" lon="2.61429"><ele>79.5</ele></trkpt>
    <trkpt lat="48.8523" lon="2.60289"><ele>76.5</ele></trkpt>
    <trkpt lat="48.85231" lon="2.60152"><ele>75.1</ele></trkpt>
    <trkpt lat="48.85215" lon="2.60019"><ele>72.7</ele></trkpt>
    <trkpt lat="48.85163" lon="2.60038"><ele>73.2</ele></trkpt>
    <trkpt lat="48.85048" lon="2.60115"><ele>77.4</ele></trkpt>
    <trkpt lat="48.8503" lon="2.60121"><ele>78.0</ele></trkpt>
    <trkpt lat="48.84851" lon="2.6011"><ele>78.6</ele></trkpt>
    <trkpt lat="48.84762" lon="2.60128"><ele>78.4</ele></trkpt>
    <trkpt lat="48.8471" lon="2.60151"><ele>78.1</ele></trkpt>
    <trkpt lat="48.84674" lon="2.60158"><ele>77.7</ele></trkpt>
    <trkpt lat="48.84551" lon="2.60121"><ele>77.2</ele></trkpt>
    <trkpt lat="48.84408" lon="2.60147"><ele>78.5</ele></trkpt>
    <trkpt lat="48.84354" lon="2.60147"><ele>78.7</ele></trkpt>
    <trkpt lat="48.8405" lon="2.60105"><ele>80.2</ele></trkpt>
    <trkpt lat="48.84037" lon="2.60095"><ele>80.3</ele></trkpt>
    <trkpt lat="48.84026" lon="2.60074"><ele>80.4</ele></trkpt>
    <trkpt lat="48.84009" lon="2.60071"><ele>80.6</ele></trkpt>
    <trkpt lat="48.83985" lon="2.60102"><ele>80.9</ele></trkpt>
    <trkpt lat="48.83967" lon="2.60097"><ele>81.1</ele></trkpt>
    <trkpt lat="48.83934" lon="2.60077"><ele>81.7</ele></trkpt>
    <trkpt lat="48.83734" lon="2.59893"><ele>91.1</ele></trkpt>
    <trkpt lat="48.83684" lon="2.59865"><ele>92.3</ele></trkpt>
    <trkpt lat="48.83631" lon="2.59848"><ele>93.3</ele></trkpt>
    <trkpt lat="48.83523" lon="2.59844"><ele>94.8</ele></trkpt>
    <trkpt lat="48.8311" lon="2.5986"><ele>99.9</ele></trkpt>
    <trkpt lat="48.83123" lon="2.59781"><ele>98.0</ele></trkpt>
    <trkpt lat="48.83137" lon="2.5973"><ele>96.3</ele></trkpt>
    <trkpt lat="48.83155" lon="2.59683"><ele>94.4</ele></trkpt>
    <trkpt lat="48.8322" lon="2.59553"><ele>90.2</ele></trkpt>
    <trkpt lat="48.83246" lon="2.59481"><ele>89.2</ele></trkpt>
    <trkpt lat="48.83265" lon="2.59376"><ele>88.7</ele></trkpt>
    <trkpt lat="48.83265" lon="2.59267"><ele>88.8</ele></trkpt>
    <trkpt lat="48.83252" lon="2.59187"><ele>89.4</ele></trkpt>
    <trkpt lat="48.83229" lon="2.59114"><ele>90.7</ele></trkpt>
    <trkpt lat="48.83209" lon="2.59068"><ele>91.7</ele></trkpt>
    <trkpt lat="48.83137" lon="2.58945"><ele>95.6</ele></trkpt>
    <trkpt lat="48.83133" lon="2.58925"><ele>96.2</ele></trkpt>
    <trkpt lat="48.83137" lon="2.58899"><ele>96.7</ele></trkpt>
    <trkpt lat="48.83127" lon="2.58877"><ele>97.1</ele></trkpt>
    <trkpt lat="48.8311" lon="2.58873"><ele>97.4</ele></trkpt>
    <trkpt lat="48.831" lon="2.58861"><ele>97.7</ele></trkpt>
    <trkpt lat="48.83086" lon="2.5881"><ele>98.0</ele></trkpt>
    <trkpt lat="48.83078" lon="2.58757"><ele>98.4</ele></trkpt>
    <trkpt lat="48.83073" lon="2.58648"><ele>98.9</ele></trkpt>
    <trkpt lat="48.83068" lon="2.58622"><ele>98.9</ele></trkpt>
    <trkpt lat="48.83048" lon="2.58577"><ele>98.9</ele></trkpt>
    <trkpt lat="48.83038" lon="2.58525"><ele>98.7</ele></trkpt>
    <trkpt lat="48.83012" lon="2.58311"><ele>98.7</ele></trkpt>
    <trkpt lat="48.82999" lon="2.58149"><ele>98.7</ele></trkpt>
    <trkpt lat="48.83012" lon="2.58134"><ele>98.7</ele></trkpt>
    <trkpt lat="48.83027" lon="2.58131"><ele>98.7</ele></trkpt>
    <trkpt lat="48.8326" lon="2.58165"><ele>99.2</ele></trkpt>
    <trkpt lat="48.83293" lon="2.58145"><ele>99.1</ele></trkpt>
    <trkpt lat="48.83304" lon="2.58125"><ele>99.0</ele></trkpt>
    <trkpt lat="48.83318" lon="2.58074"><ele>98.9</ele></trkpt>
    <trkpt lat="48.83325" lon="2.57938"><ele>98.8</ele></trkpt>
    <trkpt lat="48.83323" lon="2.57884"><ele>98.9</ele></trkpt>
    <trkpt lat="48.83328" lon="2.57775"><ele>99.1</ele></trkpt>
    <trkpt lat="48.83336" lon="2.57755"><ele>99.1</ele></trkpt>
    <trkpt lat="48.83331" lon="2.57733"><ele>99.2</ele></trkpt>
    <trkpt lat="48.83369" lon="2.56998"><ele>100.4</ele></trkpt>
    <trkpt lat="48.83376" lon="2.56973"><ele>100.2</ele></trkpt>
    <trkpt lat="48.83392" lon="2.56961"><ele>100.0</ele></trkpt>
    <trkpt lat="48.83464" lon="2.56969"><ele>99.4</ele></trkpt>
    <trkpt lat="48.83474" lon="2.56952"><ele>99.3</ele></trkpt>
    <trkpt lat="48.83486" lon="2.56707"><ele>98.0</ele></trkpt>
    <trkpt lat="48.83475" lon="2.56572"><ele>97.4</ele></trkpt>
    <trkpt lat="48.83491" lon="2.56567"><ele>97.5</ele></trkpt>
    <trkpt lat="48.83518" lon="2.56532"><ele>98.0</ele></trkpt>
    <trkpt lat="48.83527" lon="2.56508"><ele>98.4</ele></trkpt>
    <trkpt lat="48.8353" lon="2.56481"><ele>99.0</ele></trkpt>
    <trkpt lat="48.83517" lon="2.56295"><ele>101.7</ele></trkpt>
    <trkpt lat="48.83441" lon="2.5618"><ele>98.9</ele></trkpt>
    <trkpt lat="48.83206" lon="2.55765"><ele>96.7</ele></trkpt>
    <trkpt lat="48.8321" lon="2.55742"><ele>96.9</ele></trkpt>
    <trkpt lat="48.83199" lon="2.55723"><ele>97.1</ele></trkpt>
    <trkpt lat="48.832" lon="2.55697"><ele>97.4</ele></trkpt>
    <trkpt lat="48.83244" lon="2.55265"><ele>99.8</ele></trkpt>
    <trkpt lat="48.83255" lon="2.55251"><ele>99.8</ele></trkpt>
    <trkpt lat="48.83271" lon="2.55206"><ele>99.5</ele></trkpt>
    <trkpt lat="48.83284" lon="2.55187"><ele>99.3</ele></trkpt>
    <trkpt lat="48.83487" lon="2.54918"><ele>96.5</ele></trkpt>
    <trkpt lat="48.83503" lon="2.54908"><ele>96.5</ele></trkpt>
    <trkpt lat="48.835" lon="2.54638"><ele>95.5</ele></trkpt>
    <trkpt lat="48.83506" lon="2.54584"><ele>95.8</ele></trkpt>
    <trkpt lat="48.83534" lon="2.54484"><ele>96.6</ele></trkpt>
    <trkpt lat="48.83539" lon="2.5443"><ele>97.1</ele></trkpt>
    <trkpt lat="48.83539" lon="2.54348"><ele>97.8</ele></trkpt>
    <trkpt lat="48.83544" lon="2.54323"><ele>97.9</ele></trkpt>
    <trkpt lat="48.83555" lon="2.54302"><ele>98.0</ele></trkpt>
    <trkpt lat="48.83556" lon="2.54275"><ele>98.1</ele></trkpt>
    <trkpt lat="48.83544" lon="2.54254"><ele>98.0</ele></trkpt>
    <trkpt lat="48.83541" lon="2.54229"><ele>97.9</ele></trkpt>
    <trkpt lat="48.83539" lon="2.5412"><ele>97.1</ele></trkpt>
    <trkpt lat="48.8353" lon="2.54039"><ele>96.4</ele></trkpt>
    <trkpt lat="48.83502" lon="2.53939"><ele>96.3</ele></trkpt>
    <trkpt lat="48.83361" lon="2.53621"><ele>97.0</ele></trkpt>
    <trkpt lat="48.83282" lon="2.53473"><ele>95.9</ele></trkpt>
    <trkpt lat="48.83209" lon="2.53352"><ele>95.1</ele></trkpt>
    <trkpt lat="48.83194" lon="2.53305"><ele>94.9</ele></trkpt>
    <trkpt lat="48.83177" lon="2.53304"><ele>94.8</ele></trkpt>
    <trkpt lat="48.83167" lon="2.53326"><ele>94.8</ele></trkpt>
    <trkpt lat="48.83174" lon="2.53351"><ele>94.8</ele></trkpt>
    <trkpt lat="48.83207" lon="2.53363"><ele>95.1</ele></trkpt>
    <trkpt lat="48.8322" lon="2.53382"><ele>95.4</ele></trkpt>
    <trkpt lat="48.83281" lon="2.53482"><ele>96.6</ele></trkpt>
    <trkpt lat="48.83304" lon="2.53524"><ele>97.3</ele></trkpt>
    <trkpt lat="48.83308" lon="2.53543"><ele>97.5</ele></trkpt>
    <trkpt lat="48.83212" lon="2.53381"><ele>95.1</ele></trkpt>
    <trkpt lat="48.83198" lon="2.53367"><ele>94.9</ele></trkpt>
    <trkpt lat="48.8318" lon="2.53369"><ele>94.8</ele></trkpt>
    <trkpt lat="48.83178" lon="2.53355"><ele>94.8</ele></trkpt>
    <trkpt lat="48.83195" lon="2.53353"><ele>94.8</ele></trkpt>
    <trkpt lat="48.83213" lon="2.53279"><ele>95.1</ele></trkpt>
    <trkpt lat="48.83255" lon="2.53159"><ele>95.9</ele></trkpt>
    <trkpt lat="48.83256" lon="2.53135"><ele>96.1</ele></trkpt>
    <trkpt lat="48.83008" lon="2.5274"><ele>96.5</ele></trkpt>
    <trkpt lat="48.82824" lon="2.52478"><ele>88.9</ele></trkpt>
    <trkpt lat="48.82778" lon="2.52394"><ele>87.2</ele></trkpt>
    <trkpt lat="48.82756" lon="2.5232"><ele>86.7</ele></trkpt>
    <trkpt lat="48.82728" lon="2.52105"><ele>84.8</ele></trkpt>
    <trkpt lat="48.82706" lon="2.51862"><ele>79.0</ele></trkpt>
    <trkpt lat="48.82709" lon="2.5178"><ele>76.1</ele></trkpt>
    <trkpt lat="48.8272" lon="2.51672"><ele>73.0</ele></trkpt>
    <trkpt lat="48.82719" lon="2.51454"><ele>69.4</ele></trkpt>
    <trkpt lat="48.82731" lon="2.51181"><ele>66.5</ele></trkpt>
    <trkpt lat="48.82736" lon="2.51127"><ele>65.7</ele></trkpt>
    <trkpt lat="48.82757" lon="2.51023"><ele>64.1</ele></trkpt>
    <trkpt lat="48.82755" lon="2.50997"><ele>63.7</ele></trkpt>
    <trkpt lat="48.82733" lon="2.50892"><ele>62.9</ele></trkpt>
    <trkpt lat="48.82664" lon="2.5064"><ele>60.7</ele></trkpt>
    <trkpt lat="48.82493" lon="2.50068"><ele>54.2</ele></trkpt>
    <trkpt lat="48.8246" lon="2.49972"><ele>52.6</ele></trkpt>
    <trkpt lat="48.82107" lon="2.48776"><ele>43.3</ele></trkpt>
    <trkpt lat="48.8205" lon="2.48576"><ele>42.8</ele></trkpt>
    <trkpt lat="48.8204" lon="2.48524"><ele>42.7</ele></trkpt>
    <trkpt lat="48.82028" lon="2.48521"><ele>42.8</ele></trkpt>
    <trkpt lat="48.82009" lon="2.48445"><ele>43.0</ele></trkpt>
    <trkpt lat="48.81998" lon="2.48427"><ele>43.1</ele></trkpt>
    <trkpt lat="48.81977" lon="2.48502"><ele>43.2</ele></trkpt>
    <trkpt lat="48.8191" lon="2.48814"><ele>43.0</ele></trkpt>
    <trkpt lat="48.81893" lon="2.48861"><ele>43.1</ele></trkpt>
    <trkpt lat="48.81838" lon="2.49121"><ele>43.8</ele></trkpt>
    <trkpt lat="48.81829" lon="2.49202"><ele>43.5</ele></trkpt>
    <trkpt lat="48.81581" lon="2.5037"><ele>41.5</ele></trkpt>
    <trkpt lat="48.81459" lon="2.50797"><ele>41.9</ele></trkpt>
    <trkpt lat="48.814" lon="2.50933"><ele>41.7</ele></trkpt>
    <trkpt lat="48.81348" lon="2.51106"><ele>40.9</ele></trkpt>
    <trkpt lat="48.81336" lon="2.51122"><ele>40.3</ele></trkpt>
    <trkpt lat="48.8125" lon="2.51086"><ele>37.3</ele></trkpt>
    <trkpt lat="48.81179" lon="2.51065"><ele>37.4</ele></trkpt>
    <trkpt lat="48.81041" lon="2.51006"><ele>41.0</ele></trkpt>
  </trkseg></trk>
</gpx>
