<?xml version="1.0" encoding="UTF-8"?>
<gpx version="1.1" creator="Club Cycliste USO" xmlns="http://www.topografix.com/GPX/1/1">
  <metadata><name>Dammartin-sur-Tigeaux – 98 km</name><desc>98.3 km, D+ 435 m. Départ et arrivée : pont de Champigny.</desc></metadata>
  <trk><name>Dammartin-sur-Tigeaux – 98 km</name><trkseg>
    <trkpt lat="48.81032" lon="2.51002"><ele>41.0</ele></trkpt>
    <trkpt lat="48.81188" lon="2.51068"><ele>37.2</ele></trkpt>
    <trkpt lat="48.81241" lon="2.51083"><ele>37.2</ele></trkpt>
    <trkpt lat="48.8131" lon="2.51113"><ele>39.2</ele></trkpt>
    <trkpt lat="48.81344" lon="2.51119"><ele>40.7</ele></trkpt>
    <trkpt lat="48.81396" lon="2.50945"><ele>41.7</ele></trkpt>
    <trkpt lat="48.81463" lon="2.50784"><ele>41.9</ele></trkpt>
    <trkpt lat="48.81584" lon="2.50358"><ele>41.4</ele></trkpt>
    <trkpt lat="48.81827" lon="2.49215"><ele>43.5</ele></trkpt>
    <trkpt lat="48.81841" lon="2.49108"><ele>43.9</ele></trkpt>
    <trkpt lat="48.81896" lon="2.48848"><ele>43.1</ele></trkpt>
    <trkpt lat="48.81913" lon="2.48801"><ele>43.0</ele></trkpt>
    <trkpt lat="48.8198" lon="2.48489"><ele>43.2</ele></trkpt>
    <trkpt lat="48.81994" lon="2.48439"><ele>43.0</ele></trkpt>
    <trkpt lat="48.82005" lon="2.48425"><ele>42.9</ele></trkpt>
    <trkpt lat="48.82022" lon="2.48503"><ele>42.7</ele></trkpt>
    <trkpt lat="48.82057" lon="2.48598"><ele>42.8</ele></trkpt>
    <trkpt lat="48.8241" lon="2.49794"><ele>49.0</ele></trkpt>
    <trkpt lat="48.82486" lon="2.50071"><ele>53.9</ele></trkpt>
    <trkpt lat="48.82657" lon="2.50643"><ele>59.6</ele></trkpt>
    <trkpt lat="48.82706" lon="2.50819"><ele>62.4</ele></trkpt>
    <trkpt lat="48.8271" lon="2.50845"><ele>62.5</ele></trkpt>
    <trkpt lat="48.82686" lon="2.50977"><ele>62.1</ele></trkpt>
    <trkpt lat="48.82689" lon="2.51003"><ele>62.3</ele></trkpt>
    <trkpt lat="48.82725" lon="2.51096"><ele>64.2</ele></trkpt>
    <trkpt lat="48.82731" lon="2.51178"><ele>66.2</ele></trkpt>
    <trkpt lat="48.82719" lon="2.5145"><ele>69.3</ele></trkpt>
    <trkpt lat="48.82721" lon="2.51669"><ele>73.0</ele></trkpt>
    <trkpt lat="48.82706" lon="2.51858"><ele>79.0</ele></trkpt>
    <trkpt lat="48.82743" lon="2.52236"><ele>86.3</ele></trkpt>
    <trkpt lat="48.82761" lon="2.52342"><ele>86.8</ele></trkpt>
    <trkpt lat="48.82777" lon="2.52391"><ele>87.3</ele></trkpt>
    <trkpt lat="48.82822" lon="2.52476"><ele>88.7</ele></trkpt>
    <trkpt lat="48.83056" lon="2.52815"><ele>97.8</ele></trkpt>
    <trkpt lat="48.83192" lon="2.53034"><ele>96.9</ele></trkpt>
    <trkpt lat="48.83236" lon="2.5312"><ele>96.5</ele></trkpt>
    <trkpt lat="48.83241" lon="2.53144"><ele>96.4</ele></trkpt>
    <trkpt lat="48.83222" lon="2.5322"><ele>95.8</ele></trkpt>
    <trkpt lat="48.83196" lon="2.53292"><ele>95.1</ele></trkpt>
    <trkpt lat="48.83181" lon="2.53303"><ele>95.0</ele></trkpt>
    <trkpt lat="48.83169" lon="2.5332"><ele>94.9</ele></trkpt>
    <trkpt lat="48.83172" lon="2.53345"><ele>94.9</ele></trkpt>
    <trkpt lat="48.83187" lon="2.53357"><ele>95.0</ele></trkpt>
    <trkpt lat="48.83203" lon="2.53361"><ele>95.1</ele></trkpt>
    <trkpt lat="48.83217" lon="2.53377"><ele>95.2</ele></trkpt>
    <trkpt lat="48.83301" lon="2.53519"><ele>97.5</ele></trkpt>
    <trkpt lat="48.83481" lon="2.53922"><ele>97.0</ele></trkpt>
    <trkpt lat="48.83507" lon="2.53994"><ele>96.8</ele></trkpt>
    <trkpt lat="48.83522" lon="2.54072"><ele>97.0</ele></trkpt>
    <trkpt lat="48.83529" lon="2.54089"><ele>97.1</ele></trkpt>
    <trkpt lat="48.83534" lon="2.54226"><ele>98.2</ele></trkpt>
    <trkpt lat="48.8353" lon="2.54252"><ele>98.3</ele></trkpt>
    <trkpt lat="48.83518" lon="2.5427"><ele>98.4</ele></trkpt>
    <trkpt lat="48.83514" lon="2.54296"><ele>98.5</ele></trkpt>
    <trkpt lat="48.83532" lon="2.54341"><ele>98.6</ele></trkpt>
    <trkpt lat="48.83533" lon="2.5445"><ele>98.2</ele></trkpt>
    <trkpt lat="48.8353" lon="2.54477"><ele>98.0</ele></trkpt>
    <trkpt lat="48.83495" lon="2.54603"><ele>96.8</ele></trkpt>
    <trkpt lat="48.83492" lon="2.5463"><ele>96.6</ele></trkpt>
    <trkpt lat="48.83494" lon="2.54875"><ele>96.1</ele></trkpt>
    <trkpt lat="48.83479" lon="2.54922"><ele>96.4</ele></trkpt>
    <trkpt lat="48.83328" lon="2.55117"><ele>98.3</ele></trkpt>
    <trkpt lat="48.83304" lon="2.55157"><ele>98.7</ele></trkpt>
    <trkpt lat="48.83276" lon="2.5519"><ele>99.1</ele></trkpt>
    <trkpt lat="48.83259" lon="2.55201"><ele>99.3</ele></trkpt>
    <trkpt lat="48.83242" lon="2.55197"><ele>99.5</ele></trkpt>
    <trkpt lat="48.8323" lon="2.55216"><ele>99.7</ele></trkpt>
    <trkpt lat="48.83232" lon="2.55242"><ele>99.8</ele></trkpt>
    <trkpt lat="48.83245" lon="2.55257"><ele>99.9</ele></trkpt>
    <trkpt lat="48.8324" lon="2.55311"><ele>99.8</ele></trkpt>
    <trkpt lat="48.83199" lon="2.55716"><ele>97.2</ele></trkpt>
    <trkpt lat="48.83185" lon="2.5573"><ele>97.0</ele></trkpt>
    <trkpt lat="48.83183" lon="2.55755"><ele>96.8</ele></trkpt>
    <trkpt lat="48.83212" lon="2.55775"><ele>96.7</ele></trkpt>
    <trkpt lat="48.83434" lon="2.56168"><ele>99.0</ele></trkpt>
    <trkpt lat="48.8352" lon="2.56305"><ele>101.9</ele></trkpt>
    <trkpt lat="48.83517" lon="2.56331"><ele>101.8</ele></trkpt>
    <trkpt lat="48.83526" lon="2.5644"><ele>100.0</ele></trkpt>
    <trkpt lat="48.83521" lon="2.56494"><ele>98.8</ele></trkpt>
    <trkpt lat="48.83512" lon="2.56518"><ele>98.3</ele></trkpt>
    <trkpt lat="48.83475" lon="2.56574"><ele>97.4</ele></trkpt>
    <trkpt lat="48.83486" lon="2.56708"><ele>98.2</ele></trkpt>
    <trkpt lat="48.83474" lon="2.56954"><ele>99.3</ele></trkpt>
    <trkpt lat="48.83463" lon="2.56969"><ele>99.4</ele></trkpt>
    <trkpt lat="48.83391" lon="2.56961"><ele>100.1</ele></trkpt>
    <trkpt lat="48.83376" lon="2.56974"><ele>100.3</ele></trkpt>
    <trkpt lat="48.83369" lon="2.56999"><ele>100.4</ele></trkpt>
    <trkpt lat="48.83331" lon="2.57735"><ele>99.2</ele></trkpt>
    <trkpt lat="48.83322" lon="2.57752"><ele>99.1</ele></trkpt>
    <trkpt lat="48.83328" lon="2.57774"><ele>99.1</ele></trkpt>
    <trkpt lat="48.83318" lon="2.57992"><ele>98.9</ele></trkpt>
    <trkpt lat="48.83311" lon="2.58101"><ele>99.1</ele></trkpt>
    <trkpt lat="48.83304" lon="2.58125"><ele>99.1</ele></trkpt>
    <trkpt lat="48.83292" lon="2.58145"><ele>99.2</ele></trkpt>
    <trkpt lat="48.83259" lon="2.58165"><ele>99.3</ele></trkpt>
    <trkpt lat="48.83027" lon="2.58131"><ele>98.7</ele></trkpt>
    <trkpt lat="48.83009" lon="2.5813"><ele>98.7</ele></trkpt>
    <trkpt lat="48.82998" lon="2.58139"><ele>98.7</ele></trkpt>
    <trkpt lat="48.8303" lon="2.58519"><ele>99.0</ele></trkpt>
    <trkpt lat="48.83035" lon="2.58545"><ele>99.0</ele></trkpt>
    <trkpt lat="48.83072" lon="2.58638"><ele>98.9</ele></trkpt>
    <trkpt lat="48.8308" lon="2.58773"><ele>98.4</ele></trkpt>
    <trkpt lat="48.83104" lon="2.58876"><ele>97.7</ele></trkpt>
    <trkpt lat="48.83095" lon="2.589"><ele>97.6</ele></trkpt>
    <trkpt lat="48.831" lon="2.58924"><ele>97.3</ele></trkpt>
    <trkpt lat="48.83115" lon="2.58938"><ele>96.9</ele></trkpt>
    <trkpt lat="48.83131" lon="2.58934"><ele>96.4</ele></trkpt>
    <trkpt lat="48.83213" lon="2.59078"><ele>91.6</ele></trkpt>
    <trkpt lat="48.83241" lon="2.59148"><ele>90.0</ele></trkpt>
    <trkpt lat="48.83259" lon="2.59225"><ele>89.2</ele></trkpt>
    <trkpt lat="48.83265" lon="2.59279"><ele>88.9</ele></trkpt>
    <trkpt lat="48.83265" lon="2.59361"><ele>88.7</ele></trkpt>
    <trkpt lat="48.83255" lon="2.59441"><ele>89.1</ele></trkpt>
    <trkpt lat="48.83234" lon="2.59516"><ele>89.8</ele></trkpt>
    <trkpt lat="48.8315" lon="2.59694"><ele>94.6</ele></trkpt>
    <trkpt lat="48.83127" lon="2.59767"><ele>97.4</ele></trkpt>
    <trkpt lat="48.8298" lon="2.60669"><ele>102.1</ele></trkpt>
    <trkpt lat="48.82961" lon="2.60745"><ele>102.8</ele></trkpt>
    <trkpt lat="48.8293" lon="2.60812"><ele>103.4</ele></trkpt>
    <trkpt lat="48.82877" lon="2.60885"><ele>104.2</ele></trkpt>
    <trkpt lat="48.82422" lon="2.61273"><ele>108.0</ele></trkpt>
    <trkpt lat="48.82371" lon="2.61295"><ele>107.8</ele></trkpt>
    <trkpt lat="48.82263" lon="2.61309"><ele>107.4</ele></trkpt>
    <trkpt lat="48.82157" lon="2.6134"><ele>107.2</ele></trkpt>
    <trkpt lat="48.82139" lon="2.61343"><ele>107.2</ele></trkpt>
    <trkpt lat="48.82087" lon="2.61329"><ele>107.3</ele></trkpt>
    <trkpt lat="48.82072" lon="2.61344"><ele>107.4</ele></trkpt>
    <trkpt lat="48.82062" lon="2.61422"><ele>107.7</ele></trkpt>
    <trkpt lat="48.82067" lon="2.61446"><ele>107.7</ele></trkpt>
    <trkpt lat="48.82083" lon="2.61448"><ele>107.6</ele></trkpt>
    <trkpt lat="48.82096" lon="2.61431"><ele>107.3</ele></trkpt>
    <trkpt lat="48.82114" lon="2.61424"><ele>107.1</ele></trkpt>
    <trkpt lat="48.82167" lon="2.61412"><ele>106.5</ele></trkpt>
    <trkpt lat="48.82203" lon="2.61412"><ele>106.1</ele></trkpt>
    <trkpt lat="48.82253" lon="2.61441"><ele>105.5</ele></trkpt>
    <trkpt lat="48.8228" lon="2.61476"><ele>105.4</ele></trkpt>
    <trkpt lat="48.82302" lon="2.6152"><ele>105.5</ele></trkpt>
    <trkpt lat="48.82317" lon="2.61569"><ele>105.9</ele></trkpt>
    <trkpt lat="48.82324" lon="2.61594"><ele>106.1</ele></trkpt>
    <trkpt lat="48.82322" lon="2.61622"><ele>106.3</ele></trkpt>
    <trkpt lat="48.82325" lon="2.61647"><ele>106.6</ele></trkpt>
    <trkpt lat="48.82351" lon="2.61683"><ele>106.9</ele></trkpt>
    <trkpt lat="48.82397" lon="2.61831"><ele>107.6</ele></trkpt>
    <trkpt lat="48.82418" lon="2.61964"><ele>108.0</ele></trkpt>
    <trkpt lat="48.82495" lon="2.62912"><ele>107.1</ele></trkpt>
    <trkpt lat="48.82494" lon="2.62993"><ele>106.9</ele></trkpt>
    <trkpt lat="48.82478" lon="2.63127"><ele>106.5</ele></trkpt>
    <trkpt lat="48.82386" lon="2.63569"><ele>105.3</ele></trkpt>
    <trkpt lat="48.82359" lon="2.63671"><ele>105.4</ele></trkpt>
    <trkpt lat="48.82279" lon="2.64062"><ele>105.5</ele></trkpt>
    <trkpt lat="48.82282" lon="2.64089"><ele>105.4</ele></trkpt>
    <trkpt lat="48.82293" lon="2.64111"><ele>105.2</ele></trkpt>
    <trkpt lat="48.82308" lon="2.64123"><ele>105.0</ele></trkpt>
    <trkpt lat="48.82326" lon="2.64124"><ele>104.9</ele></trkpt>
    <trkpt lat="48.82337" lon="2.64134"><ele>104.7</ele></trkpt>
    <trkpt lat="48.82342" lon="2.6416"><ele>104.5</ele></trkpt>
    <trkpt lat="48.82357" lon="2.64175"><ele>104.4</ele></trkpt>
    <trkpt lat="48.82604" lon="2.64251"><ele>104.3</ele></trkpt>
    <trkpt lat="48.82654" lon="2.6428"><ele>104.2</ele></trkpt>
    <trkpt lat="48.82698" lon="2.64326"><ele>103.8</ele></trkpt>
    <trkpt lat="48.82758" lon="2.64427"><ele>103.3</ele></trkpt>
    <trkpt lat="48.82801" lon="2.64444"><ele>102.9</ele></trkpt>
    <trkpt lat="48.82806" lon="2.6447"><ele>102.7</ele></trkpt>
    <trkpt lat="48.82825" lon="2.64516"><ele>102.4</ele></trkpt>
    <trkpt lat="48.83027" lon="2.64901"><ele>100.3</ele></trkpt>
    <trkpt lat="48.83055" lon="2.64971"><ele>100.0</ele></trkpt>
    <trkpt lat="48.83067" lon="2.65022"><ele>99.8</ele></trkpt>
    <trkpt lat="48.83073" lon="2.65404"><ele>96.1</ele></trkpt>
    <trkpt lat="48.83088" lon="2.6551"><ele>94.6</ele></trkpt>
    <trkpt lat="48.83087" lon="2.65537"><ele>94.3</ele></trkpt>
    <trkpt lat="48.82993" lon="2.65862"><ele>95.4</ele></trkpt>
    <trkpt lat="48.82983" lon="2.65885"><ele>95.8</ele></trkpt>
    <trkpt lat="48.8297" lon="2.65902"><ele>96.3</ele></trkpt>
    <trkpt lat="48.82881" lon="2.65909"><ele>98.5</ele></trkpt>
    <trkpt lat="48.82781" lon="2.65971"><ele>99.9</ele></trkpt>
    <trkpt lat="48.82691" lon="2.65976"><ele>100.4</ele></trkpt>
    <trkpt lat="48.82675" lon="2.65983"><ele>100.5</ele></trkpt>
    <trkpt lat="48.82671" lon="2.66036"><ele>100.9</ele></trkpt>
    <trkpt lat="48.82677" lon="2.66062"><ele>101.2</ele></trkpt>
    <trkpt lat="48.82773" lon="2.66356"><ele>104.6</ele></trkpt>
    <trkpt lat="48.82775" lon="2.66383"><ele>104.7</ele></trkpt>
    <trkpt lat="48.8277" lon="2.66409"><ele>104.9</ele></trkpt>
    <trkpt lat="48.82758" lon="2.66427"><ele>105.0</ele></trkpt>
    <trkpt lat="48.82689" lon="2.66457"><ele>105.5</ele></trkpt>
    <trkpt lat="48.82673" lon="2.6647"><ele>105.6</ele></trkpt>
    <trkpt lat="48.82667" lon="2.66494"><ele>105.7</ele></trkpt>
    <trkpt lat="48.82683" lon="2.66628"><ele>106.2</ele></trkpt>
    <trkpt lat="48.82722" lon="2.66751"><ele>107.1</ele></trkpt>
    <trkpt lat="48.82713" lon="2.66773"><ele>107.2</ele></trkpt>
    <trkpt lat="48.82715" lon="2.66799"><ele>107.2</ele></trkpt>
    <trkpt lat="48.82726" lon="2.6682"><ele>107.3</ele></trkpt>
    <trkpt lat="48.82728" lon="2.66847"><ele>107.2</ele></trkpt>
    <trkpt lat="48.8272" lon="2.67038"><ele>107.5</ele></trkpt>
    <trkpt lat="48.82727" lon="2.6783"><ele>108.0</ele></trkpt>
    <trkpt lat="48.82723" lon="2.67911"><ele>107.8</ele></trkpt>
    <trkpt lat="48.82713" lon="2.67964"><ele>107.7</ele></trkpt>
    <trkpt lat="48.82702" lon="2.67985"><ele>107.7</ele></trkpt>
    <trkpt lat="48.82671" lon="2.68007"><ele>107.6</ele></trkpt>
    <trkpt lat="48.8266" lon="2.68028"><ele>107.6</ele></trkpt>
    <trkpt lat="48.82657" lon="2.68055"><ele>107.7</ele></trkpt>
    <trkpt lat="48.82662" lon="2.68081"><ele>107.7</ele></trkpt>
    <trkpt lat="48.82674" lon="2.68101"><ele>107.7</ele></trkpt>
    <trkpt lat="48.8269" lon="2.68111"><ele>107.8</ele></trkpt>
    <trkpt lat="48.82708" lon="2.68109"><ele>107.8</ele></trkpt>
    <trkpt lat="48.82723" lon="2.68094"><ele>107.7</ele></trkpt>
    <trkpt lat="48.82734" lon="2.68072"><ele>107.7</ele></trkpt>
    <trkpt lat="48.82825" lon="2.67986"><ele>107.8</ele></trkpt>
    <trkpt lat="48.82842" lon="2.67979"><ele>107.8</ele></trkpt>
    <trkpt lat="48.82858" lon="2.67987"><ele>107.8</ele></trkpt>
    <trkpt lat="48.8288" lon="2.6803"><ele>107.8</ele></trkpt>
    <trkpt lat="48.82967" lon="2.68269"><ele>105.2</ele></trkpt>
    <trkpt lat="48.8302" lon="2.68615"><ele>92.4</ele></trkpt>
    <trkpt lat="48.83027" lon="2.6864"><ele>91.4</ele></trkpt>
    <trkpt lat="48.83152" lon="2.68873"><ele>87.5</ele></trkpt>
    <trkpt lat="48.83169" lon="2.6892"><ele>87.7</ele></trkpt>
    <trkpt lat="48.83182" lon="2.68972"><ele>88.4</ele></trkpt>
    <trkpt lat="48.83186" lon="2.69053"><ele>90.7</ele></trkpt>
    <trkpt lat="48.83151" lon="2.69349"><ele>102.0</ele></trkpt>
    <trkpt lat="48.83146" lon="2.69485"><ele>105.7</ele></trkpt>
    <trkpt lat="48.83156" lon="2.69593"><ele>107.0</ele></trkpt>
    <trkpt lat="48.83251" lon="2.70289"><ele>109.0</ele></trkpt>
    <trkpt lat="48.83281" lon="2.70558"><ele>113.5</ele></trkpt>
    <trkpt lat="48.83273" lon="2.70581"><ele>113.8</ele></trkpt>
    <trkpt lat="48.83258" lon="2.70595"><ele>114.0</ele></trkpt>
    <trkpt lat="48.8315" lon="2.70602"><ele>115.5</ele></trkpt>
    <trkpt lat="48.83133" lon="2.70596"><ele>115.8</ele></trkpt>
    <trkpt lat="48.8312" lon="2.70577"><ele>116.2</ele></trkpt>
    <trkpt lat="48.83104" lon="2.70565"><ele>116.6</ele></trkpt>
    <trkpt lat="48.83087" lon="2.70568"><ele>117.0</ele></trkpt>
    <trkpt lat="48.83074" lon="2.70586"><ele>117.6</ele></trkpt>
    <trkpt lat="48.83068" lon="2.70611"><ele>118.0</ele></trkpt>
    <trkpt lat="48.83074" lon="2.70636"><ele>118.2</ele></trkpt>
    <trkpt lat="48.83088" lon="2.70653"><ele>118.1</ele></trkpt>
    <trkpt lat="48.83104" lon="2.70663"><ele>117.9</ele></trkpt>
    <trkpt lat="48.83115" lon="2.70684"><ele>117.5</ele></trkpt>
    <trkpt lat="48.83131" lon="2.70733"><ele>117.0</ele></trkpt>
    <trkpt lat="48.83133" lon="2.7076"><ele>117.0</ele></trkpt>
    <trkpt lat="48.83109" lon="2.70891"><ele>116.6</ele></trkpt>
    <trkpt lat="48.8308" lon="2.70958"><ele>116.6</ele></trkpt>
    <trkpt lat="48.83084" lon="2.70983"><ele>116.7</ele></trkpt>
    <trkpt lat="48.83107" lon="2.71023"><ele>116.9</ele></trkpt>
    <trkpt lat="48.83111" lon="2.71049"><ele>117.0</ele></trkpt>
    <trkpt lat="48.83195" lon="2.71748"><ele>119.7</ele></trkpt>
    <trkpt lat="48.83209" lon="2.71753"><ele>119.7</ele></trkpt>
    <trkpt lat="48.83219" lon="2.71766"><ele>119.8</ele></trkpt>
    <trkpt lat="48.83226" lon="2.71826"><ele>120.0</ele></trkpt>
    <trkpt lat="48.8322" lon="2.71772"><ele>119.8</ele></trkpt>
    <trkpt lat="48.83213" lon="2.71752"><ele>119.8</ele></trkpt>
    <trkpt lat="48.83196" lon="2.71756"><ele>119.8</ele></trkpt>
    <trkpt lat="48.83253" lon="2.7224"><ele>121.7</ele></trkpt>
    <trkpt lat="48.83253" lon="2.72267"><ele>121.8</ele></trkpt>
    <trkpt lat="48.83241" lon="2.72286"><ele>121.9</ele></trkpt>
    <trkpt lat="48.83233" lon="2.7231"><ele>121.9</ele></trkpt>
    <trkpt lat="48.83235" lon="2.72337"><ele>122.0</ele></trkpt>
    <trkpt lat="48.83262" lon="2.72371"><ele>122.2</ele></trkpt>
    <trkpt lat="48.83272" lon="2.72394"><ele>122.3</ele></trkpt>
    <trkpt lat="48.83465" lon="2.74007"><ele>124.8</ele></trkpt>
    <trkpt lat="48.83711" lon="2.73941"><ele>124.7</ele></trkpt>
    <trkpt lat="48.83768" lon="2.74671"><ele>122.8</ele></trkpt>
    <trkpt lat="48.83766" lon="2.74694"><ele>122.7</ele></trkpt>
    <trkpt lat="48.83511" lon="2.74827"><ele>122.5</ele></trkpt>
    <trkpt lat="48.83414" lon="2.74898"><ele>122.8</ele></trkpt>
    <trkpt lat="48.83367" lon="2.74941"><ele>123.1</ele></trkpt>
    <trkpt lat="48.8334" lon="2.74975"><ele>123.2</ele></trkpt>
    <trkpt lat="48.83339" lon="2.74998"><ele>123.3</ele></trkpt>
    <trkpt lat="48.83353" lon="2.75064"><ele>123.4</ele></trkpt>
    <trkpt lat="48.83336" lon="2.74987"><ele>123.3</ele></trkpt>
    <trkpt lat="48.83325" lon="2.74996"><ele>123.1</ele></trkpt>
    <trkpt lat="48.83307" lon="2.75043"><ele>122.9</ele></trkpt>
    <trkpt lat="48.83289" lon="2.7512"><ele>122.7</ele></trkpt>
    <trkpt lat="48.83256" lon="2.75444"><ele>124.8</ele></trkpt>
    <trkpt lat="48.83244" lon="2.75461"><ele>125.2</ele></trkpt>
    <trkpt lat="48.83212" lon="2.75484"><ele>126.2</ele></trkpt>
    <trkpt lat="48.83161" lon="2.75511"><ele>128.2</ele></trkpt>
    <trkpt lat="48.82985" lon="2.75565"><ele>132.8</ele></trkpt>
    <trkpt lat="48.82895" lon="2.75577"><ele>133.4</ele></trkpt>
    <trkpt lat="48.82271" lon="2.75464"><ele>127.2</ele></trkpt>
    <trkpt lat="48.82082" lon="2.75556"><ele>125.8</ele></trkpt>
    <trkpt lat="48.81836" lon="2.75721"><ele>123.7</ele></trkpt>
    <trkpt lat="48.81785" lon="2.7575"><ele>123.2</ele></trkpt>
    <trkpt lat="48.81767" lon="2.75751"><ele>123.1</ele></trkpt>
    <trkpt lat="48.81732" lon="2.75742"><ele>123.1</ele></trkpt>
    <trkpt lat="48.81443" lon="2.75589"><ele>124.7</ele></trkpt>
    <trkpt lat="48.81303" lon="2.75542"><ele>123.9</ele></trkpt>
    <trkpt lat="48.81148" lon="2.75611"><ele>123.0</ele></trkpt>
    <trkpt lat="48.80843" lon="2.75777"><ele>121.9</ele></trkpt>
    <trkpt lat="48.80706" lon="2.75843"><ele>125.2</ele></trkpt>
    <trkpt lat="48.80623" lon="2.75895"><ele>125.2</ele></trkpt>
    <trkpt lat="48.80346" lon="2.7609"><ele>120.0</ele></trkpt>
    <trkpt lat="48.80311" lon="2.76096"><ele>119.9</ele></trkpt>
    <trkpt lat="48.80188" lon="2.76053"><ele>118.7</ele></trkpt>
    <trkpt lat="48.80134" lon="2.76042"><ele>118.1</ele></trkpt>
    <trkpt lat="48.80099" lon="2.76046"><ele>117.9</ele></trkpt>
    <trkpt lat="48.79886" lon="2.76097"><ele>116.9</ele></trkpt>
    <trkpt lat="48.79856" lon="2.76127"><ele>116.7</ele></trkpt>
    <trkpt lat="48.79789" lon="2.76218"><ele>116.5</ele></trkpt>
    <trkpt lat="48.79765" lon="2.76259"><ele>116.5</ele></trkpt>
    <trkpt lat="48.79747" lon="2.76306"><ele>116.4</ele></trkpt>
    <trkpt lat="48.7972" lon="2.76408"><ele>116.2</ele></trkpt>
    <trkpt lat="48.79686" lon="2.7647"><ele>116.0</ele></trkpt>
    <trkpt lat="48.79523" lon="2.76685"><ele>116.6</ele></trkpt>
    <trkpt lat="48.79367" lon="2.76819"><ele>116.0</ele></trkpt>
    <trkpt lat="48.79316" lon="2.76847"><ele>115.9</ele></trkpt>
    <trkpt lat="48.79159" lon="2.76909"><ele>115.5</ele></trkpt>
    <trkpt lat="48.79034" lon="2.76919"><ele>114.3</ele></trkpt>
    <trkpt lat="48.78926" lon="2.76906"><ele>113.5</ele></trkpt>
    <trkpt lat="48.78873" lon="2.76908"><ele>113.3</ele></trkpt>
    <trkpt lat="48.78821" lon="2.76932"><ele>113.4</ele></trkpt>
    <trkpt lat="48.78754" lon="2.77022"><ele>113.9</ele></trkpt>
    <trkpt lat="48.78738" lon="2.77033"><ele>113.9</ele></trkpt>
    <trkpt lat="48.78597" lon="2.77078"><ele>113.4</ele></trkpt>
    <trkpt lat="48.78511" lon="2.77119"><ele>113.5</ele></trkpt>
    <trkpt lat="48.78483" lon="2.77152"><ele>113.7</ele></trkpt>
    <trkpt lat="48.78393" lon="2.77322"><ele>114.1</ele></trkpt>
    <trkpt lat="48.78366" lon="2.77357"><ele>113.8</ele></trkpt>
    <trkpt lat="48.77982" lon="2.77657"><ele>111.1</ele></trkpt>
    <trkpt lat="48.77836" lon="2.77763"><ele>111.0</ele></trkpt>
    <trkpt lat="48.77776" lon="2.77821"><ele>110.1</ele></trkpt>
    <trkpt lat="48.77743" lon="2.77843"><ele>109.8</ele></trkpt>
    <trkpt lat="48.77672" lon="2.77854"><ele>109.8</ele></trkpt>
    <trkpt lat="48.77564" lon="2.77848"><ele>109.8</ele></trkpt>
    <trkpt lat="48.77511" lon="2.7783"><ele>109.4</ele></trkpt>
    <trkpt lat="48.77388" lon="2.77717"><ele>108.3</ele></trkpt>
    <trkpt lat="48.77212" lon="2.77528"><ele>111.2</ele></trkpt>
    <trkpt lat="48.77196" lon="2.77518"><ele>111.1</ele></trkpt>
    <trkpt lat="48.77178" lon="2.77519"><ele>110.9</ele></trkpt>
    <trkpt lat="48.77039" lon="2.77578"><ele>108.8</ele></trkpt>
    <trkpt lat="48.76968" lon="2.77588"><ele>107.8</ele></trkpt>
    <trkpt lat="48.76718" lon="2.77541"><ele>106.2</ele></trkpt>
    <trkpt lat="48.76556" lon="2.77548"><ele>104.7</ele></trkpt>
    <trkpt lat="48.76431" lon="2.77525"><ele>102.7</ele></trkpt>
    <trkpt lat="48.76362" lon="2.77552"><ele>101.7</ele></trkpt>
    <trkpt lat="48.76351" lon="2.77534"><ele>101.8</ele></trkpt>
    <trkpt lat="48.76346" lon="2.77508"><ele>101.8</ele></trkpt>
    <trkpt lat="48.76345" lon="2.77454"><ele>102.1</ele></trkpt>
    <trkpt lat="48.76325" lon="2.77409"><ele>102.0</ele></trkpt>
    <trkpt lat="48.76308" lon="2.77397"><ele>101.8</ele></trkpt>
    <trkpt lat="48.76291" lon="2.774"><ele>101.5</ele></trkpt>
    <trkpt lat="48.76261" lon="2.77427"><ele>100.9</ele></trkpt>
    <trkpt lat="48.76245" lon="2.77416"><ele>100.6</ele></trkpt>
    <trkpt lat="48.7622" lon="2.77379"><ele>99.8</ele></trkpt>
    <trkpt lat="48.7618" lon="2.7747"><ele>97.1</ele></trkpt>
    <trkpt lat="48.76097" lon="2.77573"><ele>97.5</ele></trkpt>
    <trkpt lat="48.76018" lon="2.77721"><ele>101.4</ele></trkpt>
    <trkpt lat="48.75948" lon="2.77804"><ele>102.5</ele></trkpt>
    <trkpt lat="48.75855" lon="2.78006"><ele>106.9</ele></trkpt>
    <trkpt lat="48.75733" lon="2.78308"><ele>109.9</ele></trkpt>
    <trkpt lat="48.75701" lon="2.78327"><ele>109.9</ele></trkpt>
    <trkpt lat="48.75647" lon="2.78323"><ele>109.3</ele></trkpt>
    <trkpt lat="48.75524" lon="2.78285"><ele>106.7</ele></trkpt>
    <trkpt lat="48.7549" lon="2.78264"><ele>106.2</ele></trkpt>
    <trkpt lat="48.75428" lon="2.7821"><ele>105.6</ele></trkpt>
    <trkpt lat="48.75411" lon="2.78203"><ele>105.6</ele></trkpt>
    <trkpt lat="48.75304" lon="2.78175"><ele>107.1</ele></trkpt>
    <trkpt lat="48.75286" lon="2.78174"><ele>107.4</ele></trkpt>
    <trkpt lat="48.75269" lon="2.78182"><ele>107.8</ele></trkpt>
    <trkpt lat="48.7497" lon="2.78572"><ele>106.5</ele></trkpt>
    <trkpt lat="48.7479" lon="2.78753"><ele>108.9</ele></trkpt>
    <trkpt lat="48.74742" lon="2.78791"><ele>109.6</ele></trkpt>
    <trkpt lat="48.74691" lon="2.78813"><ele>110.1</ele></trkpt>
    <trkpt lat="48.74678" lon="2.7883"><ele>110.3</ele></trkpt>
    <trkpt lat="48.74597" lon="2.7889"><ele>111.1</ele></trkpt>
    <trkpt lat="48.74583" lon="2.78907"><ele>111.2</ele></trkpt>
    <trkpt lat="48.74578" lon="2.78933"><ele>111.3</ele></trkpt>
    <trkpt lat="48.74576" lon="2.78987"><ele>111.5</ele></trkpt>
    <trkpt lat="48.74571" lon="2.79013"><ele>111.6</ele></trkpt>
    <trkpt lat="48.74545" lon="2.79049"><ele>111.6</ele></trkpt>
    <trkpt lat="48.74409" lon="2.79183"><ele>111.6</ele></trkpt>
    <trkpt lat="48.7433" lon="2.79246"><ele>111.1</ele></trkpt>
    <trkpt lat="48.74263" lon="2.79286"><ele>110.8</ele></trkpt>
    <trkpt lat="48.74177" lon="2.79325"><ele>111.5</ele></trkpt>
    <trkpt lat="48.74169" lon="2.79343"><ele>111.8</ele></trkpt>
    <trkpt lat="48.74186" lon="2.79587"><ele>113.3</ele></trkpt>
    <trkpt lat="48.74186" lon="2.79969"><ele>120.0</ele></trkpt>
    <trkpt lat="48.74196" lon="2.80132"><ele>121.0</ele></trkpt>
    <trkpt lat="48.74214" lon="2.80293"><ele>120.4</ele></trkpt>
    <trkpt lat="48.74278" lon="2.8069"><ele>113.4</ele></trkpt>
    <trkpt lat="48.74347" lon="2.81502"><ele>112.3</ele></trkpt>
    <trkpt lat="48.74346" lon="2.81529"><ele>112.4</ele></trkpt>
    <trkpt lat="48.74328" lon="2.81635"><ele>112.8</ele></trkpt>
    <trkpt lat="48.74305" lon="2.81737"><ele>112.7</ele></trkpt>
    <trkpt lat="48.74245" lon="2.81873"><ele>113.2</ele></trkpt>
    <trkpt lat="48.74231" lon="2.81951"><ele>113.4</ele></trkpt>
    <trkpt lat="48.74243" lon="2.83015"><ele>113.8</ele></trkpt>
    <trkpt lat="48.74247" lon="2.83069"><ele>113.9</ele></trkpt>
    <trkpt lat="48.74497" lon="2.83855"><ele>115.0</ele></trkpt>
    <trkpt lat="48.74753" lon="2.85248"><ele>112.9</ele></trkpt>
    <trkpt lat="48.74979" lon="2.86197"><ele>111.6</ele></trkpt>
    <trkpt lat="48.75098" lon="2.86563"><ele>113.5</ele></trkpt>
    <trkpt lat="48.75113" lon="2.86568"><ele>113.7</ele></trkpt>
    <trkpt lat="48.75364" lon="2.86542"><ele>114.8</ele></trkpt>
    <trkpt lat="48.75379" lon="2.86548"><ele>114.8</ele></trkpt>
    <trkpt lat="48.75648" lon="2.87382"><ele>114.9</ele></trkpt>
    <trkpt lat="48.75667" lon="2.87428"><ele>115.0</ele></trkpt>
    <trkpt lat="48.76037" lon="2.88131"><ele>114.7</ele></trkpt>
    <trkpt lat="48.76713" lon="2.88989"><ele>119.9</ele></trkpt>
    <trkpt lat="48.77038" lon="2.89332"><ele>120.4</ele></trkpt>
    <trkpt lat="48.77474" lon="2.89766"><ele>120.4</ele></trkpt>
    <trkpt lat="48.77505" lon="2.89794"><ele>120.5</ele></trkpt>
    <trkpt lat="48.77575" lon="2.89819"><ele>120.7</ele></trkpt>
    <trkpt lat="48.7759" lon="2.89834"><ele>120.8</ele></trkpt>
    <trkpt lat="48.776" lon="2.89855"><ele>120.8</ele></trkpt>
    <trkpt lat="48.77604" lon="2.89882"><ele>120.9</ele></trkpt>
    <trkpt lat="48.77551" lon="2.8999"><ele>121.3</ele></trkpt>
    <trkpt lat="48.77563" lon="2.90009"><ele>121.2</ele></trkpt>
    <trkpt lat="48.77596" lon="2.90028"><ele>121.0</ele></trkpt>
    <trkpt lat="48.77667" lon="2.90049"><ele>120.8</ele></trkpt>
    <trkpt lat="48.77699" lon="2.90075"><ele>120.8</ele></trkpt>
    <trkpt lat="48.78057" lon="2.90439"><ele>119.8</ele></trkpt>
    <trkpt lat="48.78085" lon="2.90474"><ele>119.5</ele></trkpt>
    <trkpt lat="48.7832" lon="2.90922"><ele>108.4</ele></trkpt>
    <trkpt lat="48.78718" lon="2.91698"><ele>119.6</ele></trkpt>
    <trkpt lat="48.78734" lon="2.91697"><ele>120.0</ele></trkpt>
    <trkpt lat="48.78751" lon="2.91688"><ele>120.1</ele></trkpt>
    <trkpt lat="48.78882" lon="2.916"><ele>120.2</ele></trkpt>
    <trkpt lat="48.78918" lon="2.91595"><ele>120.4</ele></trkpt>
    <trkpt lat="48.78954" lon="2.916"><ele>120.4</ele></trkpt>
    <trkpt lat="48.78989" lon="2.9159"><ele>120.3</ele></trkpt>
    <trkpt lat="48.79109" lon="2.91535"><ele>120.4</ele></trkpt>
    <trkpt lat="48.79147" lon="2.9159"><ele>121.2</ele></trkpt>
    <trkpt lat="48.79198" lon="2.91614"><ele>122.1</ele></trkpt>
    <trkpt lat="48.79252" lon="2.91616"><ele>122.4</ele></trkpt>
    <trkpt lat="48.79395" lon="2.91599"><ele>122.2</ele></trkpt>
    <trkpt lat="48.79449" lon="2.91609"><ele>123.1</ele></trkpt>
    <trkpt lat="48.79481" lon="2.91632"><ele>124.0</ele></trkpt>
    <trkpt lat="48.79676" lon="2.9183"><ele>131.3</ele></trkpt>
    <trkpt lat="48.79772" lon="2.91904"><ele>131.3</ele></trkpt>
    <trkpt lat="48.79839" lon="2.91941"><ele>130.3</ele></trkpt>
    <trkpt lat="48.79892" lon="2.91961"><ele>129.4</ele></trkpt>
    <trkpt lat="48.80159" lon="2.92016"><ele>127.4</ele></trkpt>
    <trkpt lat="48.80194" lon="2.92029"><ele>127.3</ele></trkpt>
    <trkpt lat="48.80687" lon="2.92478"><ele>104.1</ele></trkpt>
    <trkpt lat="48.80722" lon="2.92495"><ele>102.9</ele></trkpt>
    <trkpt lat="48.81003" lon="2.92584"><ele>100.3</ele></trkpt>
    <trkpt lat="48.81019" lon="2.92595"><ele>100.2</ele></trkpt>
    <trkpt lat="48.81443" lon="2.92184"><ele>84.1</ele></trkpt>
    <trkpt lat="48.81484" lon="2.92131"><ele>81.6</ele></trkpt>
    <trkpt lat="48.81841" lon="2.91279"><ele>58.8</ele></trkpt>
    <trkpt lat="48.81962" lon="2.90976"><ele>56.5</ele></trkpt>
    <trkpt lat="48.81979" lon="2.90898"><ele>56.0</ele></trkpt>
    <trkpt lat="48.8201" lon="2.90601"><ele>59.1</ele></trkpt>
    <trkpt lat="48.82044" lon="2.90506"><ele>61.5</ele></trkpt>
    <trkpt lat="48.82076" lon="2.90378"><ele>67.5</ele></trkpt>
    <trkpt lat="48.82111" lon="2.90195"><ele>78.2</ele></trkpt>
    <trkpt lat="48.8221" lon="2.89755"><ele>108.0</ele></trkpt>
    <trkpt lat="48.82178" lon="2.89571"><ele>119.4</ele></trkpt>
    <trkpt lat="48.82093" lon="2.89153"><ele>127.8</ele></trkpt>
    <trkpt lat="48.82089" lon="2.89127"><ele>127.8</ele></trkpt>
    <trkpt lat="48.82092" lon="2.89101"><ele>127.8</ele></trkpt>
    <trkpt lat="48.82102" lon="2.8908"><ele>127.7</ele></trkpt>
    <trkpt lat="48.82119" lon="2.89068"><ele>127.6</ele></trkpt>
    <trkpt lat="48.82205" lon="2.89031"><ele>126.4</ele></trkpt>
    <trkpt lat="48.8222" lon="2.89017"><ele>126.2</ele></trkpt>
    <trkpt lat="48.82285" lon="2.88853"><ele>125.2</ele></trkpt>
    <trkpt lat="48.82304" lon="2.88777"><ele>124.7</ele></trkpt>
    <trkpt lat="48.82373" lon="2.88213"><ele>126.6</ele></trkpt>
    <trkpt lat="48.82367" lon="2.88132"><ele>127.3</ele></trkpt>
    <trkpt lat="48.82356" lon="2.8808"><ele>127.6</ele></trkpt>
    <trkpt lat="48.82258" lon="2.87789"><ele>129.2</ele></trkpt>
    <trkpt lat="48.82255" lon="2.87762"><ele>129.2</ele></trkpt>
    <trkpt lat="48.82266" lon="2.87711"><ele>129.4</ele></trkpt>
    <trkpt lat="48.82251" lon="2.87664"><ele>129.4</ele></trkpt>
    <trkpt lat="48.82248" lon="2.87638"><ele>129.4</ele></trkpt>
    <trkpt lat="48.82227" lon="2.87594"><ele>129.5</ele></trkpt>
    <trkpt lat="48.82182" lon="2.87548"><ele>129.7</ele></trkpt>
    <trkpt lat="48.82171" lon="2.87528"><ele>129.8</ele></trkpt>
    <trkpt lat="48.81865" lon="2.8663"><ele>130.8</ele></trkpt>
    <trkpt lat="48.81846" lon="2.86553"><ele>130.6</ele></trkpt>
    <trkpt lat="48.81572" lon="2.84828"><ele>126.4</ele></trkpt>
    <trkpt lat="48.81545" lon="2.84585"><ele>125.4</ele></trkpt>
    <trkpt lat="48.81521" lon="2.84315"><ele>124.7</ele></trkpt>
    <trkpt lat="48.81522" lon="2.8426"><ele>124.9</ele></trkpt>
    <trkpt lat="48.81538" lon="2.84213"><ele>125.0</ele></trkpt>
    <trkpt lat="48.8154" lon="2.84186"><ele>125.0</ele></trkpt>
    <trkpt lat="48.81533" lon="2.84162"><ele>124.8</ele></trkpt>
    <trkpt lat="48.81518" lon="2.84148"><ele>124.6</ele></trkpt>
    <trkpt lat="48.81508" lon="2.84127"><ele>124.4</ele></trkpt>
    <trkpt lat="48.81499" lon="2.84074"><ele>123.9</ele></trkpt>
    <trkpt lat="48.81434" lon="2.8337"><ele>125.1</ele></trkpt>
    <trkpt lat="48.81412" lon="2.8299"><ele>125.7</ele></trkpt>
    <trkpt lat="48.8142" lon="2.82976"><ele>125.7</ele></trkpt>
    <trkpt lat="48.81438" lon="2.82982"><ele>125.7</ele></trkpt>
    <trkpt lat="48.81451" lon="2.82976"><ele>125.7</ele></trkpt>
    <trkpt lat="48.81489" lon="2.82852"><ele>126.1</ele></trkpt>
    <trkpt lat="48.81501" lon="2.82833"><ele>126.2</ele></trkpt>
    <trkpt lat="48.81565" lon="2.82783"><ele>126.5</ele></trkpt>
    <trkpt lat="48.81574" lon="2.82761"><ele>126.5</ele></trkpt>
    <trkpt lat="48.81727" lon="2.82062"><ele>125.7</ele></trkpt>
    <trkpt lat="48.81748" lon="2.82017"><ele>125.5</ele></trkpt>
    <trkpt lat="48.81798" lon="2.8194"><ele>125.4</ele></trkpt>
    <trkpt lat="48.81841" lon="2.8189"><ele>125.6</ele></trkpt>
    <trkpt lat="48.81876" lon="2.81884"><ele>125.6</ele></trkpt>
    <trkpt lat="48.8189" lon="2.81867"><ele>125.6</ele></trkpt>
    <trkpt lat="48.81894" lon="2.81842"><ele>125.6</ele></trkpt>
    <trkpt lat="48.8189" lon="2.81816"><ele>125.5</ele></trkpt>
    <trkpt lat="48.81876" lon="2.81799"><ele>125.5</ele></trkpt>
    <trkpt lat="48.81859" lon="2.81794"><ele>125.4</ele></trkpt>
    <trkpt lat="48.81845" lon="2.81777"><ele>125.3</ele></trkpt>
    <trkpt lat="48.81835" lon="2.81755"><ele>125.2</ele></trkpt>
    <trkpt lat="48.81805" lon="2.81655"><ele>124.8</ele></trkpt>
    <trkpt lat="48.81796" lon="2.81602"><ele>124.7</ele></trkpt>
    <trkpt lat="48.81777" lon="2.81413"><ele>124.1</ele></trkpt>
    <trkpt lat="48.81762" lon="2.81307"><ele>123.7</ele></trkpt>
    <trkpt lat="48.81706" lon="2.81018"><ele>122.4</ele></trkpt>
    <trkpt lat="48.81655" lon="2.80785"><ele>121.5</ele></trkpt>
    <trkpt lat="48.81622" lon="2.80516"><ele>120.8</ele></trkpt>
    <trkpt lat="48.81602" lon="2.80384"><ele>120.9</ele></trkpt>
    <trkpt lat="48.81594" lon="2.80248"><ele>121.5</ele></trkpt>
    <trkpt lat="48.816" lon="2.79947"><ele>122.1</ele></trkpt>
    <trkpt lat="48.81645" lon="2.79655"><ele>121.2</ele></trkpt>
    <trkpt lat="48.81649" lon="2.79601"><ele>121.1</ele></trkpt>
    <trkpt lat="48.81632" lon="2.79524"><ele>120.9</ele></trkpt>
    <trkpt lat="48.81569" lon="2.79298"><ele>120.8</ele></trkpt>
    <trkpt lat="48.81566" lon="2.79275"><ele>120.6</ele></trkpt>
    <trkpt lat="48.81667" lon="2.7922"><ele>120.1</ele></trkpt>
    <trkpt lat="48.8168" lon="2.79205"><ele>120.1</ele></trkpt>
    <trkpt lat="48.81678" lon="2.79152"><ele>120.2</ele></trkpt>
    <trkpt lat="48.8165" lon="2.79022"><ele>120.4</ele></trkpt>
    <trkpt lat="48.81652" lon="2.78968"><ele>120.5</ele></trkpt>
    <trkpt lat="48.81658" lon="2.78943"><ele>120.6</ele></trkpt>
    <trkpt lat="48.8193" lon="2.78204"><ele>129.6</ele></trkpt>
    <trkpt lat="48.82206" lon="2.77563"><ele>126.0</ele></trkpt>
    <trkpt lat="48.82451" lon="2.76865"><ele>137.2</ele></trkpt>
    <trkpt lat="48.82473" lon="2.76822"><ele>138.6</ele></trkpt>
    <trkpt lat="48.82636" lon="2.76651"><ele>142.7</ele></trkpt>
    <trkpt lat="48.82659" lon="2.7661"><ele>142.5</ele></trkpt>
    <trkpt lat="48.82663" lon="2.76583"><ele>142.2</ele></trkpt>
    <trkpt lat="48.8266" lon="2.76557"><ele>141.8</ele></trkpt>
    <trkpt lat="48.82618" lon="2.76436"><ele>139.2</ele></trkpt>
    <trkpt lat="48.8262" lon="2.76383"><ele>138.6</ele></trkpt>
    <trkpt lat="48.82858" lon="2.75709"><ele>132.2</ele></trkpt>
    <trkpt lat="48.82877" lon="2.75663"><ele>132.4</ele></trkpt>
    <trkpt lat="48.82902" lon="2.75624"><ele>132.8</ele></trkpt>
    <trkpt lat="48.82946" lon="2.75578"><ele>133.1</ele></trkpt>
    <trkpt lat="48.83156" lon="2.75512"><ele>128.5</ele></trkpt>
    <trkpt lat="48.83208" lon="2.75488"><ele>126.4</ele></trkpt>
    <trkpt lat="48.83256" lon="2.75452"><ele>124.9</ele></trkpt>
    <trkpt lat="48.83288" lon="2.75128"><ele>122.7</ele></trkpt>
    <trkpt lat="48.83305" lon="2.7505"><ele>123.0</ele></trkpt>
    <trkpt lat="48.83322" lon="2.75002"><ele>123.2</ele></trkpt>
    <trkpt lat="48.83362" lon="2.74947"><ele>123.1</ele></trkpt>
    <trkpt lat="48.83456" lon="2.74866"><ele>122.7</ele></trkpt>
    <trkpt lat="48.83521" lon="2.7482"><ele>122.4</ele></trkpt>
    <trkpt lat="48.83759" lon="2.74697"><ele>122.6</ele></trkpt>
    <trkpt lat="48.83769" lon="2.74682"><ele>122.8</ele></trkpt>
    <trkpt lat="48.83714" lon="2.73949"><ele>124.7</ele></trkpt>
    <trkpt lat="48.83701" lon="2.73944"><ele>124.7</ele></trkpt>
    <trkpt lat="48.8347" lon="2.74008"><ele>124.9</ele></trkpt>
    <trkpt lat="48.83463" lon="2.7399"><ele>124.8</ele></trkpt>
    <trkpt lat="48.83273" lon="2.72404"><ele>122.4</ele></trkpt>
    <trkpt lat="48.83275" lon="2.72377"><ele>122.3</ele></trkpt>
    <trkpt lat="48.83294" lon="2.72333"><ele>122.2</ele></trkpt>
    <trkpt lat="48.83294" lon="2.72306"><ele>122.1</ele></trkpt>
    <trkpt lat="48.83285" lon="2.72283"><ele>122.0</ele></trkpt>
    <trkpt lat="48.83256" lon="2.72252"><ele>121.8</ele></trkpt>
    <trkpt lat="48.83251" lon="2.72226"><ele>121.7</ele></trkpt>
    <trkpt lat="48.83111" lon="2.71043"><ele>117.1</ele></trkpt>
    <trkpt lat="48.83111" lon="2.71016"><ele>117.0</ele></trkpt>
    <trkpt lat="48.83126" lon="2.7097"><ele>116.9</ele></trkpt>
    <trkpt lat="48.83123" lon="2.70944"><ele>116.8</ele></trkpt>
    <trkpt lat="48.83111" lon="2.70924"><ele>116.7</ele></trkpt>
    <trkpt lat="48.83109" lon="2.70897"><ele>116.7</ele></trkpt>
    <trkpt lat="48.83132" lon="2.70765"><ele>116.9</ele></trkpt>
    <trkpt lat="48.83121" lon="2.70658"><ele>117.2</ele></trkpt>
    <trkpt lat="48.83126" lon="2.70635"><ele>117.0</ele></trkpt>
    <trkpt lat="48.83158" lon="2.70614"><ele>116.1</ele></trkpt>
    <trkpt lat="48.83248" lon="2.70609"><ele>114.4</ele></trkpt>
    <trkpt lat="48.83298" lon="2.70631"><ele>114.1</ele></trkpt>
    <trkpt lat="48.83312" lon="2.70615"><ele>114.0</ele></trkpt>
    <trkpt lat="48.83315" lon="2.70589"><ele>113.8</ele></trkpt>
    <trkpt lat="48.83292" lon="2.7055"><ele>113.6</ele></trkpt>
    <trkpt lat="48.83286" lon="2.70524"><ele>113.5</ele></trkpt>
    <trkpt lat="48.83187" lon="2.6983"><ele>105.6</ele></trkpt>
    <trkpt lat="48.8315" lon="2.69535"><ele>106.5</ele></trkpt>
    <trkpt lat="48.83146" lon="2.69426"><ele>104.4</ele></trkpt>
    <trkpt lat="48.83152" lon="2.69345"><ele>101.9</ele></trkpt>
    <trkpt lat="48.83186" lon="2.69049"><ele>90.3</ele></trkpt>
    <trkpt lat="48.83181" lon="2.68968"><ele>88.3</ele></trkpt>
    <trkpt lat="48.83168" lon="2.68917"><ele>87.6</ele></trkpt>
    <trkpt lat="48.8315" lon="2.68869"><ele>87.5</ele></trkpt>
    <trkpt lat="48.83026" lon="2.68636"><ele>92.1</ele></trkpt>
    <trkpt lat="48.82973" lon="2.68291"><ele>104.8</ele></trkpt>
    <trkpt lat="48.82879" lon="2.68027"><ele>107.8</ele></trkpt>
    <trkpt lat="48.82866" lon="2.67976"><ele>107.9</ele></trkpt>
    <trkpt lat="48.82855" lon="2.67963"><ele>107.8</ele></trkpt>
    <trkpt lat="48.82776" lon="2.68029"><ele>107.6</ele></trkpt>
    <trkpt lat="48.82759" lon="2.68037"><ele>107.5</ele></trkpt>
    <trkpt lat="48.82742" lon="2.68035"><ele>107.5</ele></trkpt>
    <trkpt lat="48.82728" lon="2.68019"><ele>107.5</ele></trkpt>
    <trkpt lat="48.82722" lon="2.67995"><ele>107.5</ele></trkpt>
    <trkpt lat="48.82733" lon="2.6786"><ele>107.9</ele></trkpt>
    <trkpt lat="48.82729" lon="2.67204"><ele>108.8</ele></trkpt>
    <trkpt lat="48.82734" lon="2.66877"><ele>107.1</ele></trkpt>
    <trkpt lat="48.8274" lon="2.66823"><ele>107.4</ele></trkpt>
    <trkpt lat="48.8275" lon="2.66801"><ele>107.5</ele></trkpt>
    <trkpt lat="48.82754" lon="2.66776"><ele>107.5</ele></trkpt>
    <trkpt lat="48.82745" lon="2.66753"><ele>107.4</ele></trkpt>
    <trkpt lat="48.82728" lon="2.66749"><ele>107.3</ele></trkpt>
    <trkpt lat="48.82717" lon="2.66736"><ele>107.1</ele></trkpt>
    <trkpt lat="48.82692" lon="2.66663"><ele>106.5</ele></trkpt>
    <trkpt lat="48.82675" lon="2.66586"><ele>105.9</ele></trkpt>
    <trkpt lat="48.82667" lon="2.66505"><ele>105.6</ele></trkpt>
    <trkpt lat="48.82669" lon="2.66478"><ele>105.5</ele></trkpt>
    <trkpt lat="48.82682" lon="2.6646"><ele>105.4</ele></trkpt>
    <trkpt lat="48.82751" lon="2.66432"><ele>104.9</ele></trkpt>
    <trkpt lat="48.82766" lon="2.66417"><ele>104.8</ele></trkpt>
    <trkpt lat="48.82774" lon="2.66393"><ele>104.7</ele></trkpt>
    <trkpt lat="48.82775" lon="2.66366"><ele>104.6</ele></trkpt>
    <trkpt lat="48.82674" lon="2.66047"><ele>101.0</ele></trkpt>
    <trkpt lat="48.82672" lon="2.65993"><ele>100.5</ele></trkpt>
    <trkpt lat="48.82684" lon="2.65976"><ele>100.4</ele></trkpt>
    <trkpt lat="48.82774" lon="2.65973"><ele>99.9</ele></trkpt>
    <trkpt lat="48.82891" lon="2.65909"><ele>98.3</ele></trkpt>
    <trkpt lat="48.82963" lon="2.65907"><ele>96.5</ele></trkpt>
    <trkpt lat="48.82978" lon="2.65893"><ele>96.0</ele></trkpt>
    <trkpt lat="48.8299" lon="2.65872"><ele>95.6</ele></trkpt>
    <trkpt lat="48.83079" lon="2.65574"><ele>94.1</ele></trkpt>
    <trkpt lat="48.83089" lon="2.65522"><ele>94.4</ele></trkpt>
    <trkpt lat="48.83073" lon="2.65415"><ele>95.9</ele></trkpt>
    <trkpt lat="48.83069" lon="2.65033"><ele>99.7</ele></trkpt>
    <trkpt lat="48.83058" lon="2.64981"><ele>99.9</ele></trkpt>
    <trkpt lat="48.83031" lon="2.6491"><ele>100.3</ele></trkpt>
    <trkpt lat="48.82819" lon="2.64504"><ele>102.5</ele></trkpt>
    <trkpt lat="48.82802" lon="2.64455"><ele>102.6</ele></trkpt>
    <trkpt lat="48.82812" lon="2.6441"><ele>102.8</ele></trkpt>
    <trkpt lat="48.82802" lon="2.6439"><ele>102.8</ele></trkpt>
    <trkpt lat="48.82785" lon="2.64394"><ele>102.9</ele></trkpt>
    <trkpt lat="48.82775" lon="2.64416"><ele>103.0</ele></trkpt>
    <trkpt lat="48.82758" lon="2.64422"><ele>103.2</ele></trkpt>
    <trkpt lat="48.82744" lon="2.64407"><ele>103.3</ele></trkpt>
    <trkpt lat="48.82697" lon="2.64325"><ele>103.8</ele></trkpt>
    <trkpt lat="48.82652" lon="2.64279"><ele>104.2</ele></trkpt>
    <trkpt lat="48.82602" lon="2.6425"><ele>104.3</ele></trkpt>
    <trkpt lat="48.82355" lon="2.64174"><ele>104.4</ele></trkpt>
    <trkpt lat="48.82342" lon="2.64157"><ele>104.5</ele></trkpt>
    <trkpt lat="48.82336" lon="2.64132"><ele>104.6</ele></trkpt>
    <trkpt lat="48.82353" lon="2.64089"><ele>104.8</ele></trkpt>
    <trkpt lat="48.82358" lon="2.64063"><ele>104.9</ele></trkpt>
    <trkpt lat="48.82353" lon="2.64037"><ele>104.9</ele></trkpt>
    <trkpt lat="48.82327" lon="2.64001"><ele>105.1</ele></trkpt>
    <trkpt lat="48.82319" lon="2.63976"><ele>105.1</ele></trkpt>
    <trkpt lat="48.82315" lon="2.6395"><ele>105.2</ele></trkpt>
    <trkpt lat="48.82318" lon="2.63923"><ele>105.3</ele></trkpt>
    <trkpt lat="48.82481" lon="2.63142"><ele>106.3</ele></trkpt>
    <trkpt lat="48.82475" lon="2.63143"><ele>106.4</ele></trkpt>
    <trkpt lat="48.82429" lon="2.63351"><ele>105.6</ele></trkpt>
    <trkpt lat="48.82388" lon="2.6356"><ele>105.3</ele></trkpt>
    <trkpt lat="48.82395" lon="2.63556"><ele>105.2</ele></trkpt>
    <trkpt lat="48.82481" lon="2.63139"><ele>106.2</ele></trkpt>
    <trkpt lat="48.82493" lon="2.63059"><ele>106.6</ele></trkpt>
    <trkpt lat="48.82497" lon="2.63005"><ele>106.8</ele></trkpt>
    <trkpt lat="48.82495" lon="2.62869"><ele>107.2</ele></trkpt>
    <trkpt lat="48.82416" lon="2.61893"><ele>107.9</ele></trkpt>
    <trkpt lat="48.82395" lon="2.61788"><ele>107.5</ele></trkpt>
    <trkpt lat="48.82357" lon="2.61665"><ele>107.0</ele></trkpt>
    <trkpt lat="48.82362" lon="2.61639"><ele>106.8</ele></trkpt>
    <trkpt lat="48.8236" lon="2.61612"><ele>106.7</ele></trkpt>
    <trkpt lat="48.82333" lon="2.61576"><ele>106.6</ele></trkpt>
    <trkpt lat="48.82306" lon="2.61505"><ele>106.4</ele></trkpt>
    <trkpt lat="48.82284" lon="2.61463"><ele>106.2</ele></trkpt>
    <trkpt lat="48.82256" lon="2.61429"><ele>106.2</ele></trkpt>
    <trkpt lat="48.82224" lon="2.61405"><ele>106.3</ele></trkpt>
    <trkpt lat="48.8217" lon="2.61397"><ele>106.5</ele></trkpt>
    <trkpt lat="48.82099" lon="2.61412"><ele>107.1</ele></trkpt>
    <trkpt lat="48.82083" lon="2.61408"><ele>107.3</ele></trkpt>
    <trkpt lat="48.82076" lon="2.61383"><ele>107.3</ele></trkpt>
    <trkpt lat="48.82077" lon="2.61356"><ele>107.3</ele></trkpt>
    <trkpt lat="48.82089" lon="2.61338"><ele>107.3</ele></trkpt>
    <trkpt lat="48.82107" lon="2.61333"><ele>107.2</ele></trkpt>
    <trkpt lat="48.82142" lon="2.61343"><ele>107.2</ele></trkpt>
    <trkpt lat="48.8216" lon="2.61339"><ele>107.2</ele></trkpt>
    <trkpt lat="48.82266" lon="2.61309"><ele>107.4</ele></trkpt>
    <trkpt lat="48.82373" lon="2.61294"><ele>107.9</ele></trkpt>
    <trkpt lat="48.82425" lon="2.61271"><ele>108.0</ele></trkpt>
    <trkpt lat="48.82864" lon="2.60897"><ele>104.3</ele></trkpt>
    <trkpt lat="48.82907" lon="2.60848"><ele>103.8</ele></trkpt>
    <trkpt lat="48.82932" lon="2.60809"><ele>103.4</ele></trkpt>
    <trkpt lat="48.82953" lon="2.60765"><ele>103.0</ele></trkpt>
    <trkpt lat="48.82976" lon="2.60691"><ele>102.3</ele></trkpt>
    <trkpt lat="48.83122" lon="2.59789"><ele>98.1</ele></trkpt>
    <trkpt lat="48.83142" lon="2.59713"><ele>95.4</ele></trkpt>
    <trkpt lat="48.83236" lon="2.59513"><ele>89.8</ele></trkpt>
    <trkpt lat="48.83256" lon="2.59437"><ele>89.0</ele></trkpt>
    <trkpt lat="48.83267" lon="2.59329"><ele>88.7</ele></trkpt>
    <trkpt lat="48.83259" lon="2.59221"><ele>89.2</ele></trkpt>
    <trkpt lat="48.8324" lon="2.59144"><ele>90.1</ele></trkpt>
    <trkpt lat="48.83222" lon="2.59097"><ele>91.1</ele></trkpt>
    <trkpt lat="48.83129" lon="2.58931"><ele>96.2</ele></trkpt>
    <trkpt lat="48.83136" lon="2.58907"><ele>96.6</ele></trkpt>
    <trkpt lat="48.83131" lon="2.58883"><ele>97.0</ele></trkpt>
    <trkpt lat="48.83101" lon="2.58869"><ele>97.6</ele></trkpt>
    <trkpt lat="48.83088" lon="2.58818"><ele>98.1</ele></trkpt>
    <trkpt lat="48.83079" lon="2.58765"><ele>98.4</ele></trkpt>
    <trkpt lat="48.8307" lon="2.5863"><ele>98.9</ele></trkpt>
    <trkpt lat="48.83044" lon="2.58559"><ele>98.8</ele></trkpt>
    <trkpt lat="48.83018" lon="2.58344"><ele>98.8</ele></trkpt>
    <trkpt lat="48.83013" lon="2.58331"><ele>98.8</ele></trkpt>
    <trkpt lat="48.83014" lon="2.58359"><ele>98.8</ele></trkpt>
    <trkpt lat="48.8303" lon="2.58521"><ele>99.0</ele></trkpt>
    <trkpt lat="48.83045" lon="2.5857"><ele>98.9</ele></trkpt>
    <trkpt lat="48.83011" lon="2.58307"><ele>98.8</ele></trkpt>
    <trkpt lat="48.83" lon="2.58172"><ele>98.7</ele></trkpt>
    <trkpt lat="48.83001" lon="2.58148"><ele>98.7</ele></trkpt>
    <trkpt lat="48.83012" lon="2.58131"><ele>98.7</ele></trkpt>
    <trkpt lat="48.83244" lon="2.58165"><ele>99.3</ele></trkpt>
    <trkpt lat="48.83279" lon="2.58157"><ele>99.2</ele></trkpt>
    <trkpt lat="48.83294" lon="2.58143"><ele>99.1</ele></trkpt>
    <trkpt lat="48.83305" lon="2.58121"><ele>99.1</ele></trkpt>
    <trkpt lat="48.83318" lon="2.58071"><ele>99.0</ele></trkpt>
    <trkpt lat="48.83324" lon="2.57989"><ele>98.9</ele></trkpt>
    <trkpt lat="48.83323" lon="2.5788"><ele>98.9</ele></trkpt>
    <trkpt lat="48.83328" lon="2.57771"><ele>99.1</ele></trkpt>
    <trkpt lat="48.83337" lon="2.57752"><ele>99.2</ele></trkpt>
    <trkpt lat="48.83331" lon="2.5773"><ele>99.2</ele></trkpt>
    <trkpt lat="48.8337" lon="2.56994"><ele>100.4</ele></trkpt>
    <trkpt lat="48.83378" lon="2.56971"><ele>100.2</ele></trkpt>
    <trkpt lat="48.83394" lon="2.56961"><ele>100.1</ele></trkpt>
    <trkpt lat="48.83466" lon="2.56969"><ele>99.4</ele></trkpt>
    <trkpt lat="48.83475" lon="2.56949"><ele>99.3</ele></trkpt>
    <trkpt lat="48.83486" lon="2.56703"><ele>98.1</ele></trkpt>
    <trkpt lat="48.83477" lon="2.56623"><ele>97.6</ele></trkpt>
    <trkpt lat="48.83476" lon="2.5657"><ele>97.4</ele></trkpt>
    <trkpt lat="48.83493" lon="2.56565"><ele>97.5</ele></trkpt>
    <trkpt lat="48.83508" lon="2.5655"><ele>97.7</ele></trkpt>
    <trkpt lat="48.83528" lon="2.56504"><ele>98.5</ele></trkpt>
    <trkpt lat="48.8353" lon="2.56478"><ele>99.1</ele></trkpt>
    <trkpt lat="48.83515" lon="2.56293"><ele>101.7</ele></trkpt>
    <trkpt lat="48.83439" lon="2.56177"><ele>98.9</ele></trkpt>
    <trkpt lat="48.83216" lon="2.55783"><ele>96.8</ele></trkpt>
    <trkpt lat="48.83205" lon="2.55762"><ele>96.8</ele></trkpt>
    <trkpt lat="48.8321" lon="2.55738"><ele>97.0</ele></trkpt>
    <trkpt lat="48.83198" lon="2.55721"><ele>97.2</ele></trkpt>
    <trkpt lat="48.83244" lon="2.55261"><ele>99.8</ele></trkpt>
    <trkpt lat="48.83257" lon="2.55249"><ele>99.8</ele></trkpt>
    <trkpt lat="48.83273" lon="2.55203"><ele>99.4</ele></trkpt>
    <trkpt lat="48.83286" lon="2.55184"><ele>99.2</ele></trkpt>
    <trkpt lat="48.83476" lon="2.54933"><ele>96.6</ele></trkpt>
    <trkpt lat="48.83505" lon="2.54905"><ele>96.4</ele></trkpt>
    <trkpt lat="48.83497" lon="2.54885"><ele>96.4</ele></trkpt>
    <trkpt lat="48.83477" lon="2.54925"><ele>96.4</ele></trkpt>
    <trkpt lat="48.83326" lon="2.5512"><ele>98.3</ele></trkpt>
    <trkpt lat="48.83302" lon="2.5516"><ele>98.8</ele></trkpt>
    <trkpt lat="48.83273" lon="2.55193"><ele>99.2</ele></trkpt>
    <trkpt lat="48.83239" lon="2.55199"><ele>99.5</ele></trkpt>
    <trkpt lat="48.83229" lon="2.5522"><ele>99.7</ele></trkpt>
    <trkpt lat="48.83235" lon="2.55245"><ele>99.8</ele></trkpt>
    <trkpt lat="48.83251" lon="2.55252"><ele>99.8</ele></trkpt>
    <trkpt lat="48.83264" lon="2.55237"><ele>99.8</ele></trkpt>
    <trkpt lat="48.83269" lon="2.55211"><ele>99.7</ele></trkpt>
    <trkpt lat="48.83281" lon="2.5519"><ele>99.5</ele></trkpt>
    <trkpt lat="48.83484" lon="2.54922"><ele>96.6</ele></trkpt>
    <trkpt lat="48.83501" lon="2.54912"><ele>96.5</ele></trkpt>
    <trkpt lat="48.83498" lon="2.54699"><ele>95.6</ele></trkpt>
    <trkpt lat="48.83501" lon="2.54617"><ele>95.7</ele></trkpt>
    <trkpt lat="48.83511" lon="2.54565"><ele>96.1</ele></trkpt>
    <trkpt lat="48.83533" lon="2.5449"><ele>96.7</ele></trkpt>
    <trkpt lat="48.83539" lon="2.54436"><ele>97.1</ele></trkpt>
    <trkpt lat="48.83541" lon="2.54327"><ele>98.0</ele></trkpt>
    <trkpt lat="48.83553" lon="2.54307"><ele>98.1</ele></trkpt>
    <trkpt lat="48.83557" lon="2.54281"><ele>98.1</ele></trkpt>
    <trkpt lat="48.83541" lon="2.54235"><ele>97.8</ele></trkpt>
    <trkpt lat="48.83535" lon="2.54071"><ele>96.3</ele></trkpt>
    <trkpt lat="48.83525" lon="2.54019"><ele>96.1</ele></trkpt>
    <trkpt lat="48.83504" lon="2.53944"><ele>96.2</ele></trkpt>
    <trkpt lat="48.83363" lon="2.53626"><ele>97.2</ele></trkpt>
    <trkpt lat="48.83284" lon="2.53477"><ele>96.5</ele></trkpt>
    <trkpt lat="48.83212" lon="2.53356"><ele>95.2</ele></trkpt>
    <trkpt lat="48.83203" lon="2.53333"><ele>95.1</ele></trkpt>
    <trkpt lat="48.83205" lon="2.53306"><ele>95.1</ele></trkpt>
    <trkpt lat="48.8324" lon="2.53211"><ele>95.7</ele></trkpt>
    <trkpt lat="48.83255" lon="2.53161"><ele>96.1</ele></trkpt>
    <trkpt lat="48.83257" lon="2.53137"><ele>96.2</ele></trkpt>
    <trkpt lat="48.83009" lon="2.52742"><ele>96.5</ele></trkpt>
    <trkpt lat="48.82825" lon="2.52481"><ele>88.7</ele></trkpt>
    <trkpt lat="48.82779" lon="2.52396"><ele>87.2</ele></trkpt>
    <trkpt lat="48.82756" lon="2.52322"><ele>86.7</ele></trkpt>
    <trkpt lat="48.82728" lon="2.52108"><ele>84.7</ele></trkpt>
    <trkpt lat="48.82706" lon="2.51865"><ele>78.3</ele></trkpt>
    <trkpt lat="48.82709" lon="2.51783"><ele>76.0</ele></trkpt>
    <trkpt lat="48.8272" lon="2.51675"><ele>73.1</ele></trkpt>
    <trkpt lat="48.82718" lon="2.51457"><ele>69.3</ele></trkpt>
    <trkpt lat="48.82731" lon="2.51184"><ele>66.6</ele></trkpt>
    <trkpt lat="48.82735" lon="2.5113"><ele>65.8</ele></trkpt>
    <trkpt lat="48.82756" lon="2.51026"><ele>64.1</ele></trkpt>
    <trkpt lat="48.82755" lon="2.50999"><ele>63.8</ele></trkpt>
    <trkpt lat="48.82734" lon="2.50895"><ele>62.9</ele></trkpt>
    <trkpt lat="48.82665" lon="2.50643"><ele>60.8</ele></trkpt>
    <trkpt lat="48.82494" lon="2.50071"><ele>54.3</ele></trkpt>
    <trkpt lat="48.8247" lon="2.50004"><ele>53.6</ele></trkpt>
    <trkpt lat="48.82489" lon="2.5008"><ele>53.9</ele></trkpt>
    <trkpt lat="48.82659" lon="2.5065"><ele>59.9</ele></trkpt>
    <trkpt lat="48.82708" lon="2.50827"><ele>62.4</ele></trkpt>
    <trkpt lat="48.82708" lon="2.50852"><ele>62.5</ele></trkpt>
    <trkpt lat="48.82685" lon="2.50984"><ele>62.2</ele></trkpt>
    <trkpt lat="48.82691" lon="2.5101"><ele>62.3</ele></trkpt>
    <trkpt lat="48.82732" lon="2.51099"><ele>64.3</ele></trkpt>
    <trkpt lat="48.82744" lon="2.51094"><ele>64.6</ele></trkpt>
    <trkpt lat="48.82754" lon="2.51041"><ele>64.4</ele></trkpt>
    <trkpt lat="48.82758" lon="2.51015"><ele>64.0</ele></trkpt>
    <trkpt lat="48.82718" lon="2.50834"><ele>62.7</ele></trkpt>
    <trkpt lat="48.8261" lon="2.50458"><ele>54.8</ele></trkpt>
    <trkpt lat="48.82498" lon="2.50085"><ele>54.4</ele></trkpt>
    <trkpt lat="48.82458" lon="2.49964"><ele>52.5</ele></trkpt>
    <trkpt lat="48.82112" lon="2.48792"><ele>43.4</ele></trkpt>
    <trkpt lat="48.82054" lon="2.48592"><ele>42.8</ele></trkpt>
    <trkpt lat="48.82044" lon="2.4854"><ele>42.8</ele></trkpt>
    <trkpt lat="48.82037" lon="2.48516"><ele>42.8</ele></trkpt>
    <trkpt lat="48.82024" lon="2.48513"><ele>42.8</ele></trkpt>
    <trkpt lat="48.82007" lon="2.48435"><ele>43.0</ele></trkpt>
    <trkpt lat="48.81995" lon="2.48436"><ele>43.1</ele></trkpt>
    <trkpt lat="48.81981" lon="2.48486"><ele>43.2</ele></trkpt>
    <trkpt lat="48.81914" lon="2.48797"><ele>43.0</ele></trkpt>
    <trkpt lat="48.81891" lon="2.48871"><ele>43.1</ele></trkpt>
    <trkpt lat="48.81842" lon="2.49105"><ele>43.9</ele></trkpt>
    <trkpt lat="48.81827" lon="2.49211"><ele>43.5</ele></trkpt>
    <trkpt lat="48.81585" lon="2.50354"><ele>41.4</ele></trkpt>
    <trkpt lat="48.81464" lon="2.50781"><ele>41.9</ele></trkpt>
    <trkpt lat="48.81397" lon="2.50942"><ele>41.7</ele></trkpt>
    <trkpt lat="48.81345" lon="2.51116"><ele>40.7</ele></trkpt>
    <trkpt lat="48.8133" lon="2.51119"><ele>40.1</ele></trkpt>
    <trkpt lat="48.81295" lon="2.51107"><ele>38.5</ele></trkpt>
    <trkpt lat="48.81034" lon="2.51003"><ele>41.0</ele></trkpt>
  </trkseg></trk>
</gpx>
