<?xml version="1.0" encoding="UTF-8"?>
<gpx version="1.1" creator="Club Cycliste USO" xmlns="http://www.topografix.com/GPX/1/1">
  <metadata><name>Dammartin-sur-Tigeaux – 104 km</name><desc>104.0 km, D+ 471 m. Départ et arrivée : pont de Champigny.</desc></metadata>
  <trk><name>Dammartin-sur-Tigeaux – 104 km</name><trkseg>
    <trkpt lat="48.81032" lon="2.51002"><ele>41.0</ele></trkpt>
    <trkpt lat="48.81222" lon="2.51078"><ele>37.4</ele></trkpt>
    <trkpt lat="48.81197" lon="2.51209"><ele>37.4</ele></trkpt>
    <trkpt lat="48.81179" lon="2.5137"><ele>38.7</ele></trkpt>
    <trkpt lat="48.81275" lon="2.51415"><ele>43.6</ele></trkpt>
    <trkpt lat="48.81274" lon="2.51442"><ele>44.5</ele></trkpt>
    <trkpt lat="48.81147" lon="2.51833"><ele>56.8</ele></trkpt>
    <trkpt lat="48.81096" lon="2.51945"><ele>61.2</ele></trkpt>
    <trkpt lat="48.81052" lon="2.52064"><ele>65.6</ele></trkpt>
    <trkpt lat="48.80956" lon="2.52262"><ele>73.6</ele></trkpt>
    <trkpt lat="48.80868" lon="2.52434"><ele>80.8</ele></trkpt>
    <trkpt lat="48.80825" lon="2.52483"><ele>83.2</ele></trkpt>
    <trkpt lat="48.80759" lon="2.52529"><ele>86.7</ele></trkpt>
    <trkpt lat="48.8073" lon="2.5256"><ele>88.4</ele></trkpt>
    <trkpt lat="48.80672" lon="2.52664"><ele>92.6</ele></trkpt>
    <trkpt lat="48.80652" lon="2.52709"><ele>94.4</ele></trkpt>
    <trkpt lat="48.80636" lon="2.52787"><ele>96.6</ele></trkpt>
    <trkpt lat="48.80617" lon="2.53113"><ele>101.2</ele></trkpt>
    <trkpt lat="48.8061" lon="2.53194"><ele>101.4</ele></trkpt>
    <trkpt lat="48.80601" lon="2.5321"><ele>101.3</ele></trkpt>
    <trkpt lat="48.80547" lon="2.53214"><ele>101.3</ele></trkpt>
    <trkpt lat="48.8053" lon="2.53221"><ele>101.3</ele></trkpt>
    <trkpt lat="48.80513" lon="2.53214"><ele>101.3</ele></trkpt>
    <trkpt lat="48.80351" lon="2.53222"><ele>101.6</ele></trkpt>
    <trkpt lat="48.80244" lon="2.53243"><ele>102.1</ele></trkpt>
    <trkpt lat="48.80217" lon="2.53277"><ele>102.3</ele></trkpt>
    <trkpt lat="48.80187" lon="2.53345"><ele>102.4</ele></trkpt>
    <trkpt lat="48.80175" lon="2.53364"><ele>102.4</ele></trkpt>
    <trkpt lat="48.80159" lon="2.53377"><ele>102.3</ele></trkpt>
    <trkpt lat="48.80124" lon="2.53385"><ele>102.1</ele></trkpt>
    <trkpt lat="48.79873" lon="2.53378"><ele>101.1</ele></trkpt>
    <trkpt lat="48.79497" lon="2.53348"><ele>104.3</ele></trkpt>
    <trkpt lat="48.79355" lon="2.53313"><ele>105.6</ele></trkpt>
    <trkpt lat="48.79232" lon="2.53269"><ele>105.5</ele></trkpt>
    <trkpt lat="48.79218" lon="2.53255"><ele>105.5</ele></trkpt>
    <trkpt lat="48.79203" lon="2.53265"><ele>105.5</ele></trkpt>
    <trkpt lat="48.79175" lon="2.533"><ele>105.6</ele></trkpt>
    <trkpt lat="48.78888" lon="2.53581"><ele>105.3</ele></trkpt>
    <trkpt lat="48.78858" lon="2.53597"><ele>105.0</ele></trkpt>
    <trkpt lat="48.78851" lon="2.53617"><ele>104.7</ele></trkpt>
    <trkpt lat="48.78532" lon="2.53926"><ele>95.6</ele></trkpt>
    <trkpt lat="48.78442" lon="2.53726"><ele>94.5</ele></trkpt>
    <trkpt lat="48.78431" lon="2.53712"><ele>94.1</ele></trkpt>
    <trkpt lat="48.78384" lon="2.5375"><ele>91.6</ele></trkpt>
    <trkpt lat="48.78263" lon="2.53807"><ele>84.3</ele></trkpt>
    <trkpt lat="48.78228" lon="2.53813"><ele>82.3</ele></trkpt>
    <trkpt lat="48.7821" lon="2.53808"><ele>81.3</ele></trkpt>
    <trkpt lat="48.77924" lon="2.53645"><ele>64.2</ele></trkpt>
    <trkpt lat="48.77901" lon="2.53604"><ele>62.0</ele></trkpt>
    <trkpt lat="48.77846" lon="2.53432"><ele>57.9</ele></trkpt>
    <trkpt lat="48.7783" lon="2.53424"><ele>57.6</ele></trkpt>
    <trkpt lat="48.77669" lon="2.53445"><ele>58.3</ele></trkpt>
    <trkpt lat="48.77673" lon="2.53498"><ele>58.6</ele></trkpt>
    <trkpt lat="48.77686" lon="2.53577"><ele>58.8</ele></trkpt>
    <trkpt lat="48.77741" lon="2.53748"><ele>64.3</ele></trkpt>
    <trkpt lat="48.77747" lon="2.53884"><ele>70.7</ele></trkpt>
    <trkpt lat="48.7774" lon="2.53937"><ele>73.4</ele></trkpt>
    <trkpt lat="48.77714" lon="2.54038"><ele>78.8</ele></trkpt>
    <trkpt lat="48.77704" lon="2.54061"><ele>80.1</ele></trkpt>
    <trkpt lat="48.77675" lon="2.54093"><ele>82.6</ele></trkpt>
    <trkpt lat="48.77666" lon="2.54115"><ele>83.7</ele></trkpt>
    <trkpt lat="48.77668" lon="2.54141"><ele>84.7</ele></trkpt>
    <trkpt lat="48.77766" lon="2.54402"><ele>91.1</ele></trkpt>
    <trkpt lat="48.77785" lon="2.54447"><ele>91.5</ele></trkpt>
    <trkpt lat="48.77833" lon="2.54529"><ele>91.7</ele></trkpt>
    <trkpt lat="48.77862" lon="2.54598"><ele>91.7</ele></trkpt>
    <trkpt lat="48.77874" lon="2.54649"><ele>91.8</ele></trkpt>
    <trkpt lat="48.77882" lon="2.5473"><ele>92.4</ele></trkpt>
    <trkpt lat="48.77876" lon="2.54783"><ele>92.9</ele></trkpt>
    <trkpt lat="48.77859" lon="2.54826"><ele>93.3</ele></trkpt>
    <trkpt lat="48.77845" lon="2.5484"><ele>93.5</ele></trkpt>
    <trkpt lat="48.77633" lon="2.54989"><ele>98.1</ele></trkpt>
    <trkpt lat="48.77632" lon="2.55007"><ele>98.3</ele></trkpt>
    <trkpt lat="48.77792" lon="2.5537"><ele>98.9</ele></trkpt>
    <trkpt lat="48.78056" lon="2.56081"><ele>100.9</ele></trkpt>
    <trkpt lat="48.78123" lon="2.56363"><ele>98.1</ele></trkpt>
    <trkpt lat="48.78137" lon="2.56443"><ele>97.8</ele></trkpt>
    <trkpt lat="48.78159" lon="2.56686"><ele>100.7</ele></trkpt>
    <trkpt lat="48.78181" lon="2.57012"><ele>103.6</ele></trkpt>
    <trkpt lat="48.78159" lon="2.57115"><ele>103.4</ele></trkpt>
    <trkpt lat="48.78047" lon="2.57457"><ele>102.9</ele></trkpt>
    <trkpt lat="48.78034" lon="2.57537"><ele>102.7</ele></trkpt>
    <trkpt lat="48.78009" lon="2.57752"><ele>101.8</ele></trkpt>
    <trkpt lat="48.77999" lon="2.57803"><ele>101.8</ele></trkpt>
    <trkpt lat="48.78" lon="2.57829"><ele>101.8</ele></trkpt>
    <trkpt lat="48.77971" lon="2.58043"><ele>102.7</ele></trkpt>
    <trkpt lat="48.77919" lon="2.58302"><ele>103.5</ele></trkpt>
    <trkpt lat="48.77889" lon="2.58487"><ele>102.5</ele></trkpt>
    <trkpt lat="48.7786" lon="2.58554"><ele>102.5</ele></trkpt>
    <trkpt lat="48.77845" lon="2.58563"><ele>102.6</ele></trkpt>
    <trkpt lat="48.77811" lon="2.58548"><ele>102.9</ele></trkpt>
    <trkpt lat="48.77739" lon="2.58546"><ele>103.7</ele></trkpt>
    <trkpt lat="48.77668" lon="2.58561"><ele>104.3</ele></trkpt>
    <trkpt lat="48.77617" lon="2.58587"><ele>104.8</ele></trkpt>
    <trkpt lat="48.77601" lon="2.586"><ele>105.0</ele></trkpt>
    <trkpt lat="48.77576" lon="2.5864"><ele>105.3</ele></trkpt>
    <trkpt lat="48.7756" lon="2.58688"><ele>105.5</ele></trkpt>
    <trkpt lat="48.77549" lon="2.5874"><ele>105.7</ele></trkpt>
    <trkpt lat="48.77498" lon="2.59253"><ele>105.5</ele></trkpt>
    <trkpt lat="48.77486" lon="2.59268"><ele>105.5</ele></trkpt>
    <trkpt lat="48.77489" lon="2.59292"><ele>105.4</ele></trkpt>
    <trkpt lat="48.77479" lon="2.59315"><ele>105.3</ele></trkpt>
    <trkpt lat="48.77452" lon="2.59416"><ele>104.9</ele></trkpt>
    <trkpt lat="48.77446" lon="2.59469"><ele>104.8</ele></trkpt>
    <trkpt lat="48.77438" lon="2.59488"><ele>104.7</ele></trkpt>
    <trkpt lat="48.77446" lon="2.59509"><ele>104.7</ele></trkpt>
    <trkpt lat="48.77442" lon="2.59535"><ele>104.6</ele></trkpt>
    <trkpt lat="48.77443" lon="2.59589"><ele>104.3</ele></trkpt>
    <trkpt lat="48.77467" lon="2.59915"><ele>104.9</ele></trkpt>
    <trkpt lat="48.77465" lon="2.60078"><ele>104.9</ele></trkpt>
    <trkpt lat="48.77468" lon="2.60105"><ele>104.9</ele></trkpt>
    <trkpt lat="48.77507" lon="2.60257"><ele>105.3</ele></trkpt>
    <trkpt lat="48.77489" lon="2.60303"><ele>105.3</ele></trkpt>
    <trkpt lat="48.77488" lon="2.6033"><ele>105.3</ele></trkpt>
    <trkpt lat="48.77511" lon="2.60433"><ele>105.4</ele></trkpt>
    <trkpt lat="48.77509" lon="2.6046"><ele>105.5</ele></trkpt>
    <trkpt lat="48.7747" lon="2.6067"><ele>105.7</ele></trkpt>
    <trkpt lat="48.77451" lon="2.60715"><ele>105.6</ele></trkpt>
    <trkpt lat="48.77435" lon="2.60728"><ele>105.6</ele></trkpt>
    <trkpt lat="48.77332" lon="2.60778"><ele>105.4</ele></trkpt>
    <trkpt lat="48.77271" lon="2.60834"><ele>105.5</ele></trkpt>
    <trkpt lat="48.77228" lon="2.60885"><ele>105.4</ele></trkpt>
    <trkpt lat="48.77058" lon="2.61128"><ele>105.4</ele></trkpt>
    <trkpt lat="48.76997" lon="2.61185"><ele>105.5</ele></trkpt>
    <trkpt lat="48.76929" lon="2.6122"><ele>105.1</ele></trkpt>
    <trkpt lat="48.76823" lon="2.61243"><ele>104.5</ele></trkpt>
    <trkpt lat="48.76755" lon="2.6128"><ele>104.2</ele></trkpt>
    <trkpt lat="48.76562" lon="2.61342"><ele>103.2</ele></trkpt>
    <trkpt lat="48.76486" lon="2.61416"><ele>102.8</ele></trkpt>
    <trkpt lat="48.76459" lon="2.61453"><ele>102.7</ele></trkpt>
    <trkpt lat="48.76397" lon="2.61507"><ele>102.7</ele></trkpt>
    <trkpt lat="48.76313" lon="2.61554"><ele>102.8</ele></trkpt>
    <trkpt lat="48.76278" lon="2.61565"><ele>102.7</ele></trkpt>
    <trkpt lat="48.76242" lon="2.61567"><ele>102.7</ele></trkpt>
    <trkpt lat="48.76206" lon="2.61561"><ele>102.5</ele></trkpt>
    <trkpt lat="48.76129" lon="2.61493"><ele>102.1</ele></trkpt>
    <trkpt lat="48.76111" lon="2.61487"><ele>102.0</ele></trkpt>
    <trkpt lat="48.7595" lon="2.61471"><ele>101.3</ele></trkpt>
    <trkpt lat="48.75932" lon="2.61476"><ele>101.3</ele></trkpt>
    <trkpt lat="48.75901" lon="2.61504"><ele>101.1</ele></trkpt>
    <trkpt lat="48.75866" lon="2.61516"><ele>100.9</ele></trkpt>
    <trkpt lat="48.75759" lon="2.61516"><ele>100.5</ele></trkpt>
    <trkpt lat="48.75544" lon="2.61483"><ele>99.4</ele></trkpt>
    <trkpt lat="48.75171" lon="2.61391"><ele>99.2</ele></trkpt>
    <trkpt lat="48.75139" lon="2.6137"><ele>99.3</ele></trkpt>
    <trkpt lat="48.75077" lon="2.61272"><ele>100.0</ele></trkpt>
    <trkpt lat="48.75061" lon="2.61258"><ele>100.0</ele></trkpt>
    <trkpt lat="48.75026" lon="2.61249"><ele>100.0</ele></trkpt>
    <trkpt lat="48.74954" lon="2.61253"><ele>99.9</ele></trkpt>
    <trkpt lat="48.74939" lon="2.61266"><ele>99.9</ele></trkpt>
    <trkpt lat="48.74899" lon="2.61321"><ele>99.7</ele></trkpt>
    <trkpt lat="48.74884" lon="2.61335"><ele>99.6</ele></trkpt>
    <trkpt lat="48.74849" lon="2.61348"><ele>99.4</ele></trkpt>
    <trkpt lat="48.74723" lon="2.61345"><ele>98.8</ele></trkpt>
    <trkpt lat="48.74598" lon="2.61324"><ele>98.0</ele></trkpt>
    <trkpt lat="48.74545" lon="2.61327"><ele>97.8</ele></trkpt>
    <trkpt lat="48.74477" lon="2.61289"><ele>97.7</ele></trkpt>
    <trkpt lat="48.7446" lon="2.61291"><ele>97.6</ele></trkpt>
    <trkpt lat="48.74445" lon="2.61281"><ele>97.6</ele></trkpt>
    <trkpt lat="48.74433" lon="2.61297"><ele>97.5</ele></trkpt>
    <trkpt lat="48.74441" lon="2.61318"><ele>97.4</ele></trkpt>
    <trkpt lat="48.74456" lon="2.61323"><ele>97.3</ele></trkpt>
    <trkpt lat="48.74468" lon="2.61344"><ele>97.2</ele></trkpt>
    <trkpt lat="48.74516" lon="2.61379"><ele>97.2</ele></trkpt>
    <trkpt lat="48.74528" lon="2.61426"><ele>97.3</ele></trkpt>
    <trkpt lat="48.74538" lon="2.61449"><ele>97.3</ele></trkpt>
    <trkpt lat="48.74552" lon="2.61464"><ele>97.3</ele></trkpt>
    <trkpt lat="48.74668" lon="2.6154"><ele>98.0</ele></trkpt>
    <trkpt lat="48.74701" lon="2.61554"><ele>98.4</ele></trkpt>
    <trkpt lat="48.74715" lon="2.6155"><ele>98.6</ele></trkpt>
    <trkpt lat="48.74748" lon="2.61566"><ele>98.8</ele></trkpt>
    <trkpt lat="48.74838" lon="2.61656"><ele>99.1</ele></trkpt>
    <trkpt lat="48.74852" lon="2.61698"><ele>98.9</ele></trkpt>
    <trkpt lat="48.74778" lon="2.61852"><ele>98.4</ele></trkpt>
    <trkpt lat="48.74765" lon="2.61864"><ele>98.4</ele></trkpt>
    <trkpt lat="48.74761" lon="2.61887"><ele>98.4</ele></trkpt>
    <trkpt lat="48.74705" lon="2.61991"><ele>97.6</ele></trkpt>
    <trkpt lat="48.7468" lon="2.62064"><ele>97.0</ele></trkpt>
    <trkpt lat="48.74679" lon="2.62117"><ele>96.7</ele></trkpt>
    <trkpt lat="48.74693" lon="2.62167"><ele>96.4</ele></trkpt>
    <trkpt lat="48.74782" lon="2.62338"><ele>93.7</ele></trkpt>
    <trkpt lat="48.74787" lon="2.62364"><ele>93.1</ele></trkpt>
    <trkpt lat="48.7479" lon="2.62445"><ele>91.2</ele></trkpt>
    <trkpt lat="48.74806" lon="2.62515"><ele>90.0</ele></trkpt>
    <trkpt lat="48.74806" lon="2.6254"><ele>89.7</ele></trkpt>
    <trkpt lat="48.74822" lon="2.62547"><ele>89.5</ele></trkpt>
    <trkpt lat="48.74834" lon="2.62597"><ele>89.2</ele></trkpt>
    <trkpt lat="48.74865" lon="2.62664"><ele>89.8</ele></trkpt>
    <trkpt lat="48.74882" lon="2.62712"><ele>91.0</ele></trkpt>
    <trkpt lat="48.74913" lon="2.62981"><ele>95.1</ele></trkpt>
    <trkpt lat="48.7493" lon="2.63058"><ele>94.7</ele></trkpt>
    <trkpt lat="48.74956" lon="2.6313"><ele>94.0</ele></trkpt>
    <trkpt lat="48.75002" lon="2.63213"><ele>93.2</ele></trkpt>
    <trkpt lat="48.75018" lon="2.63262"><ele>92.9</ele></trkpt>
    <trkpt lat="48.75017" lon="2.6329"><ele>92.8</ele></trkpt>
    <trkpt lat="48.75002" lon="2.63368"><ele>92.2</ele></trkpt>
    <trkpt lat="48.74979" lon="2.63442"><ele>91.0</ele></trkpt>
    <trkpt lat="48.74968" lon="2.63463"><ele>90.5</ele></trkpt>
    <trkpt lat="48.74954" lon="2.63479"><ele>90.1</ele></trkpt>
    <trkpt lat="48.74853" lon="2.63535"><ele>91.3</ele></trkpt>
    <trkpt lat="48.74805" lon="2.63573"><ele>94.6</ele></trkpt>
    <trkpt lat="48.74777" lon="2.63604"><ele>96.9</ele></trkpt>
    <trkpt lat="48.74726" lon="2.63625"><ele>99.0</ele></trkpt>
    <trkpt lat="48.7469" lon="2.63623"><ele>99.2</ele></trkpt>
    <trkpt lat="48.74619" lon="2.63541"><ele>98.8</ele></trkpt>
    <trkpt lat="48.74531" lon="2.63514"><ele>99.7</ele></trkpt>
    <trkpt lat="48.74451" lon="2.63452"><ele>100.3</ele></trkpt>
    <trkpt lat="48.74364" lon="2.63425"><ele>100.7</ele></trkpt>
    <trkpt lat="48.74313" lon="2.63399"><ele>100.9</ele></trkpt>
    <trkpt lat="48.74281" lon="2.63373"><ele>101.1</ele></trkpt>
    <trkpt lat="48.74194" lon="2.63276"><ele>101.4</ele></trkpt>
    <trkpt lat="48.74161" lon="2.63254"><ele>101.5</ele></trkpt>
    <trkpt lat="48.74055" lon="2.63227"><ele>101.8</ele></trkpt>
    <trkpt lat="48.73893" lon="2.63236"><ele>101.6</ele></trkpt>
    <trkpt lat="48.7375" lon="2.63227"><ele>100.7</ele></trkpt>
    <trkpt lat="48.73701" lon="2.63193"><ele>100.3</ele></trkpt>
    <trkpt lat="48.73615" lon="2.63094"><ele>98.7</ele></trkpt>
    <trkpt lat="48.73603" lon="2.63074"><ele>98.2</ele></trkpt>
    <trkpt lat="48.73598" lon="2.63048"><ele>97.7</ele></trkpt>
    <trkpt lat="48.7354" lon="2.62915"><ele>91.2</ele></trkpt>
    <trkpt lat="48.7346" lon="2.62853"><ele>82.9</ele></trkpt>
    <trkpt lat="48.73271" lon="2.62765"><ele>84.5</ele></trkpt>
    <trkpt lat="48.73286" lon="2.62667"><ele>86.6</ele></trkpt>
    <trkpt lat="48.73145" lon="2.62621"><ele>93.0</ele></trkpt>
    <trkpt lat="48.7313" lon="2.62628"><ele>93.9</ele></trkpt>
    <trkpt lat="48.73083" lon="2.6303"><ele>96.5</ele></trkpt>
    <trkpt lat="48.73" lon="2.63446"><ele>97.5</ele></trkpt>
    <trkpt lat="48.72971" lon="2.63575"><ele>97.5</ele></trkpt>
    <trkpt lat="48.72947" lon="2.63649"><ele>97.6</ele></trkpt>
    <trkpt lat="48.72838" lon="2.63931"><ele>97.3</ele></trkpt>
    <trkpt lat="48.72807" lon="2.63998"><ele>97.3</ele></trkpt>
    <trkpt lat="48.72752" lon="2.64106"><ele>97.0</ele></trkpt>
    <trkpt lat="48.72699" lon="2.64178"><ele>97.7</ele></trkpt>
    <trkpt lat="48.72637" lon="2.64313"><ele>98.4</ele></trkpt>
    <trkpt lat="48.72167" lon="2.65208"><ele>102.0</ele></trkpt>
    <trkpt lat="48.72163" lon="2.65229"><ele>102.0</ele></trkpt>
    <trkpt lat="48.72389" lon="2.65542"><ele>100.2</ele></trkpt>
    <trkpt lat="48.72424" lon="2.65534"><ele>100.0</ele></trkpt>
    <trkpt lat="48.72438" lon="2.65548"><ele>99.9</ele></trkpt>
    <trkpt lat="48.72451" lon="2.65656"><ele>100.1</ele></trkpt>
    <trkpt lat="48.72499" lon="2.65947"><ele>100.7</ele></trkpt>
    <trkpt lat="48.72547" lon="2.66404"><ele>100.7</ele></trkpt>
    <trkpt lat="48.726" lon="2.66577"><ele>99.9</ele></trkpt>
    <trkpt lat="48.72613" lon="2.66592"><ele>99.6</ele></trkpt>
    <trkpt lat="48.7263" lon="2.66591"><ele>99.4</ele></trkpt>
    <trkpt lat="48.72856" lon="2.66678"><ele>100.2</ele></trkpt>
    <trkpt lat="48.72892" lon="2.66681"><ele>100.5</ele></trkpt>
    <trkpt lat="48.73143" lon="2.66644"><ele>101.9</ele></trkpt>
    <trkpt lat="48.73157" lon="2.66656"><ele>101.9</ele></trkpt>
    <trkpt lat="48.73169" lon="2.66642"><ele>102.0</ele></trkpt>
    <trkpt lat="48.73186" lon="2.66636"><ele>102.1</ele></trkpt>
    <trkpt lat="48.73347" lon="2.66613"><ele>103.2</ele></trkpt>
    <trkpt lat="48.73418" lon="2.66629"><ele>103.2</ele></trkpt>
    <trkpt lat="48.73452" lon="2.66645"><ele>103.1</ele></trkpt>
    <trkpt lat="48.73527" lon="2.66722"><ele>102.9</ele></trkpt>
    <trkpt lat="48.73561" lon="2.66737"><ele>102.9</ele></trkpt>
    <trkpt lat="48.7365" lon="2.66724"><ele>103.0</ele></trkpt>
    <trkpt lat="48.73667" lon="2.66714"><ele>103.0</ele></trkpt>
    <trkpt lat="48.73738" lon="2.66698"><ele>103.1</ele></trkpt>
    <trkpt lat="48.73774" lon="2.66699"><ele>103.0</ele></trkpt>
    <trkpt lat="48.74042" lon="2.66748"><ele>103.3</ele></trkpt>
    <trkpt lat="48.74095" lon="2.66763"><ele>103.4</ele></trkpt>
    <trkpt lat="48.74479" lon="2.66905"><ele>104.9</ele></trkpt>
    <trkpt lat="48.74797" lon="2.67096"><ele>105.9</ele></trkpt>
    <trkpt lat="48.74812" lon="2.67112"><ele>105.9</ele></trkpt>
    <trkpt lat="48.74844" lon="2.67177"><ele>105.9</ele></trkpt>
    <trkpt lat="48.74902" lon="2.67241"><ele>105.8</ele></trkpt>
    <trkpt lat="48.75001" lon="2.674"><ele>105.6</ele></trkpt>
    <trkpt lat="48.7503" lon="2.67432"><ele>105.5</ele></trkpt>
    <trkpt lat="48.75047" lon="2.67441"><ele>105.5</ele></trkpt>
    <trkpt lat="48.75082" lon="2.67443"><ele>105.3</ele></trkpt>
    <trkpt lat="48.75118" lon="2.67453"><ele>105.3</ele></trkpt>
    <trkpt lat="48.75153" lon="2.67443"><ele>105.4</ele></trkpt>
    <trkpt lat="48.7558" lon="2.67227"><ele>106.3</ele></trkpt>
    <trkpt lat="48.75628" lon="2.67192"><ele>106.5</ele></trkpt>
    <trkpt lat="48.75666" lon="2.67134"><ele>106.7</ele></trkpt>
    <trkpt lat="48.76026" lon="2.66453"><ele>105.5</ele></trkpt>
    <trkpt lat="48.76087" lon="2.66287"><ele>109.2</ele></trkpt>
    <trkpt lat="48.76103" lon="2.66283"><ele>109.4</ele></trkpt>
    <trkpt lat="48.76116" lon="2.66299"><ele>109.6</ele></trkpt>
    <trkpt lat="48.7625" lon="2.66481"><ele>103.2</ele></trkpt>
    <trkpt lat="48.76315" lon="2.66525"><ele>101.5</ele></trkpt>
    <trkpt lat="48.7633" lon="2.66518"><ele>101.4</ele></trkpt>
    <trkpt lat="48.76383" lon="2.66531"><ele>101.3</ele></trkpt>
    <trkpt lat="48.76419" lon="2.66532"><ele>101.7</ele></trkpt>
    <trkpt lat="48.76561" lon="2.66498"><ele>105.7</ele></trkpt>
    <trkpt lat="48.76579" lon="2.66498"><ele>106.2</ele></trkpt>
    <trkpt lat="48.76614" lon="2.66512"><ele>106.6</ele></trkpt>
    <trkpt lat="48.76657" lon="2.66561"><ele>106.9</ele></trkpt>
    <trkpt lat="48.76696" lon="2.66652"><ele>107.3</ele></trkpt>
    <trkpt lat="48.76736" lon="2.66804"><ele>107.7</ele></trkpt>
    <trkpt lat="48.76752" lon="2.6685"><ele>107.8</ele></trkpt>
    <trkpt lat="48.76745" lon="2.66875"><ele>107.8</ele></trkpt>
    <trkpt lat="48.76757" lon="2.66892"><ele>107.8</ele></trkpt>
    <trkpt lat="48.76762" lon="2.66913"><ele>107.8</ele></trkpt>
    <trkpt lat="48.76802" lon="2.6729"><ele>107.3</ele></trkpt>
    <trkpt lat="48.76808" lon="2.67312"><ele>107.4</ele></trkpt>
    <trkpt lat="48.76824" lon="2.67324"><ele>107.5</ele></trkpt>
    <trkpt lat="48.76829" lon="2.67345"><ele>107.5</ele></trkpt>
    <trkpt lat="48.76898" lon="2.67357"><ele>107.6</ele></trkpt>
    <trkpt lat="48.76949" lon="2.67386"><ele>107.8</ele></trkpt>
    <trkpt lat="48.77277" lon="2.6761"><ele>109.4</ele></trkpt>
    <trkpt lat="48.77301" lon="2.67639"><ele>109.6</ele></trkpt>
    <trkpt lat="48.77316" lon="2.67635"><ele>109.6</ele></trkpt>
    <trkpt lat="48.77562" lon="2.67802"><ele>110.9</ele></trkpt>
    <trkpt lat="48.77574" lon="2.67818"><ele>111.0</ele></trkpt>
    <trkpt lat="48.77606" lon="2.67834"><ele>111.1</ele></trkpt>
    <trkpt lat="48.77868" lon="2.68013"><ele>112.6</ele></trkpt>
    <trkpt lat="48.77876" lon="2.68033"><ele>112.7</ele></trkpt>
    <trkpt lat="48.77907" lon="2.6804"><ele>112.8</ele></trkpt>
    <trkpt lat="48.78054" lon="2.68141"><ele>113.2</ele></trkpt>
    <trkpt lat="48.78372" lon="2.68396"><ele>118.1</ele></trkpt>
    <trkpt lat="48.78658" lon="2.6856"><ele>113.5</ele></trkpt>
    <trkpt lat="48.78954" lon="2.68759"><ele>114.3</ele></trkpt>
    <trkpt lat="48.78998" lon="2.68781"><ele>114.5</ele></trkpt>
    <trkpt lat="48.79008" lon="2.68799"><ele>114.5</ele></trkpt>
    <trkpt lat="48.79133" lon="2.69192"><ele>114.3</ele></trkpt>
    <trkpt lat="48.79344" lon="2.69887"><ele>113.8</ele></trkpt>
    <trkpt lat="48.79529" lon="2.70478"><ele>114.5</ele></trkpt>
    <trkpt lat="48.79537" lon="2.70502"><ele>114.7</ele></trkpt>
    <trkpt lat="48.79551" lon="2.70518"><ele>114.9</ele></trkpt>
    <trkpt lat="48.79587" lon="2.70522"><ele>115.2</ele></trkpt>
    <trkpt lat="48.79603" lon="2.70531"><ele>115.4</ele></trkpt>
    <trkpt lat="48.7962" lon="2.70636"><ele>116.1</ele></trkpt>
    <trkpt lat="48.79611" lon="2.71182"><ele>116.6</ele></trkpt>
    <trkpt lat="48.79598" lon="2.71345"><ele>116.8</ele></trkpt>
    <trkpt lat="48.79585" lon="2.71394"><ele>117.0</ele></trkpt>
    <trkpt lat="48.79587" lon="2.7142"><ele>117.0</ele></trkpt>
    <trkpt lat="48.79599" lon="2.71439"><ele>117.0</ele></trkpt>
    <trkpt lat="48.79604" lon="2.71464"><ele>116.9</ele></trkpt>
    <trkpt lat="48.7959" lon="2.7231"><ele>118.0</ele></trkpt>
    <trkpt lat="48.79597" lon="2.72391"><ele>118.1</ele></trkpt>
    <trkpt lat="48.79738" lon="2.72802"><ele>118.2</ele></trkpt>
    <trkpt lat="48.79954" lon="2.7337"><ele>119.3</ele></trkpt>
    <trkpt lat="48.79969" lon="2.7342"><ele>119.3</ele></trkpt>
    <trkpt lat="48.8029" lon="2.74724"><ele>119.0</ele></trkpt>
    <trkpt lat="48.80352" lon="2.74951"><ele>119.6</ele></trkpt>
    <trkpt lat="48.80616" lon="2.75849"><ele>124.9</ele></trkpt>
    <trkpt lat="48.80622" lon="2.75874"><ele>125.0</ele></trkpt>
    <trkpt lat="48.80621" lon="2.75896"><ele>124.8</ele></trkpt>
    <trkpt lat="48.80361" lon="2.76083"><ele>120.2</ele></trkpt>
    <trkpt lat="48.80326" lon="2.76096"><ele>120.0</ele></trkpt>
    <trkpt lat="48.80291" lon="2.76091"><ele>119.7</ele></trkpt>
    <trkpt lat="48.80186" lon="2.76053"><ele>118.6</ele></trkpt>
    <trkpt lat="48.80133" lon="2.76043"><ele>118.2</ele></trkpt>
    <trkpt lat="48.79884" lon="2.76099"><ele>117.0</ele></trkpt>
    <trkpt lat="48.79868" lon="2.76111"><ele>116.9</ele></trkpt>
    <trkpt lat="48.79827" lon="2.76165"><ele>116.7</ele></trkpt>
    <trkpt lat="48.79764" lon="2.76261"><ele>116.7</ele></trkpt>
    <trkpt lat="48.79746" lon="2.76309"><ele>116.7</ele></trkpt>
    <trkpt lat="48.7972" lon="2.7641"><ele>116.6</ele></trkpt>
    <trkpt lat="48.79685" lon="2.76472"><ele>116.4</ele></trkpt>
    <trkpt lat="48.79522" lon="2.76686"><ele>116.8</ele></trkpt>
    <trkpt lat="48.79365" lon="2.7682"><ele>116.1</ele></trkpt>
    <trkpt lat="48.79332" lon="2.7684"><ele>116.1</ele></trkpt>
    <trkpt lat="48.79158" lon="2.76909"><ele>115.4</ele></trkpt>
    <trkpt lat="48.79032" lon="2.76919"><ele>114.3</ele></trkpt>
    <trkpt lat="48.78925" lon="2.76905"><ele>113.7</ele></trkpt>
    <trkpt lat="48.78871" lon="2.76909"><ele>113.4</ele></trkpt>
    <trkpt lat="48.78819" lon="2.76933"><ele>113.6</ele></trkpt>
    <trkpt lat="48.78752" lon="2.77023"><ele>114.1</ele></trkpt>
    <trkpt lat="48.78736" lon="2.77034"><ele>114.1</ele></trkpt>
    <trkpt lat="48.78595" lon="2.77078"><ele>113.4</ele></trkpt>
    <trkpt lat="48.78526" lon="2.77109"><ele>113.6</ele></trkpt>
    <trkpt lat="48.78495" lon="2.77135"><ele>113.7</ele></trkpt>
    <trkpt lat="48.78482" lon="2.77154"><ele>113.8</ele></trkpt>
    <trkpt lat="48.7838" lon="2.77344"><ele>113.7</ele></trkpt>
    <trkpt lat="48.78237" lon="2.7746"><ele>112.1</ele></trkpt>
    <trkpt lat="48.77835" lon="2.77764"><ele>111.0</ele></trkpt>
    <trkpt lat="48.77774" lon="2.77823"><ele>110.0</ele></trkpt>
    <trkpt lat="48.77741" lon="2.77843"><ele>109.9</ele></trkpt>
    <trkpt lat="48.7767" lon="2.77854"><ele>110.1</ele></trkpt>
    <trkpt lat="48.77562" lon="2.77847"><ele>109.9</ele></trkpt>
    <trkpt lat="48.7751" lon="2.77829"><ele>109.3</ele></trkpt>
    <trkpt lat="48.77387" lon="2.77716"><ele>107.9</ele></trkpt>
    <trkpt lat="48.77211" lon="2.77527"><ele>111.3</ele></trkpt>
    <trkpt lat="48.77194" lon="2.77518"><ele>111.1</ele></trkpt>
    <trkpt lat="48.77176" lon="2.7752"><ele>110.8</ele></trkpt>
    <trkpt lat="48.77038" lon="2.77579"><ele>108.9</ele></trkpt>
    <trkpt lat="48.76966" lon="2.77588"><ele>107.8</ele></trkpt>
    <trkpt lat="48.76716" lon="2.77541"><ele>106.6</ele></trkpt>
    <trkpt lat="48.76555" lon="2.77548"><ele>104.6</ele></trkpt>
    <trkpt lat="48.7643" lon="2.77525"><ele>102.6</ele></trkpt>
    <trkpt lat="48.7636" lon="2.77552"><ele>101.8</ele></trkpt>
    <trkpt lat="48.7635" lon="2.77531"><ele>101.9</ele></trkpt>
    <trkpt lat="48.76344" lon="2.77452"><ele>102.3</ele></trkpt>
    <trkpt lat="48.76323" lon="2.77408"><ele>102.0</ele></trkpt>
    <trkpt lat="48.76307" lon="2.77397"><ele>101.7</ele></trkpt>
    <trkpt lat="48.7629" lon="2.77402"><ele>101.3</ele></trkpt>
    <trkpt lat="48.76276" lon="2.77418"><ele>101.0</ele></trkpt>
    <trkpt lat="48.76259" lon="2.77427"><ele>100.7</ele></trkpt>
    <trkpt lat="48.76219" lon="2.77381"><ele>99.1</ele></trkpt>
    <trkpt lat="48.76179" lon="2.77472"><ele>96.7</ele></trkpt>
    <trkpt lat="48.76096" lon="2.77575"><ele>98.0</ele></trkpt>
    <trkpt lat="48.7606" lon="2.77636"><ele>99.9</ele></trkpt>
    <trkpt lat="48.76042" lon="2.77684"><ele>100.9</ele></trkpt>
    <trkpt lat="48.76017" lon="2.77723"><ele>101.7</ele></trkpt>
    <trkpt lat="48.75946" lon="2.77806"><ele>102.9</ele></trkpt>
    <trkpt lat="48.75854" lon="2.78008"><ele>107.1</ele></trkpt>
    <trkpt lat="48.75732" lon="2.7831"><ele>110.0</ele></trkpt>
    <trkpt lat="48.75699" lon="2.78328"><ele>109.9</ele></trkpt>
    <trkpt lat="48.75645" lon="2.78322"><ele>109.4</ele></trkpt>
    <trkpt lat="48.75522" lon="2.78284"><ele>106.6</ele></trkpt>
    <trkpt lat="48.75489" lon="2.78263"><ele>106.1</ele></trkpt>
    <trkpt lat="48.75426" lon="2.78209"><ele>105.6</ele></trkpt>
    <trkpt lat="48.75409" lon="2.78202"><ele>105.6</ele></trkpt>
    <trkpt lat="48.75303" lon="2.78175"><ele>107.3</ele></trkpt>
    <trkpt lat="48.75285" lon="2.78174"><ele>107.7</ele></trkpt>
    <trkpt lat="48.75268" lon="2.78183"><ele>108.2</ele></trkpt>
    <trkpt lat="48.75049" lon="2.78466"><ele>106.1</ele></trkpt>
    <trkpt lat="48.75011" lon="2.78524"><ele>106.3</ele></trkpt>
    <trkpt lat="48.74968" lon="2.78574"><ele>106.7</ele></trkpt>
    <trkpt lat="48.74788" lon="2.78754"><ele>109.2</ele></trkpt>
    <trkpt lat="48.74741" lon="2.78792"><ele>109.9</ele></trkpt>
    <trkpt lat="48.7469" lon="2.78815"><ele>110.4</ele></trkpt>
    <trkpt lat="48.74676" lon="2.78831"><ele>110.5</ele></trkpt>
    <trkpt lat="48.74596" lon="2.78891"><ele>111.3</ele></trkpt>
    <trkpt lat="48.74582" lon="2.78909"><ele>111.4</ele></trkpt>
    <trkpt lat="48.74576" lon="2.7899"><ele>111.6</ele></trkpt>
    <trkpt lat="48.7457" lon="2.79015"><ele>111.6</ele></trkpt>
    <trkpt lat="48.74543" lon="2.79051"><ele>111.6</ele></trkpt>
    <trkpt lat="48.74408" lon="2.79184"><ele>111.6</ele></trkpt>
    <trkpt lat="48.74344" lon="2.79235"><ele>111.2</ele></trkpt>
    <trkpt lat="48.74278" lon="2.79278"><ele>110.9</ele></trkpt>
    <trkpt lat="48.74175" lon="2.79326"><ele>111.7</ele></trkpt>
    <trkpt lat="48.74169" lon="2.79345"><ele>111.9</ele></trkpt>
    <trkpt lat="48.74186" lon="2.79589"><ele>113.7</ele></trkpt>
    <trkpt lat="48.74186" lon="2.79971"><ele>120.5</ele></trkpt>
    <trkpt lat="48.74196" lon="2.80134"><ele>121.1</ele></trkpt>
    <trkpt lat="48.74214" lon="2.80295"><ele>120.2</ele></trkpt>
    <trkpt lat="48.74278" lon="2.80693"><ele>112.9</ele></trkpt>
    <trkpt lat="48.74347" lon="2.81504"><ele>112.4</ele></trkpt>
    <trkpt lat="48.74342" lon="2.81558"><ele>112.6</ele></trkpt>
    <trkpt lat="48.74311" lon="2.81714"><ele>112.9</ele></trkpt>
    <trkpt lat="48.74296" lon="2.81764"><ele>112.9</ele></trkpt>
    <trkpt lat="48.74244" lon="2.81875"><ele>113.2</ele></trkpt>
    <trkpt lat="48.74231" lon="2.81954"><ele>113.5</ele></trkpt>
    <trkpt lat="48.74244" lon="2.83045"><ele>114.1</ele></trkpt>
    <trkpt lat="48.74262" lon="2.83122"><ele>114.3</ele></trkpt>
    <trkpt lat="48.74498" lon="2.83857"><ele>115.2</ele></trkpt>
    <trkpt lat="48.74753" lon="2.8525"><ele>113.3</ele></trkpt>
    <trkpt lat="48.74966" lon="2.86148"><ele>112.7</ele></trkpt>
    <trkpt lat="48.74994" lon="2.86249"><ele>112.5</ele></trkpt>
    <trkpt lat="48.75085" lon="2.86515"><ele>113.4</ele></trkpt>
    <trkpt lat="48.75098" lon="2.86566"><ele>113.6</ele></trkpt>
    <trkpt lat="48.75366" lon="2.86542"><ele>114.8</ele></trkpt>
    <trkpt lat="48.7538" lon="2.86551"><ele>114.8</ele></trkpt>
    <trkpt lat="48.75641" lon="2.87359"><ele>114.8</ele></trkpt>
    <trkpt lat="48.75668" lon="2.8743"><ele>115.0</ele></trkpt>
    <trkpt lat="48.76026" lon="2.88114"><ele>114.7</ele></trkpt>
    <trkpt lat="48.76051" lon="2.88152"><ele>114.7</ele></trkpt>
    <trkpt lat="48.767" lon="2.88975"><ele>119.7</ele></trkpt>
    <trkpt lat="48.77039" lon="2.89333"><ele>120.4</ele></trkpt>
    <trkpt lat="48.77475" lon="2.89767"><ele>120.5</ele></trkpt>
    <trkpt lat="48.77507" lon="2.89795"><ele>120.5</ele></trkpt>
    <trkpt lat="48.77559" lon="2.89812"><ele>120.6</ele></trkpt>
    <trkpt lat="48.77591" lon="2.89835"><ele>120.8</ele></trkpt>
    <trkpt lat="48.77601" lon="2.89858"><ele>121.0</ele></trkpt>
    <trkpt lat="48.77604" lon="2.89884"><ele>121.1</ele></trkpt>
    <trkpt lat="48.77552" lon="2.89992"><ele>121.3</ele></trkpt>
    <trkpt lat="48.77564" lon="2.9001"><ele>121.2</ele></trkpt>
    <trkpt lat="48.77598" lon="2.90029"><ele>121.0</ele></trkpt>
    <trkpt lat="48.77668" lon="2.9005"><ele>120.9</ele></trkpt>
    <trkpt lat="48.777" lon="2.90076"><ele>120.8</ele></trkpt>
    <trkpt lat="48.78059" lon="2.90441"><ele>119.9</ele></trkpt>
    <trkpt lat="48.78086" lon="2.90476"><ele>119.6</ele></trkpt>
    <trkpt lat="48.78332" lon="2.90946"><ele>107.0</ele></trkpt>
    <trkpt lat="48.78719" lon="2.917"><ele>120.0</ele></trkpt>
    <trkpt lat="48.78752" lon="2.91687"><ele>120.2</ele></trkpt>
    <trkpt lat="48.78867" lon="2.91606"><ele>120.2</ele></trkpt>
    <trkpt lat="48.78902" lon="2.91596"><ele>120.4</ele></trkpt>
    <trkpt lat="48.78956" lon="2.916"><ele>120.5</ele></trkpt>
    <trkpt lat="48.78991" lon="2.91589"><ele>120.3</ele></trkpt>
    <trkpt lat="48.79111" lon="2.91535"><ele>120.7</ele></trkpt>
    <trkpt lat="48.79149" lon="2.91592"><ele>121.7</ele></trkpt>
    <trkpt lat="48.792" lon="2.91614"><ele>122.6</ele></trkpt>
    <trkpt lat="48.79254" lon="2.91616"><ele>122.5</ele></trkpt>
    <trkpt lat="48.79397" lon="2.91599"><ele>122.5</ele></trkpt>
    <trkpt lat="48.7945" lon="2.9161"><ele>123.7</ele></trkpt>
    <trkpt lat="48.79483" lon="2.91634"><ele>124.7</ele></trkpt>
    <trkpt lat="48.79677" lon="2.91831"><ele>131.7</ele></trkpt>
    <trkpt lat="48.79773" lon="2.91905"><ele>131.1</ele></trkpt>
    <trkpt lat="48.79841" lon="2.91941"><ele>130.0</ele></trkpt>
    <trkpt lat="48.79893" lon="2.91961"><ele>129.2</ele></trkpt>
    <trkpt lat="48.80161" lon="2.92016"><ele>127.5</ele></trkpt>
    <trkpt lat="48.80195" lon="2.9203"><ele>127.4</ele></trkpt>
    <trkpt lat="48.80689" lon="2.9248"><ele>103.7</ele></trkpt>
    <trkpt lat="48.80723" lon="2.92496"><ele>102.6</ele></trkpt>
    <trkpt lat="48.81005" lon="2.92585"><ele>100.4</ele></trkpt>
    <trkpt lat="48.81021" lon="2.92597"><ele>100.2</ele></trkpt>
    <trkpt lat="48.81444" lon="2.92183"><ele>83.4</ele></trkpt>
    <trkpt lat="48.81485" lon="2.9213"><ele>80.5</ele></trkpt>
    <trkpt lat="48.81593" lon="2.91878"><ele>69.5</ele></trkpt>
    <trkpt lat="48.81955" lon="2.90998"><ele>56.6</ele></trkpt>
    <trkpt lat="48.8198" lon="2.90896"><ele>55.9</ele></trkpt>
    <trkpt lat="48.82003" lon="2.90652"><ele>58.4</ele></trkpt>
    <trkpt lat="48.82011" lon="2.90599"><ele>59.4</ele></trkpt>
    <trkpt lat="48.82026" lon="2.9055"><ele>60.3</ele></trkpt>
    <trkpt lat="48.82049" lon="2.90509"><ele>60.7</ele></trkpt>
    <trkpt lat="48.82257" lon="2.90293"><ele>57.8</ele></trkpt>
    <trkpt lat="48.82305" lon="2.90256"><ele>56.6</ele></trkpt>
    <trkpt lat="48.82376" lon="2.9024"><ele>55.6</ele></trkpt>
    <trkpt lat="48.82412" lon="2.9024"><ele>56.2</ele></trkpt>
    <trkpt lat="48.82474" lon="2.90186"><ele>58.1</ele></trkpt>
    <trkpt lat="48.82508" lon="2.90173"><ele>58.2</ele></trkpt>
    <trkpt lat="48.8258" lon="2.90167"><ele>57.4</ele></trkpt>
    <trkpt lat="48.82706" lon="2.9017"><ele>55.8</ele></trkpt>
    <trkpt lat="48.82884" lon="2.9013"><ele>54.6</ele></trkpt>
    <trkpt lat="48.8292" lon="2.90128"><ele>55.3</ele></trkpt>
    <trkpt lat="48.82973" lon="2.90139"><ele>57.5</ele></trkpt>
    <trkpt lat="48.8299" lon="2.9013"><ele>58.5</ele></trkpt>
    <trkpt lat="48.83001" lon="2.9011"><ele>59.7</ele></trkpt>
    <trkpt lat="48.83003" lon="2.90084"><ele>60.8</ele></trkpt>
    <trkpt lat="48.82956" lon="2.8982"><ele>74.5</ele></trkpt>
    <trkpt lat="48.82945" lon="2.89799"><ele>75.9</ele></trkpt>
    <trkpt lat="48.8291" lon="2.89792"><ele>78.8</ele></trkpt>
    <trkpt lat="48.82898" lon="2.89772"><ele>80.2</ele></trkpt>
    <trkpt lat="48.82891" lon="2.89747"><ele>81.6</ele></trkpt>
    <trkpt lat="48.82895" lon="2.89529"><ele>91.3</ele></trkpt>
    <trkpt lat="48.82886" lon="2.89448"><ele>94.3</ele></trkpt>
    <trkpt lat="48.82718" lon="2.88905"><ele>107.0</ele></trkpt>
    <trkpt lat="48.82635" lon="2.88662"><ele>114.0</ele></trkpt>
    <trkpt lat="48.82499" lon="2.88373"><ele>124.1</ele></trkpt>
    <trkpt lat="48.82461" lon="2.88315"><ele>125.2</ele></trkpt>
    <trkpt lat="48.82378" lon="2.88211"><ele>127.0</ele></trkpt>
    <trkpt lat="48.82372" lon="2.88186"><ele>127.3</ele></trkpt>
    <trkpt lat="48.82363" lon="2.88106"><ele>127.9</ele></trkpt>
    <trkpt lat="48.82349" lon="2.88055"><ele>128.2</ele></trkpt>
    <trkpt lat="48.82258" lon="2.87789"><ele>129.3</ele></trkpt>
    <trkpt lat="48.82255" lon="2.87762"><ele>129.4</ele></trkpt>
    <trkpt lat="48.82266" lon="2.87711"><ele>129.4</ele></trkpt>
    <trkpt lat="48.82251" lon="2.87664"><ele>129.5</ele></trkpt>
    <trkpt lat="48.82248" lon="2.87638"><ele>129.6</ele></trkpt>
    <trkpt lat="48.82227" lon="2.87594"><ele>129.7</ele></trkpt>
    <trkpt lat="48.82182" lon="2.87548"><ele>129.8</ele></trkpt>
    <trkpt lat="48.82171" lon="2.87528"><ele>129.8</ele></trkpt>
    <trkpt lat="48.81857" lon="2.86606"><ele>130.8</ele></trkpt>
    <trkpt lat="48.81572" lon="2.84828"><ele>126.4</ele></trkpt>
    <trkpt lat="48.81545" lon="2.84585"><ele>125.5</ele></trkpt>
    <trkpt lat="48.81521" lon="2.84315"><ele>124.9</ele></trkpt>
    <trkpt lat="48.81522" lon="2.8426"><ele>125.0</ele></trkpt>
    <trkpt lat="48.81538" lon="2.84213"><ele>125.1</ele></trkpt>
    <trkpt lat="48.8154" lon="2.84186"><ele>124.9</ele></trkpt>
    <trkpt lat="48.81533" lon="2.84162"><ele>124.7</ele></trkpt>
    <trkpt lat="48.81518" lon="2.84148"><ele>124.5</ele></trkpt>
    <trkpt lat="48.81508" lon="2.84127"><ele>124.2</ele></trkpt>
    <trkpt lat="48.81496" lon="2.84047"><ele>123.7</ele></trkpt>
    <trkpt lat="48.81434" lon="2.8337"><ele>125.2</ele></trkpt>
    <trkpt lat="48.81412" lon="2.8299"><ele>125.8</ele></trkpt>
    <trkpt lat="48.8142" lon="2.82976"><ele>125.8</ele></trkpt>
    <trkpt lat="48.81438" lon="2.82982"><ele>125.8</ele></trkpt>
    <trkpt lat="48.81451" lon="2.82976"><ele>125.8</ele></trkpt>
    <trkpt lat="48.81489" lon="2.82852"><ele>126.2</ele></trkpt>
    <trkpt lat="48.81501" lon="2.82832"><ele>126.3</ele></trkpt>
    <trkpt lat="48.81565" lon="2.82783"><ele>126.6</ele></trkpt>
    <trkpt lat="48.81574" lon="2.82761"><ele>126.6</ele></trkpt>
    <trkpt lat="48.81727" lon="2.82061"><ele>125.7</ele></trkpt>
    <trkpt lat="48.81748" lon="2.82016"><ele>125.6</ele></trkpt>
    <trkpt lat="48.81799" lon="2.81939"><ele>125.5</ele></trkpt>
    <trkpt lat="48.81842" lon="2.8189"><ele>125.7</ele></trkpt>
    <trkpt lat="48.81876" lon="2.81884"><ele>125.7</ele></trkpt>
    <trkpt lat="48.8189" lon="2.81866"><ele>125.6</ele></trkpt>
    <trkpt lat="48.81895" lon="2.81841"><ele>125.6</ele></trkpt>
    <trkpt lat="48.81889" lon="2.81815"><ele>125.5</ele></trkpt>
    <trkpt lat="48.81876" lon="2.81799"><ele>125.4</ele></trkpt>
    <trkpt lat="48.81858" lon="2.81793"><ele>125.3</ele></trkpt>
    <trkpt lat="48.81845" lon="2.81776"><ele>125.2</ele></trkpt>
    <trkpt lat="48.81834" lon="2.81754"><ele>125.1</ele></trkpt>
    <trkpt lat="48.81805" lon="2.81654"><ele>125.0</ele></trkpt>
    <trkpt lat="48.81795" lon="2.81601"><ele>125.0</ele></trkpt>
    <trkpt lat="48.81777" lon="2.81412"><ele>124.2</ele></trkpt>
    <trkpt lat="48.81762" lon="2.81306"><ele>123.6</ele></trkpt>
    <trkpt lat="48.81705" lon="2.81017"><ele>122.4</ele></trkpt>
    <trkpt lat="48.81655" lon="2.80784"><ele>121.2</ele></trkpt>
    <trkpt lat="48.81626" lon="2.80542"><ele>120.8</ele></trkpt>
    <trkpt lat="48.81602" lon="2.80383"><ele>121.2</ele></trkpt>
    <trkpt lat="48.81594" lon="2.80247"><ele>121.8</ele></trkpt>
    <trkpt lat="48.816" lon="2.79946"><ele>122.1</ele></trkpt>
    <trkpt lat="48.81646" lon="2.79654"><ele>121.2</ele></trkpt>
    <trkpt lat="48.81649" lon="2.796"><ele>121.1</ele></trkpt>
    <trkpt lat="48.81632" lon="2.79523"><ele>120.9</ele></trkpt>
    <trkpt lat="48.81569" lon="2.79297"><ele>120.7</ele></trkpt>
    <trkpt lat="48.81567" lon="2.79275"><ele>120.4</ele></trkpt>
    <trkpt lat="48.81668" lon="2.7922"><ele>120.0</ele></trkpt>
    <trkpt lat="48.8168" lon="2.79204"><ele>120.0</ele></trkpt>
    <trkpt lat="48.81678" lon="2.79151"><ele>120.0</ele></trkpt>
    <trkpt lat="48.8165" lon="2.79021"><ele>120.5</ele></trkpt>
    <trkpt lat="48.81652" lon="2.78967"><ele>120.7</ele></trkpt>
    <trkpt lat="48.81658" lon="2.78942"><ele>120.8</ele></trkpt>
    <trkpt lat="48.81931" lon="2.78203"><ele>130.0</ele></trkpt>
    <trkpt lat="48.82206" lon="2.77563"><ele>125.7</ele></trkpt>
    <trkpt lat="48.82452" lon="2.76864"><ele>137.7</ele></trkpt>
    <trkpt lat="48.82474" lon="2.76821"><ele>138.9</ele></trkpt>
    <trkpt lat="48.82637" lon="2.76651"><ele>142.7</ele></trkpt>
    <trkpt lat="48.82659" lon="2.76609"><ele>142.1</ele></trkpt>
    <trkpt lat="48.82663" lon="2.76583"><ele>141.7</ele></trkpt>
    <trkpt lat="48.8266" lon="2.76556"><ele>141.3</ele></trkpt>
    <trkpt lat="48.82618" lon="2.76436"><ele>139.0</ele></trkpt>
    <trkpt lat="48.8262" lon="2.76382"><ele>138.2</ele></trkpt>
    <trkpt lat="48.82858" lon="2.75708"><ele>132.2</ele></trkpt>
    <trkpt lat="48.82878" lon="2.75662"><ele>132.6</ele></trkpt>
    <trkpt lat="48.82903" lon="2.75623"><ele>133.0</ele></trkpt>
    <trkpt lat="48.82946" lon="2.75577"><ele>133.0</ele></trkpt>
    <trkpt lat="48.83174" lon="2.75505"><ele>126.6</ele></trkpt>
    <trkpt lat="48.83208" lon="2.75487"><ele>125.6</ele></trkpt>
    <trkpt lat="48.83436" lon="2.75327"><ele>125.4</ele></trkpt>
    <trkpt lat="48.83723" lon="2.75293"><ele>127.2</ele></trkpt>
    <trkpt lat="48.83795" lon="2.753"><ele>127.4</ele></trkpt>
    <trkpt lat="48.83804" lon="2.75284"><ele>127.1</ele></trkpt>
    <trkpt lat="48.83797" lon="2.75065"><ele>125.4</ele></trkpt>
    <trkpt lat="48.83714" lon="2.73952"><ele>124.6</ele></trkpt>
    <trkpt lat="48.83702" lon="2.73944"><ele>124.6</ele></trkpt>
    <trkpt lat="48.83472" lon="2.74007"><ele>124.8</ele></trkpt>
    <trkpt lat="48.83463" lon="2.73993"><ele>124.7</ele></trkpt>
    <trkpt lat="48.83274" lon="2.72407"><ele>122.3</ele></trkpt>
    <trkpt lat="48.83274" lon="2.7238"><ele>122.3</ele></trkpt>
    <trkpt lat="48.83293" lon="2.72335"><ele>122.1</ele></trkpt>
    <trkpt lat="48.83295" lon="2.72309"><ele>122.0</ele></trkpt>
    <trkpt lat="48.83287" lon="2.72285"><ele>121.9</ele></trkpt>
    <trkpt lat="48.83257" lon="2.72255"><ele>121.7</ele></trkpt>
    <trkpt lat="48.83252" lon="2.72229"><ele>121.6</ele></trkpt>
    <trkpt lat="48.83111" lon="2.71046"><ele>117.1</ele></trkpt>
    <trkpt lat="48.8311" lon="2.71019"><ele>117.0</ele></trkpt>
    <trkpt lat="48.83115" lon="2.70995"><ele>117.0</ele></trkpt>
    <trkpt lat="48.83126" lon="2.70973"><ele>116.9</ele></trkpt>
    <trkpt lat="48.83124" lon="2.70947"><ele>116.8</ele></trkpt>
    <trkpt lat="48.83113" lon="2.70926"><ele>116.6</ele></trkpt>
    <trkpt lat="48.8311" lon="2.709"><ele>116.5</ele></trkpt>
    <trkpt lat="48.83132" lon="2.70768"><ele>117.0</ele></trkpt>
    <trkpt lat="48.83133" lon="2.70741"><ele>117.2</ele></trkpt>
    <trkpt lat="48.8312" lon="2.70662"><ele>116.9</ele></trkpt>
    <trkpt lat="48.83123" lon="2.70638"><ele>116.6</ele></trkpt>
    <trkpt lat="48.83138" lon="2.70622"><ele>116.1</ele></trkpt>
    <trkpt lat="48.83155" lon="2.70615"><ele>115.5</ele></trkpt>
    <trkpt lat="48.83245" lon="2.70608"><ele>114.2</ele></trkpt>
    <trkpt lat="48.83263" lon="2.70611"><ele>114.2</ele></trkpt>
    <trkpt lat="48.83295" lon="2.70631"><ele>114.0</ele></trkpt>
    <trkpt lat="48.8331" lon="2.70619"><ele>113.9</ele></trkpt>
    <trkpt lat="48.83316" lon="2.70594"><ele>113.7</ele></trkpt>
    <trkpt lat="48.83307" lon="2.70571"><ele>113.6</ele></trkpt>
    <trkpt lat="48.83293" lon="2.70554"><ele>113.5</ele></trkpt>
    <trkpt lat="48.83287" lon="2.70529"><ele>113.3</ele></trkpt>
    <trkpt lat="48.83196" lon="2.69888"><ele>103.8</ele></trkpt>
    <trkpt lat="48.83293" lon="2.69817"><ele>100.7</ele></trkpt>
    <trkpt lat="48.83327" lon="2.69804"><ele>100.0</ele></trkpt>
    <trkpt lat="48.8334" lon="2.69812"><ele>99.6</ele></trkpt>
    <trkpt lat="48.8335" lon="2.69834"><ele>99.2</ele></trkpt>
    <trkpt lat="48.83367" lon="2.69841"><ele>98.8</ele></trkpt>
    <trkpt lat="48.83383" lon="2.69829"><ele>98.1</ele></trkpt>
    <trkpt lat="48.8339" lon="2.69804"><ele>97.2</ele></trkpt>
    <trkpt lat="48.83552" lon="2.69804"><ele>89.8</ele></trkpt>
    <trkpt lat="48.83549" lon="2.69723"><ele>90.9</ele></trkpt>
    <trkpt lat="48.83535" lon="2.69674"><ele>91.8</ele></trkpt>
    <trkpt lat="48.83526" lon="2.69565"><ele>92.5</ele></trkpt>
    <trkpt lat="48.83509" lon="2.69488"><ele>92.0</ele></trkpt>
    <trkpt lat="48.83475" lon="2.69247"><ele>86.8</ele></trkpt>
    <trkpt lat="48.83465" lon="2.69112"><ele>85.1</ele></trkpt>
    <trkpt lat="48.83464" lon="2.6903"><ele>84.9</ele></trkpt>
    <trkpt lat="48.83468" lon="2.68893"><ele>86.9</ele></trkpt>
    <trkpt lat="48.83474" lon="2.68839"><ele>88.5</ele></trkpt>
    <trkpt lat="48.83488" lon="2.6876"><ele>91.0</ele></trkpt>
    <trkpt lat="48.83546" lon="2.68531"><ele>94.4</ele></trkpt>
    <trkpt lat="48.83554" lon="2.68506"><ele>94.3</ele></trkpt>
    <trkpt lat="48.83566" lon="2.68488"><ele>94.0</ele></trkpt>
    <trkpt lat="48.83581" lon="2.68485"><ele>93.6</ele></trkpt>
    <trkpt lat="48.83597" lon="2.68498"><ele>93.2</ele></trkpt>
    <trkpt lat="48.83613" lon="2.68493"><ele>92.8</ele></trkpt>
    <trkpt lat="48.83644" lon="2.68466"><ele>92.2</ele></trkpt>
    <trkpt lat="48.8366" lon="2.68463"><ele>91.9</ele></trkpt>
    <trkpt lat="48.83753" lon="2.68262"><ele>90.1</ele></trkpt>
    <trkpt lat="48.83823" lon="2.68138"><ele>89.0</ele></trkpt>
    <trkpt lat="48.83958" lon="2.67881"><ele>86.8</ele></trkpt>
    <trkpt lat="48.84003" lon="2.67764"><ele>87.0</ele></trkpt>
    <trkpt lat="48.84051" lon="2.67683"><ele>88.1</ele></trkpt>
    <trkpt lat="48.84121" lon="2.67492"><ele>94.6</ele></trkpt>
    <trkpt lat="48.84154" lon="2.67365"><ele>97.4</ele></trkpt>
    <trkpt lat="48.84204" lon="2.67075"><ele>100.1</ele></trkpt>
    <trkpt lat="48.84215" lon="2.66967"><ele>100.8</ele></trkpt>
    <trkpt lat="48.84222" lon="2.66831"><ele>101.5</ele></trkpt>
    <trkpt lat="48.84253" lon="2.66809"><ele>101.3</ele></trkpt>
    <trkpt lat="48.84242" lon="2.66746"><ele>101.0</ele></trkpt>
    <trkpt lat="48.84227" lon="2.66731"><ele>100.9</ele></trkpt>
    <trkpt lat="48.84209" lon="2.66686"><ele>100.6</ele></trkpt>
    <trkpt lat="48.84192" lon="2.66552"><ele>99.8</ele></trkpt>
    <trkpt lat="48.84209" lon="2.66508"><ele>99.0</ele></trkpt>
    <trkpt lat="48.84204" lon="2.66483"><ele>98.5</ele></trkpt>
    <trkpt lat="48.84188" lon="2.66471"><ele>98.1</ele></trkpt>
    <trkpt lat="48.84176" lon="2.66452"><ele>97.7</ele></trkpt>
    <trkpt lat="48.84153" lon="2.66292"><ele>97.8</ele></trkpt>
    <trkpt lat="48.84157" lon="2.66265"><ele>98.1</ele></trkpt>
    <trkpt lat="48.8417" lon="2.66247"><ele>98.4</ele></trkpt>
    <trkpt lat="48.84167" lon="2.66221"><ele>98.6</ele></trkpt>
    <trkpt lat="48.84139" lon="2.66191"><ele>99.2</ele></trkpt>
    <trkpt lat="48.84096" lon="2.65897"><ele>100.3</ele></trkpt>
    <trkpt lat="48.84096" lon="2.6587"><ele>100.5</ele></trkpt>
    <trkpt lat="48.84104" lon="2.65846"><ele>100.6</ele></trkpt>
    <trkpt lat="48.84102" lon="2.65819"><ele>100.8</ele></trkpt>
    <trkpt lat="48.8409" lon="2.65801"><ele>101.0</ele></trkpt>
    <trkpt lat="48.84072" lon="2.65798"><ele>101.2</ele></trkpt>
    <trkpt lat="48.84057" lon="2.65812"><ele>101.3</ele></trkpt>
    <trkpt lat="48.8404" lon="2.65813"><ele>101.4</ele></trkpt>
    <trkpt lat="48.83987" lon="2.65802"><ele>101.2</ele></trkpt>
    <trkpt lat="48.83957" lon="2.65778"><ele>100.6</ele></trkpt>
    <trkpt lat="48.83939" lon="2.6578"><ele>100.1</ele></trkpt>
    <trkpt lat="48.83926" lon="2.65798"><ele>99.7</ele></trkpt>
    <trkpt lat="48.83919" lon="2.6582"><ele>99.2</ele></trkpt>
    <trkpt lat="48.83902" lon="2.65829"><ele>98.9</ele></trkpt>
    <trkpt lat="48.83884" lon="2.65828"><ele>98.6</ele></trkpt>
    <trkpt lat="48.8385" lon="2.65847"><ele>98.4</ele></trkpt>
    <trkpt lat="48.83785" lon="2.65892"><ele>98.4</ele></trkpt>
    <trkpt lat="48.83657" lon="2.65993"><ele>99.9</ele></trkpt>
    <trkpt lat="48.83624" lon="2.66013"><ele>100.4</ele></trkpt>
    <trkpt lat="48.83519" lon="2.66054"><ele>101.0</ele></trkpt>
    <trkpt lat="48.83506" lon="2.66051"><ele>100.7</ele></trkpt>
    <trkpt lat="48.83474" lon="2.65953"><ele>98.4</ele></trkpt>
    <trkpt lat="48.83442" lon="2.65939"><ele>96.4</ele></trkpt>
    <trkpt lat="48.83308" lon="2.6586"><ele>89.2</ele></trkpt>
    <trkpt lat="48.83182" lon="2.65854"><ele>90.5</ele></trkpt>
    <trkpt lat="48.83039" lon="2.6574"><ele>93.9</ele></trkpt>
    <trkpt lat="48.83033" lon="2.65722"><ele>93.9</ele></trkpt>
    <trkpt lat="48.83079" lon="2.65574"><ele>94.1</ele></trkpt>
    <trkpt lat="48.83089" lon="2.65522"><ele>94.6</ele></trkpt>
    <trkpt lat="48.83073" lon="2.65415"><ele>95.9</ele></trkpt>
    <trkpt lat="48.8307" lon="2.6506"><ele>99.8</ele></trkpt>
    <trkpt lat="48.83065" lon="2.65006"><ele>100.1</ele></trkpt>
    <trkpt lat="48.83031" lon="2.6491"><ele>100.5</ele></trkpt>
    <trkpt lat="48.82819" lon="2.64503"><ele>102.7</ele></trkpt>
    <trkpt lat="48.82802" lon="2.64455"><ele>102.8</ele></trkpt>
    <trkpt lat="48.82812" lon="2.6441"><ele>102.9</ele></trkpt>
    <trkpt lat="48.82802" lon="2.6439"><ele>103.0</ele></trkpt>
    <trkpt lat="48.82785" lon="2.64395"><ele>103.1</ele></trkpt>
    <trkpt lat="48.82775" lon="2.64416"><ele>103.2</ele></trkpt>
    <trkpt lat="48.82758" lon="2.64422"><ele>103.4</ele></trkpt>
    <trkpt lat="48.82744" lon="2.64406"><ele>103.5</ele></trkpt>
    <trkpt lat="48.82697" lon="2.64324"><ele>104.0</ele></trkpt>
    <trkpt lat="48.82652" lon="2.64279"><ele>104.3</ele></trkpt>
    <trkpt lat="48.82619" lon="2.64259"><ele>104.4</ele></trkpt>
    <trkpt lat="48.82372" lon="2.64181"><ele>104.5</ele></trkpt>
    <trkpt lat="48.82355" lon="2.64174"><ele>104.6</ele></trkpt>
    <trkpt lat="48.82341" lon="2.64157"><ele>104.7</ele></trkpt>
    <trkpt lat="48.82336" lon="2.64131"><ele>104.8</ele></trkpt>
    <trkpt lat="48.82353" lon="2.64089"><ele>104.9</ele></trkpt>
    <trkpt lat="48.82358" lon="2.64063"><ele>105.0</ele></trkpt>
    <trkpt lat="48.82353" lon="2.64036"><ele>105.1</ele></trkpt>
    <trkpt lat="48.82326" lon="2.64"><ele>105.2</ele></trkpt>
    <trkpt lat="48.82319" lon="2.63976"><ele>105.3</ele></trkpt>
    <trkpt lat="48.82315" lon="2.63949"><ele>105.3</ele></trkpt>
    <trkpt lat="48.82318" lon="2.63923"><ele>105.4</ele></trkpt>
    <trkpt lat="48.82481" lon="2.63142"><ele>106.4</ele></trkpt>
    <trkpt lat="48.82493" lon="2.63062"><ele>106.8</ele></trkpt>
    <trkpt lat="48.82497" lon="2.63008"><ele>107.0</ele></trkpt>
    <trkpt lat="48.82495" lon="2.62872"><ele>107.4</ele></trkpt>
    <trkpt lat="48.82416" lon="2.61896"><ele>107.8</ele></trkpt>
    <trkpt lat="48.82396" lon="2.61791"><ele>107.3</ele></trkpt>
    <trkpt lat="48.82358" lon="2.61668"><ele>106.8</ele></trkpt>
    <trkpt lat="48.82361" lon="2.61615"><ele>106.6</ele></trkpt>
    <trkpt lat="48.82335" lon="2.61579"><ele>106.5</ele></trkpt>
    <trkpt lat="48.82308" lon="2.61508"><ele>106.3</ele></trkpt>
    <trkpt lat="48.82285" lon="2.61466"><ele>106.3</ele></trkpt>
    <trkpt lat="48.82258" lon="2.6143"><ele>106.3</ele></trkpt>
    <trkpt lat="48.82225" lon="2.61407"><ele>106.5</ele></trkpt>
    <trkpt lat="48.8219" lon="2.61396"><ele>106.6</ele></trkpt>
    <trkpt lat="48.82101" lon="2.61412"><ele>107.3</ele></trkpt>
    <trkpt lat="48.82084" lon="2.6141"><ele>107.3</ele></trkpt>
    <trkpt lat="48.82077" lon="2.61386"><ele>107.3</ele></trkpt>
    <trkpt lat="48.82077" lon="2.61359"><ele>107.2</ele></trkpt>
    <trkpt lat="48.82088" lon="2.61339"><ele>107.2</ele></trkpt>
    <trkpt lat="48.82105" lon="2.61334"><ele>107.2</ele></trkpt>
    <trkpt lat="48.8214" lon="2.61343"><ele>107.2</ele></trkpt>
    <trkpt lat="48.82158" lon="2.6134"><ele>107.2</ele></trkpt>
    <trkpt lat="48.82264" lon="2.61309"><ele>107.7</ele></trkpt>
    <trkpt lat="48.82371" lon="2.61294"><ele>108.1</ele></trkpt>
    <trkpt lat="48.82423" lon="2.61273"><ele>108.4</ele></trkpt>
    <trkpt lat="48.82878" lon="2.60884"><ele>103.9</ele></trkpt>
    <trkpt lat="48.82931" lon="2.60811"><ele>102.9</ele></trkpt>
    <trkpt lat="48.82961" lon="2.60744"><ele>102.3</ele></trkpt>
    <trkpt lat="48.82981" lon="2.60667"><ele>101.5</ele></trkpt>
    <trkpt lat="48.83127" lon="2.59766"><ele>95.7</ele></trkpt>
    <trkpt lat="48.83151" lon="2.59692"><ele>92.6</ele></trkpt>
    <trkpt lat="48.83235" lon="2.59515"><ele>89.1</ele></trkpt>
    <trkpt lat="48.83261" lon="2.59414"><ele>88.7</ele></trkpt>
    <trkpt lat="48.83267" lon="2.59332"><ele>88.8</ele></trkpt>
    <trkpt lat="48.83265" lon="2.59278"><ele>89.1</ele></trkpt>
    <trkpt lat="48.83259" lon="2.59224"><ele>89.5</ele></trkpt>
    <trkpt lat="48.83241" lon="2.59147"><ele>90.8</ele></trkpt>
    <trkpt lat="48.83213" lon="2.59077"><ele>92.9</ele></trkpt>
    <trkpt lat="48.8313" lon="2.58933"><ele>96.9</ele></trkpt>
    <trkpt lat="48.83136" lon="2.58911"><ele>97.1</ele></trkpt>
    <trkpt lat="48.83133" lon="2.58885"><ele>97.4</ele></trkpt>
    <trkpt lat="48.83118" lon="2.58872"><ele>97.7</ele></trkpt>
    <trkpt lat="48.83103" lon="2.58872"><ele>98.0</ele></trkpt>
    <trkpt lat="48.83083" lon="2.58795"><ele>98.5</ele></trkpt>
    <trkpt lat="48.83071" lon="2.58633"><ele>98.9</ele></trkpt>
    <trkpt lat="48.83044" lon="2.58563"><ele>98.7</ele></trkpt>
    <trkpt lat="48.8304" lon="2.58536"><ele>98.6</ele></trkpt>
    <trkpt lat="48.83019" lon="2.58348"><ele>98.7</ele></trkpt>
    <trkpt lat="48.83013" lon="2.58322"><ele>98.7</ele></trkpt>
    <trkpt lat="48.82999" lon="2.5816"><ele>98.7</ele></trkpt>
    <trkpt lat="48.8302" lon="2.5813"><ele>98.7</ele></trkpt>
    <trkpt lat="48.83252" lon="2.58166"><ele>99.1</ele></trkpt>
    <trkpt lat="48.83286" lon="2.58151"><ele>99.0</ele></trkpt>
    <trkpt lat="48.833" lon="2.58135"><ele>99.0</ele></trkpt>
    <trkpt lat="48.83316" lon="2.58086"><ele>98.9</ele></trkpt>
    <trkpt lat="48.83323" lon="2.58004"><ele>98.8</ele></trkpt>
    <trkpt lat="48.83322" lon="2.57896"><ele>98.9</ele></trkpt>
    <trkpt lat="48.83328" lon="2.57787"><ele>99.0</ele></trkpt>
    <trkpt lat="48.83336" lon="2.57741"><ele>99.0</ele></trkpt>
    <trkpt lat="48.83332" lon="2.57717"><ele>99.1</ele></trkpt>
    <trkpt lat="48.83368" lon="2.57009"><ele>100.1</ele></trkpt>
    <trkpt lat="48.83373" lon="2.56983"><ele>99.9</ele></trkpt>
    <trkpt lat="48.83385" lon="2.56964"><ele>99.7</ele></trkpt>
    <trkpt lat="48.83456" lon="2.56968"><ele>99.2</ele></trkpt>
    <trkpt lat="48.83473" lon="2.56963"><ele>99.1</ele></trkpt>
    <trkpt lat="48.83487" lon="2.56691"><ele>97.6</ele></trkpt>
    <trkpt lat="48.83475" lon="2.56611"><ele>97.4</ele></trkpt>
    <trkpt lat="48.83475" lon="2.56584"><ele>97.6</ele></trkpt>
    <trkpt lat="48.83484" lon="2.56568"><ele>97.8</ele></trkpt>
    <trkpt lat="48.83514" lon="2.56541"><ele>98.7</ele></trkpt>
    <trkpt lat="48.8353" lon="2.56493"><ele>99.9</ele></trkpt>
    <trkpt lat="48.83517" lon="2.5633"><ele>101.8</ele></trkpt>
    <trkpt lat="48.8352" lon="2.56304"><ele>101.4</ele></trkpt>
    <trkpt lat="48.83434" lon="2.56168"><ele>98.3</ele></trkpt>
    <trkpt lat="48.83211" lon="2.55774"><ele>97.0</ele></trkpt>
    <trkpt lat="48.83206" lon="2.55728"><ele>97.5</ele></trkpt>
    <trkpt lat="48.83199" lon="2.55709"><ele>97.8</ele></trkpt>
    <trkpt lat="48.83247" lon="2.55253"><ele>99.6</ele></trkpt>
    <trkpt lat="48.83263" lon="2.55242"><ele>99.4</ele></trkpt>
    <trkpt lat="48.83267" lon="2.55216"><ele>99.2</ele></trkpt>
    <trkpt lat="48.83278" lon="2.55194"><ele>98.9</ele></trkpt>
    <trkpt lat="48.83482" lon="2.54926"><ele>96.4</ele></trkpt>
    <trkpt lat="48.83497" lon="2.54913"><ele>96.3</ele></trkpt>
    <trkpt lat="48.83505" lon="2.54893"><ele>96.2</ele></trkpt>
    <trkpt lat="48.83501" lon="2.54868"><ele>96.0</ele></trkpt>
    <trkpt lat="48.835" lon="2.54622"><ele>95.9</ele></trkpt>
    <trkpt lat="48.83509" lon="2.5457"><ele>96.4</ele></trkpt>
    <trkpt lat="48.83536" lon="2.54469"><ele>97.3</ele></trkpt>
    <trkpt lat="48.8354" lon="2.54333"><ele>98.1</ele></trkpt>
    <trkpt lat="48.83557" lon="2.54287"><ele>98.0</ele></trkpt>
    <trkpt lat="48.83541" lon="2.5424"><ele>97.6</ele></trkpt>
    <trkpt lat="48.83538" lon="2.54104"><ele>96.3</ele></trkpt>
    <trkpt lat="48.83527" lon="2.54024"><ele>96.1</ele></trkpt>
    <trkpt lat="48.83506" lon="2.53948"><ele>96.4</ele></trkpt>
    <trkpt lat="48.83366" lon="2.53631"><ele>97.2</ele></trkpt>
    <trkpt lat="48.8331" lon="2.53523"><ele>96.5</ele></trkpt>
    <trkpt lat="48.83204" lon="2.53338"><ele>95.0</ele></trkpt>
    <trkpt lat="48.83204" lon="2.53312"><ele>95.1</ele></trkpt>
    <trkpt lat="48.83254" lon="2.53136"><ele>96.3</ele></trkpt>
    <trkpt lat="48.83245" lon="2.53115"><ele>96.4</ele></trkpt>
    <trkpt lat="48.83008" lon="2.52741"><ele>95.4</ele></trkpt>
    <trkpt lat="48.82824" lon="2.52479"><ele>87.8</ele></trkpt>
    <trkpt lat="48.82779" lon="2.52395"><ele>86.7</ele></trkpt>
    <trkpt lat="48.82763" lon="2.52346"><ele>86.5</ele></trkpt>
    <trkpt lat="48.82743" lon="2.52241"><ele>85.8</ele></trkpt>
    <trkpt lat="48.82717" lon="2.51999"><ele>81.2</ele></trkpt>
    <trkpt lat="48.82707" lon="2.51863"><ele>76.8</ele></trkpt>
    <trkpt lat="48.82709" lon="2.51782"><ele>74.2</ele></trkpt>
    <trkpt lat="48.8272" lon="2.51674"><ele>71.9</ele></trkpt>
    <trkpt lat="48.82719" lon="2.51455"><ele>68.7</ele></trkpt>
    <trkpt lat="48.82731" lon="2.51183"><ele>65.7</ele></trkpt>
    <trkpt lat="48.82736" lon="2.51129"><ele>64.8</ele></trkpt>
    <trkpt lat="48.82756" lon="2.51024"><ele>63.3</ele></trkpt>
    <trkpt lat="48.82755" lon="2.50998"><ele>63.1</ele></trkpt>
    <trkpt lat="48.82734" lon="2.50894"><ele>62.7</ele></trkpt>
    <trkpt lat="48.82665" lon="2.50641"><ele>59.5</ele></trkpt>
    <trkpt lat="48.82493" lon="2.50069"><ele>53.6</ele></trkpt>
    <trkpt lat="48.82468" lon="2.49998"><ele>52.1</ele></trkpt>
    <trkpt lat="48.82107" lon="2.48778"><ele>43.1</ele></trkpt>
    <trkpt lat="48.8205" lon="2.48577"><ele>42.7</ele></trkpt>
    <trkpt lat="48.8204" lon="2.48525"><ele>42.7</ele></trkpt>
    <trkpt lat="48.82029" lon="2.48523"><ele>42.8</ele></trkpt>
    <trkpt lat="48.82009" lon="2.48447"><ele>43.0</ele></trkpt>
    <trkpt lat="48.81999" lon="2.48428"><ele>43.1</ele></trkpt>
    <trkpt lat="48.81977" lon="2.485"><ele>43.2</ele></trkpt>
    <trkpt lat="48.8191" lon="2.48812"><ele>43.0</ele></trkpt>
    <trkpt lat="48.81893" lon="2.48859"><ele>43.1</ele></trkpt>
    <trkpt lat="48.81839" lon="2.49119"><ele>43.8</ele></trkpt>
    <trkpt lat="48.8183" lon="2.492"><ele>43.5</ele></trkpt>
    <trkpt lat="48.81581" lon="2.50369"><ele>41.5</ele></trkpt>
    <trkpt lat="48.8146" lon="2.50795"><ele>41.9</ele></trkpt>
    <trkpt lat="48.81401" lon="2.50932"><ele>41.7</ele></trkpt>
    <trkpt lat="48.81348" lon="2.51104"><ele>40.9</ele></trkpt>
    <trkpt lat="48.81337" lon="2.51122"><ele>40.3</ele></trkpt>
    <trkpt lat="48.81233" lon="2.5108"><ele>37.1</ele></trkpt>
    <trkpt lat="48.8118" lon="2.51065"><ele>37.4</ele></trkpt>
    <trkpt lat="48.81042" lon="2.51006"><ele>41.0</ele></trkpt>
  </trkseg></trk>
</gpx>
