<?xml version="1.0" encoding="UTF-8"?>
<gpx version="1.1" creator="Club Cycliste USO" xmlns="http://www.topografix.com/GPX/1/1">
  <metadata><name>Dammartin-sur-Tigeaux – 104 km</name><desc>103.5 km, D+ 493 m. Départ et arrivée : pont de Champigny.</desc></metadata>
  <trk><name>Dammartin-sur-Tigeaux – 104 km</name><trkseg>
    <trkpt lat="48.81032" lon="2.51002"><ele>41.0</ele></trkpt>
    <trkpt lat="48.81188" lon="2.51068"><ele>37.2</ele></trkpt>
    <trkpt lat="48.81241" lon="2.51083"><ele>37.2</ele></trkpt>
    <trkpt lat="48.8131" lon="2.51113"><ele>39.2</ele></trkpt>
    <trkpt lat="48.81344" lon="2.51119"><ele>40.7</ele></trkpt>
    <trkpt lat="48.81396" lon="2.50945"><ele>41.7</ele></trkpt>
    <trkpt lat="48.81463" lon="2.50784"><ele>41.9</ele></trkpt>
    <trkpt lat="48.81584" lon="2.50358"><ele>41.4</ele></trkpt>
    <trkpt lat="48.81827" lon="2.49215"><ele>43.5</ele></trkpt>
    <trkpt lat="48.81841" lon="2.49108"><ele>43.9</ele></trkpt>
    <trkpt lat="48.81896" lon="2.48848"><ele>43.1</ele></trkpt>
    <trkpt lat="48.81913" lon="2.48801"><ele>43.0</ele></trkpt>
    <trkpt lat="48.8198" lon="2.48489"><ele>43.2</ele></trkpt>
    <trkpt lat="48.81994" lon="2.48439"><ele>43.0</ele></trkpt>
    <trkpt lat="48.82005" lon="2.48425"><ele>42.9</ele></trkpt>
    <trkpt lat="48.82022" lon="2.48503"><ele>42.6</ele></trkpt>
    <trkpt lat="48.82057" lon="2.48598"><ele>42.8</ele></trkpt>
    <trkpt lat="48.8241" lon="2.49796"><ele>49.0</ele></trkpt>
    <trkpt lat="48.82468" lon="2.49996"><ele>52.9</ele></trkpt>
    <trkpt lat="48.82471" lon="2.50022"><ele>53.3</ele></trkpt>
    <trkpt lat="48.82657" lon="2.50644"><ele>59.7</ele></trkpt>
    <trkpt lat="48.82706" lon="2.5082"><ele>62.4</ele></trkpt>
    <trkpt lat="48.82709" lon="2.50845"><ele>62.4</ele></trkpt>
    <trkpt lat="48.82686" lon="2.50977"><ele>62.1</ele></trkpt>
    <trkpt lat="48.82689" lon="2.51003"><ele>62.2</ele></trkpt>
    <trkpt lat="48.82725" lon="2.51097"><ele>64.2</ele></trkpt>
    <trkpt lat="48.82731" lon="2.51178"><ele>66.2</ele></trkpt>
    <trkpt lat="48.82719" lon="2.51451"><ele>69.4</ele></trkpt>
    <trkpt lat="48.82721" lon="2.51669"><ele>73.0</ele></trkpt>
    <trkpt lat="48.82706" lon="2.51859"><ele>78.9</ele></trkpt>
    <trkpt lat="48.82743" lon="2.52237"><ele>86.3</ele></trkpt>
    <trkpt lat="48.82762" lon="2.52342"><ele>86.8</ele></trkpt>
    <trkpt lat="48.82777" lon="2.52391"><ele>87.2</ele></trkpt>
    <trkpt lat="48.82822" lon="2.52476"><ele>88.9</ele></trkpt>
    <trkpt lat="48.83057" lon="2.52815"><ele>97.9</ele></trkpt>
    <trkpt lat="48.83192" lon="2.53034"><ele>96.9</ele></trkpt>
    <trkpt lat="48.83236" lon="2.53121"><ele>96.5</ele></trkpt>
    <trkpt lat="48.83241" lon="2.53144"><ele>96.3</ele></trkpt>
    <trkpt lat="48.83221" lon="2.53221"><ele>95.7</ele></trkpt>
    <trkpt lat="48.83196" lon="2.53292"><ele>95.1</ele></trkpt>
    <trkpt lat="48.83181" lon="2.53303"><ele>94.9</ele></trkpt>
    <trkpt lat="48.83169" lon="2.53321"><ele>94.8</ele></trkpt>
    <trkpt lat="48.83172" lon="2.53346"><ele>94.8</ele></trkpt>
    <trkpt lat="48.83204" lon="2.53361"><ele>95.1</ele></trkpt>
    <trkpt lat="48.83218" lon="2.53377"><ele>95.3</ele></trkpt>
    <trkpt lat="48.83279" lon="2.53478"><ele>96.9</ele></trkpt>
    <trkpt lat="48.83358" lon="2.53626"><ele>98.0</ele></trkpt>
    <trkpt lat="48.83497" lon="2.53945"><ele>97.1</ele></trkpt>
    <trkpt lat="48.83513" lon="2.53994"><ele>97.0</ele></trkpt>
    <trkpt lat="48.83528" lon="2.54073"><ele>97.0</ele></trkpt>
    <trkpt lat="48.83524" lon="2.54091"><ele>97.2</ele></trkpt>
    <trkpt lat="48.83527" lon="2.54146"><ele>97.3</ele></trkpt>
    <trkpt lat="48.83525" lon="2.5408"><ele>97.2</ele></trkpt>
    <trkpt lat="48.8353" lon="2.541"><ele>97.2</ele></trkpt>
    <trkpt lat="48.83534" lon="2.54237"><ele>98.2</ele></trkpt>
    <trkpt lat="48.83515" lon="2.5428"><ele>98.4</ele></trkpt>
    <trkpt lat="48.83517" lon="2.54305"><ele>98.5</ele></trkpt>
    <trkpt lat="48.83528" lon="2.54326"><ele>98.5</ele></trkpt>
    <trkpt lat="48.83533" lon="2.54352"><ele>98.5</ele></trkpt>
    <trkpt lat="48.83534" lon="2.54434"><ele>98.2</ele></trkpt>
    <trkpt lat="48.83528" lon="2.54487"><ele>97.9</ele></trkpt>
    <trkpt lat="48.83493" lon="2.54613"><ele>96.6</ele></trkpt>
    <trkpt lat="48.8349" lon="2.54695"><ele>95.9</ele></trkpt>
    <trkpt lat="48.83496" lon="2.54831"><ele>95.9</ele></trkpt>
    <trkpt lat="48.83492" lon="2.54885"><ele>96.2</ele></trkpt>
    <trkpt lat="48.83486" lon="2.5491"><ele>96.3</ele></trkpt>
    <trkpt lat="48.83474" lon="2.54929"><ele>96.4</ele></trkpt>
    <trkpt lat="48.83323" lon="2.55124"><ele>98.2</ele></trkpt>
    <trkpt lat="48.83298" lon="2.55164"><ele>98.7</ele></trkpt>
    <trkpt lat="48.8327" lon="2.55197"><ele>99.1</ele></trkpt>
    <trkpt lat="48.83236" lon="2.55203"><ele>99.5</ele></trkpt>
    <trkpt lat="48.83229" lon="2.55226"><ele>99.6</ele></trkpt>
    <trkpt lat="48.83244" lon="2.55268"><ele>99.9</ele></trkpt>
    <trkpt lat="48.83239" lon="2.55322"><ele>99.7</ele></trkpt>
    <trkpt lat="48.832" lon="2.557"><ele>97.4</ele></trkpt>
    <trkpt lat="48.83195" lon="2.55723"><ele>97.1</ele></trkpt>
    <trkpt lat="48.83181" lon="2.55739"><ele>96.8</ele></trkpt>
    <trkpt lat="48.83188" lon="2.55763"><ele>96.7</ele></trkpt>
    <trkpt lat="48.83204" lon="2.55763"><ele>96.6</ele></trkpt>
    <trkpt lat="48.83216" lon="2.55783"><ele>96.6</ele></trkpt>
    <trkpt lat="48.83439" lon="2.56177"><ele>99.1</ele></trkpt>
    <trkpt lat="48.83515" lon="2.56292"><ele>101.7</ele></trkpt>
    <trkpt lat="48.83526" lon="2.56451"><ele>99.7</ele></trkpt>
    <trkpt lat="48.83523" lon="2.56478"><ele>99.1</ele></trkpt>
    <trkpt lat="48.83508" lon="2.56526"><ele>98.0</ele></trkpt>
    <trkpt lat="48.83482" lon="2.56564"><ele>97.4</ele></trkpt>
    <trkpt lat="48.83475" lon="2.56585"><ele>97.4</ele></trkpt>
    <trkpt lat="48.83475" lon="2.56612"><ele>97.5</ele></trkpt>
    <trkpt lat="48.83487" lon="2.56692"><ele>97.9</ele></trkpt>
    <trkpt lat="48.83473" lon="2.56964"><ele>99.3</ele></trkpt>
    <trkpt lat="48.83384" lon="2.56965"><ele>100.1</ele></trkpt>
    <trkpt lat="48.83372" lon="2.56984"><ele>100.3</ele></trkpt>
    <trkpt lat="48.83368" lon="2.5701"><ele>100.5</ele></trkpt>
    <trkpt lat="48.83332" lon="2.57718"><ele>99.1</ele></trkpt>
    <trkpt lat="48.83325" lon="2.57738"><ele>99.1</ele></trkpt>
    <trkpt lat="48.83328" lon="2.57785"><ele>99.0</ele></trkpt>
    <trkpt lat="48.83317" lon="2.5803"><ele>98.9</ele></trkpt>
    <trkpt lat="48.83309" lon="2.58111"><ele>99.0</ele></trkpt>
    <trkpt lat="48.833" lon="2.58135"><ele>99.1</ele></trkpt>
    <trkpt lat="48.83286" lon="2.58151"><ele>99.1</ele></trkpt>
    <trkpt lat="48.83252" lon="2.58166"><ele>99.2</ele></trkpt>
    <trkpt lat="48.83019" lon="2.5813"><ele>98.7</ele></trkpt>
    <trkpt lat="48.83001" lon="2.5813"><ele>98.7</ele></trkpt>
    <trkpt lat="48.82999" lon="2.5815"><ele>98.7</ele></trkpt>
    <trkpt lat="48.83028" lon="2.58503"><ele>98.9</ele></trkpt>
    <trkpt lat="48.83039" lon="2.58554"><ele>99.0</ele></trkpt>
    <trkpt lat="48.83068" lon="2.58622"><ele>98.9</ele></trkpt>
    <trkpt lat="48.83073" lon="2.58648"><ele>98.9</ele></trkpt>
    <trkpt lat="48.83078" lon="2.58757"><ele>98.4</ele></trkpt>
    <trkpt lat="48.831" lon="2.58861"><ele>97.8</ele></trkpt>
    <trkpt lat="48.83096" lon="2.5891"><ele>97.4</ele></trkpt>
    <trkpt lat="48.83105" lon="2.58933"><ele>97.1</ele></trkpt>
    <trkpt lat="48.83136" lon="2.58942"><ele>95.9</ele></trkpt>
    <trkpt lat="48.83207" lon="2.59065"><ele>91.8</ele></trkpt>
    <trkpt lat="48.83244" lon="2.59158"><ele>89.8</ele></trkpt>
    <trkpt lat="48.83261" lon="2.59236"><ele>89.0</ele></trkpt>
    <trkpt lat="48.83267" lon="2.59317"><ele>88.7</ele></trkpt>
    <trkpt lat="48.83262" lon="2.59399"><ele>88.7</ele></trkpt>
    <trkpt lat="48.83253" lon="2.59452"><ele>88.9</ele></trkpt>
    <trkpt lat="48.8324" lon="2.59502"><ele>89.4</ele></trkpt>
    <trkpt lat="48.83221" lon="2.59549"><ele>90.1</ele></trkpt>
    <trkpt lat="48.83147" lon="2.59703"><ele>95.3</ele></trkpt>
    <trkpt lat="48.83124" lon="2.59777"><ele>97.7</ele></trkpt>
    <trkpt lat="48.82979" lon="2.60679"><ele>102.3</ele></trkpt>
    <trkpt lat="48.82948" lon="2.60778"><ele>103.0</ele></trkpt>
    <trkpt lat="48.82913" lon="2.6084"><ele>103.7</ele></trkpt>
    <trkpt lat="48.82871" lon="2.60891"><ele>104.6</ele></trkpt>
    <trkpt lat="48.82416" lon="2.61278"><ele>108.0</ele></trkpt>
    <trkpt lat="48.82381" lon="2.61292"><ele>107.8</ele></trkpt>
    <trkpt lat="48.82256" lon="2.61311"><ele>107.2</ele></trkpt>
    <trkpt lat="48.8215" lon="2.61342"><ele>107.1</ele></trkpt>
    <trkpt lat="48.82132" lon="2.61342"><ele>107.2</ele></trkpt>
    <trkpt lat="48.82097" lon="2.61329"><ele>107.3</ele></trkpt>
    <trkpt lat="48.8208" lon="2.61334"><ele>107.3</ele></trkpt>
    <trkpt lat="48.82069" lon="2.61354"><ele>107.4</ele></trkpt>
    <trkpt lat="48.82067" lon="2.61408"><ele>107.7</ele></trkpt>
    <trkpt lat="48.82062" lon="2.61432"><ele>107.7</ele></trkpt>
    <trkpt lat="48.82073" lon="2.61451"><ele>107.7</ele></trkpt>
    <trkpt lat="48.82103" lon="2.61428"><ele>107.4</ele></trkpt>
    <trkpt lat="48.82121" lon="2.61422"><ele>107.1</ele></trkpt>
    <trkpt lat="48.82192" lon="2.61412"><ele>106.0</ele></trkpt>
    <trkpt lat="48.8221" lon="2.61415"><ele>105.9</ele></trkpt>
    <trkpt lat="48.82244" lon="2.61433"><ele>105.6</ele></trkpt>
    <trkpt lat="48.82272" lon="2.61465"><ele>105.4</ele></trkpt>
    <trkpt lat="48.82305" lon="2.6153"><ele>105.6</ele></trkpt>
    <trkpt lat="48.8232" lon="2.61579"><ele>106.1</ele></trkpt>
    <trkpt lat="48.82321" lon="2.61632"><ele>106.5</ele></trkpt>
    <trkpt lat="48.8233" lon="2.61655"><ele>106.7</ele></trkpt>
    <trkpt lat="48.82345" lon="2.6167"><ele>106.8</ele></trkpt>
    <trkpt lat="48.82393" lon="2.61816"><ele>107.5</ele></trkpt>
    <trkpt lat="48.8241" lon="2.61894"><ele>107.9</ele></trkpt>
    <trkpt lat="48.82416" lon="2.61948"><ele>108.0</ele></trkpt>
    <trkpt lat="48.82493" lon="2.62896"><ele>107.2</ele></trkpt>
    <trkpt lat="48.82496" lon="2.62978"><ele>107.0</ele></trkpt>
    <trkpt lat="48.82476" lon="2.63137"><ele>106.5</ele></trkpt>
    <trkpt lat="48.82286" lon="2.6402"><ele>105.5</ele></trkpt>
    <trkpt lat="48.8228" lon="2.64073"><ele>105.4</ele></trkpt>
    <trkpt lat="48.82285" lon="2.64098"><ele>105.3</ele></trkpt>
    <trkpt lat="48.82298" lon="2.64117"><ele>105.2</ele></trkpt>
    <trkpt lat="48.82315" lon="2.64124"><ele>105.0</ele></trkpt>
    <trkpt lat="48.82333" lon="2.64122"><ele>104.8</ele></trkpt>
    <trkpt lat="48.82347" lon="2.64167"><ele>104.5</ele></trkpt>
    <trkpt lat="48.82364" lon="2.64178"><ele>104.3</ele></trkpt>
    <trkpt lat="48.82593" lon="2.64247"><ele>104.3</ele></trkpt>
    <trkpt lat="48.82644" lon="2.64273"><ele>104.2</ele></trkpt>
    <trkpt lat="48.82675" lon="2.643"><ele>103.9</ele></trkpt>
    <trkpt lat="48.82703" lon="2.64334"><ele>103.6</ele></trkpt>
    <trkpt lat="48.8276" lon="2.64435"><ele>103.2</ele></trkpt>
    <trkpt lat="48.82774" lon="2.64432"><ele>103.1</ele></trkpt>
    <trkpt lat="48.82802" lon="2.64452"><ele>102.9</ele></trkpt>
    <trkpt lat="48.82818" lon="2.64501"><ele>102.6</ele></trkpt>
    <trkpt lat="48.8303" lon="2.64908"><ele>100.4</ele></trkpt>
    <trkpt lat="48.83057" lon="2.64979"><ele>99.9</ele></trkpt>
    <trkpt lat="48.83068" lon="2.6503"><ele>99.6</ele></trkpt>
    <trkpt lat="48.83073" lon="2.65412"><ele>95.4</ele></trkpt>
    <trkpt lat="48.83089" lon="2.65519"><ele>93.9</ele></trkpt>
    <trkpt lat="48.8308" lon="2.65571"><ele>93.5</ele></trkpt>
    <trkpt lat="48.83034" lon="2.65719"><ele>93.7</ele></trkpt>
    <trkpt lat="48.83038" lon="2.65738"><ele>93.5</ele></trkpt>
    <trkpt lat="48.83181" lon="2.65853"><ele>89.6</ele></trkpt>
    <trkpt lat="48.83216" lon="2.6586"><ele>89.2</ele></trkpt>
    <trkpt lat="48.83306" lon="2.6586"><ele>89.9</ele></trkpt>
    <trkpt lat="48.8334" lon="2.65875"><ele>91.2</ele></trkpt>
    <trkpt lat="48.83445" lon="2.65941"><ele>98.3</ele></trkpt>
    <trkpt lat="48.83463" lon="2.65945"><ele>99.0</ele></trkpt>
    <trkpt lat="48.83476" lon="2.65958"><ele>99.7</ele></trkpt>
    <trkpt lat="48.83508" lon="2.66056"><ele>101.1</ele></trkpt>
    <trkpt lat="48.83627" lon="2.66012"><ele>99.9</ele></trkpt>
    <trkpt lat="48.83788" lon="2.65889"><ele>98.3</ele></trkpt>
    <trkpt lat="48.8387" lon="2.65834"><ele>98.8</ele></trkpt>
    <trkpt lat="48.83888" lon="2.65828"><ele>99.1</ele></trkpt>
    <trkpt lat="48.83923" lon="2.65834"><ele>99.8</ele></trkpt>
    <trkpt lat="48.83936" lon="2.65851"><ele>100.2</ele></trkpt>
    <trkpt lat="48.83953" lon="2.65857"><ele>100.5</ele></trkpt>
    <trkpt lat="48.83969" lon="2.65844"><ele>100.9</ele></trkpt>
    <trkpt lat="48.83978" lon="2.65823"><ele>101.2</ele></trkpt>
    <trkpt lat="48.83995" lon="2.65814"><ele>101.5</ele></trkpt>
    <trkpt lat="48.84047" lon="2.65835"><ele>101.8</ele></trkpt>
    <trkpt lat="48.84056" lon="2.65859"><ele>101.7</ele></trkpt>
    <trkpt lat="48.84081" lon="2.65895"><ele>101.1</ele></trkpt>
    <trkpt lat="48.84089" lon="2.6592"><ele>100.9</ele></trkpt>
    <trkpt lat="48.84127" lon="2.66186"><ele>100.1</ele></trkpt>
    <trkpt lat="48.84135" lon="2.66211"><ele>99.9</ele></trkpt>
    <trkpt lat="48.84133" lon="2.66237"><ele>99.6</ele></trkpt>
    <trkpt lat="48.8414" lon="2.66261"><ele>99.2</ele></trkpt>
    <trkpt lat="48.84162" lon="2.66422"><ele>97.6</ele></trkpt>
    <trkpt lat="48.84173" lon="2.66473"><ele>97.9</ele></trkpt>
    <trkpt lat="48.84174" lon="2.665"><ele>98.1</ele></trkpt>
    <trkpt lat="48.84203" lon="2.66713"><ele>100.8</ele></trkpt>
    <trkpt lat="48.842" lon="2.66738"><ele>101.2</ele></trkpt>
    <trkpt lat="48.84189" lon="2.6676"><ele>101.6</ele></trkpt>
    <trkpt lat="48.84188" lon="2.66786"><ele>101.9</ele></trkpt>
    <trkpt lat="48.84196" lon="2.6681"><ele>102.1</ele></trkpt>
    <trkpt lat="48.84212" lon="2.66822"><ele>102.1</ele></trkpt>
    <trkpt lat="48.8423" lon="2.6682"><ele>101.9</ele></trkpt>
    <trkpt lat="48.84243" lon="2.66804"><ele>101.6</ele></trkpt>
    <trkpt lat="48.84249" lon="2.66778"><ele>101.3</ele></trkpt>
    <trkpt lat="48.84278" lon="2.66749"><ele>100.4</ele></trkpt>
    <trkpt lat="48.84482" lon="2.66643"><ele>94.6</ele></trkpt>
    <trkpt lat="48.84613" lon="2.66498"><ele>94.8</ele></trkpt>
    <trkpt lat="48.84696" lon="2.66394"><ele>94.8</ele></trkpt>
    <trkpt lat="48.84741" lon="2.66347"><ele>94.5</ele></trkpt>
    <trkpt lat="48.84775" lon="2.6633"><ele>94.1</ele></trkpt>
    <trkpt lat="48.84933" lon="2.66278"><ele>91.7</ele></trkpt>
    <trkpt lat="48.84966" lon="2.66259"><ele>91.2</ele></trkpt>
    <trkpt lat="48.84984" lon="2.66257"><ele>91.0</ele></trkpt>
    <trkpt lat="48.85037" lon="2.66268"><ele>89.7</ele></trkpt>
    <trkpt lat="48.85054" lon="2.66275"><ele>89.2</ele></trkpt>
    <trkpt lat="48.85733" lon="2.66945"><ele>57.4</ele></trkpt>
    <trkpt lat="48.85734" lon="2.66937"><ele>57.2</ele></trkpt>
    <trkpt lat="48.8573" lon="2.66943"><ele>57.0</ele></trkpt>
    <trkpt lat="48.85837" lon="2.67047"><ele>52.0</ele></trkpt>
    <trkpt lat="48.85868" lon="2.6707"><ele>50.7</ele></trkpt>
    <trkpt lat="48.86019" lon="2.67221"><ele>45.8</ele></trkpt>
    <trkpt lat="48.86032" lon="2.67238"><ele>45.6</ele></trkpt>
    <trkpt lat="48.86041" lon="2.67261"><ele>45.5</ele></trkpt>
    <trkpt lat="48.86044" lon="2.67286"><ele>45.4</ele></trkpt>
    <trkpt lat="48.86057" lon="2.67304"><ele>45.4</ele></trkpt>
    <trkpt lat="48.86092" lon="2.67301"><ele>45.3</ele></trkpt>
    <trkpt lat="48.86109" lon="2.67308"><ele>45.2</ele></trkpt>
    <trkpt lat="48.86126" lon="2.67342"><ele>44.7</ele></trkpt>
    <trkpt lat="48.86278" lon="2.67491"><ele>44.1</ele></trkpt>
    <trkpt lat="48.86289" lon="2.6751"><ele>44.2</ele></trkpt>
    <trkpt lat="48.86294" lon="2.67531"><ele>44.2</ele></trkpt>
    <trkpt lat="48.86285" lon="2.67555"><ele>44.3</ele></trkpt>
    <trkpt lat="48.86273" lon="2.67575"><ele>44.4</ele></trkpt>
    <trkpt lat="48.86216" lon="2.67641"><ele>45.0</ele></trkpt>
    <trkpt lat="48.86071" lon="2.67749"><ele>45.3</ele></trkpt>
    <trkpt lat="48.86058" lon="2.67769"><ele>45.4</ele></trkpt>
    <trkpt lat="48.86043" lon="2.67818"><ele>45.7</ele></trkpt>
    <trkpt lat="48.86034" lon="2.67871"><ele>46.0</ele></trkpt>
    <trkpt lat="48.86037" lon="2.68034"><ele>46.4</ele></trkpt>
    <trkpt lat="48.86032" lon="2.68143"><ele>47.1</ele></trkpt>
    <trkpt lat="48.86038" lon="2.68252"><ele>47.9</ele></trkpt>
    <trkpt lat="48.86012" lon="2.68467"><ele>49.3</ele></trkpt>
    <trkpt lat="48.8601" lon="2.68522"><ele>49.7</ele></trkpt>
    <trkpt lat="48.86064" lon="2.68867"><ele>51.5</ele></trkpt>
    <trkpt lat="48.86039" lon="2.69138"><ele>52.5</ele></trkpt>
    <trkpt lat="48.86064" lon="2.69353"><ele>54.5</ele></trkpt>
    <trkpt lat="48.86073" lon="2.69405"><ele>56.2</ele></trkpt>
    <trkpt lat="48.86105" lon="2.69503"><ele>58.5</ele></trkpt>
    <trkpt lat="48.86118" lon="2.69581"><ele>58.7</ele></trkpt>
    <trkpt lat="48.86087" lon="2.69648"><ele>58.9</ele></trkpt>
    <trkpt lat="48.86084" lon="2.69674"><ele>59.1</ele></trkpt>
    <trkpt lat="48.86086" lon="2.69701"><ele>59.5</ele></trkpt>
    <trkpt lat="48.86103" lon="2.69749"><ele>61.2</ele></trkpt>
    <trkpt lat="48.86114" lon="2.69801"><ele>63.4</ele></trkpt>
    <trkpt lat="48.861" lon="2.70018"><ele>65.4</ele></trkpt>
    <trkpt lat="48.86029" lon="2.70327"><ele>67.9</ele></trkpt>
    <trkpt lat="48.86158" lon="2.70406"><ele>70.5</ele></trkpt>
    <trkpt lat="48.86175" lon="2.70413"><ele>71.6</ele></trkpt>
    <trkpt lat="48.86192" lon="2.70411"><ele>72.7</ele></trkpt>
    <trkpt lat="48.86208" lon="2.70398"><ele>73.8</ele></trkpt>
    <trkpt lat="48.8622" lon="2.70378"><ele>74.9</ele></trkpt>
    <trkpt lat="48.86247" lon="2.70277"><ele>78.8</ele></trkpt>
    <trkpt lat="48.86257" lon="2.70254"><ele>79.7</ele></trkpt>
    <trkpt lat="48.86272" lon="2.7024"><ele>80.7</ele></trkpt>
    <trkpt lat="48.86289" lon="2.70242"><ele>81.7</ele></trkpt>
    <trkpt lat="48.86302" lon="2.70259"><ele>82.6</ele></trkpt>
    <trkpt lat="48.86354" lon="2.70371"><ele>87.1</ele></trkpt>
    <trkpt lat="48.86378" lon="2.7041"><ele>90.0</ele></trkpt>
    <trkpt lat="48.86526" lon="2.70508"><ele>98.9</ele></trkpt>
    <trkpt lat="48.86528" lon="2.70534"><ele>99.5</ele></trkpt>
    <trkpt lat="48.86514" lon="2.70641"><ele>100.7</ele></trkpt>
    <trkpt lat="48.86509" lon="2.7075"><ele>101.9</ele></trkpt>
    <trkpt lat="48.86489" lon="2.70939"><ele>103.3</ele></trkpt>
    <trkpt lat="48.86491" lon="2.71048"><ele>103.8</ele></trkpt>
    <trkpt lat="48.865" lon="2.71129"><ele>104.3</ele></trkpt>
    <trkpt lat="48.86495" lon="2.71238"><ele>104.9</ele></trkpt>
    <trkpt lat="48.86501" lon="2.71291"><ele>105.4</ele></trkpt>
    <trkpt lat="48.8651" lon="2.71315"><ele>105.6</ele></trkpt>
    <trkpt lat="48.86552" lon="2.71367"><ele>106.2</ele></trkpt>
    <trkpt lat="48.86562" lon="2.71389"><ele>106.4</ele></trkpt>
    <trkpt lat="48.86569" lon="2.71442"><ele>106.7</ele></trkpt>
    <trkpt lat="48.86568" lon="2.71524"><ele>107.3</ele></trkpt>
    <trkpt lat="48.86558" lon="2.71576"><ele>107.5</ele></trkpt>
    <trkpt lat="48.86432" lon="2.71875"><ele>107.8</ele></trkpt>
    <trkpt lat="48.86304" lon="2.72067"><ele>108.3</ele></trkpt>
    <trkpt lat="48.86155" lon="2.7234"><ele>106.9</ele></trkpt>
    <trkpt lat="48.86087" lon="2.7243"><ele>105.0</ele></trkpt>
    <trkpt lat="48.85733" lon="2.72852"><ele>96.8</ele></trkpt>
    <trkpt lat="48.85689" lon="2.72898"><ele>95.5</ele></trkpt>
    <trkpt lat="48.85622" lon="2.72937"><ele>94.1</ele></trkpt>
    <trkpt lat="48.85381" lon="2.73049"><ele>92.6</ele></trkpt>
    <trkpt lat="48.85352" lon="2.73054"><ele>92.9</ele></trkpt>
    <trkpt lat="48.85086" lon="2.73334"><ele>100.3</ele></trkpt>
    <trkpt lat="48.85066" lon="2.73367"><ele>101.8</ele></trkpt>
    <trkpt lat="48.85036" lon="2.73398"><ele>103.3</ele></trkpt>
    <trkpt lat="48.85004" lon="2.7342"><ele>104.8</ele></trkpt>
    <trkpt lat="48.84988" lon="2.7341"><ele>105.3</ele></trkpt>
    <trkpt lat="48.84971" lon="2.73419"><ele>105.8</ele></trkpt>
    <trkpt lat="48.84958" lon="2.73467"><ele>106.2</ele></trkpt>
    <trkpt lat="48.84947" lon="2.73489"><ele>106.4</ele></trkpt>
    <trkpt lat="48.84875" lon="2.7357"><ele>107.6</ele></trkpt>
    <trkpt lat="48.84838" lon="2.73629"><ele>108.5</ele></trkpt>
    <trkpt lat="48.84572" lon="2.74311"><ele>118.3</ele></trkpt>
    <trkpt lat="48.84534" lon="2.74435"><ele>119.8</ele></trkpt>
    <trkpt lat="48.84521" lon="2.74453"><ele>120.1</ele></trkpt>
    <trkpt lat="48.84504" lon="2.74461"><ele>120.3</ele></trkpt>
    <trkpt lat="48.84492" lon="2.74481"><ele>120.5</ele></trkpt>
    <trkpt lat="48.84493" lon="2.74508"><ele>120.8</ele></trkpt>
    <trkpt lat="48.845" lon="2.74532"><ele>120.9</ele></trkpt>
    <trkpt lat="48.84497" lon="2.74558"><ele>121.1</ele></trkpt>
    <trkpt lat="48.84372" lon="2.74983"><ele>122.1</ele></trkpt>
    <trkpt lat="48.84362" lon="2.75005"><ele>122.3</ele></trkpt>
    <trkpt lat="48.84347" lon="2.7502"><ele>122.5</ele></trkpt>
    <trkpt lat="48.84248" lon="2.75085"><ele>123.4</ele></trkpt>
    <trkpt lat="48.84124" lon="2.75196"><ele>124.2</ele></trkpt>
    <trkpt lat="48.84011" lon="2.75281"><ele>125.2</ele></trkpt>
    <trkpt lat="48.83959" lon="2.75299"><ele>125.8</ele></trkpt>
    <trkpt lat="48.83726" lon="2.75293"><ele>126.7</ele></trkpt>
    <trkpt lat="48.83439" lon="2.75325"><ele>125.3</ele></trkpt>
    <trkpt lat="48.83211" lon="2.75485"><ele>126.0</ele></trkpt>
    <trkpt lat="48.83177" lon="2.75503"><ele>127.2</ele></trkpt>
    <trkpt lat="48.82948" lon="2.75574"><ele>133.1</ele></trkpt>
    <trkpt lat="48.82894" lon="2.75577"><ele>133.3</ele></trkpt>
    <trkpt lat="48.8284" lon="2.7557"><ele>133.5</ele></trkpt>
    <trkpt lat="48.82269" lon="2.75465"><ele>127.3</ele></trkpt>
    <trkpt lat="48.82064" lon="2.75566"><ele>125.6</ele></trkpt>
    <trkpt lat="48.81835" lon="2.75722"><ele>123.6</ele></trkpt>
    <trkpt lat="48.81784" lon="2.7575"><ele>123.2</ele></trkpt>
    <trkpt lat="48.81748" lon="2.75749"><ele>123.0</ele></trkpt>
    <trkpt lat="48.81731" lon="2.75741"><ele>123.0</ele></trkpt>
    <trkpt lat="48.81729" lon="2.75716"><ele>123.0</ele></trkpt>
    <trkpt lat="48.81733" lon="2.75634"><ele>123.1</ele></trkpt>
    <trkpt lat="48.81695" lon="2.75511"><ele>123.5</ele></trkpt>
    <trkpt lat="48.81732" lon="2.75628"><ele>123.0</ele></trkpt>
    <trkpt lat="48.81729" lon="2.75736"><ele>123.0</ele></trkpt>
    <trkpt lat="48.81443" lon="2.75589"><ele>124.7</ele></trkpt>
    <trkpt lat="48.81302" lon="2.75542"><ele>123.9</ele></trkpt>
    <trkpt lat="48.81147" lon="2.75612"><ele>123.1</ele></trkpt>
    <trkpt lat="48.80842" lon="2.75777"><ele>121.8</ele></trkpt>
    <trkpt lat="48.80705" lon="2.75843"><ele>125.2</ele></trkpt>
    <trkpt lat="48.80345" lon="2.76091"><ele>120.1</ele></trkpt>
    <trkpt lat="48.8031" lon="2.76096"><ele>119.9</ele></trkpt>
    <trkpt lat="48.80187" lon="2.76053"><ele>118.5</ele></trkpt>
    <trkpt lat="48.80134" lon="2.76042"><ele>118.2</ele></trkpt>
    <trkpt lat="48.80098" lon="2.76046"><ele>118.0</ele></trkpt>
    <trkpt lat="48.79885" lon="2.76098"><ele>116.9</ele></trkpt>
    <trkpt lat="48.79869" lon="2.76111"><ele>116.8</ele></trkpt>
    <trkpt lat="48.79828" lon="2.76164"><ele>116.6</ele></trkpt>
    <trkpt lat="48.79765" lon="2.7626"><ele>116.6</ele></trkpt>
    <trkpt lat="48.79747" lon="2.76307"><ele>116.6</ele></trkpt>
    <trkpt lat="48.7972" lon="2.76409"><ele>116.6</ele></trkpt>
    <trkpt lat="48.79685" lon="2.76471"><ele>116.3</ele></trkpt>
    <trkpt lat="48.79523" lon="2.76685"><ele>116.8</ele></trkpt>
    <trkpt lat="48.79366" lon="2.76819"><ele>116.2</ele></trkpt>
    <trkpt lat="48.79332" lon="2.7684"><ele>116.0</ele></trkpt>
    <trkpt lat="48.79159" lon="2.76909"><ele>115.4</ele></trkpt>
    <trkpt lat="48.79035" lon="2.76919"><ele>114.3</ele></trkpt>
    <trkpt lat="48.78909" lon="2.76905"><ele>113.7</ele></trkpt>
    <trkpt lat="48.78874" lon="2.76908"><ele>113.6</ele></trkpt>
    <trkpt lat="48.78822" lon="2.76932"><ele>113.6</ele></trkpt>
    <trkpt lat="48.78794" lon="2.76964"><ele>113.8</ele></trkpt>
    <trkpt lat="48.78755" lon="2.77021"><ele>114.1</ele></trkpt>
    <trkpt lat="48.78739" lon="2.77033"><ele>114.1</ele></trkpt>
    <trkpt lat="48.78598" lon="2.77077"><ele>113.5</ele></trkpt>
    <trkpt lat="48.78512" lon="2.77118"><ele>113.5</ele></trkpt>
    <trkpt lat="48.78484" lon="2.7715"><ele>113.7</ele></trkpt>
    <trkpt lat="48.78394" lon="2.77321"><ele>114.1</ele></trkpt>
    <trkpt lat="48.78367" lon="2.77356"><ele>113.8</ele></trkpt>
    <trkpt lat="48.77983" lon="2.77656"><ele>111.1</ele></trkpt>
    <trkpt lat="48.77837" lon="2.77762"><ele>111.0</ele></trkpt>
    <trkpt lat="48.77761" lon="2.77833"><ele>110.1</ele></trkpt>
    <trkpt lat="48.77726" lon="2.77847"><ele>109.8</ele></trkpt>
    <trkpt lat="48.77673" lon="2.77854"><ele>109.8</ele></trkpt>
    <trkpt lat="48.77565" lon="2.77848"><ele>109.8</ele></trkpt>
    <trkpt lat="48.77513" lon="2.7783"><ele>109.3</ele></trkpt>
    <trkpt lat="48.77389" lon="2.77718"><ele>107.8</ele></trkpt>
    <trkpt lat="48.77213" lon="2.77529"><ele>111.2</ele></trkpt>
    <trkpt lat="48.77197" lon="2.77518"><ele>111.1</ele></trkpt>
    <trkpt lat="48.77179" lon="2.77519"><ele>111.0</ele></trkpt>
    <trkpt lat="48.77041" lon="2.77578"><ele>109.1</ele></trkpt>
    <trkpt lat="48.76969" lon="2.77588"><ele>108.1</ele></trkpt>
    <trkpt lat="48.76719" lon="2.77542"><ele>106.3</ele></trkpt>
    <trkpt lat="48.76557" lon="2.77548"><ele>104.6</ele></trkpt>
    <trkpt lat="48.76433" lon="2.77525"><ele>102.7</ele></trkpt>
    <trkpt lat="48.76363" lon="2.77552"><ele>101.8</ele></trkpt>
    <trkpt lat="48.76351" lon="2.77536"><ele>101.8</ele></trkpt>
    <trkpt lat="48.76346" lon="2.77509"><ele>101.9</ele></trkpt>
    <trkpt lat="48.76345" lon="2.77456"><ele>102.1</ele></trkpt>
    <trkpt lat="48.76325" lon="2.7741"><ele>102.0</ele></trkpt>
    <trkpt lat="48.7631" lon="2.77398"><ele>101.7</ele></trkpt>
    <trkpt lat="48.76292" lon="2.77399"><ele>101.3</ele></trkpt>
    <trkpt lat="48.76262" lon="2.77426"><ele>100.6</ele></trkpt>
    <trkpt lat="48.76246" lon="2.77417"><ele>100.4</ele></trkpt>
    <trkpt lat="48.7622" lon="2.77379"><ele>99.7</ele></trkpt>
    <trkpt lat="48.76181" lon="2.77468"><ele>97.1</ele></trkpt>
    <trkpt lat="48.76098" lon="2.77572"><ele>97.7</ele></trkpt>
    <trkpt lat="48.76062" lon="2.77633"><ele>99.4</ele></trkpt>
    <trkpt lat="48.76032" lon="2.77701"><ele>101.1</ele></trkpt>
    <trkpt lat="48.75961" lon="2.77784"><ele>102.3</ele></trkpt>
    <trkpt lat="48.75937" lon="2.77825"><ele>102.9</ele></trkpt>
    <trkpt lat="48.75856" lon="2.78004"><ele>106.7</ele></trkpt>
    <trkpt lat="48.75734" lon="2.78307"><ele>109.8</ele></trkpt>
    <trkpt lat="48.75702" lon="2.78328"><ele>109.8</ele></trkpt>
    <trkpt lat="48.75648" lon="2.78323"><ele>109.3</ele></trkpt>
    <trkpt lat="48.75525" lon="2.78285"><ele>106.8</ele></trkpt>
    <trkpt lat="48.75412" lon="2.78203"><ele>105.6</ele></trkpt>
    <trkpt lat="48.75306" lon="2.78175"><ele>107.1</ele></trkpt>
    <trkpt lat="48.75288" lon="2.78174"><ele>107.5</ele></trkpt>
    <trkpt lat="48.7527" lon="2.78181"><ele>108.0</ele></trkpt>
    <trkpt lat="48.74971" lon="2.78571"><ele>106.4</ele></trkpt>
    <trkpt lat="48.74791" lon="2.78752"><ele>109.0</ele></trkpt>
    <trkpt lat="48.74743" lon="2.7879"><ele>109.6</ele></trkpt>
    <trkpt lat="48.74692" lon="2.78812"><ele>110.2</ele></trkpt>
    <trkpt lat="48.74679" lon="2.78829"><ele>110.3</ele></trkpt>
    <trkpt lat="48.74598" lon="2.78889"><ele>111.1</ele></trkpt>
    <trkpt lat="48.74584" lon="2.78906"><ele>111.3</ele></trkpt>
    <trkpt lat="48.74578" lon="2.78931"><ele>111.4</ele></trkpt>
    <trkpt lat="48.74572" lon="2.79011"><ele>111.6</ele></trkpt>
    <trkpt lat="48.7456" lon="2.79032"><ele>111.7</ele></trkpt>
    <trkpt lat="48.74531" lon="2.79064"><ele>111.8</ele></trkpt>
    <trkpt lat="48.7441" lon="2.79182"><ele>111.6</ele></trkpt>
    <trkpt lat="48.74331" lon="2.79245"><ele>111.0</ele></trkpt>
    <trkpt lat="48.74264" lon="2.79285"><ele>110.7</ele></trkpt>
    <trkpt lat="48.74178" lon="2.79325"><ele>111.5</ele></trkpt>
    <trkpt lat="48.74169" lon="2.79341"><ele>111.7</ele></trkpt>
    <trkpt lat="48.74186" lon="2.79585"><ele>113.5</ele></trkpt>
    <trkpt lat="48.74186" lon="2.79967"><ele>120.3</ele></trkpt>
    <trkpt lat="48.74196" lon="2.8013"><ele>121.0</ele></trkpt>
    <trkpt lat="48.74214" lon="2.80291"><ele>120.1</ele></trkpt>
    <trkpt lat="48.74263" lon="2.80582"><ele>115.4</ele></trkpt>
    <trkpt lat="48.74281" lon="2.80715"><ele>112.9</ele></trkpt>
    <trkpt lat="48.74347" lon="2.815"><ele>112.2</ele></trkpt>
    <trkpt lat="48.74346" lon="2.81527"><ele>112.3</ele></trkpt>
    <trkpt lat="48.74329" lon="2.81633"><ele>112.8</ele></trkpt>
    <trkpt lat="48.74305" lon="2.81736"><ele>112.8</ele></trkpt>
    <trkpt lat="48.74246" lon="2.81872"><ele>113.3</ele></trkpt>
    <trkpt lat="48.74231" lon="2.8195"><ele>113.5</ele></trkpt>
    <trkpt lat="48.74243" lon="2.83013"><ele>114.0</ele></trkpt>
    <trkpt lat="48.74247" lon="2.83067"><ele>114.1</ele></trkpt>
    <trkpt lat="48.74497" lon="2.83853"><ele>115.0</ele></trkpt>
    <trkpt lat="48.74752" lon="2.85246"><ele>113.2</ele></trkpt>
    <trkpt lat="48.74965" lon="2.86144"><ele>112.8</ele></trkpt>
    <trkpt lat="48.74993" lon="2.86245"><ele>112.4</ele></trkpt>
    <trkpt lat="48.75098" lon="2.86562"><ele>113.6</ele></trkpt>
    <trkpt lat="48.75112" lon="2.86568"><ele>113.7</ele></trkpt>
    <trkpt lat="48.75363" lon="2.86542"><ele>114.9</ele></trkpt>
    <trkpt lat="48.75379" lon="2.86547"><ele>114.9</ele></trkpt>
    <trkpt lat="48.75648" lon="2.8738"><ele>114.9</ele></trkpt>
    <trkpt lat="48.75666" lon="2.87427"><ele>115.1</ele></trkpt>
    <trkpt lat="48.76037" lon="2.8813"><ele>114.7</ele></trkpt>
    <trkpt lat="48.76712" lon="2.88988"><ele>120.0</ele></trkpt>
    <trkpt lat="48.77037" lon="2.89331"><ele>120.4</ele></trkpt>
    <trkpt lat="48.77473" lon="2.89765"><ele>120.4</ele></trkpt>
    <trkpt lat="48.77504" lon="2.89793"><ele>120.5</ele></trkpt>
    <trkpt lat="48.77574" lon="2.89818"><ele>120.6</ele></trkpt>
    <trkpt lat="48.77589" lon="2.89833"><ele>120.7</ele></trkpt>
    <trkpt lat="48.776" lon="2.89854"><ele>120.8</ele></trkpt>
    <trkpt lat="48.77604" lon="2.8988"><ele>120.9</ele></trkpt>
    <trkpt lat="48.77596" lon="2.89903"><ele>121.0</ele></trkpt>
    <trkpt lat="48.77551" lon="2.89988"><ele>121.3</ele></trkpt>
    <trkpt lat="48.77562" lon="2.90008"><ele>121.2</ele></trkpt>
    <trkpt lat="48.77595" lon="2.90028"><ele>121.0</ele></trkpt>
    <trkpt lat="48.77666" lon="2.90049"><ele>120.8</ele></trkpt>
    <trkpt lat="48.77698" lon="2.90074"><ele>120.8</ele></trkpt>
    <trkpt lat="48.78056" lon="2.90438"><ele>119.5</ele></trkpt>
    <trkpt lat="48.78084" lon="2.90473"><ele>119.2</ele></trkpt>
    <trkpt lat="48.78717" lon="2.91696"><ele>119.5</ele></trkpt>
    <trkpt lat="48.78733" lon="2.91698"><ele>119.9</ele></trkpt>
    <trkpt lat="48.7875" lon="2.91688"><ele>120.1</ele></trkpt>
    <trkpt lat="48.78881" lon="2.916"><ele>120.1</ele></trkpt>
    <trkpt lat="48.78917" lon="2.91595"><ele>120.3</ele></trkpt>
    <trkpt lat="48.78953" lon="2.91599"><ele>120.4</ele></trkpt>
    <trkpt lat="48.78988" lon="2.9159"><ele>120.3</ele></trkpt>
    <trkpt lat="48.79108" lon="2.91535"><ele>120.4</ele></trkpt>
    <trkpt lat="48.79146" lon="2.91589"><ele>121.3</ele></trkpt>
    <trkpt lat="48.79162" lon="2.91601"><ele>121.7</ele></trkpt>
    <trkpt lat="48.79197" lon="2.91614"><ele>122.4</ele></trkpt>
    <trkpt lat="48.79251" lon="2.91616"><ele>122.6</ele></trkpt>
    <trkpt lat="48.79394" lon="2.91599"><ele>122.2</ele></trkpt>
    <trkpt lat="48.79448" lon="2.91609"><ele>123.0</ele></trkpt>
    <trkpt lat="48.7948" lon="2.91631"><ele>124.0</ele></trkpt>
    <trkpt lat="48.79675" lon="2.91829"><ele>131.3</ele></trkpt>
    <trkpt lat="48.79771" lon="2.91904"><ele>131.2</ele></trkpt>
    <trkpt lat="48.79891" lon="2.9196"><ele>129.4</ele></trkpt>
    <trkpt lat="48.80158" lon="2.92015"><ele>127.5</ele></trkpt>
    <trkpt lat="48.80193" lon="2.92028"><ele>127.3</ele></trkpt>
    <trkpt lat="48.80686" lon="2.92478"><ele>104.5</ele></trkpt>
    <trkpt lat="48.8072" lon="2.92495"><ele>103.3</ele></trkpt>
    <trkpt lat="48.81002" lon="2.92584"><ele>100.5</ele></trkpt>
    <trkpt lat="48.81018" lon="2.92594"><ele>100.3</ele></trkpt>
    <trkpt lat="48.81033" lon="2.92585"><ele>100.0</ele></trkpt>
    <trkpt lat="48.81351" lon="2.92276"><ele>90.5</ele></trkpt>
    <trkpt lat="48.81442" lon="2.92185"><ele>84.5</ele></trkpt>
    <trkpt lat="48.81483" lon="2.92133"><ele>81.8</ele></trkpt>
    <trkpt lat="48.81601" lon="2.91858"><ele>69.6</ele></trkpt>
    <trkpt lat="48.81954" lon="2.91002"><ele>56.8</ele></trkpt>
    <trkpt lat="48.81979" lon="2.909"><ele>56.1</ele></trkpt>
    <trkpt lat="48.8201" lon="2.90603"><ele>58.8</ele></trkpt>
    <trkpt lat="48.82025" lon="2.90553"><ele>59.8</ele></trkpt>
    <trkpt lat="48.82047" lon="2.90512"><ele>60.4</ele></trkpt>
    <trkpt lat="48.82255" lon="2.90295"><ele>58.0</ele></trkpt>
    <trkpt lat="48.82302" lon="2.90257"><ele>56.9</ele></trkpt>
    <trkpt lat="48.82373" lon="2.9024"><ele>55.6</ele></trkpt>
    <trkpt lat="48.82409" lon="2.9024"><ele>55.8</ele></trkpt>
    <trkpt lat="48.82471" lon="2.90188"><ele>57.6</ele></trkpt>
    <trkpt lat="48.82506" lon="2.90173"><ele>58.2</ele></trkpt>
    <trkpt lat="48.82577" lon="2.90167"><ele>57.5</ele></trkpt>
    <trkpt lat="48.82701" lon="2.90171"><ele>56.6</ele></trkpt>
    <trkpt lat="48.82879" lon="2.90131"><ele>54.5</ele></trkpt>
    <trkpt lat="48.82986" lon="2.90134"><ele>57.4</ele></trkpt>
    <trkpt lat="48.82999" lon="2.90116"><ele>58.4</ele></trkpt>
    <trkpt lat="48.83005" lon="2.90091"><ele>59.5</ele></trkpt>
    <trkpt lat="48.82958" lon="2.89827"><ele>72.8</ele></trkpt>
    <trkpt lat="48.82949" lon="2.89804"><ele>74.2</ele></trkpt>
    <trkpt lat="48.82915" lon="2.89792"><ele>76.5</ele></trkpt>
    <trkpt lat="48.829" lon="2.89779"><ele>77.9</ele></trkpt>
    <trkpt lat="48.82892" lon="2.89754"><ele>79.4</ele></trkpt>
    <trkpt lat="48.82894" lon="2.89509"><ele>90.9</ele></trkpt>
    <trkpt lat="48.82882" lon="2.89429"><ele>93.9</ele></trkpt>
    <trkpt lat="48.8272" lon="2.88911"><ele>105.9</ele></trkpt>
    <trkpt lat="48.82637" lon="2.88669"><ele>112.5</ele></trkpt>
    <trkpt lat="48.82502" lon="2.88379"><ele>122.9</ele></trkpt>
    <trkpt lat="48.82465" lon="2.88319"><ele>124.4</ele></trkpt>
    <trkpt lat="48.82394" lon="2.88235"><ele>126.4</ele></trkpt>
    <trkpt lat="48.82373" lon="2.88193"><ele>126.8</ele></trkpt>
    <trkpt lat="48.82365" lon="2.88112"><ele>127.4</ele></trkpt>
    <trkpt lat="48.82351" lon="2.88061"><ele>127.9</ele></trkpt>
    <trkpt lat="48.82259" lon="2.87795"><ele>129.2</ele></trkpt>
    <trkpt lat="48.82257" lon="2.87742"><ele>129.3</ele></trkpt>
    <trkpt lat="48.82265" lon="2.87718"><ele>129.4</ele></trkpt>
    <trkpt lat="48.82262" lon="2.87693"><ele>129.4</ele></trkpt>
    <trkpt lat="48.82252" lon="2.87671"><ele>129.4</ele></trkpt>
    <trkpt lat="48.8225" lon="2.87644"><ele>129.5</ele></trkpt>
    <trkpt lat="48.8223" lon="2.87599"><ele>129.6</ele></trkpt>
    <trkpt lat="48.82185" lon="2.87553"><ele>129.7</ele></trkpt>
    <trkpt lat="48.82173" lon="2.87534"><ele>129.8</ele></trkpt>
    <trkpt lat="48.81858" lon="2.86612"><ele>130.8</ele></trkpt>
    <trkpt lat="48.81843" lon="2.86534"><ele>130.7</ele></trkpt>
    <trkpt lat="48.81694" lon="2.85605"><ele>128.9</ele></trkpt>
    <trkpt lat="48.81664" lon="2.85391"><ele>128.5</ele></trkpt>
    <trkpt lat="48.81572" lon="2.84835"><ele>126.5</ele></trkpt>
    <trkpt lat="48.81545" lon="2.84592"><ele>125.4</ele></trkpt>
    <trkpt lat="48.81521" lon="2.84322"><ele>124.8</ele></trkpt>
    <trkpt lat="48.81522" lon="2.84267"><ele>124.9</ele></trkpt>
    <trkpt lat="48.81525" lon="2.84241"><ele>124.9</ele></trkpt>
    <trkpt lat="48.81535" lon="2.84218"><ele>124.9</ele></trkpt>
    <trkpt lat="48.81551" lon="2.84204"><ele>124.8</ele></trkpt>
    <trkpt lat="48.81568" lon="2.84199"><ele>124.7</ele></trkpt>
    <trkpt lat="48.81622" lon="2.84194"><ele>124.4</ele></trkpt>
    <trkpt lat="48.81945" lon="2.84197"><ele>125.5</ele></trkpt>
    <trkpt lat="48.81999" lon="2.84189"><ele>125.9</ele></trkpt>
    <trkpt lat="48.82069" lon="2.84162"><ele>126.4</ele></trkpt>
    <trkpt lat="48.8215" lon="2.84104"><ele>127.1</ele></trkpt>
    <trkpt lat="48.82208" lon="2.84039"><ele>127.4</ele></trkpt>
    <trkpt lat="48.82233" lon="2.84"><ele>127.6</ele></trkpt>
    <trkpt lat="48.82267" lon="2.83937"><ele>127.7</ele></trkpt>
    <trkpt lat="48.82296" lon="2.83867"><ele>127.8</ele></trkpt>
    <trkpt lat="48.82323" lon="2.83767"><ele>127.6</ele></trkpt>
    <trkpt lat="48.8234" lon="2.8366"><ele>127.5</ele></trkpt>
    <trkpt lat="48.82347" lon="2.83552"><ele>127.6</ele></trkpt>
    <trkpt lat="48.82353" lon="2.83527"><ele>127.5</ele></trkpt>
    <trkpt lat="48.82365" lon="2.83506"><ele>127.4</ele></trkpt>
    <trkpt lat="48.82367" lon="2.8348"><ele>127.4</ele></trkpt>
    <trkpt lat="48.82359" lon="2.83456"><ele>127.3</ele></trkpt>
    <trkpt lat="48.82344" lon="2.83442"><ele>127.2</ele></trkpt>
    <trkpt lat="48.82333" lon="2.83421"><ele>127.3</ele></trkpt>
    <trkpt lat="48.81987" lon="2.82251"><ele>128.1</ele></trkpt>
    <trkpt lat="48.81931" lon="2.81992"><ele>125.9</ele></trkpt>
    <trkpt lat="48.81898" lon="2.81894"><ele>125.7</ele></trkpt>
    <trkpt lat="48.8189" lon="2.81816"><ele>125.5</ele></trkpt>
    <trkpt lat="48.81876" lon="2.81799"><ele>125.5</ele></trkpt>
    <trkpt lat="48.81859" lon="2.81794"><ele>125.4</ele></trkpt>
    <trkpt lat="48.81845" lon="2.81777"><ele>125.3</ele></trkpt>
    <trkpt lat="48.81827" lon="2.8173"><ele>125.1</ele></trkpt>
    <trkpt lat="48.818" lon="2.81629"><ele>124.8</ele></trkpt>
    <trkpt lat="48.81762" lon="2.81306"><ele>123.8</ele></trkpt>
    <trkpt lat="48.81706" lon="2.81018"><ele>122.4</ele></trkpt>
    <trkpt lat="48.81655" lon="2.80785"><ele>121.6</ele></trkpt>
    <trkpt lat="48.81622" lon="2.80516"><ele>120.8</ele></trkpt>
    <trkpt lat="48.81602" lon="2.80383"><ele>121.1</ele></trkpt>
    <trkpt lat="48.81594" lon="2.80247"><ele>121.6</ele></trkpt>
    <trkpt lat="48.816" lon="2.79947"><ele>122.1</ele></trkpt>
    <trkpt lat="48.81645" lon="2.79655"><ele>121.3</ele></trkpt>
    <trkpt lat="48.81649" lon="2.79601"><ele>121.1</ele></trkpt>
    <trkpt lat="48.81632" lon="2.79524"><ele>121.0</ele></trkpt>
    <trkpt lat="48.81569" lon="2.79297"><ele>120.7</ele></trkpt>
    <trkpt lat="48.81566" lon="2.79275"><ele>120.6</ele></trkpt>
    <trkpt lat="48.81668" lon="2.7922"><ele>120.0</ele></trkpt>
    <trkpt lat="48.8168" lon="2.79205"><ele>120.1</ele></trkpt>
    <trkpt lat="48.81678" lon="2.79151"><ele>120.2</ele></trkpt>
    <trkpt lat="48.8165" lon="2.79022"><ele>120.4</ele></trkpt>
    <trkpt lat="48.81652" lon="2.78968"><ele>120.6</ele></trkpt>
    <trkpt lat="48.81658" lon="2.78942"><ele>120.7</ele></trkpt>
    <trkpt lat="48.8193" lon="2.78204"><ele>129.8</ele></trkpt>
    <trkpt lat="48.82206" lon="2.77563"><ele>126.0</ele></trkpt>
    <trkpt lat="48.82452" lon="2.76865"><ele>137.0</ele></trkpt>
    <trkpt lat="48.82473" lon="2.76822"><ele>138.4</ele></trkpt>
    <trkpt lat="48.82636" lon="2.76651"><ele>142.8</ele></trkpt>
    <trkpt lat="48.82659" lon="2.7661"><ele>142.5</ele></trkpt>
    <trkpt lat="48.82663" lon="2.76583"><ele>142.2</ele></trkpt>
    <trkpt lat="48.8266" lon="2.76556"><ele>141.8</ele></trkpt>
    <trkpt lat="48.82618" lon="2.76436"><ele>139.5</ele></trkpt>
    <trkpt lat="48.8262" lon="2.76383"><ele>138.6</ele></trkpt>
    <trkpt lat="48.82858" lon="2.75709"><ele>132.2</ele></trkpt>
    <trkpt lat="48.82877" lon="2.75663"><ele>132.4</ele></trkpt>
    <trkpt lat="48.82902" lon="2.75624"><ele>132.8</ele></trkpt>
    <trkpt lat="48.82946" lon="2.75578"><ele>133.0</ele></trkpt>
    <trkpt lat="48.83156" lon="2.75512"><ele>128.2</ele></trkpt>
    <trkpt lat="48.83208" lon="2.75488"><ele>126.1</ele></trkpt>
    <trkpt lat="48.83256" lon="2.75452"><ele>124.8</ele></trkpt>
    <trkpt lat="48.83288" lon="2.75128"><ele>122.7</ele></trkpt>
    <trkpt lat="48.83305" lon="2.7505"><ele>123.0</ele></trkpt>
    <trkpt lat="48.83322" lon="2.75002"><ele>123.1</ele></trkpt>
    <trkpt lat="48.83362" lon="2.74947"><ele>122.9</ele></trkpt>
    <trkpt lat="48.83456" lon="2.74866"><ele>122.6</ele></trkpt>
    <trkpt lat="48.83555" lon="2.74801"><ele>122.1</ele></trkpt>
    <trkpt lat="48.83759" lon="2.74697"><ele>122.5</ele></trkpt>
    <trkpt lat="48.83769" lon="2.74682"><ele>122.8</ele></trkpt>
    <trkpt lat="48.83714" lon="2.73949"><ele>124.7</ele></trkpt>
    <trkpt lat="48.837" lon="2.73944"><ele>124.7</ele></trkpt>
    <trkpt lat="48.8347" lon="2.74008"><ele>124.9</ele></trkpt>
    <trkpt lat="48.83463" lon="2.7399"><ele>124.9</ele></trkpt>
    <trkpt lat="48.83273" lon="2.72404"><ele>122.4</ele></trkpt>
    <trkpt lat="48.83275" lon="2.72377"><ele>122.3</ele></trkpt>
    <trkpt lat="48.83294" lon="2.72332"><ele>122.1</ele></trkpt>
    <trkpt lat="48.83294" lon="2.72306"><ele>122.1</ele></trkpt>
    <trkpt lat="48.83285" lon="2.72283"><ele>122.0</ele></trkpt>
    <trkpt lat="48.83256" lon="2.72252"><ele>121.8</ele></trkpt>
    <trkpt lat="48.83251" lon="2.72226"><ele>121.7</ele></trkpt>
    <trkpt lat="48.83197" lon="2.71769"><ele>119.9</ele></trkpt>
    <trkpt lat="48.83216" lon="2.71743"><ele>119.7</ele></trkpt>
    <trkpt lat="48.83178" lon="2.7142"><ele>119.4</ele></trkpt>
    <trkpt lat="48.83159" lon="2.71259"><ele>118.5</ele></trkpt>
    <trkpt lat="48.83152" lon="2.71239"><ele>118.3</ele></trkpt>
    <trkpt lat="48.83135" lon="2.71243"><ele>118.1</ele></trkpt>
    <trkpt lat="48.83112" lon="2.71055"><ele>117.1</ele></trkpt>
    <trkpt lat="48.83109" lon="2.71028"><ele>117.0</ele></trkpt>
    <trkpt lat="48.83112" lon="2.71001"><ele>117.0</ele></trkpt>
    <trkpt lat="48.83123" lon="2.70981"><ele>116.9</ele></trkpt>
    <trkpt lat="48.83126" lon="2.70955"><ele>116.9</ele></trkpt>
    <trkpt lat="48.8311" lon="2.70908"><ele>116.8</ele></trkpt>
    <trkpt lat="48.83111" lon="2.70882"><ele>116.7</ele></trkpt>
    <trkpt lat="48.83131" lon="2.70777"><ele>117.0</ele></trkpt>
    <trkpt lat="48.83133" lon="2.7075"><ele>117.1</ele></trkpt>
    <trkpt lat="48.8312" lon="2.70643"><ele>117.2</ele></trkpt>
    <trkpt lat="48.83133" lon="2.70625"><ele>116.9</ele></trkpt>
    <trkpt lat="48.83168" lon="2.70613"><ele>115.9</ele></trkpt>
    <trkpt lat="48.83258" lon="2.70609"><ele>114.3</ele></trkpt>
    <trkpt lat="48.8329" lon="2.7063"><ele>114.1</ele></trkpt>
    <trkpt lat="48.83307" lon="2.70624"><ele>114.0</ele></trkpt>
    <trkpt lat="48.83315" lon="2.70601"><ele>113.9</ele></trkpt>
    <trkpt lat="48.83311" lon="2.70575"><ele>113.8</ele></trkpt>
    <trkpt lat="48.83296" lon="2.7056"><ele>113.6</ele></trkpt>
    <trkpt lat="48.83288" lon="2.70536"><ele>113.5</ele></trkpt>
    <trkpt lat="48.83153" lon="2.69574"><ele>106.9</ele></trkpt>
    <trkpt lat="48.83146" lon="2.69465"><ele>105.4</ele></trkpt>
    <trkpt lat="48.83149" lon="2.69384"><ele>103.2</ele></trkpt>
    <trkpt lat="48.83186" lon="2.69033"><ele>90.1</ele></trkpt>
    <trkpt lat="48.83183" lon="2.68979"><ele>88.9</ele></trkpt>
    <trkpt lat="48.83171" lon="2.68927"><ele>88.1</ele></trkpt>
    <trkpt lat="48.83133" lon="2.68835"><ele>87.7</ele></trkpt>
    <trkpt lat="48.83169" lon="2.68268"><ele>105.0</ele></trkpt>
    <trkpt lat="48.83191" lon="2.6775"><ele>105.9</ele></trkpt>
    <trkpt lat="48.83204" lon="2.67699"><ele>105.8</ele></trkpt>
    <trkpt lat="48.83216" lon="2.6768"><ele>105.7</ele></trkpt>
    <trkpt lat="48.83248" lon="2.67653"><ele>105.5</ele></trkpt>
    <trkpt lat="48.83599" lon="2.67377"><ele>102.4</ele></trkpt>
    <trkpt lat="48.83639" lon="2.67323"><ele>102.3</ele></trkpt>
    <trkpt lat="48.83738" lon="2.67164"><ele>102.3</ele></trkpt>
    <trkpt lat="48.83814" lon="2.67011"><ele>103.1</ele></trkpt>
    <trkpt lat="48.83856" lon="2.66962"><ele>103.6</ele></trkpt>
    <trkpt lat="48.839" lon="2.66931"><ele>104.0</ele></trkpt>
    <trkpt lat="48.84106" lon="2.66834"><ele>103.3</ele></trkpt>
    <trkpt lat="48.84094" lon="2.66787"><ele>102.9</ele></trkpt>
    <trkpt lat="48.84089" lon="2.66705"><ele>102.4</ele></trkpt>
    <trkpt lat="48.84057" lon="2.66521"><ele>100.5</ele></trkpt>
    <trkpt lat="48.84047" lon="2.66358"><ele>98.9</ele></trkpt>
    <trkpt lat="48.84042" lon="2.66332"><ele>99.4</ele></trkpt>
    <trkpt lat="48.84017" lon="2.66293"><ele>99.9</ele></trkpt>
    <trkpt lat="48.84019" lon="2.66272"><ele>100.0</ele></trkpt>
    <trkpt lat="48.8397" lon="2.6587"><ele>100.6</ele></trkpt>
    <trkpt lat="48.8397" lon="2.65843"><ele>100.8</ele></trkpt>
    <trkpt lat="48.83975" lon="2.65818"><ele>101.0</ele></trkpt>
    <trkpt lat="48.83971" lon="2.65793"><ele>101.1</ele></trkpt>
    <trkpt lat="48.83956" lon="2.65778"><ele>101.0</ele></trkpt>
    <trkpt lat="48.83939" lon="2.6578"><ele>100.8</ele></trkpt>
    <trkpt lat="48.83926" lon="2.65798"><ele>100.4</ele></trkpt>
    <trkpt lat="48.83918" lon="2.65821"><ele>99.9</ele></trkpt>
    <trkpt lat="48.83867" lon="2.65837"><ele>98.8</ele></trkpt>
    <trkpt lat="48.83784" lon="2.65892"><ele>98.3</ele></trkpt>
    <trkpt lat="48.8364" lon="2.66004"><ele>99.7</ele></trkpt>
    <trkpt lat="48.83519" lon="2.66054"><ele>101.2</ele></trkpt>
    <trkpt lat="48.83506" lon="2.6605"><ele>101.1</ele></trkpt>
    <trkpt lat="48.83474" lon="2.65952"><ele>99.5</ele></trkpt>
    <trkpt lat="48.83441" lon="2.65939"><ele>98.0</ele></trkpt>
    <trkpt lat="48.83307" lon="2.6586"><ele>89.9</ele></trkpt>
    <trkpt lat="48.83182" lon="2.65853"><ele>89.6</ele></trkpt>
    <trkpt lat="48.83039" lon="2.65739"><ele>93.5</ele></trkpt>
    <trkpt lat="48.83033" lon="2.65721"><ele>93.7</ele></trkpt>
    <trkpt lat="48.83079" lon="2.65573"><ele>93.5</ele></trkpt>
    <trkpt lat="48.83089" lon="2.65521"><ele>93.9</ele></trkpt>
    <trkpt lat="48.83073" lon="2.65414"><ele>95.4</ele></trkpt>
    <trkpt lat="48.8307" lon="2.65059"><ele>99.4</ele></trkpt>
    <trkpt lat="48.83064" lon="2.65006"><ele>99.7</ele></trkpt>
    <trkpt lat="48.83041" lon="2.64932"><ele>100.2</ele></trkpt>
    <trkpt lat="48.8302" lon="2.64887"><ele>100.5</ele></trkpt>
    <trkpt lat="48.82818" lon="2.64503"><ele>102.6</ele></trkpt>
    <trkpt lat="48.82802" lon="2.64454"><ele>102.7</ele></trkpt>
    <trkpt lat="48.82812" lon="2.64409"><ele>102.8</ele></trkpt>
    <trkpt lat="48.82801" lon="2.6439"><ele>102.8</ele></trkpt>
    <trkpt lat="48.82784" lon="2.64395"><ele>102.9</ele></trkpt>
    <trkpt lat="48.82775" lon="2.64417"><ele>103.0</ele></trkpt>
    <trkpt lat="48.82758" lon="2.64422"><ele>103.1</ele></trkpt>
    <trkpt lat="48.82744" lon="2.64406"><ele>103.3</ele></trkpt>
    <trkpt lat="48.82696" lon="2.64324"><ele>103.7</ele></trkpt>
    <trkpt lat="48.82652" lon="2.64278"><ele>104.1</ele></trkpt>
    <trkpt lat="48.82618" lon="2.64258"><ele>104.3</ele></trkpt>
    <trkpt lat="48.82372" lon="2.64181"><ele>104.3</ele></trkpt>
    <trkpt lat="48.82354" lon="2.64174"><ele>104.4</ele></trkpt>
    <trkpt lat="48.82341" lon="2.64157"><ele>104.5</ele></trkpt>
    <trkpt lat="48.82336" lon="2.64131"><ele>104.6</ele></trkpt>
    <trkpt lat="48.82353" lon="2.64088"><ele>104.8</ele></trkpt>
    <trkpt lat="48.82358" lon="2.64062"><ele>104.9</ele></trkpt>
    <trkpt lat="48.82353" lon="2.64036"><ele>105.0</ele></trkpt>
    <trkpt lat="48.82326" lon="2.64"><ele>105.1</ele></trkpt>
    <trkpt lat="48.82319" lon="2.63975"><ele>105.1</ele></trkpt>
    <trkpt lat="48.82315" lon="2.63949"><ele>105.2</ele></trkpt>
    <trkpt lat="48.82318" lon="2.63922"><ele>105.2</ele></trkpt>
    <trkpt lat="48.82481" lon="2.63141"><ele>106.2</ele></trkpt>
    <trkpt lat="48.82493" lon="2.63061"><ele>106.6</ele></trkpt>
    <trkpt lat="48.82497" lon="2.63007"><ele>106.8</ele></trkpt>
    <trkpt lat="48.82495" lon="2.62871"><ele>107.2</ele></trkpt>
    <trkpt lat="48.82426" lon="2.62003"><ele>108.1</ele></trkpt>
    <trkpt lat="48.82413" lon="2.61868"><ele>107.7</ele></trkpt>
    <trkpt lat="48.82407" lon="2.61842"><ele>107.7</ele></trkpt>
    <trkpt lat="48.82397" lon="2.6183"><ele>107.7</ele></trkpt>
    <trkpt lat="48.82415" lon="2.61936"><ele>108.0</ele></trkpt>
    <trkpt lat="48.82442" lon="2.62289"><ele>108.8</ele></trkpt>
    <trkpt lat="48.82448" lon="2.62271"><ele>108.7</ele></trkpt>
    <trkpt lat="48.82416" lon="2.61891"><ele>107.8</ele></trkpt>
    <trkpt lat="48.82395" lon="2.61787"><ele>107.4</ele></trkpt>
    <trkpt lat="48.82357" lon="2.61664"><ele>106.9</ele></trkpt>
    <trkpt lat="48.82362" lon="2.61637"><ele>106.8</ele></trkpt>
    <trkpt lat="48.8236" lon="2.61611"><ele>106.7</ele></trkpt>
    <trkpt lat="48.82333" lon="2.61575"><ele>106.6</ele></trkpt>
    <trkpt lat="48.82306" lon="2.61504"><ele>106.3</ele></trkpt>
    <trkpt lat="48.82283" lon="2.61463"><ele>106.2</ele></trkpt>
    <trkpt lat="48.82255" lon="2.61428"><ele>106.2</ele></trkpt>
    <trkpt lat="48.82223" lon="2.61405"><ele>106.3</ele></trkpt>
    <trkpt lat="48.82169" lon="2.61397"><ele>106.5</ele></trkpt>
    <trkpt lat="48.82098" lon="2.61413"><ele>107.1</ele></trkpt>
    <trkpt lat="48.82082" lon="2.61407"><ele>107.2</ele></trkpt>
    <trkpt lat="48.82076" lon="2.61382"><ele>107.3</ele></trkpt>
    <trkpt lat="48.82078" lon="2.61355"><ele>107.3</ele></trkpt>
    <trkpt lat="48.8209" lon="2.61337"><ele>107.3</ele></trkpt>
    <trkpt lat="48.82108" lon="2.61333"><ele>107.2</ele></trkpt>
    <trkpt lat="48.82143" lon="2.61343"><ele>107.1</ele></trkpt>
    <trkpt lat="48.82267" lon="2.61309"><ele>107.3</ele></trkpt>
    <trkpt lat="48.82374" lon="2.61294"><ele>107.8</ele></trkpt>
    <trkpt lat="48.82409" lon="2.61282"><ele>108.1</ele></trkpt>
    <trkpt lat="48.82458" lon="2.61246"><ele>108.4</ele></trkpt>
    <trkpt lat="48.82865" lon="2.60896"><ele>104.8</ele></trkpt>
    <trkpt lat="48.82908" lon="2.60847"><ele>103.9</ele></trkpt>
    <trkpt lat="48.82933" lon="2.60808"><ele>103.3</ele></trkpt>
    <trkpt lat="48.82954" lon="2.60764"><ele>102.9</ele></trkpt>
    <trkpt lat="48.82976" lon="2.60689"><ele>102.3</ele></trkpt>
    <trkpt lat="48.83122" lon="2.59787"><ele>98.1</ele></trkpt>
    <trkpt lat="48.83143" lon="2.59712"><ele>95.6</ele></trkpt>
    <trkpt lat="48.83236" lon="2.59511"><ele>89.4</ele></trkpt>
    <trkpt lat="48.83256" lon="2.59436"><ele>88.8</ele></trkpt>
    <trkpt lat="48.83267" lon="2.59328"><ele>88.6</ele></trkpt>
    <trkpt lat="48.83259" lon="2.5922"><ele>89.1</ele></trkpt>
    <trkpt lat="48.8324" lon="2.59143"><ele>90.1</ele></trkpt>
    <trkpt lat="48.83221" lon="2.59096"><ele>91.1</ele></trkpt>
    <trkpt lat="48.8313" lon="2.5893"><ele>96.1</ele></trkpt>
    <trkpt lat="48.83136" lon="2.58906"><ele>96.6</ele></trkpt>
    <trkpt lat="48.8313" lon="2.58882"><ele>97.0</ele></trkpt>
    <trkpt lat="48.83101" lon="2.58867"><ele>97.6</ele></trkpt>
    <trkpt lat="48.83088" lon="2.58816"><ele>98.0</ele></trkpt>
    <trkpt lat="48.83079" lon="2.58764"><ele>98.4</ele></trkpt>
    <trkpt lat="48.8307" lon="2.58628"><ele>98.9</ele></trkpt>
    <trkpt lat="48.83044" lon="2.58558"><ele>98.8</ele></trkpt>
    <trkpt lat="48.83036" lon="2.58505"><ele>98.7</ele></trkpt>
    <trkpt lat="48.83012" lon="2.58317"><ele>98.7</ele></trkpt>
    <trkpt lat="48.82998" lon="2.58155"><ele>98.7</ele></trkpt>
    <trkpt lat="48.83023" lon="2.58131"><ele>98.7</ele></trkpt>
    <trkpt lat="48.83255" lon="2.58166"><ele>99.2</ele></trkpt>
    <trkpt lat="48.83289" lon="2.58149"><ele>99.1</ele></trkpt>
    <trkpt lat="48.83302" lon="2.5813"><ele>99.1</ele></trkpt>
    <trkpt lat="48.83317" lon="2.58081"><ele>99.0</ele></trkpt>
    <trkpt lat="48.83324" lon="2.57972"><ele>98.8</ele></trkpt>
    <trkpt lat="48.83323" lon="2.57891"><ele>98.9</ele></trkpt>
    <trkpt lat="48.83328" lon="2.57782"><ele>99.1</ele></trkpt>
    <trkpt lat="48.83333" lon="2.57759"><ele>99.1</ele></trkpt>
    <trkpt lat="48.83332" lon="2.57713"><ele>99.2</ele></trkpt>
    <trkpt lat="48.83369" lon="2.57004"><ele>100.5</ele></trkpt>
    <trkpt lat="48.83374" lon="2.56979"><ele>100.3</ele></trkpt>
    <trkpt lat="48.83388" lon="2.56963"><ele>100.1</ele></trkpt>
    <trkpt lat="48.83459" lon="2.56968"><ele>99.4</ele></trkpt>
    <trkpt lat="48.83474" lon="2.56959"><ele>99.3</ele></trkpt>
    <trkpt lat="48.83486" lon="2.56686"><ele>97.9</ele></trkpt>
    <trkpt lat="48.83475" lon="2.56606"><ele>97.5</ele></trkpt>
    <trkpt lat="48.83475" lon="2.56579"><ele>97.4</ele></trkpt>
    <trkpt lat="48.83516" lon="2.56537"><ele>97.9</ele></trkpt>
    <trkpt lat="48.8353" lon="2.56488"><ele>98.9</ele></trkpt>
    <trkpt lat="48.83529" lon="2.56461"><ele>99.5</ele></trkpt>
    <trkpt lat="48.83517" lon="2.56325"><ele>101.9</ele></trkpt>
    <trkpt lat="48.8352" lon="2.563"><ele>101.8</ele></trkpt>
    <trkpt lat="48.83432" lon="2.56164"><ele>98.7</ele></trkpt>
    <trkpt lat="48.83209" lon="2.5577"><ele>96.7</ele></trkpt>
    <trkpt lat="48.83211" lon="2.55748"><ele>96.9</ele></trkpt>
    <trkpt lat="48.832" lon="2.55704"><ele>97.3</ele></trkpt>
    <trkpt lat="48.83243" lon="2.55272"><ele>99.8</ele></trkpt>
    <trkpt lat="48.83251" lon="2.55252"><ele>99.8</ele></trkpt>
    <trkpt lat="48.83264" lon="2.55237"><ele>99.7</ele></trkpt>
    <trkpt lat="48.83268" lon="2.55211"><ele>99.6</ele></trkpt>
    <trkpt lat="48.8328" lon="2.55191"><ele>99.4</ele></trkpt>
    <trkpt lat="48.83484" lon="2.54922"><ele>96.5</ele></trkpt>
    <trkpt lat="48.835" lon="2.54912"><ele>96.5</ele></trkpt>
    <trkpt lat="48.83501" lon="2.54618"><ele>95.6</ele></trkpt>
    <trkpt lat="48.83511" lon="2.54565"><ele>96.0</ele></trkpt>
    <trkpt lat="48.83533" lon="2.5449"><ele>96.6</ele></trkpt>
    <trkpt lat="48.83539" lon="2.54437"><ele>97.0</ele></trkpt>
    <trkpt lat="48.83541" lon="2.54328"><ele>97.9</ele></trkpt>
    <trkpt lat="48.83553" lon="2.54307"><ele>98.0</ele></trkpt>
    <trkpt lat="48.83557" lon="2.54282"><ele>98.1</ele></trkpt>
    <trkpt lat="48.83541" lon="2.54235"><ele>97.9</ele></trkpt>
    <trkpt lat="48.83539" lon="2.54126"><ele>97.1</ele></trkpt>
    <trkpt lat="48.83531" lon="2.54045"><ele>96.4</ele></trkpt>
    <trkpt lat="48.83504" lon="2.53944"><ele>96.2</ele></trkpt>
    <trkpt lat="48.83364" lon="2.53627"><ele>97.0</ele></trkpt>
    <trkpt lat="48.83285" lon="2.53478"><ele>96.0</ele></trkpt>
    <trkpt lat="48.83212" lon="2.53357"><ele>95.1</ele></trkpt>
    <trkpt lat="48.83198" lon="2.53308"><ele>94.9</ele></trkpt>
    <trkpt lat="48.83181" lon="2.53303"><ele>94.8</ele></trkpt>
    <trkpt lat="48.83168" lon="2.5332"><ele>94.8</ele></trkpt>
    <trkpt lat="48.83171" lon="2.53346"><ele>94.8</ele></trkpt>
    <trkpt lat="48.83203" lon="2.5336"><ele>95.1</ele></trkpt>
    <trkpt lat="48.83266" lon="2.53456"><ele>96.5</ele></trkpt>
    <trkpt lat="48.83357" lon="2.53626"><ele>98.0</ele></trkpt>
    <trkpt lat="48.83427" lon="2.53785"><ele>97.6</ele></trkpt>
    <trkpt lat="48.83431" lon="2.53777"><ele>97.4</ele></trkpt>
    <trkpt lat="48.8336" lon="2.53619"><ele>97.0</ele></trkpt>
    <trkpt lat="48.83316" lon="2.53533"><ele>97.0</ele></trkpt>
    <trkpt lat="48.83208" lon="2.53349"><ele>95.1</ele></trkpt>
    <trkpt lat="48.83202" lon="2.53324"><ele>95.0</ele></trkpt>
    <trkpt lat="48.83207" lon="2.53298"><ele>95.1</ele></trkpt>
    <trkpt lat="48.83257" lon="2.53153"><ele>96.1</ele></trkpt>
    <trkpt lat="48.83253" lon="2.5313"><ele>96.2</ele></trkpt>
    <trkpt lat="48.83018" lon="2.52755"><ele>96.9</ele></trkpt>
    <trkpt lat="48.82821" lon="2.52474"><ele>88.8</ele></trkpt>
    <trkpt lat="48.82787" lon="2.52411"><ele>87.5</ele></trkpt>
    <trkpt lat="48.82761" lon="2.5234"><ele>86.8</ele></trkpt>
    <trkpt lat="48.82746" lon="2.52261"><ele>86.4</ele></trkpt>
    <trkpt lat="48.82727" lon="2.521"><ele>84.6</ele></trkpt>
    <trkpt lat="48.82706" lon="2.51856"><ele>78.8</ele></trkpt>
    <trkpt lat="48.82721" lon="2.51666"><ele>72.9</ele></trkpt>
    <trkpt lat="48.82718" lon="2.51475"><ele>69.4</ele></trkpt>
    <trkpt lat="48.82731" lon="2.51175"><ele>66.4</ele></trkpt>
    <trkpt lat="48.82737" lon="2.51122"><ele>65.6</ele></trkpt>
    <trkpt lat="48.82757" lon="2.51017"><ele>64.0</ele></trkpt>
    <trkpt lat="48.82754" lon="2.50991"><ele>63.6</ele></trkpt>
    <trkpt lat="48.82732" lon="2.50887"><ele>62.8</ele></trkpt>
    <trkpt lat="48.82663" lon="2.50635"><ele>60.5</ele></trkpt>
    <trkpt lat="48.8237" lon="2.49668"><ele>47.5</ele></trkpt>
    <trkpt lat="48.82048" lon="2.4857"><ele>42.8</ele></trkpt>
    <trkpt lat="48.82039" lon="2.48518"><ele>42.7</ele></trkpt>
    <trkpt lat="48.82026" lon="2.48516"><ele>42.8</ele></trkpt>
    <trkpt lat="48.82008" lon="2.48439"><ele>43.0</ele></trkpt>
    <trkpt lat="48.81996" lon="2.48432"><ele>43.1</ele></trkpt>
    <trkpt lat="48.81982" lon="2.48482"><ele>43.2</ele></trkpt>
    <trkpt lat="48.81909" lon="2.48819"><ele>43.0</ele></trkpt>
    <trkpt lat="48.81892" lon="2.48867"><ele>43.1</ele></trkpt>
    <trkpt lat="48.81837" lon="2.49127"><ele>43.8</ele></trkpt>
    <trkpt lat="48.81828" lon="2.49207"><ele>43.5</ele></trkpt>
    <trkpt lat="48.81586" lon="2.50351"><ele>41.3</ele></trkpt>
    <trkpt lat="48.81465" lon="2.50777"><ele>41.9</ele></trkpt>
    <trkpt lat="48.81398" lon="2.50939"><ele>41.7</ele></trkpt>
    <trkpt lat="48.81376" lon="2.51014"><ele>41.7</ele></trkpt>
    <trkpt lat="48.81366" lon="2.51035"><ele>41.7</ele></trkpt>
    <trkpt lat="48.81346" lon="2.51112"><ele>40.8</ele></trkpt>
    <trkpt lat="48.81332" lon="2.5112"><ele>40.1</ele></trkpt>
    <trkpt lat="48.81297" lon="2.51109"><ele>38.6</ele></trkpt>
    <trkpt lat="48.81037" lon="2.51004"><ele>41.0</ele></trkpt>
  </trkseg></trk>
</gpx>
