<?xml version="1.0" encoding="UTF-8"?>
<gpx version="1.1" creator="Club Cycliste USO" xmlns="http://www.topografix.com/GPX/1/1">
  <metadata><name>Dammartin-sur-Tigeaux – 91 km</name><desc>91.2 km, D+ 369 m. Départ et arrivée : pont de Champigny.</desc></metadata>
  <trk><name>Dammartin-sur-Tigeaux – 91 km</name><trkseg>
    <trkpt lat="48.81032" lon="2.51002"><ele>41.8</ele></trkpt>
    <trkpt lat="48.81187" lon="2.51068"><ele>37.2</ele></trkpt>
    <trkpt lat="48.8124" lon="2.51083"><ele>37.2</ele></trkpt>
    <trkpt lat="48.81327" lon="2.51118"><ele>39.5</ele></trkpt>
    <trkpt lat="48.81339" lon="2.51133"><ele>39.8</ele></trkpt>
    <trkpt lat="48.81257" lon="2.51494"><ele>46.2</ele></trkpt>
    <trkpt lat="48.81148" lon="2.51839"><ele>57.1</ele></trkpt>
    <trkpt lat="48.81106" lon="2.51928"><ele>60.9</ele></trkpt>
    <trkpt lat="48.81073" lon="2.52025"><ele>64.3</ele></trkpt>
    <trkpt lat="48.80867" lon="2.52437"><ele>80.5</ele></trkpt>
    <trkpt lat="48.80839" lon="2.52472"><ele>82.1</ele></trkpt>
    <trkpt lat="48.80758" lon="2.52531"><ele>86.4</ele></trkpt>
    <trkpt lat="48.80729" lon="2.52563"><ele>88.0</ele></trkpt>
    <trkpt lat="48.80671" lon="2.52667"><ele>92.3</ele></trkpt>
    <trkpt lat="48.80651" lon="2.52713"><ele>94.0</ele></trkpt>
    <trkpt lat="48.80636" lon="2.52791"><ele>96.1</ele></trkpt>
    <trkpt lat="48.8062" lon="2.53091"><ele>100.0</ele></trkpt>
    <trkpt lat="48.80609" lon="2.53226"><ele>100.6</ele></trkpt>
    <trkpt lat="48.80595" lon="2.53304"><ele>100.5</ele></trkpt>
    <trkpt lat="48.80581" lon="2.53323"><ele>100.4</ele></trkpt>
    <trkpt lat="48.80575" lon="2.53347"><ele>100.4</ele></trkpt>
    <trkpt lat="48.80599" lon="2.53387"><ele>100.3</ele></trkpt>
    <trkpt lat="48.80664" lon="2.5355"><ele>96.3</ele></trkpt>
    <trkpt lat="48.80784" lon="2.53823"><ele>93.1</ele></trkpt>
    <trkpt lat="48.80853" lon="2.54014"><ele>94.2</ele></trkpt>
    <trkpt lat="48.8096" lon="2.54267"><ele>100.5</ele></trkpt>
    <trkpt lat="48.80977" lon="2.54343"><ele>101.5</ele></trkpt>
    <trkpt lat="48.80989" lon="2.54326"><ele>101.6</ele></trkpt>
    <trkpt lat="48.81006" lon="2.54327"><ele>101.7</ele></trkpt>
    <trkpt lat="48.81127" lon="2.5438"><ele>102.4</ele></trkpt>
    <trkpt lat="48.81128" lon="2.54405"><ele>102.4</ele></trkpt>
    <trkpt lat="48.81087" lon="2.54581"><ele>102.8</ele></trkpt>
    <trkpt lat="48.81103" lon="2.54593"><ele>102.7</ele></trkpt>
    <trkpt lat="48.81115" lon="2.54614"><ele>102.6</ele></trkpt>
    <trkpt lat="48.81185" lon="2.54771"><ele>103.0</ele></trkpt>
    <trkpt lat="48.81187" lon="2.54825"><ele>103.1</ele></trkpt>
    <trkpt lat="48.8118" lon="2.54906"><ele>103.0</ele></trkpt>
    <trkpt lat="48.81197" lon="2.54954"><ele>103.0</ele></trkpt>
    <trkpt lat="48.81242" lon="2.55161"><ele>102.9</ele></trkpt>
    <trkpt lat="48.81249" lon="2.55213"><ele>103.2</ele></trkpt>
    <trkpt lat="48.81264" lon="2.5521"><ele>103.3</ele></trkpt>
    <trkpt lat="48.8128" lon="2.55218"><ele>103.6</ele></trkpt>
    <trkpt lat="48.81375" lon="2.55295"><ele>104.4</ele></trkpt>
    <trkpt lat="48.81447" lon="2.55305"><ele>104.0</ele></trkpt>
    <trkpt lat="48.8146" lon="2.55319"><ele>103.9</ele></trkpt>
    <trkpt lat="48.81442" lon="2.55425"><ele>103.8</ele></trkpt>
    <trkpt lat="48.81436" lon="2.55423"><ele>103.8</ele></trkpt>
    <trkpt lat="48.81449" lon="2.55427"><ele>103.9</ele></trkpt>
    <trkpt lat="48.8146" lon="2.55405"><ele>103.8</ele></trkpt>
    <trkpt lat="48.81463" lon="2.55353"><ele>103.8</ele></trkpt>
    <trkpt lat="48.81469" lon="2.55328"><ele>103.7</ele></trkpt>
    <trkpt lat="48.81473" lon="2.55327"><ele>103.6</ele></trkpt>
    <trkpt lat="48.81459" lon="2.55374"><ele>103.4</ele></trkpt>
    <trkpt lat="48.81462" lon="2.554"><ele>103.3</ele></trkpt>
    <trkpt lat="48.81452" lon="2.55422"><ele>103.2</ele></trkpt>
    <trkpt lat="48.81437" lon="2.55423"><ele>103.1</ele></trkpt>
    <trkpt lat="48.8139" lon="2.55387"><ele>103.6</ele></trkpt>
    <trkpt lat="48.81157" lon="2.56033"><ele>105.2</ele></trkpt>
    <trkpt lat="48.81116" lon="2.56087"><ele>105.8</ele></trkpt>
    <trkpt lat="48.811" lon="2.56083"><ele>106.0</ele></trkpt>
    <trkpt lat="48.81087" lon="2.56091"><ele>106.1</ele></trkpt>
    <trkpt lat="48.81025" lon="2.56849"><ele>104.0</ele></trkpt>
    <trkpt lat="48.80747" lon="2.57042"><ele>106.0</ele></trkpt>
    <trkpt lat="48.80686" lon="2.57096"><ele>106.4</ele></trkpt>
    <trkpt lat="48.80647" lon="2.57391"><ele>107.6</ele></trkpt>
    <trkpt lat="48.80635" lon="2.57441"><ele>107.6</ele></trkpt>
    <trkpt lat="48.80627" lon="2.57549"><ele>107.8</ele></trkpt>
    <trkpt lat="48.80604" lon="2.57709"><ele>108.6</ele></trkpt>
    <trkpt lat="48.80597" lon="2.57734"><ele>108.7</ele></trkpt>
    <trkpt lat="48.80628" lon="2.58139"><ele>106.7</ele></trkpt>
    <trkpt lat="48.80631" lon="2.58221"><ele>106.7</ele></trkpt>
    <trkpt lat="48.80629" lon="2.58248"><ele>106.7</ele></trkpt>
    <trkpt lat="48.80563" lon="2.58411"><ele>109.2</ele></trkpt>
    <trkpt lat="48.80534" lon="2.58442"><ele>109.7</ele></trkpt>
    <trkpt lat="48.80524" lon="2.58464"><ele>109.8</ele></trkpt>
    <trkpt lat="48.8052" lon="2.58516"><ele>109.8</ele></trkpt>
    <trkpt lat="48.80392" lon="2.58814"><ele>108.7</ele></trkpt>
    <trkpt lat="48.80392" lon="2.58841"><ele>108.7</ele></trkpt>
    <trkpt lat="48.80472" lon="2.59145"><ele>107.0</ele></trkpt>
    <trkpt lat="48.80473" lon="2.59172"><ele>106.9</ele></trkpt>
    <trkpt lat="48.80493" lon="2.59217"><ele>106.8</ele></trkpt>
    <trkpt lat="48.80532" lon="2.59369"><ele>106.6</ele></trkpt>
    <trkpt lat="48.80575" lon="2.59634"><ele>105.6</ele></trkpt>
    <trkpt lat="48.80573" lon="2.59688"><ele>105.4</ele></trkpt>
    <trkpt lat="48.8055" lon="2.59876"><ele>105.9</ele></trkpt>
    <trkpt lat="48.80537" lon="2.59927"><ele>105.9</ele></trkpt>
    <trkpt lat="48.80521" lon="2.59938"><ele>105.9</ele></trkpt>
    <trkpt lat="48.80506" lon="2.59985"><ele>105.9</ele></trkpt>
    <trkpt lat="48.8046" lon="2.6007"><ele>105.6</ele></trkpt>
    <trkpt lat="48.80434" lon="2.60106"><ele>105.3</ele></trkpt>
    <trkpt lat="48.80355" lon="2.60254"><ele>105.0</ele></trkpt>
    <trkpt lat="48.80325" lon="2.60283"><ele>104.8</ele></trkpt>
    <trkpt lat="48.80255" lon="2.6031"><ele>104.5</ele></trkpt>
    <trkpt lat="48.80211" lon="2.60356"><ele>104.7</ele></trkpt>
    <trkpt lat="48.80192" lon="2.60401"><ele>105.0</ele></trkpt>
    <trkpt lat="48.80189" lon="2.60428"><ele>105.1</ele></trkpt>
    <trkpt lat="48.80196" lon="2.60509"><ele>105.3</ele></trkpt>
    <trkpt lat="48.80194" lon="2.60563"><ele>105.5</ele></trkpt>
    <trkpt lat="48.80184" lon="2.60585"><ele>105.7</ele></trkpt>
    <trkpt lat="48.80129" lon="2.60654"><ele>106.9</ele></trkpt>
    <trkpt lat="48.80114" lon="2.60669"><ele>107.2</ele></trkpt>
    <trkpt lat="48.80097" lon="2.60668"><ele>107.4</ele></trkpt>
    <trkpt lat="48.80083" lon="2.60681"><ele>107.5</ele></trkpt>
    <trkpt lat="48.80083" lon="2.60708"><ele>107.6</ele></trkpt>
    <trkpt lat="48.80072" lon="2.60729"><ele>107.7</ele></trkpt>
    <trkpt lat="48.80031" lon="2.60782"><ele>108.1</ele></trkpt>
    <trkpt lat="48.80002" lon="2.60808"><ele>108.3</ele></trkpt>
    <trkpt lat="48.80009" lon="2.60833"><ele>108.5</ele></trkpt>
    <trkpt lat="48.80056" lon="2.6095"><ele>109.1</ele></trkpt>
    <trkpt lat="48.80155" lon="2.61177"><ele>109.0</ele></trkpt>
    <trkpt lat="48.80394" lon="2.6162"><ele>108.1</ele></trkpt>
    <trkpt lat="48.80548" lon="2.61887"><ele>108.8</ele></trkpt>
    <trkpt lat="48.8055" lon="2.61913"><ele>108.8</ele></trkpt>
    <trkpt lat="48.80496" lon="2.62085"><ele>108.2</ele></trkpt>
    <trkpt lat="48.80486" lon="2.62107"><ele>108.3</ele></trkpt>
    <trkpt lat="48.80457" lon="2.62137"><ele>108.6</ele></trkpt>
    <trkpt lat="48.80468" lon="2.62187"><ele>108.6</ele></trkpt>
    <trkpt lat="48.80467" lon="2.62213"><ele>108.6</ele></trkpt>
    <trkpt lat="48.80399" lon="2.62406"><ele>108.4</ele></trkpt>
    <trkpt lat="48.80374" lon="2.62444"><ele>108.7</ele></trkpt>
    <trkpt lat="48.80339" lon="2.62455"><ele>109.1</ele></trkpt>
    <trkpt lat="48.80328" lon="2.62474"><ele>109.3</ele></trkpt>
    <trkpt lat="48.8033" lon="2.62501"><ele>109.4</ele></trkpt>
    <trkpt lat="48.80344" lon="2.6255"><ele>109.4</ele></trkpt>
    <trkpt lat="48.80342" lon="2.62577"><ele>109.3</ele></trkpt>
    <trkpt lat="48.80329" lon="2.62628"><ele>109.1</ele></trkpt>
    <trkpt lat="48.80271" lon="2.62798"><ele>109.2</ele></trkpt>
    <trkpt lat="48.8026" lon="2.62819"><ele>109.2</ele></trkpt>
    <trkpt lat="48.80244" lon="2.6283"><ele>109.2</ele></trkpt>
    <trkpt lat="48.80226" lon="2.62828"><ele>109.2</ele></trkpt>
    <trkpt lat="48.80209" lon="2.62834"><ele>109.3</ele></trkpt>
    <trkpt lat="48.80197" lon="2.62854"><ele>109.3</ele></trkpt>
    <trkpt lat="48.80196" lon="2.62881"><ele>109.3</ele></trkpt>
    <trkpt lat="48.80208" lon="2.62932"><ele>109.2</ele></trkpt>
    <trkpt lat="48.80208" lon="2.62959"><ele>109.0</ele></trkpt>
    <trkpt lat="48.80203" lon="2.62985"><ele>108.8</ele></trkpt>
    <trkpt lat="48.80108" lon="2.63279"><ele>108.0</ele></trkpt>
    <trkpt lat="48.80097" lon="2.633"><ele>107.9</ele></trkpt>
    <trkpt lat="48.80068" lon="2.63331"><ele>107.6</ele></trkpt>
    <trkpt lat="48.80057" lon="2.63353"><ele>107.5</ele></trkpt>
    <trkpt lat="48.80058" lon="2.63407"><ele>107.6</ele></trkpt>
    <trkpt lat="48.80051" lon="2.63461"><ele>107.8</ele></trkpt>
    <trkpt lat="48.79978" lon="2.6368"><ele>107.0</ele></trkpt>
    <trkpt lat="48.79953" lon="2.63716"><ele>107.0</ele></trkpt>
    <trkpt lat="48.79955" lon="2.63743"><ele>107.0</ele></trkpt>
    <trkpt lat="48.79949" lon="2.63769"><ele>107.0</ele></trkpt>
    <trkpt lat="48.79905" lon="2.63888"><ele>106.5</ele></trkpt>
    <trkpt lat="48.79895" lon="2.6391"><ele>106.3</ele></trkpt>
    <trkpt lat="48.79832" lon="2.63962"><ele>105.7</ele></trkpt>
    <trkpt lat="48.79772" lon="2.64022"><ele>105.3</ele></trkpt>
    <trkpt lat="48.79749" lon="2.64064"><ele>105.2</ele></trkpt>
    <trkpt lat="48.79696" lon="2.64207"><ele>104.0</ele></trkpt>
    <trkpt lat="48.79673" lon="2.64248"><ele>103.9</ele></trkpt>
    <trkpt lat="48.79641" lon="2.64273"><ele>104.0</ele></trkpt>
    <trkpt lat="48.7952" lon="2.64325"><ele>105.7</ele></trkpt>
    <trkpt lat="48.79489" lon="2.64352"><ele>105.8</ele></trkpt>
    <trkpt lat="48.79466" lon="2.64394"><ele>105.9</ele></trkpt>
    <trkpt lat="48.79409" lon="2.64564"><ele>105.1</ele></trkpt>
    <trkpt lat="48.79385" lon="2.64602"><ele>104.8</ele></trkpt>
    <trkpt lat="48.79377" lon="2.64626"><ele>104.7</ele></trkpt>
    <trkpt lat="48.79376" lon="2.64654"><ele>104.7</ele></trkpt>
    <trkpt lat="48.79356" lon="2.64727"><ele>105.0</ele></trkpt>
    <trkpt lat="48.79432" lon="2.64797"><ele>105.9</ele></trkpt>
    <trkpt lat="48.79443" lon="2.64819"><ele>106.1</ele></trkpt>
    <trkpt lat="48.7944" lon="2.64845"><ele>106.1</ele></trkpt>
    <trkpt lat="48.79425" lon="2.64895"><ele>106.3</ele></trkpt>
    <trkpt lat="48.79423" lon="2.64949"><ele>106.4</ele></trkpt>
    <trkpt lat="48.79455" lon="2.65246"><ele>106.3</ele></trkpt>
    <trkpt lat="48.79455" lon="2.653"><ele>105.7</ele></trkpt>
    <trkpt lat="48.79423" lon="2.65397"><ele>103.7</ele></trkpt>
    <trkpt lat="48.79382" lon="2.65486"><ele>102.8</ele></trkpt>
    <trkpt lat="48.79387" lon="2.6551"><ele>103.0</ele></trkpt>
    <trkpt lat="48.7942" lon="2.65532"><ele>103.5</ele></trkpt>
    <trkpt lat="48.79423" lon="2.65557"><ele>103.8</ele></trkpt>
    <trkpt lat="48.79414" lon="2.65604"><ele>104.3</ele></trkpt>
    <trkpt lat="48.79431" lon="2.65558"><ele>104.5</ele></trkpt>
    <trkpt lat="48.79422" lon="2.65541"><ele>104.5</ele></trkpt>
    <trkpt lat="48.7937" lon="2.65684"><ele>106.8</ele></trkpt>
    <trkpt lat="48.79111" lon="2.66462"><ele>111.5</ele></trkpt>
    <trkpt lat="48.79082" lon="2.66868"><ele>111.8</ele></trkpt>
    <trkpt lat="48.79053" lon="2.67165"><ele>111.8</ele></trkpt>
    <trkpt lat="48.79002" lon="2.67816"><ele>113.6</ele></trkpt>
    <trkpt lat="48.78993" lon="2.68607"><ele>113.9</ele></trkpt>
    <trkpt lat="48.78995" lon="2.68716"><ele>114.0</ele></trkpt>
    <trkpt lat="48.78993" lon="2.68743"><ele>114.0</ele></trkpt>
    <trkpt lat="48.78985" lon="2.68767"><ele>114.1</ele></trkpt>
    <trkpt lat="48.78993" lon="2.68789"><ele>114.1</ele></trkpt>
    <trkpt lat="48.79008" lon="2.68805"><ele>114.1</ele></trkpt>
    <trkpt lat="48.79027" lon="2.68851"><ele>114.1</ele></trkpt>
    <trkpt lat="48.79529" lon="2.70483"><ele>114.1</ele></trkpt>
    <trkpt lat="48.79538" lon="2.70507"><ele>114.2</ele></trkpt>
    <trkpt lat="48.79553" lon="2.70522"><ele>114.3</ele></trkpt>
    <trkpt lat="48.79588" lon="2.70523"><ele>114.6</ele></trkpt>
    <trkpt lat="48.79604" lon="2.70532"><ele>114.9</ele></trkpt>
    <trkpt lat="48.7962" lon="2.70638"><ele>116.2</ele></trkpt>
    <trkpt lat="48.7962" lon="2.70665"><ele>116.3</ele></trkpt>
    <trkpt lat="48.7961" lon="2.71211"><ele>116.4</ele></trkpt>
    <trkpt lat="48.79599" lon="2.71346"><ele>116.9</ele></trkpt>
    <trkpt lat="48.79587" lon="2.71397"><ele>117.3</ele></trkpt>
    <trkpt lat="48.79605" lon="2.71472"><ele>117.1</ele></trkpt>
    <trkpt lat="48.79589" lon="2.72318"><ele>117.7</ele></trkpt>
    <trkpt lat="48.79591" lon="2.72372"><ele>117.8</ele></trkpt>
    <trkpt lat="48.79597" lon="2.72398"><ele>117.8</ele></trkpt>
    <trkpt lat="48.79758" lon="2.72856"><ele>117.8</ele></trkpt>
    <trkpt lat="48.79964" lon="2.734"><ele>119.0</ele></trkpt>
    <trkpt lat="48.80285" lon="2.74704"><ele>119.2</ele></trkpt>
    <trkpt lat="48.80588" lon="2.75755"><ele>124.5</ele></trkpt>
    <trkpt lat="48.8062" lon="2.75882"><ele>126.2</ele></trkpt>
    <trkpt lat="48.80611" lon="2.75905"><ele>126.1</ele></trkpt>
    <trkpt lat="48.80596" lon="2.75919"><ele>126.0</ele></trkpt>
    <trkpt lat="48.8035" lon="2.76088"><ele>121.6</ele></trkpt>
    <trkpt lat="48.80315" lon="2.76091"><ele>121.5</ele></trkpt>
    <trkpt lat="48.80174" lon="2.76046"><ele>120.1</ele></trkpt>
    <trkpt lat="48.8012" lon="2.7604"><ele>119.5</ele></trkpt>
    <trkpt lat="48.79907" lon="2.76091"><ele>118.4</ele></trkpt>
    <trkpt lat="48.79873" lon="2.76108"><ele>118.4</ele></trkpt>
    <trkpt lat="48.79845" lon="2.76141"><ele>118.4</ele></trkpt>
    <trkpt lat="48.79768" lon="2.76255"><ele>118.0</ele></trkpt>
    <trkpt lat="48.79748" lon="2.76301"><ele>118.1</ele></trkpt>
    <trkpt lat="48.79723" lon="2.76404"><ele>118.1</ele></trkpt>
    <trkpt lat="48.79703" lon="2.76448"><ele>117.8</ele></trkpt>
    <trkpt lat="48.79526" lon="2.7668"><ele>117.9</ele></trkpt>
    <trkpt lat="48.79369" lon="2.76814"><ele>117.4</ele></trkpt>
    <trkpt lat="48.7932" lon="2.76845"><ele>117.1</ele></trkpt>
    <trkpt lat="48.79163" lon="2.76908"><ele>116.8</ele></trkpt>
    <trkpt lat="48.79073" lon="2.76916"><ele>116.2</ele></trkpt>
    <trkpt lat="48.78894" lon="2.76905"><ele>115.0</ele></trkpt>
    <trkpt lat="48.78859" lon="2.76915"><ele>114.8</ele></trkpt>
    <trkpt lat="48.78824" lon="2.7693"><ele>114.8</ele></trkpt>
    <trkpt lat="48.78809" lon="2.76944"><ele>114.8</ele></trkpt>
    <trkpt lat="48.78757" lon="2.7702"><ele>115.3</ele></trkpt>
    <trkpt lat="48.78741" lon="2.77033"><ele>115.4</ele></trkpt>
    <trkpt lat="48.78531" lon="2.77107"><ele>114.8</ele></trkpt>
    <trkpt lat="48.78499" lon="2.77131"><ele>114.9</ele></trkpt>
    <trkpt lat="48.78486" lon="2.77149"><ele>115.0</ele></trkpt>
    <trkpt lat="48.78396" lon="2.77319"><ele>116.0</ele></trkpt>
    <trkpt lat="48.78369" lon="2.77355"><ele>115.9</ele></trkpt>
    <trkpt lat="48.77838" lon="2.77758"><ele>113.1</ele></trkpt>
    <trkpt lat="48.77808" lon="2.77787"><ele>112.6</ele></trkpt>
    <trkpt lat="48.7778" lon="2.77823"><ele>112.0</ele></trkpt>
    <trkpt lat="48.77747" lon="2.77842"><ele>111.6</ele></trkpt>
    <trkpt lat="48.77712" lon="2.77852"><ele>111.4</ele></trkpt>
    <trkpt lat="48.77658" lon="2.77853"><ele>111.6</ele></trkpt>
    <trkpt lat="48.7755" lon="2.77845"><ele>111.8</ele></trkpt>
    <trkpt lat="48.77515" lon="2.77831"><ele>111.6</ele></trkpt>
    <trkpt lat="48.77468" lon="2.77792"><ele>111.1</ele></trkpt>
    <trkpt lat="48.77216" lon="2.77529"><ele>113.5</ele></trkpt>
    <trkpt lat="48.772" lon="2.77519"><ele>113.4</ele></trkpt>
    <trkpt lat="48.77182" lon="2.77518"><ele>113.3</ele></trkpt>
    <trkpt lat="48.77043" lon="2.77577"><ele>111.2</ele></trkpt>
    <trkpt lat="48.7699" lon="2.77589"><ele>110.5</ele></trkpt>
    <trkpt lat="48.76936" lon="2.77585"><ele>109.8</ele></trkpt>
    <trkpt lat="48.7674" lon="2.77543"><ele>107.6</ele></trkpt>
    <trkpt lat="48.76686" lon="2.7754"><ele>108.0</ele></trkpt>
    <trkpt lat="48.76561" lon="2.77549"><ele>106.6</ele></trkpt>
    <trkpt lat="48.76436" lon="2.77524"><ele>105.0</ele></trkpt>
    <trkpt lat="48.76368" lon="2.77555"><ele>103.4</ele></trkpt>
    <trkpt lat="48.76355" lon="2.77539"><ele>103.3</ele></trkpt>
    <trkpt lat="48.76349" lon="2.77459"><ele>104.1</ele></trkpt>
    <trkpt lat="48.76328" lon="2.77414"><ele>104.6</ele></trkpt>
    <trkpt lat="48.76313" lon="2.774"><ele>104.5</ele></trkpt>
    <trkpt lat="48.76296" lon="2.774"><ele>104.2</ele></trkpt>
    <trkpt lat="48.76265" lon="2.77428"><ele>103.1</ele></trkpt>
    <trkpt lat="48.7622" lon="2.7739"><ele>101.8</ele></trkpt>
    <trkpt lat="48.76178" lon="2.77478"><ele>98.7</ele></trkpt>
    <trkpt lat="48.76095" lon="2.77582"><ele>98.6</ele></trkpt>
    <trkpt lat="48.76059" lon="2.77642"><ele>100.8</ele></trkpt>
    <trkpt lat="48.7604" lon="2.77688"><ele>102.0</ele></trkpt>
    <trkpt lat="48.76016" lon="2.77729"><ele>102.9</ele></trkpt>
    <trkpt lat="48.75971" lon="2.77774"><ele>103.6</ele></trkpt>
    <trkpt lat="48.75944" lon="2.7781"><ele>103.8</ele></trkpt>
    <trkpt lat="48.75873" lon="2.77968"><ele>106.8</ele></trkpt>
    <trkpt lat="48.75743" lon="2.78294"><ele>111.3</ele></trkpt>
    <trkpt lat="48.75731" lon="2.78314"><ele>111.4</ele></trkpt>
    <trkpt lat="48.75697" lon="2.78331"><ele>111.6</ele></trkpt>
    <trkpt lat="48.75643" lon="2.78324"><ele>111.6</ele></trkpt>
    <trkpt lat="48.75521" lon="2.7828"><ele>108.8</ele></trkpt>
    <trkpt lat="48.75488" lon="2.78259"><ele>108.0</ele></trkpt>
    <trkpt lat="48.75425" lon="2.78206"><ele>107.2</ele></trkpt>
    <trkpt lat="48.75301" lon="2.78172"><ele>108.1</ele></trkpt>
    <trkpt lat="48.75283" lon="2.78174"><ele>108.4</ele></trkpt>
    <trkpt lat="48.75267" lon="2.78186"><ele>108.8</ele></trkpt>
    <trkpt lat="48.75062" lon="2.78451"><ele>107.6</ele></trkpt>
    <trkpt lat="48.74998" lon="2.78546"><ele>107.4</ele></trkpt>
    <trkpt lat="48.74954" lon="2.78593"><ele>108.0</ele></trkpt>
    <trkpt lat="48.74789" lon="2.78758"><ele>110.2</ele></trkpt>
    <trkpt lat="48.7474" lon="2.78795"><ele>110.6</ele></trkpt>
    <trkpt lat="48.74706" lon="2.78811"><ele>110.9</ele></trkpt>
    <trkpt lat="48.74594" lon="2.78896"><ele>112.1</ele></trkpt>
    <trkpt lat="48.74583" lon="2.78917"><ele>112.3</ele></trkpt>
    <trkpt lat="48.74578" lon="2.78943"><ele>112.5</ele></trkpt>
    <trkpt lat="48.74576" lon="2.78997"><ele>112.9</ele></trkpt>
    <trkpt lat="48.74569" lon="2.79022"><ele>113.0</ele></trkpt>
    <trkpt lat="48.74541" lon="2.79056"><ele>113.1</ele></trkpt>
    <trkpt lat="48.74464" lon="2.79126"><ele>113.0</ele></trkpt>
    <trkpt lat="48.74406" lon="2.7919"><ele>112.7</ele></trkpt>
    <trkpt lat="48.74343" lon="2.79242"><ele>112.6</ele></trkpt>
    <trkpt lat="48.74293" lon="2.79274"><ele>112.7</ele></trkpt>
    <trkpt lat="48.74173" lon="2.79328"><ele>113.2</ele></trkpt>
    <trkpt lat="48.74169" lon="2.79353"><ele>113.3</ele></trkpt>
    <trkpt lat="48.74184" lon="2.7957"><ele>114.2</ele></trkpt>
    <trkpt lat="48.74185" lon="2.79952"><ele>120.3</ele></trkpt>
    <trkpt lat="48.74193" lon="2.80115"><ele>121.6</ele></trkpt>
    <trkpt lat="48.74214" lon="2.80303"><ele>121.2</ele></trkpt>
    <trkpt lat="48.74275" lon="2.80673"><ele>115.1</ele></trkpt>
    <trkpt lat="48.74346" lon="2.81512"><ele>112.9</ele></trkpt>
    <trkpt lat="48.7434" lon="2.81565"><ele>113.1</ele></trkpt>
    <trkpt lat="48.74308" lon="2.81722"><ele>113.3</ele></trkpt>
    <trkpt lat="48.74292" lon="2.8177"><ele>113.4</ele></trkpt>
    <trkpt lat="48.7425" lon="2.81859"><ele>113.8</ele></trkpt>
    <trkpt lat="48.74232" lon="2.81936"><ele>114.2</ele></trkpt>
    <trkpt lat="48.7424" lon="2.82999"><ele>115.0</ele></trkpt>
    <trkpt lat="48.74246" lon="2.8308"><ele>115.2</ele></trkpt>
    <trkpt lat="48.74165" lon="2.83667"><ele>113.8</ele></trkpt>
    <trkpt lat="48.74135" lon="2.84046"><ele>112.8</ele></trkpt>
    <trkpt lat="48.74124" lon="2.84064"><ele>112.5</ele></trkpt>
    <trkpt lat="48.74112" lon="2.84048"><ele>112.3</ele></trkpt>
    <trkpt lat="48.74096" lon="2.83999"><ele>111.8</ele></trkpt>
    <trkpt lat="48.74059" lon="2.8394"><ele>111.8</ele></trkpt>
    <trkpt lat="48.74005" lon="2.83869"><ele>112.3</ele></trkpt>
    <trkpt lat="48.73989" lon="2.83855"><ele>112.3</ele></trkpt>
    <trkpt lat="48.73972" lon="2.83857"><ele>112.2</ele></trkpt>
    <trkpt lat="48.73778" lon="2.84002"><ele>112.5</ele></trkpt>
    <trkpt lat="48.73722" lon="2.8407"><ele>112.4</ele></trkpt>
    <trkpt lat="48.73661" lon="2.84128"><ele>112.2</ele></trkpt>
    <trkpt lat="48.73626" lon="2.8419"><ele>111.6</ele></trkpt>
    <trkpt lat="48.73562" lon="2.84384"><ele>111.0</ele></trkpt>
    <trkpt lat="48.73547" lon="2.84398"><ele>110.9</ele></trkpt>
    <trkpt lat="48.73497" lon="2.84428"><ele>110.6</ele></trkpt>
    <trkpt lat="48.7326" lon="2.84622"><ele>109.2</ele></trkpt>
    <trkpt lat="48.73191" lon="2.84653"><ele>109.1</ele></trkpt>
    <trkpt lat="48.73042" lon="2.84751"><ele>108.7</ele></trkpt>
    <trkpt lat="48.73007" lon="2.84759"><ele>108.7</ele></trkpt>
    <trkpt lat="48.72953" lon="2.84756"><ele>109.8</ele></trkpt>
    <trkpt lat="48.72937" lon="2.84765"><ele>110.1</ele></trkpt>
    <trkpt lat="48.72933" lon="2.8479"><ele>110.3</ele></trkpt>
    <trkpt lat="48.72938" lon="2.84872"><ele>109.9</ele></trkpt>
    <trkpt lat="48.72944" lon="2.85171"><ele>109.8</ele></trkpt>
    <trkpt lat="48.7297" lon="2.85469"><ele>110.4</ele></trkpt>
    <trkpt lat="48.72968" lon="2.85523"><ele>110.3</ele></trkpt>
    <trkpt lat="48.72964" lon="2.85549"><ele>110.1</ele></trkpt>
    <trkpt lat="48.72945" lon="2.85596"><ele>110.0</ele></trkpt>
    <trkpt lat="48.72892" lon="2.85668"><ele>109.8</ele></trkpt>
    <trkpt lat="48.72869" lon="2.8571"><ele>109.9</ele></trkpt>
    <trkpt lat="48.7285" lon="2.85786"><ele>110.1</ele></trkpt>
    <trkpt lat="48.7283" lon="2.85919"><ele>110.2</ele></trkpt>
    <trkpt lat="48.72828" lon="2.85973"><ele>110.3</ele></trkpt>
    <trkpt lat="48.7286" lon="2.86186"><ele>110.0</ele></trkpt>
    <trkpt lat="48.7288" lon="2.86593"><ele>109.6</ele></trkpt>
    <trkpt lat="48.72875" lon="2.86647"><ele>109.4</ele></trkpt>
    <trkpt lat="48.72842" lon="2.86744"><ele>109.6</ele></trkpt>
    <trkpt lat="48.72831" lon="2.86796"><ele>109.8</ele></trkpt>
    <trkpt lat="48.72829" lon="2.86823"><ele>110.0</ele></trkpt>
    <trkpt lat="48.72824" lon="2.87041"><ele>110.7</ele></trkpt>
    <trkpt lat="48.72828" lon="2.87231"><ele>110.7</ele></trkpt>
    <trkpt lat="48.72821" lon="2.87394"><ele>110.8</ele></trkpt>
    <trkpt lat="48.72822" lon="2.87503"><ele>111.1</ele></trkpt>
    <trkpt lat="48.72827" lon="2.87557"><ele>111.5</ele></trkpt>
    <trkpt lat="48.72846" lon="2.87634"><ele>112.0</ele></trkpt>
    <trkpt lat="48.72849" lon="2.87688"><ele>112.0</ele></trkpt>
    <trkpt lat="48.72815" lon="2.8787"><ele>111.2</ele></trkpt>
    <trkpt lat="48.72824" lon="2.87892"><ele>111.1</ele></trkpt>
    <trkpt lat="48.72839" lon="2.87906"><ele>111.1</ele></trkpt>
    <trkpt lat="48.72854" lon="2.87913"><ele>111.1</ele></trkpt>
    <trkpt lat="48.72889" lon="2.87914"><ele>111.4</ele></trkpt>
    <trkpt lat="48.72906" lon="2.87922"><ele>111.5</ele></trkpt>
    <trkpt lat="48.72921" lon="2.87938"><ele>111.7</ele></trkpt>
    <trkpt lat="48.72938" lon="2.87942"><ele>111.8</ele></trkpt>
    <trkpt lat="48.72991" lon="2.87928"><ele>112.0</ele></trkpt>
    <trkpt lat="48.7294" lon="2.8794"><ele>111.7</ele></trkpt>
    <trkpt lat="48.72923" lon="2.87936"><ele>111.7</ele></trkpt>
    <trkpt lat="48.72908" lon="2.8792"><ele>111.6</ele></trkpt>
    <trkpt lat="48.72891" lon="2.87914"><ele>111.5</ele></trkpt>
    <trkpt lat="48.72856" lon="2.87914"><ele>111.2</ele></trkpt>
    <trkpt lat="48.72855" lon="2.8794"><ele>111.0</ele></trkpt>
    <trkpt lat="48.72863" lon="2.87993"><ele>110.9</ele></trkpt>
    <trkpt lat="48.72867" lon="2.88047"><ele>110.8</ele></trkpt>
    <trkpt lat="48.72865" lon="2.88129"><ele>111.0</ele></trkpt>
    <trkpt lat="48.72852" lon="2.88291"><ele>111.2</ele></trkpt>
    <trkpt lat="48.7283" lon="2.88395"><ele>111.3</ele></trkpt>
    <trkpt lat="48.72838" lon="2.88417"><ele>111.1</ele></trkpt>
    <trkpt lat="48.72871" lon="2.88436"><ele>110.8</ele></trkpt>
    <trkpt lat="48.73013" lon="2.88475"><ele>110.4</ele></trkpt>
    <trkpt lat="48.73026" lon="2.88492"><ele>110.4</ele></trkpt>
    <trkpt lat="48.7303" lon="2.88601"><ele>110.7</ele></trkpt>
    <trkpt lat="48.73042" lon="2.88619"><ele>110.7</ele></trkpt>
    <trkpt lat="48.7315" lon="2.88628"><ele>110.2</ele></trkpt>
    <trkpt lat="48.73184" lon="2.88645"><ele>110.2</ele></trkpt>
    <trkpt lat="48.73215" lon="2.88673"><ele>110.1</ele></trkpt>
    <trkpt lat="48.73238" lon="2.88714"><ele>110.2</ele></trkpt>
    <trkpt lat="48.7332" lon="2.88926"><ele>110.8</ele></trkpt>
    <trkpt lat="48.73382" lon="2.89024"><ele>111.3</ele></trkpt>
    <trkpt lat="48.73412" lon="2.89055"><ele>111.6</ele></trkpt>
    <trkpt lat="48.73463" lon="2.89077"><ele>111.9</ele></trkpt>
    <trkpt lat="48.7375" lon="2.89102"><ele>111.2</ele></trkpt>
    <trkpt lat="48.73917" lon="2.89203"><ele>111.7</ele></trkpt>
    <trkpt lat="48.7416" lon="2.89303"><ele>111.1</ele></trkpt>
    <trkpt lat="48.74221" lon="2.8936"><ele>111.1</ele></trkpt>
    <trkpt lat="48.74248" lon="2.89396"><ele>111.3</ele></trkpt>
    <trkpt lat="48.74317" lon="2.89522"><ele>112.2</ele></trkpt>
    <trkpt lat="48.74329" lon="2.89573"><ele>112.0</ele></trkpt>
    <trkpt lat="48.7434" lon="2.89595"><ele>111.8</ele></trkpt>
    <trkpt lat="48.74355" lon="2.8961"><ele>111.7</ele></trkpt>
    <trkpt lat="48.74408" lon="2.89624"><ele>111.8</ele></trkpt>
    <trkpt lat="48.75319" lon="2.89772"><ele>114.2</ele></trkpt>
    <trkpt lat="48.7533" lon="2.89792"><ele>114.4</ele></trkpt>
    <trkpt lat="48.75337" lon="2.89817"><ele>114.4</ele></trkpt>
    <trkpt lat="48.75402" lon="2.90129"><ele>114.7</ele></trkpt>
    <trkpt lat="48.75355" lon="2.9042"><ele>115.1</ele></trkpt>
    <trkpt lat="48.75354" lon="2.90529"><ele>115.2</ele></trkpt>
    <trkpt lat="48.75362" lon="2.90747"><ele>115.6</ele></trkpt>
    <trkpt lat="48.75373" lon="2.90767"><ele>115.8</ele></trkpt>
    <trkpt lat="48.7539" lon="2.90778"><ele>115.9</ele></trkpt>
    <trkpt lat="48.75459" lon="2.90806"><ele>116.3</ele></trkpt>
    <trkpt lat="48.75469" lon="2.90827"><ele>116.4</ele></trkpt>
    <trkpt lat="48.75458" lon="2.90879"><ele>116.5</ele></trkpt>
    <trkpt lat="48.75457" lon="2.90905"><ele>116.5</ele></trkpt>
    <trkpt lat="48.7547" lon="2.90922"><ele>116.5</ele></trkpt>
    <trkpt lat="48.75503" lon="2.90942"><ele>116.4</ele></trkpt>
    <trkpt lat="48.76194" lon="2.91233"><ele>117.2</ele></trkpt>
    <trkpt lat="48.77334" lon="2.91729"><ele>121.8</ele></trkpt>
    <trkpt lat="48.77433" lon="2.91792"><ele>121.8</ele></trkpt>
    <trkpt lat="48.77645" lon="2.91852"><ele>117.4</ele></trkpt>
    <trkpt lat="48.77753" lon="2.91848"><ele>115.0</ele></trkpt>
    <trkpt lat="48.77842" lon="2.91828"><ele>113.0</ele></trkpt>
    <trkpt lat="48.7795" lon="2.91841"><ele>112.6</ele></trkpt>
    <trkpt lat="48.78108" lon="2.91794"><ele>113.0</ele></trkpt>
    <trkpt lat="48.7824" lon="2.91708"><ele>111.5</ele></trkpt>
    <trkpt lat="48.78483" lon="2.91606"><ele>116.1</ele></trkpt>
    <trkpt lat="48.78518" lon="2.91618"><ele>118.2</ele></trkpt>
    <trkpt lat="48.78669" lon="2.91702"><ele>122.6</ele></trkpt>
    <trkpt lat="48.78705" lon="2.91706"><ele>122.6</ele></trkpt>
    <trkpt lat="48.78757" lon="2.91688"><ele>122.2</ele></trkpt>
    <trkpt lat="48.78871" lon="2.91606"><ele>121.6</ele></trkpt>
    <trkpt lat="48.78996" lon="2.9159"><ele>122.5</ele></trkpt>
    <trkpt lat="48.79098" lon="2.91536"><ele>122.2</ele></trkpt>
    <trkpt lat="48.79115" lon="2.91538"><ele>122.3</ele></trkpt>
    <trkpt lat="48.79137" lon="2.9158"><ele>122.7</ele></trkpt>
    <trkpt lat="48.79151" lon="2.91597"><ele>123.0</ele></trkpt>
    <trkpt lat="48.79204" lon="2.91616"><ele>124.2</ele></trkpt>
    <trkpt lat="48.79258" lon="2.91616"><ele>124.7</ele></trkpt>
    <trkpt lat="48.79383" lon="2.91601"><ele>123.8</ele></trkpt>
    <trkpt lat="48.79437" lon="2.91609"><ele>124.4</ele></trkpt>
    <trkpt lat="48.7947" lon="2.91627"><ele>125.5</ele></trkpt>
    <trkpt lat="48.79696" lon="2.91851"><ele>134.1</ele></trkpt>
    <trkpt lat="48.79809" lon="2.91933"><ele>133.3</ele></trkpt>
    <trkpt lat="48.79896" lon="2.91969"><ele>131.8</ele></trkpt>
    <trkpt lat="48.80146" lon="2.92019"><ele>129.4</ele></trkpt>
    <trkpt lat="48.80198" lon="2.92037"><ele>129.2</ele></trkpt>
    <trkpt lat="48.80693" lon="2.92483"><ele>107.3</ele></trkpt>
    <trkpt lat="48.81025" lon="2.92597"><ele>102.9</ele></trkpt>
    <trkpt lat="48.81449" lon="2.92184"><ele>88.4</ele></trkpt>
    <trkpt lat="48.81489" lon="2.9213"><ele>85.5</ele></trkpt>
    <trkpt lat="48.81959" lon="2.90998"><ele>59.5</ele></trkpt>
    <trkpt lat="48.81973" lon="2.90948"><ele>58.6</ele></trkpt>
    <trkpt lat="48.81983" lon="2.90895"><ele>58.1</ele></trkpt>
    <trkpt lat="48.82014" lon="2.90599"><ele>60.7</ele></trkpt>
    <trkpt lat="48.8204" lon="2.90527"><ele>62.5</ele></trkpt>
    <trkpt lat="48.82068" lon="2.90427"><ele>66.7</ele></trkpt>
    <trkpt lat="48.82119" lon="2.90166"><ele>81.3</ele></trkpt>
    <trkpt lat="48.82182" lon="2.8991"><ele>97.7</ele></trkpt>
    <trkpt lat="48.82212" lon="2.89754"><ele>109.3</ele></trkpt>
    <trkpt lat="48.82206" lon="2.897"><ele>112.8</ele></trkpt>
    <trkpt lat="48.82096" lon="2.89152"><ele>128.7</ele></trkpt>
    <trkpt lat="48.82093" lon="2.89125"><ele>128.8</ele></trkpt>
    <trkpt lat="48.82096" lon="2.89099"><ele>128.9</ele></trkpt>
    <trkpt lat="48.82107" lon="2.89078"><ele>128.8</ele></trkpt>
    <trkpt lat="48.82193" lon="2.89036"><ele>128.4</ele></trkpt>
    <trkpt lat="48.82209" lon="2.89025"><ele>128.3</ele></trkpt>
    <trkpt lat="48.82222" lon="2.89007"><ele>128.1</ele></trkpt>
    <trkpt lat="48.82264" lon="2.88918"><ele>127.5</ele></trkpt>
    <trkpt lat="48.82296" lon="2.8882"><ele>126.9</ele></trkpt>
    <trkpt lat="48.82316" lon="2.88687"><ele>126.3</ele></trkpt>
    <trkpt lat="48.82371" lon="2.88203"><ele>127.8</ele></trkpt>
    <trkpt lat="48.8237" lon="2.88148"><ele>128.5</ele></trkpt>
    <trkpt lat="48.82355" lon="2.8807"><ele>129.2</ele></trkpt>
    <trkpt lat="48.82264" lon="2.87803"><ele>130.2</ele></trkpt>
    <trkpt lat="48.82258" lon="2.87778"><ele>130.2</ele></trkpt>
    <trkpt lat="48.82258" lon="2.8775"><ele>130.3</ele></trkpt>
    <trkpt lat="48.82265" lon="2.87725"><ele>130.4</ele></trkpt>
    <trkpt lat="48.82264" lon="2.87699"><ele>130.5</ele></trkpt>
    <trkpt lat="48.82244" lon="2.87623"><ele>130.4</ele></trkpt>
    <trkpt lat="48.82219" lon="2.87583"><ele>130.4</ele></trkpt>
    <trkpt lat="48.82176" lon="2.87535"><ele>130.7</ele></trkpt>
    <trkpt lat="48.82166" lon="2.87513"><ele>130.8</ele></trkpt>
    <trkpt lat="48.81876" lon="2.86664"><ele>132.6</ele></trkpt>
    <trkpt lat="48.81855" lon="2.86588"><ele>132.7</ele></trkpt>
    <trkpt lat="48.81818" lon="2.86377"><ele>132.2</ele></trkpt>
    <trkpt lat="48.81567" lon="2.84784"><ele>128.9</ele></trkpt>
    <trkpt lat="48.81524" lon="2.84297"><ele>127.7</ele></trkpt>
    <trkpt lat="48.81526" lon="2.84243"><ele>127.7</ele></trkpt>
    <trkpt lat="48.81538" lon="2.84193"><ele>127.8</ele></trkpt>
    <trkpt lat="48.81532" lon="2.84167"><ele>127.8</ele></trkpt>
    <trkpt lat="48.8151" lon="2.84126"><ele>127.6</ele></trkpt>
    <trkpt lat="48.81479" lon="2.83857"><ele>126.2</ele></trkpt>
    <trkpt lat="48.81437" lon="2.8337"><ele>128.2</ele></trkpt>
    <trkpt lat="48.81417" lon="2.83071"><ele>129.0</ele></trkpt>
    <trkpt lat="48.81412" lon="2.83057"><ele>129.2</ele></trkpt>
    <trkpt lat="48.81417" lon="2.83032"><ele>129.2</ele></trkpt>
    <trkpt lat="48.81415" lon="2.83005"><ele>129.2</ele></trkpt>
    <trkpt lat="48.81421" lon="2.82983"><ele>129.2</ele></trkpt>
    <trkpt lat="48.81439" lon="2.82986"><ele>129.2</ele></trkpt>
    <trkpt lat="48.81454" lon="2.82972"><ele>129.1</ele></trkpt>
    <trkpt lat="48.81493" lon="2.8285"><ele>129.1</ele></trkpt>
    <trkpt lat="48.81507" lon="2.82833"><ele>129.3</ele></trkpt>
    <trkpt lat="48.81557" lon="2.828"><ele>129.7</ele></trkpt>
    <trkpt lat="48.8157" lon="2.82782"><ele>129.9</ele></trkpt>
    <trkpt lat="48.81579" lon="2.82758"><ele>129.9</ele></trkpt>
    <trkpt lat="48.81643" lon="2.82474"><ele>128.6</ele></trkpt>
    <trkpt lat="48.81712" lon="2.82136"><ele>128.2</ele></trkpt>
    <trkpt lat="48.81733" lon="2.8206"><ele>128.0</ele></trkpt>
    <trkpt lat="48.81779" lon="2.81976"><ele>127.7</ele></trkpt>
    <trkpt lat="48.81831" lon="2.81902"><ele>127.6</ele></trkpt>
    <trkpt lat="48.81847" lon="2.81888"><ele>127.6</ele></trkpt>
    <trkpt lat="48.81882" lon="2.81879"><ele>127.5</ele></trkpt>
    <trkpt lat="48.81893" lon="2.81859"><ele>127.4</ele></trkpt>
    <trkpt lat="48.81894" lon="2.81832"><ele>127.4</ele></trkpt>
    <trkpt lat="48.81884" lon="2.8181"><ele>127.4</ele></trkpt>
    <trkpt lat="48.81852" lon="2.81786"><ele>127.3</ele></trkpt>
    <trkpt lat="48.8184" lon="2.81766"><ele>127.1</ele></trkpt>
    <trkpt lat="48.81816" lon="2.81692"><ele>126.7</ele></trkpt>
    <trkpt lat="48.81798" lon="2.81587"><ele>127.2</ele></trkpt>
    <trkpt lat="48.81783" lon="2.81425"><ele>126.5</ele></trkpt>
    <trkpt lat="48.81767" lon="2.81318"><ele>126.2</ele></trkpt>
    <trkpt lat="48.81651" lon="2.80744"><ele>123.6</ele></trkpt>
    <trkpt lat="48.81627" lon="2.80529"><ele>122.6</ele></trkpt>
    <trkpt lat="48.81603" lon="2.80369"><ele>123.1</ele></trkpt>
    <trkpt lat="48.81596" lon="2.80206"><ele>123.8</ele></trkpt>
    <trkpt lat="48.81602" lon="2.79933"><ele>124.8</ele></trkpt>
    <trkpt lat="48.81653" lon="2.79615"><ele>123.5</ele></trkpt>
    <trkpt lat="48.81651" lon="2.79588"><ele>123.5</ele></trkpt>
    <trkpt lat="48.81568" lon="2.79286"><ele>123.5</ele></trkpt>
    <trkpt lat="48.81582" lon="2.79272"><ele>123.4</ele></trkpt>
    <trkpt lat="48.81667" lon="2.79225"><ele>122.5</ele></trkpt>
    <trkpt lat="48.81681" lon="2.7921"><ele>122.4</ele></trkpt>
    <trkpt lat="48.8168" lon="2.79156"><ele>122.3</ele></trkpt>
    <trkpt lat="48.81652" lon="2.79026"><ele>122.7</ele></trkpt>
    <trkpt lat="48.81654" lon="2.78972"><ele>122.7</ele></trkpt>
    <trkpt lat="48.8166" lon="2.78947"><ele>122.8</ele></trkpt>
    <trkpt lat="48.81924" lon="2.78232"><ele>131.9</ele></trkpt>
    <trkpt lat="48.82217" lon="2.77544"><ele>128.0</ele></trkpt>
    <trkpt lat="48.82455" lon="2.7687"><ele>137.8</ele></trkpt>
    <trkpt lat="48.82478" lon="2.76829"><ele>139.0</ele></trkpt>
    <trkpt lat="48.82641" lon="2.76658"><ele>144.2</ele></trkpt>
    <trkpt lat="48.82663" lon="2.76616"><ele>144.3</ele></trkpt>
    <trkpt lat="48.82666" lon="2.76589"><ele>144.1</ele></trkpt>
    <trkpt lat="48.82663" lon="2.76562"><ele>143.9</ele></trkpt>
    <trkpt lat="48.82623" lon="2.76441"><ele>142.0</ele></trkpt>
    <trkpt lat="48.82622" lon="2.76387"><ele>141.2</ele></trkpt>
    <trkpt lat="48.82679" lon="2.76217"><ele>138.3</ele></trkpt>
    <trkpt lat="48.82879" lon="2.75667"><ele>133.7</ele></trkpt>
    <trkpt lat="48.82904" lon="2.75628"><ele>133.8</ele></trkpt>
    <trkpt lat="48.82949" lon="2.75584"><ele>134.3</ele></trkpt>
    <trkpt lat="48.8316" lon="2.75515"><ele>130.9</ele></trkpt>
    <trkpt lat="48.83244" lon="2.75464"><ele>126.7</ele></trkpt>
    <trkpt lat="48.83255" lon="2.75443"><ele>126.3</ele></trkpt>
    <trkpt lat="48.83259" lon="2.75417"><ele>125.9</ele></trkpt>
    <trkpt lat="48.83298" lon="2.75095"><ele>124.5</ele></trkpt>
    <trkpt lat="48.8332" lon="2.7502"><ele>124.4</ele></trkpt>
    <trkpt lat="48.83344" lon="2.74979"><ele>124.4</ele></trkpt>
    <trkpt lat="48.83403" lon="2.74917"><ele>124.2</ele></trkpt>
    <trkpt lat="48.83516" lon="2.74832"><ele>124.2</ele></trkpt>
    <trkpt lat="48.8377" lon="2.74696"><ele>123.6</ele></trkpt>
    <trkpt lat="48.8377" lon="2.74643"><ele>124.0</ele></trkpt>
    <trkpt lat="48.83732" lon="2.74155"><ele>125.8</ele></trkpt>
    <trkpt lat="48.83719" lon="2.73992"><ele>126.0</ele></trkpt>
    <trkpt lat="48.83712" lon="2.73967"><ele>125.9</ele></trkpt>
    <trkpt lat="48.83699" lon="2.7395"><ele>125.9</ele></trkpt>
    <trkpt lat="48.83489" lon="2.74001"><ele>126.4</ele></trkpt>
    <trkpt lat="48.83471" lon="2.74"><ele>126.3</ele></trkpt>
    <trkpt lat="48.83464" lon="2.73976"><ele>126.1</ele></trkpt>
    <trkpt lat="48.83274" lon="2.7239"><ele>122.7</ele></trkpt>
    <trkpt lat="48.8328" lon="2.72365"><ele>122.7</ele></trkpt>
    <trkpt lat="48.8329" lon="2.72342"><ele>122.6</ele></trkpt>
    <trkpt lat="48.83294" lon="2.72316"><ele>122.5</ele></trkpt>
    <trkpt lat="48.83285" lon="2.72292"><ele>122.5</ele></trkpt>
    <trkpt lat="48.8326" lon="2.72255"><ele>122.2</ele></trkpt>
    <trkpt lat="48.83256" lon="2.72228"><ele>122.1</ele></trkpt>
    <trkpt lat="48.83113" lon="2.71046"><ele>117.8</ele></trkpt>
    <trkpt lat="48.83112" lon="2.71019"><ele>117.8</ele></trkpt>
    <trkpt lat="48.83125" lon="2.70968"><ele>117.7</ele></trkpt>
    <trkpt lat="48.83112" lon="2.70918"><ele>117.5</ele></trkpt>
    <trkpt lat="48.83113" lon="2.70891"><ele>117.3</ele></trkpt>
    <trkpt lat="48.83136" lon="2.70759"><ele>117.3</ele></trkpt>
    <trkpt lat="48.83136" lon="2.70732"><ele>117.5</ele></trkpt>
    <trkpt lat="48.83124" lon="2.70653"><ele>117.5</ele></trkpt>
    <trkpt lat="48.83133" lon="2.70629"><ele>117.1</ele></trkpt>
    <trkpt lat="48.83149" lon="2.70619"><ele>116.5</ele></trkpt>
    <trkpt lat="48.83257" lon="2.70611"><ele>114.8</ele></trkpt>
    <trkpt lat="48.8329" lon="2.70629"><ele>114.6</ele></trkpt>
    <trkpt lat="48.83307" lon="2.70624"><ele>114.4</ele></trkpt>
    <trkpt lat="48.83315" lon="2.706"><ele>114.3</ele></trkpt>
    <trkpt lat="48.83289" lon="2.70531"><ele>113.6</ele></trkpt>
    <trkpt lat="48.83156" lon="2.69568"><ele>107.5</ele></trkpt>
    <trkpt lat="48.83151" lon="2.69487"><ele>106.5</ele></trkpt>
    <trkpt lat="48.83152" lon="2.69377"><ele>104.4</ele></trkpt>
    <trkpt lat="48.83185" lon="2.69109"><ele>95.0</ele></trkpt>
    <trkpt lat="48.8319" lon="2.69027"><ele>92.0</ele></trkpt>
    <trkpt lat="48.8318" lon="2.68947"><ele>89.9</ele></trkpt>
    <trkpt lat="48.83164" lon="2.68898"><ele>88.9</ele></trkpt>
    <trkpt lat="48.83144" lon="2.68853"><ele>88.2</ele></trkpt>
    <trkpt lat="48.8314" lon="2.68827"><ele>88.2</ele></trkpt>
    <trkpt lat="48.83176" lon="2.68201"><ele>106.0</ele></trkpt>
    <trkpt lat="48.83193" lon="2.67765"><ele>106.6</ele></trkpt>
    <trkpt lat="48.83203" lon="2.67712"><ele>106.5</ele></trkpt>
    <trkpt lat="48.83214" lon="2.67692"><ele>106.5</ele></trkpt>
    <trkpt lat="48.83261" lon="2.67651"><ele>106.1</ele></trkpt>
    <trkpt lat="48.8358" lon="2.674"><ele>103.0</ele></trkpt>
    <trkpt lat="48.8361" lon="2.6737"><ele>102.8</ele></trkpt>
    <trkpt lat="48.83713" lon="2.67218"><ele>102.4</ele></trkpt>
    <trkpt lat="48.8381" lon="2.67021"><ele>103.1</ele></trkpt>
    <trkpt lat="48.83852" lon="2.6697"><ele>103.6</ele></trkpt>
    <trkpt lat="48.83868" lon="2.66956"><ele>103.7</ele></trkpt>
    <trkpt lat="48.84105" lon="2.66835"><ele>103.3</ele></trkpt>
    <trkpt lat="48.841" lon="2.6681"><ele>103.0</ele></trkpt>
    <trkpt lat="48.84095" lon="2.66728"><ele>102.3</ele></trkpt>
    <trkpt lat="48.84059" lon="2.66517"><ele>101.6</ele></trkpt>
    <trkpt lat="48.84056" lon="2.66408"><ele>98.8</ele></trkpt>
    <trkpt lat="48.84042" lon="2.66329"><ele>97.8</ele></trkpt>
    <trkpt lat="48.84023" lon="2.66284"><ele>98.7</ele></trkpt>
    <trkpt lat="48.84018" lon="2.66258"><ele>99.4</ele></trkpt>
    <trkpt lat="48.83972" lon="2.65881"><ele>100.1</ele></trkpt>
    <trkpt lat="48.83971" lon="2.65854"><ele>100.4</ele></trkpt>
    <trkpt lat="48.83976" lon="2.65828"><ele>100.7</ele></trkpt>
    <trkpt lat="48.83973" lon="2.65803"><ele>100.8</ele></trkpt>
    <trkpt lat="48.83959" lon="2.65786"><ele>100.7</ele></trkpt>
    <trkpt lat="48.83942" lon="2.65787"><ele>100.4</ele></trkpt>
    <trkpt lat="48.83916" lon="2.65824"><ele>99.6</ele></trkpt>
    <trkpt lat="48.8388" lon="2.6583"><ele>98.7</ele></trkpt>
    <trkpt lat="48.83797" lon="2.65881"><ele>97.2</ele></trkpt>
    <trkpt lat="48.83655" lon="2.65997"><ele>98.1</ele></trkpt>
    <trkpt lat="48.83516" lon="2.66054"><ele>100.5</ele></trkpt>
    <trkpt lat="48.83504" lon="2.66037"><ele>100.5</ele></trkpt>
    <trkpt lat="48.83486" lon="2.6599"><ele>100.2</ele></trkpt>
    <trkpt lat="48.83482" lon="2.65963"><ele>99.8</ele></trkpt>
    <trkpt lat="48.8347" lon="2.65946"><ele>99.5</ele></trkpt>
    <trkpt lat="48.83435" lon="2.65935"><ele>98.5</ele></trkpt>
    <trkpt lat="48.8332" lon="2.6586"><ele>91.3</ele></trkpt>
    <trkpt lat="48.83194" lon="2.65854"><ele>87.8</ele></trkpt>
    <trkpt lat="48.83177" lon="2.65848"><ele>88.1</ele></trkpt>
    <trkpt lat="48.8305" lon="2.65744"><ele>92.1</ele></trkpt>
    <trkpt lat="48.83042" lon="2.65721"><ele>92.7</ele></trkpt>
    <trkpt lat="48.83045" lon="2.65695"><ele>93.1</ele></trkpt>
    <trkpt lat="48.83085" lon="2.65573"><ele>93.6</ele></trkpt>
    <trkpt lat="48.83092" lon="2.65547"><ele>93.7</ele></trkpt>
    <trkpt lat="48.83092" lon="2.6552"><ele>93.9</ele></trkpt>
    <trkpt lat="48.83074" lon="2.65386"><ele>95.1</ele></trkpt>
    <trkpt lat="48.83073" lon="2.65032"><ele>98.4</ele></trkpt>
    <trkpt lat="48.83062" lon="2.64979"><ele>98.7</ele></trkpt>
    <trkpt lat="48.83036" lon="2.64908"><ele>98.9</ele></trkpt>
    <trkpt lat="48.82977" lon="2.64805"><ele>99.6</ele></trkpt>
    <trkpt lat="48.82924" lon="2.64694"><ele>100.2</ele></trkpt>
    <trkpt lat="48.82821" lon="2.64505"><ele>101.4</ele></trkpt>
    <trkpt lat="48.82806" lon="2.64456"><ele>101.8</ele></trkpt>
    <trkpt lat="48.82812" lon="2.64431"><ele>102.0</ele></trkpt>
    <trkpt lat="48.82809" lon="2.64405"><ele>102.2</ele></trkpt>
    <trkpt lat="48.82793" lon="2.64396"><ele>102.3</ele></trkpt>
    <trkpt lat="48.82763" lon="2.64422"><ele>102.4</ele></trkpt>
    <trkpt lat="48.82747" lon="2.64409"><ele>102.4</ele></trkpt>
    <trkpt lat="48.82713" lon="2.64346"><ele>102.7</ele></trkpt>
    <trkpt lat="48.82686" lon="2.64309"><ele>103.1</ele></trkpt>
    <trkpt lat="48.82624" lon="2.64256"><ele>103.8</ele></trkpt>
    <trkpt lat="48.82537" lon="2.64224"><ele>103.9</ele></trkpt>
    <trkpt lat="48.8236" lon="2.64173"><ele>103.6</ele></trkpt>
    <trkpt lat="48.82346" lon="2.64158"><ele>103.8</ele></trkpt>
    <trkpt lat="48.82342" lon="2.64132"><ele>104.0</ele></trkpt>
    <trkpt lat="48.82356" lon="2.64081"><ele>104.4</ele></trkpt>
    <trkpt lat="48.82356" lon="2.64054"><ele>104.6</ele></trkpt>
    <trkpt lat="48.82348" lon="2.6403"><ele>104.6</ele></trkpt>
    <trkpt lat="48.82324" lon="2.6399"><ele>104.6</ele></trkpt>
    <trkpt lat="48.82318" lon="2.63964"><ele>104.7</ele></trkpt>
    <trkpt lat="48.8232" lon="2.63938"><ele>104.8</ele></trkpt>
    <trkpt lat="48.8248" lon="2.63155"><ele>104.9</ele></trkpt>
    <trkpt lat="48.82497" lon="2.63049"><ele>105.6</ele></trkpt>
    <trkpt lat="48.825" lon="2.62995"><ele>105.8</ele></trkpt>
    <trkpt lat="48.82498" lon="2.62885"><ele>106.0</ele></trkpt>
    <trkpt lat="48.8242" lon="2.61909"><ele>107.0</ele></trkpt>
    <trkpt lat="48.82401" lon="2.61804"><ele>106.8</ele></trkpt>
    <trkpt lat="48.82363" lon="2.61681"><ele>106.3</ele></trkpt>
    <trkpt lat="48.82362" lon="2.61627"><ele>106.0</ele></trkpt>
    <trkpt lat="48.82292" lon="2.6147"><ele>105.2</ele></trkpt>
    <trkpt lat="48.82249" lon="2.61421"><ele>105.2</ele></trkpt>
    <trkpt lat="48.82198" lon="2.61397"><ele>105.6</ele></trkpt>
    <trkpt lat="48.82162" lon="2.61396"><ele>105.8</ele></trkpt>
    <trkpt lat="48.82109" lon="2.61412"><ele>106.1</ele></trkpt>
    <trkpt lat="48.82092" lon="2.6141"><ele>106.2</ele></trkpt>
    <trkpt lat="48.8208" lon="2.61391"><ele>106.2</ele></trkpt>
    <trkpt lat="48.82079" lon="2.61364"><ele>106.2</ele></trkpt>
    <trkpt lat="48.8209" lon="2.61343"><ele>106.0</ele></trkpt>
    <trkpt lat="48.82107" lon="2.61338"><ele>105.9</ele></trkpt>
    <trkpt lat="48.82125" lon="2.61344"><ele>105.8</ele></trkpt>
    <trkpt lat="48.82161" lon="2.61344"><ele>105.6</ele></trkpt>
    <trkpt lat="48.82285" lon="2.61311"><ele>105.9</ele></trkpt>
    <trkpt lat="48.82374" lon="2.61302"><ele>106.7</ele></trkpt>
    <trkpt lat="48.82426" lon="2.61281"><ele>106.9</ele></trkpt>
    <trkpt lat="48.8288" lon="2.60889"><ele>103.1</ele></trkpt>
    <trkpt lat="48.82934" lon="2.60818"><ele>102.2</ele></trkpt>
    <trkpt lat="48.82964" lon="2.6075"><ele>101.7</ele></trkpt>
    <trkpt lat="48.82985" lon="2.60675"><ele>101.2</ele></trkpt>
    <trkpt lat="48.83129" lon="2.59773"><ele>98.0</ele></trkpt>
    <trkpt lat="48.83153" lon="2.59699"><ele>95.2</ele></trkpt>
    <trkpt lat="48.83239" lon="2.59524"><ele>89.4</ele></trkpt>
    <trkpt lat="48.8326" lon="2.59449"><ele>88.8</ele></trkpt>
    <trkpt lat="48.83268" lon="2.59396"><ele>88.6</ele></trkpt>
    <trkpt lat="48.83271" lon="2.59314"><ele>88.5</ele></trkpt>
    <trkpt lat="48.83267" lon="2.5926"><ele>88.6</ele></trkpt>
    <trkpt lat="48.83253" lon="2.59181"><ele>89.2</ele></trkpt>
    <trkpt lat="48.83239" lon="2.59131"><ele>89.7</ele></trkpt>
    <trkpt lat="48.83219" lon="2.59086"><ele>90.5</ele></trkpt>
    <trkpt lat="48.83137" lon="2.5894"><ele>94.6</ele></trkpt>
    <trkpt lat="48.83132" lon="2.58887"><ele>95.6</ele></trkpt>
    <trkpt lat="48.83103" lon="2.58859"><ele>96.1</ele></trkpt>
    <trkpt lat="48.83089" lon="2.58809"><ele>96.7</ele></trkpt>
    <trkpt lat="48.8308" lon="2.58756"><ele>97.1</ele></trkpt>
    <trkpt lat="48.83077" lon="2.58647"><ele>97.7</ele></trkpt>
    <trkpt lat="48.83071" lon="2.58621"><ele>97.7</ele></trkpt>
    <trkpt lat="48.83052" lon="2.58575"><ele>97.5</ele></trkpt>
    <trkpt lat="48.8304" lon="2.58524"><ele>97.4</ele></trkpt>
    <trkpt lat="48.83003" lon="2.58174"><ele>97.5</ele></trkpt>
    <trkpt lat="48.82929" lon="2.57088"><ele>97.7</ele></trkpt>
    <trkpt lat="48.82916" lon="2.56789"><ele>97.8</ele></trkpt>
    <trkpt lat="48.82953" lon="2.56467"><ele>95.8</ele></trkpt>
    <trkpt lat="48.83013" lon="2.56124"><ele>93.5</ele></trkpt>
    <trkpt lat="48.83012" lon="2.55905"><ele>93.9</ele></trkpt>
    <trkpt lat="48.83152" lon="2.55784"><ele>95.0</ele></trkpt>
    <trkpt lat="48.83203" lon="2.55761"><ele>95.6</ele></trkpt>
    <trkpt lat="48.83208" lon="2.55737"><ele>95.8</ele></trkpt>
    <trkpt lat="48.83205" lon="2.5571"><ele>96.0</ele></trkpt>
    <trkpt lat="48.83247" lon="2.55278"><ele>99.1</ele></trkpt>
    <trkpt lat="48.83273" lon="2.55208"><ele>99.0</ele></trkpt>
    <trkpt lat="48.83285" lon="2.55188"><ele>98.7</ele></trkpt>
    <trkpt lat="48.83503" lon="2.54904"><ele>95.6</ele></trkpt>
    <trkpt lat="48.83501" lon="2.54632"><ele>95.0</ele></trkpt>
    <trkpt lat="48.8351" lon="2.54579"><ele>95.5</ele></trkpt>
    <trkpt lat="48.83538" lon="2.54479"><ele>96.1</ele></trkpt>
    <trkpt lat="48.83543" lon="2.54425"><ele>96.5</ele></trkpt>
    <trkpt lat="48.83542" lon="2.54343"><ele>97.2</ele></trkpt>
    <trkpt lat="48.83556" lon="2.54293"><ele>97.4</ele></trkpt>
    <trkpt lat="48.83542" lon="2.54244"><ele>97.5</ele></trkpt>
    <trkpt lat="48.83537" lon="2.5408"><ele>96.0</ele></trkpt>
    <trkpt lat="48.83529" lon="2.54027"><ele>95.5</ele></trkpt>
    <trkpt lat="48.83507" lon="2.53952"><ele>95.2</ele></trkpt>
    <trkpt lat="48.83409" lon="2.53723"><ele>95.9</ele></trkpt>
    <trkpt lat="48.83325" lon="2.53546"><ele>96.7</ele></trkpt>
    <trkpt lat="48.83217" lon="2.53363"><ele>94.6</ele></trkpt>
    <trkpt lat="48.83208" lon="2.5334"><ele>94.4</ele></trkpt>
    <trkpt lat="48.83211" lon="2.53287"><ele>94.2</ele></trkpt>
    <trkpt lat="48.83254" lon="2.53137"><ele>94.8</ele></trkpt>
    <trkpt lat="48.83247" lon="2.53112"><ele>94.8</ele></trkpt>
    <trkpt lat="48.83037" lon="2.52775"><ele>97.0</ele></trkpt>
    <trkpt lat="48.82813" lon="2.5246"><ele>88.3</ele></trkpt>
    <trkpt lat="48.8279" lon="2.52417"><ele>87.2</ele></trkpt>
    <trkpt lat="48.82765" lon="2.52345"><ele>86.1</ele></trkpt>
    <trkpt lat="48.82754" lon="2.52293"><ele>85.7</ele></trkpt>
    <trkpt lat="48.82717" lon="2.5197"><ele>81.8</ele></trkpt>
    <trkpt lat="48.82711" lon="2.51862"><ele>78.7</ele></trkpt>
    <trkpt lat="48.82723" lon="2.51644"><ele>72.3</ele></trkpt>
    <trkpt lat="48.8272" lon="2.51481"><ele>69.0</ele></trkpt>
    <trkpt lat="48.8273" lon="2.51236"><ele>66.5</ele></trkpt>
    <trkpt lat="48.82738" lon="2.51127"><ele>64.8</ele></trkpt>
    <trkpt lat="48.82752" lon="2.51048"><ele>63.3</ele></trkpt>
    <trkpt lat="48.82749" lon="2.50967"><ele>62.3</ele></trkpt>
    <trkpt lat="48.82737" lon="2.50887"><ele>61.6</ele></trkpt>
    <trkpt lat="48.82556" lon="2.50262"><ele>53.0</ele></trkpt>
    <trkpt lat="48.82337" lon="2.49543"><ele>46.3</ele></trkpt>
    <trkpt lat="48.82143" lon="2.48868"><ele>42.9</ele></trkpt>
    <trkpt lat="48.82082" lon="2.4867"><ele>42.0</ele></trkpt>
    <trkpt lat="48.82041" lon="2.48518"><ele>42.3</ele></trkpt>
    <trkpt lat="48.82027" lon="2.4852"><ele>42.5</ele></trkpt>
    <trkpt lat="48.82008" lon="2.48443"><ele>43.0</ele></trkpt>
    <trkpt lat="48.81997" lon="2.48428"><ele>43.1</ele></trkpt>
    <trkpt lat="48.81976" lon="2.48504"><ele>43.2</ele></trkpt>
    <trkpt lat="48.81909" lon="2.48816"><ele>43.0</ele></trkpt>
    <trkpt lat="48.81892" lon="2.48863"><ele>43.1</ele></trkpt>
    <trkpt lat="48.81838" lon="2.49123"><ele>43.8</ele></trkpt>
    <trkpt lat="48.81829" lon="2.49204"><ele>43.5</ele></trkpt>
    <trkpt lat="48.8158" lon="2.50372"><ele>41.5</ele></trkpt>
    <trkpt lat="48.81458" lon="2.50798"><ele>41.9</ele></trkpt>
    <trkpt lat="48.81399" lon="2.50935"><ele>41.7</ele></trkpt>
    <trkpt lat="48.81347" lon="2.51108"><ele>40.8</ele></trkpt>
    <trkpt lat="48.81335" lon="2.51122"><ele>40.2</ele></trkpt>
    <trkpt lat="48.81039" lon="2.51005"><ele>41.0</ele></trkpt>
  </trkseg></trk>
</gpx>
