<?xml version="1.0" encoding="UTF-8"?>
<gpx version="1.1" creator="Club Cycliste USO" xmlns="http://www.topografix.com/GPX/1/1">
  <metadata><name>Favières – 72 km</name><desc>71.7 km, D+ 367 m. Départ et arrivée : pont de Champigny.</desc></metadata>
  <trk><name>Favières – 72 km</name><trkseg>
    <trkpt lat="48.81032" lon="2.51002"><ele>41.0</ele></trkpt>
    <trkpt lat="48.81188" lon="2.51068"><ele>37.2</ele></trkpt>
    <trkpt lat="48.81241" lon="2.51083"><ele>37.2</ele></trkpt>
    <trkpt lat="48.8131" lon="2.51113"><ele>39.2</ele></trkpt>
    <trkpt lat="48.81344" lon="2.51119"><ele>40.7</ele></trkpt>
    <trkpt lat="48.81396" lon="2.50945"><ele>41.7</ele></trkpt>
    <trkpt lat="48.81463" lon="2.50784"><ele>41.9</ele></trkpt>
    <trkpt lat="48.81584" lon="2.50358"><ele>41.4</ele></trkpt>
    <trkpt lat="48.81827" lon="2.49215"><ele>43.5</ele></trkpt>
    <trkpt lat="48.81841" lon="2.49108"><ele>43.9</ele></trkpt>
    <trkpt lat="48.81896" lon="2.48848"><ele>43.1</ele></trkpt>
    <trkpt lat="48.81913" lon="2.48801"><ele>43.0</ele></trkpt>
    <trkpt lat="48.81974" lon="2.48515"><ele>43.2</ele></trkpt>
    <trkpt lat="48.82001" lon="2.48414"><ele>43.1</ele></trkpt>
    <trkpt lat="48.81992" lon="2.48335"><ele>43.1</ele></trkpt>
    <trkpt lat="48.81994" lon="2.48253"><ele>42.9</ele></trkpt>
    <trkpt lat="48.82004" lon="2.48173"><ele>42.7</ele></trkpt>
    <trkpt lat="48.82011" lon="2.47353"><ele>39.4</ele></trkpt>
    <trkpt lat="48.82005" lon="2.47338"><ele>39.2</ele></trkpt>
    <trkpt lat="48.81992" lon="2.47329"><ele>39.0</ele></trkpt>
    <trkpt lat="48.81998" lon="2.47303"><ele>38.7</ele></trkpt>
    <trkpt lat="48.82" lon="2.47003"><ele>36.5</ele></trkpt>
    <trkpt lat="48.82003" lon="2.46982"><ele>36.4</ele></trkpt>
    <trkpt lat="48.82057" lon="2.46978"><ele>36.8</ele></trkpt>
    <trkpt lat="48.82165" lon="2.46988"><ele>37.0</ele></trkpt>
    <trkpt lat="48.822" lon="2.46978"><ele>36.7</ele></trkpt>
    <trkpt lat="48.82337" lon="2.46915"><ele>36.8</ele></trkpt>
    <trkpt lat="48.82481" lon="2.46896"><ele>36.9</ele></trkpt>
    <trkpt lat="48.82624" lon="2.46917"><ele>37.0</ele></trkpt>
    <trkpt lat="48.82675" lon="2.46941"><ele>37.2</ele></trkpt>
    <trkpt lat="48.82722" lon="2.4698"><ele>37.3</ele></trkpt>
    <trkpt lat="48.82922" lon="2.47257"><ele>37.7</ele></trkpt>
    <trkpt lat="48.82944" lon="2.473"><ele>37.8</ele></trkpt>
    <trkpt lat="48.82991" lon="2.47447"><ele>37.2</ele></trkpt>
    <trkpt lat="48.83029" lon="2.47597"><ele>37.0</ele></trkpt>
    <trkpt lat="48.8307" lon="2.47834"><ele>36.7</ele></trkpt>
    <trkpt lat="48.83114" lon="2.48349"><ele>37.1</ele></trkpt>
    <trkpt lat="48.83114" lon="2.48486"><ele>37.3</ele></trkpt>
    <trkpt lat="48.83076" lon="2.48696"><ele>37.2</ele></trkpt>
    <trkpt lat="48.83082" lon="2.49352"><ele>37.4</ele></trkpt>
    <trkpt lat="48.83081" lon="2.49434"><ele>37.4</ele></trkpt>
    <trkpt lat="48.83076" lon="2.49457"><ele>37.4</ele></trkpt>
    <trkpt lat="48.83079" lon="2.49484"><ele>37.4</ele></trkpt>
    <trkpt lat="48.83066" lon="2.49702"><ele>37.2</ele></trkpt>
    <trkpt lat="48.83069" lon="2.49784"><ele>37.1</ele></trkpt>
    <trkpt lat="48.83009" lon="2.5007"><ele>37.2</ele></trkpt>
    <trkpt lat="48.82995" lon="2.50204"><ele>37.1</ele></trkpt>
    <trkpt lat="48.82961" lon="2.50417"><ele>37.1</ele></trkpt>
    <trkpt lat="48.82913" lon="2.50651"><ele>37.0</ele></trkpt>
    <trkpt lat="48.82877" lon="2.50776"><ele>37.3</ele></trkpt>
    <trkpt lat="48.82867" lon="2.50857"><ele>37.2</ele></trkpt>
    <trkpt lat="48.82863" lon="2.50939"><ele>37.0</ele></trkpt>
    <trkpt lat="48.82871" lon="2.51129"><ele>37.0</ele></trkpt>
    <trkpt lat="48.82877" lon="2.51155"><ele>36.9</ele></trkpt>
    <trkpt lat="48.82991" lon="2.51432"><ele>36.6</ele></trkpt>
    <trkpt lat="48.83118" lon="2.51661"><ele>36.5</ele></trkpt>
    <trkpt lat="48.83165" lon="2.51703"><ele>36.6</ele></trkpt>
    <trkpt lat="48.83198" lon="2.51724"><ele>36.7</ele></trkpt>
    <trkpt lat="48.83386" lon="2.51816"><ele>37.0</ele></trkpt>
    <trkpt lat="48.83396" lon="2.51827"><ele>37.1</ele></trkpt>
    <trkpt lat="48.83392" lon="2.51853"><ele>37.5</ele></trkpt>
    <trkpt lat="48.8337" lon="2.51896"><ele>38.6</ele></trkpt>
    <trkpt lat="48.83369" lon="2.51919"><ele>39.2</ele></trkpt>
    <trkpt lat="48.83404" lon="2.51918"><ele>39.8</ele></trkpt>
    <trkpt lat="48.83437" lon="2.51938"><ele>40.0</ele></trkpt>
    <trkpt lat="48.83451" lon="2.51955"><ele>40.1</ele></trkpt>
    <trkpt lat="48.83449" lon="2.52009"><ele>40.8</ele></trkpt>
    <trkpt lat="48.83456" lon="2.52033"><ele>41.3</ele></trkpt>
    <trkpt lat="48.83486" lon="2.52063"><ele>42.7</ele></trkpt>
    <trkpt lat="48.83521" lon="2.52078"><ele>44.0</ele></trkpt>
    <trkpt lat="48.8357" lon="2.52111"><ele>45.3</ele></trkpt>
    <trkpt lat="48.83657" lon="2.52144"><ele>47.1</ele></trkpt>
    <trkpt lat="48.83673" lon="2.52158"><ele>47.9</ele></trkpt>
    <trkpt lat="48.83744" lon="2.52348"><ele>54.2</ele></trkpt>
    <trkpt lat="48.83757" lon="2.52365"><ele>54.4</ele></trkpt>
    <trkpt lat="48.83773" lon="2.52377"><ele>54.2</ele></trkpt>
    <trkpt lat="48.83862" lon="2.52402"><ele>50.4</ele></trkpt>
    <trkpt lat="48.83896" lon="2.52387"><ele>48.8</ele></trkpt>
    <trkpt lat="48.83943" lon="2.5235"><ele>47.1</ele></trkpt>
    <trkpt lat="48.84037" lon="2.52429"><ele>46.1</ele></trkpt>
    <trkpt lat="48.84051" lon="2.52445"><ele>46.1</ele></trkpt>
    <trkpt lat="48.84071" lon="2.5249"><ele>46.1</ele></trkpt>
    <trkpt lat="48.84086" lon="2.52497"><ele>46.0</ele></trkpt>
    <trkpt lat="48.84101" lon="2.52486"><ele>45.9</ele></trkpt>
    <trkpt lat="48.84118" lon="2.52492"><ele>45.7</ele></trkpt>
    <trkpt lat="48.84244" lon="2.52597"><ele>44.5</ele></trkpt>
    <trkpt lat="48.84273" lon="2.52628"><ele>44.4</ele></trkpt>
    <trkpt lat="48.84295" lon="2.52671"><ele>44.3</ele></trkpt>
    <trkpt lat="48.84312" lon="2.5272"><ele>44.2</ele></trkpt>
    <trkpt lat="48.8462" lon="2.53738"><ele>61.3</ele></trkpt>
    <trkpt lat="48.84669" lon="2.53914"><ele>62.6</ele></trkpt>
    <trkpt lat="48.84716" lon="2.54121"><ele>65.7</ele></trkpt>
    <trkpt lat="48.84723" lon="2.54312"><ele>73.3</ele></trkpt>
    <trkpt lat="48.84743" lon="2.54356"><ele>75.3</ele></trkpt>
    <trkpt lat="48.84831" lon="2.5445"><ele>75.9</ele></trkpt>
    <trkpt lat="48.84857" lon="2.54488"><ele>75.0</ele></trkpt>
    <trkpt lat="48.8494" lon="2.5473"><ele>73.0</ele></trkpt>
    <trkpt lat="48.84969" lon="2.5483"><ele>72.2</ele></trkpt>
    <trkpt lat="48.84987" lon="2.54907"><ele>71.8</ele></trkpt>
    <trkpt lat="48.85019" lon="2.55108"><ele>70.7</ele></trkpt>
    <trkpt lat="48.84995" lon="2.54893"><ele>70.6</ele></trkpt>
    <trkpt lat="48.84954" lon="2.54741"><ele>72.6</ele></trkpt>
    <trkpt lat="48.8494" lon="2.54731"><ele>72.4</ele></trkpt>
    <trkpt lat="48.84976" lon="2.54856"><ele>71.7</ele></trkpt>
    <trkpt lat="48.85001" lon="2.54987"><ele>71.3</ele></trkpt>
    <trkpt lat="48.85012" lon="2.55095"><ele>72.0</ele></trkpt>
    <trkpt lat="48.85028" lon="2.55339"><ele>74.8</ele></trkpt>
    <trkpt lat="48.85024" lon="2.55449"><ele>76.1</ele></trkpt>
    <trkpt lat="48.85015" lon="2.5553"><ele>76.9</ele></trkpt>
    <trkpt lat="48.84946" lon="2.55982"><ele>80.7</ele></trkpt>
    <trkpt lat="48.84933" lon="2.56117"><ele>82.6</ele></trkpt>
    <trkpt lat="48.84931" lon="2.56499"><ele>80.4</ele></trkpt>
    <trkpt lat="48.84939" lon="2.56663"><ele>80.6</ele></trkpt>
    <trkpt lat="48.8493" lon="2.56936"><ele>78.8</ele></trkpt>
    <trkpt lat="48.84991" lon="2.57694"><ele>81.3</ele></trkpt>
    <trkpt lat="48.84963" lon="2.57725"><ele>81.7</ele></trkpt>
    <trkpt lat="48.84926" lon="2.57785"><ele>83.4</ele></trkpt>
    <trkpt lat="48.84897" lon="2.57816"><ele>84.4</ele></trkpt>
    <trkpt lat="48.84846" lon="2.57844"><ele>84.4</ele></trkpt>
    <trkpt lat="48.84891" lon="2.58165"><ele>75.7</ele></trkpt>
    <trkpt lat="48.84892" lon="2.58273"><ele>78.1</ele></trkpt>
    <trkpt lat="48.84879" lon="2.58519"><ele>83.8</ele></trkpt>
    <trkpt lat="48.8487" lon="2.58538"><ele>83.6</ele></trkpt>
    <trkpt lat="48.84873" lon="2.58562"><ele>83.3</ele></trkpt>
    <trkpt lat="48.84995" lon="2.58536"><ele>79.7</ele></trkpt>
    <trkpt lat="48.85012" lon="2.58541"><ele>79.5</ele></trkpt>
    <trkpt lat="48.85017" lon="2.58564"><ele>79.4</ele></trkpt>
    <trkpt lat="48.85036" lon="2.58725"><ele>77.8</ele></trkpt>
    <trkpt lat="48.85036" lon="2.58752"><ele>77.3</ele></trkpt>
    <trkpt lat="48.85042" lon="2.58773"><ele>76.7</ele></trkpt>
    <trkpt lat="48.85077" lon="2.59009"><ele>69.3</ele></trkpt>
    <trkpt lat="48.8521" lon="2.59972"><ele>73.2</ele></trkpt>
    <trkpt lat="48.85229" lon="2.60133"><ele>76.4</ele></trkpt>
    <trkpt lat="48.85231" lon="2.60297"><ele>77.6</ele></trkpt>
    <trkpt lat="48.85264" lon="2.61362"><ele>80.0</ele></trkpt>
    <trkpt lat="48.85257" lon="2.61381"><ele>79.9</ele></trkpt>
    <trkpt lat="48.85257" lon="2.6143"><ele>79.6</ele></trkpt>
    <trkpt lat="48.85178" lon="2.61879"><ele>80.4</ele></trkpt>
    <trkpt lat="48.8514" lon="2.62061"><ele>79.2</ele></trkpt>
    <trkpt lat="48.85119" lon="2.62102"><ele>77.9</ele></trkpt>
    <trkpt lat="48.85121" lon="2.62128"><ele>77.2</ele></trkpt>
    <trkpt lat="48.85135" lon="2.62179"><ele>76.0</ele></trkpt>
    <trkpt lat="48.85134" lon="2.62206"><ele>75.4</ele></trkpt>
    <trkpt lat="48.8507" lon="2.62882"><ele>63.1</ele></trkpt>
    <trkpt lat="48.85063" lon="2.62906"><ele>62.8</ele></trkpt>
    <trkpt lat="48.85051" lon="2.62925"><ele>62.4</ele></trkpt>
    <trkpt lat="48.85058" lon="2.63001"><ele>61.8</ele></trkpt>
    <trkpt lat="48.85019" lon="2.63407"><ele>73.3</ele></trkpt>
    <trkpt lat="48.85012" lon="2.63423"><ele>74.5</ele></trkpt>
    <trkpt lat="48.85004" lon="2.63504"><ele>77.9</ele></trkpt>
    <trkpt lat="48.85001" lon="2.63531"><ele>79.0</ele></trkpt>
    <trkpt lat="48.85005" lon="2.63551"><ele>80.2</ele></trkpt>
    <trkpt lat="48.84956" lon="2.64037"><ele>97.5</ele></trkpt>
    <trkpt lat="48.84944" lon="2.642"><ele>100.0</ele></trkpt>
    <trkpt lat="48.84953" lon="2.64308"><ele>101.5</ele></trkpt>
    <trkpt lat="48.85072" lon="2.65052"><ele>98.0</ele></trkpt>
    <trkpt lat="48.85082" lon="2.6527"><ele>96.6</ele></trkpt>
    <trkpt lat="48.85077" lon="2.65323"><ele>96.3</ele></trkpt>
    <trkpt lat="48.85087" lon="2.65376"><ele>96.0</ele></trkpt>
    <trkpt lat="48.8509" lon="2.65485"><ele>95.3</ele></trkpt>
    <trkpt lat="48.85068" lon="2.65756"><ele>93.8</ele></trkpt>
    <trkpt lat="48.85053" lon="2.65834"><ele>93.5</ele></trkpt>
    <trkpt lat="48.8503" lon="2.66022"><ele>93.8</ele></trkpt>
    <trkpt lat="48.85014" lon="2.66212"><ele>89.7</ele></trkpt>
    <trkpt lat="48.85014" lon="2.66294"><ele>87.1</ele></trkpt>
    <trkpt lat="48.85035" lon="2.66482"><ele>81.7</ele></trkpt>
    <trkpt lat="48.85012" lon="2.67302"><ele>69.7</ele></trkpt>
    <trkpt lat="48.85004" lon="2.6741"><ele>68.3</ele></trkpt>
    <trkpt lat="48.84902" lon="2.68299"><ele>57.2</ele></trkpt>
    <trkpt lat="48.84934" lon="2.68455"><ele>61.1</ele></trkpt>
    <trkpt lat="48.8496" lon="2.68491"><ele>62.7</ele></trkpt>
    <trkpt lat="48.84994" lon="2.68507"><ele>64.2</ele></trkpt>
    <trkpt lat="48.85102" lon="2.68518"><ele>67.8</ele></trkpt>
    <trkpt lat="48.85137" lon="2.68527"><ele>69.1</ele></trkpt>
    <trkpt lat="48.85183" lon="2.68568"><ele>70.9</ele></trkpt>
    <trkpt lat="48.85254" lon="2.68654"><ele>73.9</ele></trkpt>
    <trkpt lat="48.85288" lon="2.68716"><ele>75.7</ele></trkpt>
    <trkpt lat="48.85352" lon="2.68912"><ele>80.3</ele></trkpt>
    <trkpt lat="48.85394" lon="2.69063"><ele>83.4</ele></trkpt>
    <trkpt lat="48.85529" lon="2.69857"><ele>94.1</ele></trkpt>
    <trkpt lat="48.8553" lon="2.69884"><ele>94.8</ele></trkpt>
    <trkpt lat="48.85501" lon="2.70126"><ele>97.9</ele></trkpt>
    <trkpt lat="48.85498" lon="2.70317"><ele>98.4</ele></trkpt>
    <trkpt lat="48.85486" lon="2.70425"><ele>98.7</ele></trkpt>
    <trkpt lat="48.85463" lon="2.70557"><ele>98.9</ele></trkpt>
    <trkpt lat="48.85392" lon="2.71176"><ele>103.4</ele></trkpt>
    <trkpt lat="48.85372" lon="2.71221"><ele>104.8</ele></trkpt>
    <trkpt lat="48.85285" lon="2.71359"><ele>108.0</ele></trkpt>
    <trkpt lat="48.85255" lon="2.71427"><ele>108.6</ele></trkpt>
    <trkpt lat="48.85244" lon="2.71672"><ele>111.8</ele></trkpt>
    <trkpt lat="48.85235" lon="2.71725"><ele>112.3</ele></trkpt>
    <trkpt lat="48.85221" lon="2.71741"><ele>112.5</ele></trkpt>
    <trkpt lat="48.85216" lon="2.71765"><ele>112.5</ele></trkpt>
    <trkpt lat="48.85236" lon="2.71808"><ele>112.6</ele></trkpt>
    <trkpt lat="48.85244" lon="2.71889"><ele>112.7</ele></trkpt>
    <trkpt lat="48.85232" lon="2.72381"><ele>111.8</ele></trkpt>
    <trkpt lat="48.85221" lon="2.72489"><ele>111.7</ele></trkpt>
    <trkpt lat="48.84992" lon="2.7338"><ele>106.4</ele></trkpt>
    <trkpt lat="48.84988" lon="2.73406"><ele>106.6</ele></trkpt>
    <trkpt lat="48.84974" lon="2.73417"><ele>106.8</ele></trkpt>
    <trkpt lat="48.84949" lon="2.73486"><ele>107.5</ele></trkpt>
    <trkpt lat="48.84877" lon="2.73567"><ele>108.8</ele></trkpt>
    <trkpt lat="48.84839" lon="2.73625"><ele>109.5</ele></trkpt>
    <trkpt lat="48.84618" lon="2.74189"><ele>117.7</ele></trkpt>
    <trkpt lat="48.84564" lon="2.74331"><ele>119.9</ele></trkpt>
    <trkpt lat="48.84535" lon="2.74431"><ele>121.0</ele></trkpt>
    <trkpt lat="48.84523" lon="2.7445"><ele>121.2</ele></trkpt>
    <trkpt lat="48.84507" lon="2.7446"><ele>121.4</ele></trkpt>
    <trkpt lat="48.84494" lon="2.74477"><ele>121.5</ele></trkpt>
    <trkpt lat="48.84492" lon="2.74503"><ele>121.6</ele></trkpt>
    <trkpt lat="48.84499" lon="2.74528"><ele>121.7</ele></trkpt>
    <trkpt lat="48.84498" lon="2.74554"><ele>121.7</ele></trkpt>
    <trkpt lat="48.84374" lon="2.74979"><ele>122.9</ele></trkpt>
    <trkpt lat="48.8435" lon="2.75018"><ele>123.2</ele></trkpt>
    <trkpt lat="48.84251" lon="2.75083"><ele>124.0</ele></trkpt>
    <trkpt lat="48.84111" lon="2.75207"><ele>125.3</ele></trkpt>
    <trkpt lat="48.84015" lon="2.75281"><ele>126.3</ele></trkpt>
    <trkpt lat="48.83963" lon="2.753"><ele>126.9</ele></trkpt>
    <trkpt lat="48.8373" lon="2.75291"><ele>126.6</ele></trkpt>
    <trkpt lat="48.83443" lon="2.75322"><ele>125.3</ele></trkpt>
    <trkpt lat="48.83409" lon="2.7534"><ele>125.2</ele></trkpt>
    <trkpt lat="48.83198" lon="2.75492"><ele>129.5</ele></trkpt>
    <trkpt lat="48.83164" lon="2.7551"><ele>130.8</ele></trkpt>
    <trkpt lat="48.82953" lon="2.75575"><ele>133.8</ele></trkpt>
    <trkpt lat="48.82845" lon="2.75571"><ele>133.8</ele></trkpt>
    <trkpt lat="48.82327" lon="2.75478"><ele>127.5</ele></trkpt>
    <trkpt lat="48.82274" lon="2.75463"><ele>127.3</ele></trkpt>
    <trkpt lat="48.82069" lon="2.75563"><ele>125.3</ele></trkpt>
    <trkpt lat="48.81839" lon="2.7572"><ele>123.2</ele></trkpt>
    <trkpt lat="48.81789" lon="2.75749"><ele>123.1</ele></trkpt>
    <trkpt lat="48.81771" lon="2.75751"><ele>123.1</ele></trkpt>
    <trkpt lat="48.81735" lon="2.75744"><ele>123.5</ele></trkpt>
    <trkpt lat="48.81447" lon="2.75591"><ele>124.6</ele></trkpt>
    <trkpt lat="48.81306" lon="2.75543"><ele>123.7</ele></trkpt>
    <trkpt lat="48.81289" lon="2.75546"><ele>123.5</ele></trkpt>
    <trkpt lat="48.81134" lon="2.75618"><ele>122.9</ele></trkpt>
    <trkpt lat="48.80846" lon="2.75775"><ele>123.7</ele></trkpt>
    <trkpt lat="48.80709" lon="2.75841"><ele>125.7</ele></trkpt>
    <trkpt lat="48.8063" lon="2.75905"><ele>123.0</ele></trkpt>
    <trkpt lat="48.80596" lon="2.7592"><ele>121.9</ele></trkpt>
    <trkpt lat="48.8035" lon="2.76089"><ele>119.8</ele></trkpt>
    <trkpt lat="48.80314" lon="2.76097"><ele>119.5</ele></trkpt>
    <trkpt lat="48.80139" lon="2.76042"><ele>117.7</ele></trkpt>
    <trkpt lat="48.80103" lon="2.76045"><ele>117.6</ele></trkpt>
    <trkpt lat="48.79889" lon="2.76096"><ele>116.9</ele></trkpt>
    <trkpt lat="48.79859" lon="2.76123"><ele>116.9</ele></trkpt>
    <trkpt lat="48.79792" lon="2.76214"><ele>116.7</ele></trkpt>
    <trkpt lat="48.79768" lon="2.76255"><ele>116.7</ele></trkpt>
    <trkpt lat="48.79749" lon="2.76301"><ele>116.6</ele></trkpt>
    <trkpt lat="48.79713" lon="2.76425"><ele>116.1</ele></trkpt>
    <trkpt lat="48.79689" lon="2.76466"><ele>116.2</ele></trkpt>
    <trkpt lat="48.79527" lon="2.76682"><ele>116.4</ele></trkpt>
    <trkpt lat="48.7937" lon="2.76815"><ele>116.0</ele></trkpt>
    <trkpt lat="48.7932" lon="2.76845"><ele>115.9</ele></trkpt>
    <trkpt lat="48.79163" lon="2.76908"><ele>115.0</ele></trkpt>
    <trkpt lat="48.79038" lon="2.76919"><ele>113.9</ele></trkpt>
    <trkpt lat="48.78912" lon="2.76905"><ele>113.0</ele></trkpt>
    <trkpt lat="48.78877" lon="2.76907"><ele>113.2</ele></trkpt>
    <trkpt lat="48.78842" lon="2.76921"><ele>113.5</ele></trkpt>
    <trkpt lat="48.78809" lon="2.76943"><ele>113.6</ele></trkpt>
    <trkpt lat="48.78757" lon="2.77018"><ele>113.7</ele></trkpt>
    <trkpt lat="48.78742" lon="2.77031"><ele>113.6</ele></trkpt>
    <trkpt lat="48.78601" lon="2.77076"><ele>113.3</ele></trkpt>
    <trkpt lat="48.78515" lon="2.77116"><ele>113.8</ele></trkpt>
    <trkpt lat="48.78486" lon="2.77147"><ele>114.1</ele></trkpt>
    <trkpt lat="48.78396" lon="2.77318"><ele>113.6</ele></trkpt>
    <trkpt lat="48.7837" lon="2.77354"><ele>113.1</ele></trkpt>
    <trkpt lat="48.77986" lon="2.77654"><ele>111.5</ele></trkpt>
    <trkpt lat="48.7784" lon="2.7776"><ele>110.4</ele></trkpt>
    <trkpt lat="48.77782" lon="2.77823"><ele>109.9</ele></trkpt>
    <trkpt lat="48.77731" lon="2.77852"><ele>109.9</ele></trkpt>
    <trkpt lat="48.77642" lon="2.7786"><ele>109.7</ele></trkpt>
    <trkpt lat="48.7757" lon="2.77855"><ele>109.1</ele></trkpt>
    <trkpt lat="48.77517" lon="2.77839"><ele>108.4</ele></trkpt>
    <trkpt lat="48.77501" lon="2.77829"><ele>108.2</ele></trkpt>
    <trkpt lat="48.77379" lon="2.77712"><ele>109.7</ele></trkpt>
    <trkpt lat="48.77204" lon="2.7752"><ele>110.4</ele></trkpt>
    <trkpt lat="48.77187" lon="2.77516"><ele>110.1</ele></trkpt>
    <trkpt lat="48.77031" lon="2.77578"><ele>108.1</ele></trkpt>
    <trkpt lat="48.76977" lon="2.77586"><ele>107.3</ele></trkpt>
    <trkpt lat="48.76941" lon="2.77584"><ele>106.9</ele></trkpt>
    <trkpt lat="48.76709" lon="2.7754"><ele>105.6</ele></trkpt>
    <trkpt lat="48.76565" lon="2.77549"><ele>103.9</ele></trkpt>
    <trkpt lat="48.76441" lon="2.77524"><ele>102.0</ele></trkpt>
    <trkpt lat="48.76423" lon="2.77526"><ele>101.9</ele></trkpt>
    <trkpt lat="48.76372" lon="2.7755"><ele>102.0</ele></trkpt>
    <trkpt lat="48.76355" lon="2.77547"><ele>102.1</ele></trkpt>
    <trkpt lat="48.76349" lon="2.77522"><ele>102.1</ele></trkpt>
    <trkpt lat="48.76347" lon="2.77468"><ele>101.6</ele></trkpt>
    <trkpt lat="48.76341" lon="2.77443"><ele>101.3</ele></trkpt>
    <trkpt lat="48.76317" lon="2.77403"><ele>100.7</ele></trkpt>
    <trkpt lat="48.763" lon="2.77396"><ele>100.6</ele></trkpt>
    <trkpt lat="48.7627" lon="2.77425"><ele>100.6</ele></trkpt>
    <trkpt lat="48.76253" lon="2.77423"><ele>100.9</ele></trkpt>
    <trkpt lat="48.76226" lon="2.77388"><ele>101.6</ele></trkpt>
    <trkpt lat="48.76204" lon="2.77346"><ele>102.7</ele></trkpt>
    <trkpt lat="48.76127" lon="2.77275"><ele>106.1</ele></trkpt>
    <trkpt lat="48.75696" lon="2.77002"><ele>109.3</ele></trkpt>
    <trkpt lat="48.75301" lon="2.76737"><ele>101.3</ele></trkpt>
    <trkpt lat="48.74634" lon="2.76408"><ele>104.2</ele></trkpt>
    <trkpt lat="48.7459" lon="2.76365"><ele>104.3</ele></trkpt>
    <trkpt lat="48.74574" lon="2.76368"><ele>104.3</ele></trkpt>
    <trkpt lat="48.74538" lon="2.76359"><ele>104.3</ele></trkpt>
    <trkpt lat="48.74298" lon="2.76244"><ele>104.5</ele></trkpt>
    <trkpt lat="48.74263" lon="2.76236"><ele>104.2</ele></trkpt>
    <trkpt lat="48.74174" lon="2.76252"><ele>102.7</ele></trkpt>
    <trkpt lat="48.74121" lon="2.76239"><ele>101.3</ele></trkpt>
    <trkpt lat="48.73942" lon="2.76262"><ele>95.3</ele></trkpt>
    <trkpt lat="48.73914" lon="2.76237"><ele>95.3</ele></trkpt>
    <trkpt lat="48.7382" lon="2.76038"><ele>100.0</ele></trkpt>
    <trkpt lat="48.73863" lon="2.75956"><ele>103.2</ele></trkpt>
    <trkpt lat="48.73875" lon="2.75904"><ele>104.5</ele></trkpt>
    <trkpt lat="48.73908" lon="2.74433"><ele>103.7</ele></trkpt>
    <trkpt lat="48.73912" lon="2.74406"><ele>103.4</ele></trkpt>
    <trkpt lat="48.73933" lon="2.74363"><ele>103.0</ele></trkpt>
    <trkpt lat="48.74013" lon="2.74301"><ele>101.1</ele></trkpt>
    <trkpt lat="48.74026" lon="2.74282"><ele>100.6</ele></trkpt>
    <trkpt lat="48.7404" lon="2.74233"><ele>99.7</ele></trkpt>
    <trkpt lat="48.74026" lon="2.74071"><ele>100.2</ele></trkpt>
    <trkpt lat="48.74019" lon="2.74047"><ele>100.8</ele></trkpt>
    <trkpt lat="48.7397" lon="2.73967"><ele>102.7</ele></trkpt>
    <trkpt lat="48.73968" lon="2.7394"><ele>103.0</ele></trkpt>
    <trkpt lat="48.73974" lon="2.73915"><ele>103.2</ele></trkpt>
    <trkpt lat="48.74059" lon="2.7374"><ele>104.0</ele></trkpt>
    <trkpt lat="48.74107" lon="2.73624"><ele>104.4</ele></trkpt>
    <trkpt lat="48.74213" lon="2.73521"><ele>105.9</ele></trkpt>
    <trkpt lat="48.7422" lon="2.73506"><ele>106.0</ele></trkpt>
    <trkpt lat="48.74221" lon="2.73482"><ele>106.2</ele></trkpt>
    <trkpt lat="48.73584" lon="2.70586"><ele>104.3</ele></trkpt>
    <trkpt lat="48.73586" lon="2.70531"><ele>104.7</ele></trkpt>
    <trkpt lat="48.73608" lon="2.70457"><ele>105.7</ele></trkpt>
    <trkpt lat="48.73647" lon="2.70365"><ele>107.8</ele></trkpt>
    <trkpt lat="48.73728" lon="2.70219"><ele>110.3</ele></trkpt>
    <trkpt lat="48.73741" lon="2.70143"><ele>110.1</ele></trkpt>
    <trkpt lat="48.73475" lon="2.70087"><ele>104.2</ele></trkpt>
    <trkpt lat="48.7346" lon="2.70038"><ele>104.2</ele></trkpt>
    <trkpt lat="48.73339" lon="2.69496"><ele>106.0</ele></trkpt>
    <trkpt lat="48.72911" lon="2.67556"><ele>102.0</ele></trkpt>
    <trkpt lat="48.72614" lon="2.66623"><ele>100.7</ele></trkpt>
    <trkpt lat="48.72619" lon="2.666"><ele>100.8</ele></trkpt>
    <trkpt lat="48.72596" lon="2.66569"><ele>100.9</ele></trkpt>
    <trkpt lat="48.72552" lon="2.66421"><ele>101.4</ele></trkpt>
    <trkpt lat="48.72498" lon="2.65937"><ele>100.7</ele></trkpt>
    <trkpt lat="48.72434" lon="2.65541"><ele>100.8</ele></trkpt>
    <trkpt lat="48.72417" lon="2.65536"><ele>100.8</ele></trkpt>
    <trkpt lat="48.724" lon="2.65542"><ele>100.9</ele></trkpt>
    <trkpt lat="48.72383" lon="2.65535"><ele>100.9</ele></trkpt>
    <trkpt lat="48.7216" lon="2.65222"><ele>102.1</ele></trkpt>
    <trkpt lat="48.72631" lon="2.64326"><ele>98.3</ele></trkpt>
    <trkpt lat="48.72703" lon="2.6417"><ele>97.3</ele></trkpt>
    <trkpt lat="48.72757" lon="2.64098"><ele>97.3</ele></trkpt>
    <trkpt lat="48.72822" lon="2.63967"><ele>97.0</ele></trkpt>
    <trkpt lat="48.72959" lon="2.63615"><ele>97.6</ele></trkpt>
    <trkpt lat="48.72973" lon="2.63565"><ele>97.9</ele></trkpt>
    <trkpt lat="48.73028" lon="2.63306"><ele>96.4</ele></trkpt>
    <trkpt lat="48.73042" lon="2.63298"><ele>95.6</ele></trkpt>
    <trkpt lat="48.73149" lon="2.6332"><ele>92.1</ele></trkpt>
    <trkpt lat="48.73165" lon="2.63309"><ele>91.8</ele></trkpt>
    <trkpt lat="48.73191" lon="2.63179"><ele>89.5</ele></trkpt>
    <trkpt lat="48.73227" lon="2.62912"><ele>85.5</ele></trkpt>
    <trkpt lat="48.73269" lon="2.62762"><ele>81.6</ele></trkpt>
    <trkpt lat="48.73458" lon="2.62852"><ele>91.6</ele></trkpt>
    <trkpt lat="48.73523" lon="2.62898"><ele>96.4</ele></trkpt>
    <trkpt lat="48.73552" lon="2.6293"><ele>98.1</ele></trkpt>
    <trkpt lat="48.73587" lon="2.63024"><ele>99.2</ele></trkpt>
    <trkpt lat="48.73604" lon="2.63029"><ele>99.0</ele></trkpt>
    <trkpt lat="48.73615" lon="2.63009"><ele>98.8</ele></trkpt>
    <trkpt lat="48.73647" lon="2.62912"><ele>98.8</ele></trkpt>
    <trkpt lat="48.73672" lon="2.62873"><ele>99.4</ele></trkpt>
    <trkpt lat="48.73757" lon="2.62828"><ele>100.2</ele></trkpt>
    <trkpt lat="48.73889" lon="2.62742"><ele>98.6</ele></trkpt>
    <trkpt lat="48.74011" lon="2.62694"><ele>98.1</ele></trkpt>
    <trkpt lat="48.74027" lon="2.62683"><ele>97.5</ele></trkpt>
    <trkpt lat="48.74041" lon="2.62665"><ele>96.9</ele></trkpt>
    <trkpt lat="48.74531" lon="2.61867"><ele>96.8</ele></trkpt>
    <trkpt lat="48.74588" lon="2.61728"><ele>96.9</ele></trkpt>
    <trkpt lat="48.74588" lon="2.61706"><ele>96.8</ele></trkpt>
    <trkpt lat="48.74391" lon="2.61515"><ele>97.0</ele></trkpt>
    <trkpt lat="48.74393" lon="2.61495"><ele>97.3</ele></trkpt>
    <trkpt lat="48.7444" lon="2.61319"><ele>98.0</ele></trkpt>
    <trkpt lat="48.74433" lon="2.61296"><ele>97.8</ele></trkpt>
    <trkpt lat="48.74441" lon="2.61276"><ele>97.7</ele></trkpt>
    <trkpt lat="48.74434" lon="2.61252"><ele>97.6</ele></trkpt>
    <trkpt lat="48.74422" lon="2.61232"><ele>97.5</ele></trkpt>
    <trkpt lat="48.74307" lon="2.61101"><ele>97.7</ele></trkpt>
    <trkpt lat="48.74128" lon="2.60873"><ele>97.1</ele></trkpt>
    <trkpt lat="48.74036" lon="2.60789"><ele>96.3</ele></trkpt>
    <trkpt lat="48.73733" lon="2.60618"><ele>88.0</ele></trkpt>
    <trkpt lat="48.73708" lon="2.60581"><ele>87.1</ele></trkpt>
    <trkpt lat="48.73674" lon="2.60584"><ele>86.7</ele></trkpt>
    <trkpt lat="48.73267" lon="2.60363"><ele>93.0</ele></trkpt>
    <trkpt lat="48.72999" lon="2.60205"><ele>94.0</ele></trkpt>
    <trkpt lat="48.72986" lon="2.60188"><ele>93.9</ele></trkpt>
    <trkpt lat="48.7298" lon="2.60163"><ele>93.7</ele></trkpt>
    <trkpt lat="48.72947" lon="2.60148"><ele>93.5</ele></trkpt>
    <trkpt lat="48.72933" lon="2.60131"><ele>93.4</ele></trkpt>
    <trkpt lat="48.72791" lon="2.59922"><ele>91.8</ele></trkpt>
    <trkpt lat="48.72636" lon="2.59735"><ele>89.6</ele></trkpt>
    <trkpt lat="48.72572" lon="2.59639"><ele>85.7</ele></trkpt>
    <trkpt lat="48.7248" lon="2.59472"><ele>84.3</ele></trkpt>
    <trkpt lat="48.72334" lon="2.58974"><ele>88.5</ele></trkpt>
    <trkpt lat="48.72316" lon="2.58927"><ele>88.6</ele></trkpt>
    <trkpt lat="48.72312" lon="2.58905"><ele>88.7</ele></trkpt>
    <trkpt lat="48.72338" lon="2.58775"><ele>88.6</ele></trkpt>
    <trkpt lat="48.72351" lon="2.58668"><ele>88.0</ele></trkpt>
    <trkpt lat="48.72389" lon="2.58486"><ele>87.3</ele></trkpt>
    <trkpt lat="48.72462" lon="2.58298"><ele>85.1</ele></trkpt>
    <trkpt lat="48.72517" lon="2.58126"><ele>78.8</ele></trkpt>
    <trkpt lat="48.72554" lon="2.57916"><ele>76.7</ele></trkpt>
    <trkpt lat="48.72574" lon="2.5784"><ele>79.1</ele></trkpt>
    <trkpt lat="48.726" lon="2.57809"><ele>81.4</ele></trkpt>
    <trkpt lat="48.72651" lon="2.57781"><ele>84.6</ele></trkpt>
    <trkpt lat="48.72827" lon="2.57728"><ele>90.1</ele></trkpt>
    <trkpt lat="48.72845" lon="2.57728"><ele>90.5</ele></trkpt>
    <trkpt lat="48.7286" lon="2.57741"><ele>90.9</ele></trkpt>
    <trkpt lat="48.72877" lon="2.57733"><ele>91.2</ele></trkpt>
    <trkpt lat="48.72889" lon="2.57713"><ele>91.4</ele></trkpt>
    <trkpt lat="48.72952" lon="2.57664"><ele>92.0</ele></trkpt>
    <trkpt lat="48.72988" lon="2.57604"><ele>92.3</ele></trkpt>
    <trkpt lat="48.73005" lon="2.57556"><ele>92.4</ele></trkpt>
    <trkpt lat="48.7304" lon="2.57372"><ele>93.0</ele></trkpt>
    <trkpt lat="48.73086" lon="2.57081"><ele>94.1</ele></trkpt>
    <trkpt lat="48.73112" lon="2.56866"><ele>94.0</ele></trkpt>
    <trkpt lat="48.73114" lon="2.56812"><ele>93.6</ele></trkpt>
    <trkpt lat="48.73129" lon="2.56771"><ele>93.3</ele></trkpt>
    <trkpt lat="48.732" lon="2.56686"><ele>92.2</ele></trkpt>
    <trkpt lat="48.73374" lon="2.56545"><ele>90.4</ele></trkpt>
    <trkpt lat="48.73407" lon="2.56522"><ele>90.5</ele></trkpt>
    <trkpt lat="48.73477" lon="2.56499"><ele>90.9</ele></trkpt>
    <trkpt lat="48.7351" lon="2.56478"><ele>91.3</ele></trkpt>
    <trkpt lat="48.73688" lon="2.56512"><ele>94.3</ele></trkpt>
    <trkpt lat="48.73778" lon="2.56519"><ele>95.2</ele></trkpt>
    <trkpt lat="48.73813" lon="2.56513"><ele>95.5</ele></trkpt>
    <trkpt lat="48.73826" lon="2.56497"><ele>95.7</ele></trkpt>
    <trkpt lat="48.73841" lon="2.56493"><ele>95.8</ele></trkpt>
    <trkpt lat="48.73842" lon="2.56469"><ele>96.0</ele></trkpt>
    <trkpt lat="48.73835" lon="2.56449"><ele>96.2</ele></trkpt>
    <trkpt lat="48.73831" lon="2.56395"><ele>96.5</ele></trkpt>
    <trkpt lat="48.73833" lon="2.56341"><ele>96.7</ele></trkpt>
    <trkpt lat="48.7385" lon="2.56264"><ele>96.9</ele></trkpt>
    <trkpt lat="48.73888" lon="2.56212"><ele>97.1</ele></trkpt>
    <trkpt lat="48.73919" lon="2.56186"><ele>97.2</ele></trkpt>
    <trkpt lat="48.73988" lon="2.56158"><ele>97.5</ele></trkpt>
    <trkpt lat="48.74078" lon="2.56144"><ele>97.6</ele></trkpt>
    <trkpt lat="48.74091" lon="2.56156"><ele>97.7</ele></trkpt>
    <trkpt lat="48.74106" lon="2.56156"><ele>97.6</ele></trkpt>
    <trkpt lat="48.74118" lon="2.56142"><ele>97.6</ele></trkpt>
    <trkpt lat="48.74172" lon="2.56131"><ele>97.6</ele></trkpt>
    <trkpt lat="48.74204" lon="2.56107"><ele>97.5</ele></trkpt>
    <trkpt lat="48.74217" lon="2.56089"><ele>97.4</ele></trkpt>
    <trkpt lat="48.74247" lon="2.56021"><ele>97.2</ele></trkpt>
    <trkpt lat="48.74241" lon="2.55859"><ele>97.4</ele></trkpt>
    <trkpt lat="48.74258" lon="2.55753"><ele>97.5</ele></trkpt>
    <trkpt lat="48.74265" lon="2.55673"><ele>97.5</ele></trkpt>
    <trkpt lat="48.74277" lon="2.55668"><ele>97.5</ele></trkpt>
    <trkpt lat="48.74294" lon="2.55677"><ele>97.5</ele></trkpt>
    <trkpt lat="48.74311" lon="2.5567"><ele>97.5</ele></trkpt>
    <trkpt lat="48.74324" lon="2.55656"><ele>97.5</ele></trkpt>
    <trkpt lat="48.74423" lon="2.55718"><ele>97.6</ele></trkpt>
    <trkpt lat="48.74441" lon="2.55722"><ele>97.7</ele></trkpt>
    <trkpt lat="48.74529" lon="2.55696"><ele>98.2</ele></trkpt>
    <trkpt lat="48.74582" lon="2.55707"><ele>98.1</ele></trkpt>
    <trkpt lat="48.74618" lon="2.55706"><ele>97.9</ele></trkpt>
    <trkpt lat="48.74634" lon="2.55718"><ele>97.8</ele></trkpt>
    <trkpt lat="48.7466" lon="2.55699"><ele>97.7</ele></trkpt>
    <trkpt lat="48.74678" lon="2.55697"><ele>97.7</ele></trkpt>
    <trkpt lat="48.75523" lon="2.55733"><ele>103.1</ele></trkpt>
    <trkpt lat="48.75539" lon="2.55724"><ele>103.1</ele></trkpt>
    <trkpt lat="48.75862" lon="2.55344"><ele>101.8</ele></trkpt>
    <trkpt lat="48.76047" lon="2.55239"><ele>101.1</ele></trkpt>
    <trkpt lat="48.76057" lon="2.55223"><ele>101.1</ele></trkpt>
    <trkpt lat="48.76071" lon="2.55173"><ele>100.9</ele></trkpt>
    <trkpt lat="48.76101" lon="2.55044"><ele>100.9</ele></trkpt>
    <trkpt lat="48.76122" lon="2.54891"><ele>100.1</ele></trkpt>
    <trkpt lat="48.76119" lon="2.54867"><ele>99.9</ele></trkpt>
    <trkpt lat="48.7615" lon="2.54543"><ele>98.7</ele></trkpt>
    <trkpt lat="48.76231" lon="2.53928"><ele>98.1</ele></trkpt>
    <trkpt lat="48.76325" lon="2.53673"><ele>97.3</ele></trkpt>
    <trkpt lat="48.76397" lon="2.53559"><ele>96.3</ele></trkpt>
    <trkpt lat="48.76533" lon="2.53427"><ele>97.7</ele></trkpt>
    <trkpt lat="48.76562" lon="2.53393"><ele>98.2</ele></trkpt>
    <trkpt lat="48.76588" lon="2.53356"><ele>98.6</ele></trkpt>
    <trkpt lat="48.76659" lon="2.53233"><ele>99.2</ele></trkpt>
    <trkpt lat="48.76686" lon="2.53201"><ele>99.3</ele></trkpt>
    <trkpt lat="48.76695" lon="2.5315"><ele>99.5</ele></trkpt>
    <trkpt lat="48.76764" lon="2.52991"><ele>100.0</ele></trkpt>
    <trkpt lat="48.768" lon="2.52896"><ele>100.2</ele></trkpt>
    <trkpt lat="48.76811" lon="2.52875"><ele>100.2</ele></trkpt>
    <trkpt lat="48.76826" lon="2.5286"><ele>100.1</ele></trkpt>
    <trkpt lat="48.7686" lon="2.52846"><ele>99.9</ele></trkpt>
    <trkpt lat="48.76864" lon="2.52824"><ele>99.8</ele></trkpt>
    <trkpt lat="48.77014" lon="2.52421"><ele>97.5</ele></trkpt>
    <trkpt lat="48.7705" lon="2.52242"><ele>93.9</ele></trkpt>
    <trkpt lat="48.77085" lon="2.52232"><ele>92.7</ele></trkpt>
    <trkpt lat="48.77091" lon="2.52156"><ele>89.5</ele></trkpt>
    <trkpt lat="48.77118" lon="2.52121"><ele>86.8</ele></trkpt>
    <trkpt lat="48.77202" lon="2.51979"><ele>75.8</ele></trkpt>
    <trkpt lat="48.7737" lon="2.51733"><ele>57.0</ele></trkpt>
    <trkpt lat="48.77535" lon="2.51522"><ele>43.1</ele></trkpt>
    <trkpt lat="48.77655" lon="2.51402"><ele>37.2</ele></trkpt>
    <trkpt lat="48.77773" lon="2.51233"><ele>37.5</ele></trkpt>
    <trkpt lat="48.77797" lon="2.51192"><ele>37.6</ele></trkpt>
    <trkpt lat="48.77805" lon="2.51168"><ele>37.7</ele></trkpt>
    <trkpt lat="48.78072" lon="2.51218"><ele>40.6</ele></trkpt>
    <trkpt lat="48.78105" lon="2.51234"><ele>40.1</ele></trkpt>
    <trkpt lat="48.78135" lon="2.51265"><ele>39.6</ele></trkpt>
    <trkpt lat="48.78327" lon="2.51512"><ele>36.1</ele></trkpt>
    <trkpt lat="48.78378" lon="2.51536"><ele>36.3</ele></trkpt>
    <trkpt lat="48.7843" lon="2.51646"><ele>36.6</ele></trkpt>
    <trkpt lat="48.78746" lon="2.52052"><ele>37.3</ele></trkpt>
    <trkpt lat="48.79024" lon="2.52242"><ele>40.2</ele></trkpt>
    <trkpt lat="48.79087" lon="2.5211"><ele>37.1</ele></trkpt>
    <trkpt lat="48.79094" lon="2.52086"><ele>36.8</ele></trkpt>
    <trkpt lat="48.79125" lon="2.52099"><ele>36.2</ele></trkpt>
    <trkpt lat="48.79142" lon="2.52093"><ele>36.0</ele></trkpt>
    <trkpt lat="48.79164" lon="2.5205"><ele>35.6</ele></trkpt>
    <trkpt lat="48.7918" lon="2.52041"><ele>35.5</ele></trkpt>
    <trkpt lat="48.79196" lon="2.52051"><ele>35.4</ele></trkpt>
    <trkpt lat="48.79199" lon="2.52077"><ele>35.3</ele></trkpt>
    <trkpt lat="48.79196" lon="2.52131"><ele>35.2</ele></trkpt>
    <trkpt lat="48.79207" lon="2.5215"><ele>35.2</ele></trkpt>
    <trkpt lat="48.79312" lon="2.52185"><ele>35.1</ele></trkpt>
    <trkpt lat="48.794" lon="2.52188"><ele>35.0</ele></trkpt>
    <trkpt lat="48.79701" lon="2.52246"><ele>34.9</ele></trkpt>
    <trkpt lat="48.79879" lon="2.52208"><ele>35.1</ele></trkpt>
    <trkpt lat="48.79986" lon="2.52199"><ele>35.0</ele></trkpt>
    <trkpt lat="48.80164" lon="2.52231"><ele>34.7</ele></trkpt>
    <trkpt lat="48.80235" lon="2.52226"><ele>34.9</ele></trkpt>
    <trkpt lat="48.80377" lon="2.52192"><ele>34.9</ele></trkpt>
    <trkpt lat="48.8043" lon="2.52173"><ele>35.0</ele></trkpt>
    <trkpt lat="48.80447" lon="2.52174"><ele>35.0</ele></trkpt>
    <trkpt lat="48.80456" lon="2.52154"><ele>35.1</ele></trkpt>
    <trkpt lat="48.80657" lon="2.51979"><ele>35.4</ele></trkpt>
    <trkpt lat="48.8074" lon="2.51875"><ele>35.3</ele></trkpt>
    <trkpt lat="48.80801" lon="2.51775"><ele>35.5</ele></trkpt>
    <trkpt lat="48.8084" lon="2.51683"><ele>35.8</ele></trkpt>
    <trkpt lat="48.80856" lon="2.51635"><ele>35.8</ele></trkpt>
    <trkpt lat="48.8086" lon="2.51608"><ele>35.8</ele></trkpt>
    <trkpt lat="48.80901" lon="2.51457"><ele>36.0</ele></trkpt>
    <trkpt lat="48.80922" lon="2.51297"><ele>36.1</ele></trkpt>
    <trkpt lat="48.80947" lon="2.50999"><ele>39.6</ele></trkpt>
    <trkpt lat="48.80953" lon="2.50977"><ele>40.3</ele></trkpt>
    <trkpt lat="48.81023" lon="2.50999"><ele>42.8</ele></trkpt>
  </trkseg></trk>
</gpx>
