<?xml version="1.0" encoding="UTF-8"?>
<gpx version="1.1" creator="Club Cycliste USO" xmlns="http://www.topografix.com/GPX/1/1">
  <metadata><name>Fontenay-Trésigny – 95 km</name><desc>94.8 km, D+ 364 m. Départ et arrivée : pont de Champigny.</desc></metadata>
  <trk><name>Fontenay-Trésigny – 95 km</name><trkseg>
    <trkpt lat="48.81032" lon="2.51002"><ele>42.8</ele></trkpt>
    <trkpt lat="48.80962" lon="2.50978"><ele>40.6</ele></trkpt>
    <trkpt lat="48.80948" lon="2.50985"><ele>39.9</ele></trkpt>
    <trkpt lat="48.80909" lon="2.51417"><ele>36.0</ele></trkpt>
    <trkpt lat="48.80853" lon="2.51646"><ele>35.8</ele></trkpt>
    <trkpt lat="48.80807" lon="2.51764"><ele>35.5</ele></trkpt>
    <trkpt lat="48.80747" lon="2.51865"><ele>35.3</ele></trkpt>
    <trkpt lat="48.80664" lon="2.51971"><ele>35.4</ele></trkpt>
    <trkpt lat="48.80464" lon="2.52147"><ele>35.1</ele></trkpt>
    <trkpt lat="48.80439" lon="2.52176"><ele>35.0</ele></trkpt>
    <trkpt lat="48.80421" lon="2.52175"><ele>35.0</ele></trkpt>
    <trkpt lat="48.80369" lon="2.52194"><ele>34.9</ele></trkpt>
    <trkpt lat="48.80227" lon="2.52227"><ele>34.9</ele></trkpt>
    <trkpt lat="48.80156" lon="2.52229"><ele>34.7</ele></trkpt>
    <trkpt lat="48.79995" lon="2.52199"><ele>34.9</ele></trkpt>
    <trkpt lat="48.79888" lon="2.52207"><ele>35.1</ele></trkpt>
    <trkpt lat="48.79693" lon="2.52244"><ele>35.0</ele></trkpt>
    <trkpt lat="48.79392" lon="2.52185"><ele>35.0</ele></trkpt>
    <trkpt lat="48.79375" lon="2.5219"><ele>35.1</ele></trkpt>
    <trkpt lat="48.79303" lon="2.52184"><ele>35.1</ele></trkpt>
    <trkpt lat="48.79216" lon="2.52154"><ele>35.2</ele></trkpt>
    <trkpt lat="48.792" lon="2.52143"><ele>35.2</ele></trkpt>
    <trkpt lat="48.79195" lon="2.52118"><ele>35.3</ele></trkpt>
    <trkpt lat="48.792" lon="2.52064"><ele>35.4</ele></trkpt>
    <trkpt lat="48.79189" lon="2.52044"><ele>35.4</ele></trkpt>
    <trkpt lat="48.79172" lon="2.52043"><ele>35.5</ele></trkpt>
    <trkpt lat="48.79149" lon="2.52084"><ele>35.9</ele></trkpt>
    <trkpt lat="48.79135" lon="2.52099"><ele>36.1</ele></trkpt>
    <trkpt lat="48.79101" lon="2.52086"><ele>36.3</ele></trkpt>
    <trkpt lat="48.79085" lon="2.52092"><ele>36.3</ele></trkpt>
    <trkpt lat="48.79027" lon="2.5223"><ele>36.4</ele></trkpt>
    <trkpt lat="48.79016" lon="2.52239"><ele>36.4</ele></trkpt>
    <trkpt lat="48.78739" lon="2.52043"><ele>38.0</ele></trkpt>
    <trkpt lat="48.78437" lon="2.51655"><ele>39.3</ele></trkpt>
    <trkpt lat="48.78424" lon="2.51636"><ele>39.4</ele></trkpt>
    <trkpt lat="48.78383" lon="2.51547"><ele>39.5</ele></trkpt>
    <trkpt lat="48.7837" lon="2.51529"><ele>39.6</ele></trkpt>
    <trkpt lat="48.78335" lon="2.51517"><ele>39.7</ele></trkpt>
    <trkpt lat="48.7832" lon="2.51504"><ele>39.7</ele></trkpt>
    <trkpt lat="48.78142" lon="2.51274"><ele>39.7</ele></trkpt>
    <trkpt lat="48.78097" lon="2.51228"><ele>39.4</ele></trkpt>
    <trkpt lat="48.7808" lon="2.5122"><ele>39.3</ele></trkpt>
    <trkpt lat="48.77492" lon="2.51101"><ele>38.9</ele></trkpt>
    <trkpt lat="48.77459" lon="2.51105"><ele>39.0</ele></trkpt>
    <trkpt lat="48.77445" lon="2.51092"><ele>39.1</ele></trkpt>
    <trkpt lat="48.7732" lon="2.51067"><ele>39.3</ele></trkpt>
    <trkpt lat="48.77304" lon="2.51057"><ele>39.3</ele></trkpt>
    <trkpt lat="48.77152" lon="2.5091"><ele>38.7</ele></trkpt>
    <trkpt lat="48.77038" lon="2.50831"><ele>38.4</ele></trkpt>
    <trkpt lat="48.7702" lon="2.50825"><ele>38.5</ele></trkpt>
    <trkpt lat="48.77005" lon="2.50838"><ele>38.5</ele></trkpt>
    <trkpt lat="48.76714" lon="2.51152"><ele>44.2</ele></trkpt>
    <trkpt lat="48.76683" lon="2.51219"><ele>46.6</ele></trkpt>
    <trkpt lat="48.76668" lon="2.51297"><ele>49.4</ele></trkpt>
    <trkpt lat="48.7667" lon="2.51378"><ele>52.6</ele></trkpt>
    <trkpt lat="48.76745" lon="2.51685"><ele>63.7</ele></trkpt>
    <trkpt lat="48.76756" lon="2.51699"><ele>64.8</ele></trkpt>
    <trkpt lat="48.7681" lon="2.51701"><ele>69.6</ele></trkpt>
    <trkpt lat="48.76849" lon="2.51752"><ele>75.6</ele></trkpt>
    <trkpt lat="48.76868" lon="2.51798"><ele>78.9</ele></trkpt>
    <trkpt lat="48.76909" lon="2.52007"><ele>88.7</ele></trkpt>
    <trkpt lat="48.7695" lon="2.52058"><ele>92.7</ele></trkpt>
    <trkpt lat="48.76907" lon="2.52102"><ele>95.2</ele></trkpt>
    <trkpt lat="48.76904" lon="2.52143"><ele>96.5</ele></trkpt>
    <trkpt lat="48.7679" lon="2.52223"><ele>99.8</ele></trkpt>
    <trkpt lat="48.7679" lon="2.52244"><ele>100.2</ele></trkpt>
    <trkpt lat="48.76803" lon="2.52295"><ele>100.9</ele></trkpt>
    <trkpt lat="48.76825" lon="2.52337"><ele>101.5</ele></trkpt>
    <trkpt lat="48.76833" lon="2.52362"><ele>101.9</ele></trkpt>
    <trkpt lat="48.76838" lon="2.52388"><ele>102.1</ele></trkpt>
    <trkpt lat="48.76837" lon="2.52413"><ele>102.3</ele></trkpt>
    <trkpt lat="48.76847" lon="2.52433"><ele>102.4</ele></trkpt>
    <trkpt lat="48.76859" lon="2.52484"><ele>102.5</ele></trkpt>
    <trkpt lat="48.76856" lon="2.52812"><ele>101.1</ele></trkpt>
    <trkpt lat="48.76851" lon="2.52835"><ele>100.8</ele></trkpt>
    <trkpt lat="48.76818" lon="2.52854"><ele>100.2</ele></trkpt>
    <trkpt lat="48.76804" lon="2.52872"><ele>100.0</ele></trkpt>
    <trkpt lat="48.76671" lon="2.53195"><ele>96.9</ele></trkpt>
    <trkpt lat="48.76576" lon="2.5336"><ele>95.6</ele></trkpt>
    <trkpt lat="48.7655" lon="2.53397"><ele>95.4</ele></trkpt>
    <trkpt lat="48.76414" lon="2.53529"><ele>95.4</ele></trkpt>
    <trkpt lat="48.76359" lon="2.536"><ele>96.1</ele></trkpt>
    <trkpt lat="48.76343" lon="2.5361"><ele>96.4</ele></trkpt>
    <trkpt lat="48.76312" lon="2.53707"><ele>97.8</ele></trkpt>
    <trkpt lat="48.76299" lon="2.53722"><ele>98.2</ele></trkpt>
    <trkpt lat="48.76298" lon="2.53744"><ele>98.7</ele></trkpt>
    <trkpt lat="48.7623" lon="2.53936"><ele>100.7</ele></trkpt>
    <trkpt lat="48.76149" lon="2.54551"><ele>102.6</ele></trkpt>
    <trkpt lat="48.76119" lon="2.54875"><ele>102.0</ele></trkpt>
    <trkpt lat="48.76111" lon="2.54896"><ele>101.8</ele></trkpt>
    <trkpt lat="48.76095" lon="2.54907"><ele>101.6</ele></trkpt>
    <trkpt lat="48.75798" lon="2.55017"><ele>100.5</ele></trkpt>
    <trkpt lat="48.75847" lon="2.55333"><ele>100.9</ele></trkpt>
    <trkpt lat="48.75845" lon="2.55356"><ele>101.1</ele></trkpt>
    <trkpt lat="48.75833" lon="2.55376"><ele>101.2</ele></trkpt>
    <trkpt lat="48.75535" lon="2.55728"><ele>102.9</ele></trkpt>
    <trkpt lat="48.75518" lon="2.55732"><ele>102.9</ele></trkpt>
    <trkpt lat="48.74709" lon="2.557"><ele>98.9</ele></trkpt>
    <trkpt lat="48.74655" lon="2.55694"><ele>98.1</ele></trkpt>
    <trkpt lat="48.74639" lon="2.55685"><ele>97.8</ele></trkpt>
    <trkpt lat="48.74625" lon="2.55698"><ele>97.6</ele></trkpt>
    <trkpt lat="48.74571" lon="2.55699"><ele>97.0</ele></trkpt>
    <trkpt lat="48.74517" lon="2.55691"><ele>96.6</ele></trkpt>
    <trkpt lat="48.74448" lon="2.55715"><ele>96.3</ele></trkpt>
    <trkpt lat="48.74413" lon="2.55705"><ele>96.2</ele></trkpt>
    <trkpt lat="48.74313" lon="2.55643"><ele>96.0</ele></trkpt>
    <trkpt lat="48.74312" lon="2.55616"><ele>96.0</ele></trkpt>
    <trkpt lat="48.74298" lon="2.55601"><ele>96.0</ele></trkpt>
    <trkpt lat="48.74281" lon="2.55607"><ele>96.1</ele></trkpt>
    <trkpt lat="48.74273" lon="2.55631"><ele>96.1</ele></trkpt>
    <trkpt lat="48.74275" lon="2.55655"><ele>96.1</ele></trkpt>
    <trkpt lat="48.74263" lon="2.55676"><ele>96.2</ele></trkpt>
    <trkpt lat="48.74258" lon="2.55757"><ele>96.3</ele></trkpt>
    <trkpt lat="48.74243" lon="2.55836"><ele>96.4</ele></trkpt>
    <trkpt lat="48.74241" lon="2.55999"><ele>96.7</ele></trkpt>
    <trkpt lat="48.74224" lon="2.56076"><ele>96.8</ele></trkpt>
    <trkpt lat="48.74198" lon="2.56112"><ele>96.9</ele></trkpt>
    <trkpt lat="48.74165" lon="2.56134"><ele>97.0</ele></trkpt>
    <trkpt lat="48.74112" lon="2.56143"><ele>97.0</ele></trkpt>
    <trkpt lat="48.74101" lon="2.56125"><ele>97.0</ele></trkpt>
    <trkpt lat="48.74073" lon="2.56144"><ele>96.9</ele></trkpt>
    <trkpt lat="48.74001" lon="2.56155"><ele>96.7</ele></trkpt>
    <trkpt lat="48.73948" lon="2.56171"><ele>96.5</ele></trkpt>
    <trkpt lat="48.73914" lon="2.56189"><ele>96.4</ele></trkpt>
    <trkpt lat="48.73853" lon="2.56243"><ele>95.9</ele></trkpt>
    <trkpt lat="48.73832" lon="2.56346"><ele>95.2</ele></trkpt>
    <trkpt lat="48.73835" lon="2.56454"><ele>94.2</ele></trkpt>
    <trkpt lat="48.73822" lon="2.56468"><ele>93.8</ele></trkpt>
    <trkpt lat="48.73823" lon="2.56493"><ele>93.4</ele></trkpt>
    <trkpt lat="48.73813" lon="2.56513"><ele>93.1</ele></trkpt>
    <trkpt lat="48.73796" lon="2.56519"><ele>92.8</ele></trkpt>
    <trkpt lat="48.73706" lon="2.56515"><ele>91.9</ele></trkpt>
    <trkpt lat="48.73563" lon="2.56491"><ele>90.8</ele></trkpt>
    <trkpt lat="48.73546" lon="2.56484"><ele>90.6</ele></trkpt>
    <trkpt lat="48.7353" lon="2.56437"><ele>90.3</ele></trkpt>
    <trkpt lat="48.73513" lon="2.56437"><ele>90.2</ele></trkpt>
    <trkpt lat="48.73492" lon="2.56482"><ele>90.1</ele></trkpt>
    <trkpt lat="48.73479" lon="2.56498"><ele>90.1</ele></trkpt>
    <trkpt lat="48.73392" lon="2.56532"><ele>90.5</ele></trkpt>
    <trkpt lat="48.73187" lon="2.567"><ele>91.5</ele></trkpt>
    <trkpt lat="48.73131" lon="2.56769"><ele>92.2</ele></trkpt>
    <trkpt lat="48.73114" lon="2.56809"><ele>92.6</ele></trkpt>
    <trkpt lat="48.73112" lon="2.56863"><ele>92.9</ele></trkpt>
    <trkpt lat="48.7307" lon="2.57185"><ele>92.9</ele></trkpt>
    <trkpt lat="48.73036" lon="2.57396"><ele>92.0</ele></trkpt>
    <trkpt lat="48.73006" lon="2.57553"><ele>91.0</ele></trkpt>
    <trkpt lat="48.72991" lon="2.57602"><ele>90.5</ele></trkpt>
    <trkpt lat="48.72955" lon="2.57663"><ele>89.7</ele></trkpt>
    <trkpt lat="48.72923" lon="2.57688"><ele>89.0</ele></trkpt>
    <trkpt lat="48.72906" lon="2.57695"><ele>88.5</ele></trkpt>
    <trkpt lat="48.72889" lon="2.5769"><ele>88.0</ele></trkpt>
    <trkpt lat="48.72875" lon="2.57674"><ele>87.4</ele></trkpt>
    <trkpt lat="48.72858" lon="2.5767"><ele>86.8</ele></trkpt>
    <trkpt lat="48.72831" lon="2.57702"><ele>85.7</ele></trkpt>
    <trkpt lat="48.7278" lon="2.57731"><ele>84.5</ele></trkpt>
    <trkpt lat="48.72641" lon="2.57785"><ele>82.3</ele></trkpt>
    <trkpt lat="48.72591" lon="2.57817"><ele>81.9</ele></trkpt>
    <trkpt lat="48.72576" lon="2.57817"><ele>81.8</ele></trkpt>
    <trkpt lat="48.72575" lon="2.5784"><ele>81.9</ele></trkpt>
    <trkpt lat="48.72554" lon="2.57915"><ele>82.3</ele></trkpt>
    <trkpt lat="48.7251" lon="2.58151"><ele>83.7</ele></trkpt>
    <trkpt lat="48.72462" lon="2.58297"><ele>84.7</ele></trkpt>
    <trkpt lat="48.7239" lon="2.58485"><ele>85.1</ele></trkpt>
    <trkpt lat="48.72352" lon="2.58667"><ele>84.6</ele></trkpt>
    <trkpt lat="48.72338" lon="2.58774"><ele>83.9</ele></trkpt>
    <trkpt lat="48.72312" lon="2.58905"><ele>82.8</ele></trkpt>
    <trkpt lat="48.723" lon="2.58912"><ele>82.5</ele></trkpt>
    <trkpt lat="48.72265" lon="2.58909"><ele>81.8</ele></trkpt>
    <trkpt lat="48.71942" lon="2.58952"><ele>78.3</ele></trkpt>
    <trkpt lat="48.71925" lon="2.58947"><ele>78.5</ele></trkpt>
    <trkpt lat="48.71839" lon="2.58971"><ele>79.9</ele></trkpt>
    <trkpt lat="48.71767" lon="2.58974"><ele>81.2</ele></trkpt>
    <trkpt lat="48.71642" lon="2.58992"><ele>83.3</ele></trkpt>
    <trkpt lat="48.71632" lon="2.59003"><ele>83.5</ele></trkpt>
    <trkpt lat="48.71657" lon="2.59105"><ele>84.5</ele></trkpt>
    <trkpt lat="48.7167" lon="2.59184"><ele>85.2</ele></trkpt>
    <trkpt lat="48.71674" lon="2.59238"><ele>85.6</ele></trkpt>
    <trkpt lat="48.71661" lon="2.59401"><ele>87.0</ele></trkpt>
    <trkpt lat="48.71661" lon="2.59537"><ele>87.9</ele></trkpt>
    <trkpt lat="48.71685" lon="2.59696"><ele>88.7</ele></trkpt>
    <trkpt lat="48.71681" lon="2.59719"><ele>88.9</ele></trkpt>
    <trkpt lat="48.71718" lon="2.59802"><ele>89.7</ele></trkpt>
    <trkpt lat="48.71727" lon="2.59855"><ele>89.8</ele></trkpt>
    <trkpt lat="48.71726" lon="2.60072"><ele>90.1</ele></trkpt>
    <trkpt lat="48.71736" lon="2.60125"><ele>90.1</ele></trkpt>
    <trkpt lat="48.7177" lon="2.60251"><ele>90.2</ele></trkpt>
    <trkpt lat="48.71814" lon="2.60598"><ele>91.1</ele></trkpt>
    <trkpt lat="48.7185" lon="2.60753"><ele>91.8</ele></trkpt>
    <trkpt lat="48.71902" lon="2.60926"><ele>92.6</ele></trkpt>
    <trkpt lat="48.71912" lon="2.60948"><ele>92.8</ele></trkpt>
    <trkpt lat="48.72001" lon="2.61039"><ele>94.0</ele></trkpt>
    <trkpt lat="48.72038" lon="2.61099"><ele>94.8</ele></trkpt>
    <trkpt lat="48.72201" lon="2.61491"><ele>97.8</ele></trkpt>
    <trkpt lat="48.7257" lon="2.62231"><ele>100.9</ele></trkpt>
    <trkpt lat="48.72586" lon="2.62279"><ele>100.9</ele></trkpt>
    <trkpt lat="48.72599" lon="2.62358"><ele>100.9</ele></trkpt>
    <trkpt lat="48.72614" lon="2.62656"><ele>100.2</ele></trkpt>
    <trkpt lat="48.72629" lon="2.62664"><ele>100.0</ele></trkpt>
    <trkpt lat="48.72718" lon="2.62644"><ele>99.2</ele></trkpt>
    <trkpt lat="48.72754" lon="2.62644"><ele>98.9</ele></trkpt>
    <trkpt lat="48.73112" lon="2.62704"><ele>96.1</ele></trkpt>
    <trkpt lat="48.73116" lon="2.62722"><ele>96.0</ele></trkpt>
    <trkpt lat="48.73086" lon="2.63019"><ele>95.2</ele></trkpt>
    <trkpt lat="48.72998" lon="2.63461"><ele>96.0</ele></trkpt>
    <trkpt lat="48.72974" lon="2.63564"><ele>96.2</ele></trkpt>
    <trkpt lat="48.72951" lon="2.63639"><ele>96.4</ele></trkpt>
    <trkpt lat="48.72832" lon="2.63944"><ele>97.2</ele></trkpt>
    <trkpt lat="48.72758" lon="2.64097"><ele>97.5</ele></trkpt>
    <trkpt lat="48.72692" lon="2.6419"><ele>97.7</ele></trkpt>
    <trkpt lat="48.72631" lon="2.64325"><ele>98.0</ele></trkpt>
    <trkpt lat="48.7216" lon="2.6522"><ele>100.6</ele></trkpt>
    <trkpt lat="48.72383" lon="2.65534"><ele>101.3</ele></trkpt>
    <trkpt lat="48.72399" lon="2.65542"><ele>101.3</ele></trkpt>
    <trkpt lat="48.72433" lon="2.65539"><ele>101.4</ele></trkpt>
    <trkpt lat="48.7244" lon="2.65563"><ele>101.4</ele></trkpt>
    <trkpt lat="48.72453" lon="2.6567"><ele>101.6</ele></trkpt>
    <trkpt lat="48.72497" lon="2.65935"><ele>101.6</ele></trkpt>
    <trkpt lat="48.72549" lon="2.66419"><ele>100.6</ele></trkpt>
    <trkpt lat="48.72595" lon="2.66567"><ele>99.9</ele></trkpt>
    <trkpt lat="48.72604" lon="2.66614"><ele>99.5</ele></trkpt>
    <trkpt lat="48.72617" lon="2.66629"><ele>99.3</ele></trkpt>
    <trkpt lat="48.72905" lon="2.67538"><ele>100.6</ele></trkpt>
    <trkpt lat="48.72925" lon="2.67614"><ele>101.3</ele></trkpt>
    <trkpt lat="48.73456" lon="2.70019"><ele>108.5</ele></trkpt>
    <trkpt lat="48.73461" lon="2.70072"><ele>108.2</ele></trkpt>
    <trkpt lat="48.7347" lon="2.70093"><ele>108.0</ele></trkpt>
    <trkpt lat="48.73487" lon="2.70098"><ele>107.9</ele></trkpt>
    <trkpt lat="48.73737" lon="2.70143"><ele>106.8</ele></trkpt>
    <trkpt lat="48.7374" lon="2.70161"><ele>106.8</ele></trkpt>
    <trkpt lat="48.7373" lon="2.70213"><ele>106.7</ele></trkpt>
    <trkpt lat="48.7365" lon="2.70361"><ele>106.8</ele></trkpt>
    <trkpt lat="48.73602" lon="2.70476"><ele>107.0</ele></trkpt>
    <trkpt lat="48.73588" lon="2.70526"><ele>107.1</ele></trkpt>
    <trkpt lat="48.73583" lon="2.7058"><ele>107.3</ele></trkpt>
    <trkpt lat="48.74221" lon="2.73476"><ele>106.2</ele></trkpt>
    <trkpt lat="48.7422" lon="2.735"><ele>106.1</ele></trkpt>
    <trkpt lat="48.74213" lon="2.7352"><ele>106.0</ele></trkpt>
    <trkpt lat="48.74107" lon="2.73624"><ele>105.6</ele></trkpt>
    <trkpt lat="48.74059" lon="2.73739"><ele>105.5</ele></trkpt>
    <trkpt lat="48.73984" lon="2.73889"><ele>105.4</ele></trkpt>
    <trkpt lat="48.73969" lon="2.73874"><ele>105.4</ele></trkpt>
    <trkpt lat="48.73946" lon="2.73833"><ele>105.4</ele></trkpt>
    <trkpt lat="48.73923" lon="2.7379"><ele>105.4</ele></trkpt>
    <trkpt lat="48.73885" lon="2.73698"><ele>105.6</ele></trkpt>
    <trkpt lat="48.73871" lon="2.73684"><ele>105.6</ele></trkpt>
    <trkpt lat="48.73856" lon="2.73698"><ele>105.6</ele></trkpt>
    <trkpt lat="48.73792" lon="2.73793"><ele>105.9</ele></trkpt>
    <trkpt lat="48.73777" lon="2.73798"><ele>106.0</ele></trkpt>
    <trkpt lat="48.73761" lon="2.73796"><ele>106.1</ele></trkpt>
    <trkpt lat="48.73696" lon="2.7375"><ele>106.4</ele></trkpt>
    <trkpt lat="48.73643" lon="2.73735"><ele>106.6</ele></trkpt>
    <trkpt lat="48.73518" lon="2.73751"><ele>106.7</ele></trkpt>
    <trkpt lat="48.73429" lon="2.7377"><ele>106.7</ele></trkpt>
    <trkpt lat="48.73349" lon="2.73831"><ele>106.7</ele></trkpt>
    <trkpt lat="48.73259" lon="2.73921"><ele>106.6</ele></trkpt>
    <trkpt lat="48.73207" lon="2.73942"><ele>106.4</ele></trkpt>
    <trkpt lat="48.73171" lon="2.73942"><ele>106.3</ele></trkpt>
    <trkpt lat="48.73136" lon="2.73931"><ele>106.1</ele></trkpt>
    <trkpt lat="48.73127" lon="2.7391"><ele>105.9</ele></trkpt>
    <trkpt lat="48.73115" lon="2.73926"><ele>105.7</ele></trkpt>
    <trkpt lat="48.731" lon="2.73932"><ele>105.4</ele></trkpt>
    <trkpt lat="48.72957" lon="2.73906"><ele>104.0</ele></trkpt>
    <trkpt lat="48.72831" lon="2.73895"><ele>102.4</ele></trkpt>
    <trkpt lat="48.72256" lon="2.73881"><ele>95.3</ele></trkpt>
    <trkpt lat="48.72167" lon="2.73861"><ele>95.1</ele></trkpt>
    <trkpt lat="48.72095" lon="2.7387"><ele>95.0</ele></trkpt>
    <trkpt lat="48.72041" lon="2.73868"><ele>95.1</ele></trkpt>
    <trkpt lat="48.7188" lon="2.7385"><ele>95.5</ele></trkpt>
    <trkpt lat="48.71844" lon="2.73856"><ele>95.7</ele></trkpt>
    <trkpt lat="48.71792" lon="2.73876"><ele>96.1</ele></trkpt>
    <trkpt lat="48.71756" lon="2.73879"><ele>96.3</ele></trkpt>
    <trkpt lat="48.71632" lon="2.73843"><ele>96.9</ele></trkpt>
    <trkpt lat="48.71625" lon="2.73861"><ele>96.9</ele></trkpt>
    <trkpt lat="48.71609" lon="2.74023"><ele>95.8</ele></trkpt>
    <trkpt lat="48.71582" lon="2.74153"><ele>94.1</ele></trkpt>
    <trkpt lat="48.7159" lon="2.74201"><ele>93.1</ele></trkpt>
    <trkpt lat="48.7159" lon="2.74228"><ele>92.6</ele></trkpt>
    <trkpt lat="48.71557" lon="2.7444"><ele>89.0</ele></trkpt>
    <trkpt lat="48.71533" lon="2.74513"><ele>87.7</ele></trkpt>
    <trkpt lat="48.71458" lon="2.74666"><ele>85.2</ele></trkpt>
    <trkpt lat="48.71376" lon="2.74811"><ele>84.5</ele></trkpt>
    <trkpt lat="48.71282" lon="2.74938"><ele>85.9</ele></trkpt>
    <trkpt lat="48.71065" lon="2.75302"><ele>95.7</ele></trkpt>
    <trkpt lat="48.71051" lon="2.75315"><ele>96.7</ele></trkpt>
    <trkpt lat="48.71045" lon="2.75338"><ele>97.7</ele></trkpt>
    <trkpt lat="48.70989" lon="2.75408"><ele>100.4</ele></trkpt>
    <trkpt lat="48.70958" lon="2.75434"><ele>101.9</ele></trkpt>
    <trkpt lat="48.70941" lon="2.75438"><ele>102.8</ele></trkpt>
    <trkpt lat="48.7094" lon="2.75463"><ele>103.5</ele></trkpt>
    <trkpt lat="48.70953" lon="2.75478"><ele>104.1</ele></trkpt>
    <trkpt lat="48.70967" lon="2.75527"><ele>104.8</ele></trkpt>
    <trkpt lat="48.70973" lon="2.75581"><ele>104.9</ele></trkpt>
    <trkpt lat="48.70971" lon="2.75608"><ele>104.9</ele></trkpt>
    <trkpt lat="48.70844" lon="2.76261"><ele>102.0</ele></trkpt>
    <trkpt lat="48.70726" lon="2.76324"><ele>100.7</ele></trkpt>
    <trkpt lat="48.7049" lon="2.76574"><ele>99.7</ele></trkpt>
    <trkpt lat="48.70398" lon="2.76658"><ele>100.8</ele></trkpt>
    <trkpt lat="48.70385" lon="2.76677"><ele>101.1</ele></trkpt>
    <trkpt lat="48.6999" lon="2.77522"><ele>106.8</ele></trkpt>
    <trkpt lat="48.70029" lon="2.77578"><ele>106.7</ele></trkpt>
    <trkpt lat="48.70097" lon="2.77705"><ele>106.2</ele></trkpt>
    <trkpt lat="48.70154" lon="2.77771"><ele>105.7</ele></trkpt>
    <trkpt lat="48.70217" lon="2.77824"><ele>105.1</ele></trkpt>
    <trkpt lat="48.70243" lon="2.77861"><ele>104.8</ele></trkpt>
    <trkpt lat="48.70639" lon="2.7877"><ele>103.8</ele></trkpt>
    <trkpt lat="48.70769" lon="2.79129"><ele>104.3</ele></trkpt>
    <trkpt lat="48.71008" lon="2.80157"><ele>106.9</ele></trkpt>
    <trkpt lat="48.71068" lon="2.80384"><ele>109.2</ele></trkpt>
    <trkpt lat="48.71096" lon="2.80598"><ele>111.4</ele></trkpt>
    <trkpt lat="48.71089" lon="2.80679"><ele>112.5</ele></trkpt>
    <trkpt lat="48.71073" lon="2.80726"><ele>113.2</ele></trkpt>
    <trkpt lat="48.71148" lon="2.80843"><ele>115.0</ele></trkpt>
    <trkpt lat="48.71148" lon="2.8087"><ele>115.3</ele></trkpt>
    <trkpt lat="48.71115" lon="2.80996"><ele>116.0</ele></trkpt>
    <trkpt lat="48.7105" lon="2.81086"><ele>115.3</ele></trkpt>
    <trkpt lat="48.71005" lon="2.81233"><ele>113.4</ele></trkpt>
    <trkpt lat="48.70976" lon="2.81419"><ele>110.8</ele></trkpt>
    <trkpt lat="48.70969" lon="2.81555"><ele>108.5</ele></trkpt>
    <trkpt lat="48.70947" lon="2.81658"><ele>106.9</ele></trkpt>
    <trkpt lat="48.7094" lon="2.81711"><ele>106.2</ele></trkpt>
    <trkpt lat="48.70899" lon="2.82253"><ele>103.4</ele></trkpt>
    <trkpt lat="48.70799" lon="2.82776"><ele>106.9</ele></trkpt>
    <trkpt lat="48.70805" lon="2.83021"><ele>110.1</ele></trkpt>
    <trkpt lat="48.70774" lon="2.83509"><ele>114.8</ele></trkpt>
    <trkpt lat="48.70779" lon="2.83673"><ele>114.9</ele></trkpt>
    <trkpt lat="48.70771" lon="2.83781"><ele>114.8</ele></trkpt>
    <trkpt lat="48.70781" lon="2.83888"><ele>114.6</ele></trkpt>
    <trkpt lat="48.7076" lon="2.84323"><ele>110.9</ele></trkpt>
    <trkpt lat="48.70754" lon="2.84596"><ele>107.1</ele></trkpt>
    <trkpt lat="48.70745" lon="2.84759"><ele>104.7</ele></trkpt>
    <trkpt lat="48.7075" lon="2.85058"><ele>101.2</ele></trkpt>
    <trkpt lat="48.70742" lon="2.85111"><ele>100.6</ele></trkpt>
    <trkpt lat="48.70704" lon="2.85235"><ele>99.8</ele></trkpt>
    <trkpt lat="48.70698" lon="2.85288"><ele>99.5</ele></trkpt>
    <trkpt lat="48.7069" lon="2.85506"><ele>99.3</ele></trkpt>
    <trkpt lat="48.70653" lon="2.85716"><ele>99.4</ele></trkpt>
    <trkpt lat="48.70657" lon="2.85742"><ele>99.4</ele></trkpt>
    <trkpt lat="48.70706" lon="2.85856"><ele>99.4</ele></trkpt>
    <trkpt lat="48.7071" lon="2.85882"><ele>99.4</ele></trkpt>
    <trkpt lat="48.70738" lon="2.86096"><ele>99.9</ele></trkpt>
    <trkpt lat="48.70727" lon="2.86204"><ele>100.3</ele></trkpt>
    <trkpt lat="48.70739" lon="2.86094"><ele>100.3</ele></trkpt>
    <trkpt lat="48.70706" lon="2.85854"><ele>100.3</ele></trkpt>
    <trkpt lat="48.70657" lon="2.8574"><ele>101.2</ele></trkpt>
    <trkpt lat="48.70642" lon="2.85724"><ele>101.3</ele></trkpt>
    <trkpt lat="48.70444" lon="2.85537"><ele>103.6</ele></trkpt>
    <trkpt lat="48.70396" lon="2.85499"><ele>103.8</ele></trkpt>
    <trkpt lat="48.69686" lon="2.85107"><ele>101.5</ele></trkpt>
    <trkpt lat="48.69634" lon="2.85087"><ele>101.2</ele></trkpt>
    <trkpt lat="48.69492" lon="2.85053"><ele>100.7</ele></trkpt>
    <trkpt lat="48.69441" lon="2.85028"><ele>100.5</ele></trkpt>
    <trkpt lat="48.69395" lon="2.84985"><ele>100.3</ele></trkpt>
    <trkpt lat="48.69327" lon="2.84896"><ele>100.0</ele></trkpt>
    <trkpt lat="48.6917" lon="2.84713"><ele>99.1</ele></trkpt>
    <trkpt lat="48.69139" lon="2.84688"><ele>98.9</ele></trkpt>
    <trkpt lat="48.69121" lon="2.84682"><ele>98.7</ele></trkpt>
    <trkpt lat="48.69051" lon="2.84707"><ele>98.0</ele></trkpt>
    <trkpt lat="48.69016" lon="2.84704"><ele>97.6</ele></trkpt>
    <trkpt lat="48.68945" lon="2.84682"><ele>96.8</ele></trkpt>
    <trkpt lat="48.68811" lon="2.84605"><ele>94.6</ele></trkpt>
    <trkpt lat="48.68802" lon="2.84625"><ele>94.3</ele></trkpt>
    <trkpt lat="48.68688" lon="2.84996"><ele>90.4</ele></trkpt>
    <trkpt lat="48.68677" lon="2.85016"><ele>90.2</ele></trkpt>
    <trkpt lat="48.6866" lon="2.8502"><ele>90.1</ele></trkpt>
    <trkpt lat="48.68536" lon="2.84987"><ele>90.3</ele></trkpt>
    <trkpt lat="48.68519" lon="2.84988"><ele>90.5</ele></trkpt>
    <trkpt lat="48.68451" lon="2.85149"><ele>92.7</ele></trkpt>
    <trkpt lat="48.68397" lon="2.85321"><ele>95.0</ele></trkpt>
    <trkpt lat="48.68387" lon="2.8534"><ele>95.3</ele></trkpt>
    <trkpt lat="48.67655" lon="2.85058"><ele>100.7</ele></trkpt>
    <trkpt lat="48.67589" lon="2.85017"><ele>100.6</ele></trkpt>
    <trkpt lat="48.66763" lon="2.84298"><ele>105.1</ele></trkpt>
    <trkpt lat="48.66755" lon="2.84284"><ele>105.2</ele></trkpt>
    <trkpt lat="48.6677" lon="2.84271"><ele>105.4</ele></trkpt>
    <trkpt lat="48.66907" lon="2.84204"><ele>106.0</ele></trkpt>
    <trkpt lat="48.66909" lon="2.84189"><ele>106.1</ele></trkpt>
    <trkpt lat="48.66809" lon="2.84032"><ele>105.5</ele></trkpt>
    <trkpt lat="48.66764" lon="2.83948"><ele>104.6</ele></trkpt>
    <trkpt lat="48.66657" lon="2.83802"><ele>101.2</ele></trkpt>
    <trkpt lat="48.66535" lon="2.83567"><ele>95.0</ele></trkpt>
    <trkpt lat="48.66428" lon="2.83467"><ele>89.3</ele></trkpt>
    <trkpt lat="48.66387" lon="2.83416"><ele>86.4</ele></trkpt>
    <trkpt lat="48.66273" lon="2.83333"><ele>81.4</ele></trkpt>
    <trkpt lat="48.66245" lon="2.833"><ele>80.1</ele></trkpt>
    <trkpt lat="48.66168" lon="2.8323"><ele>77.4</ele></trkpt>
    <trkpt lat="48.66115" lon="2.8312"><ele>75.7</ele></trkpt>
    <trkpt lat="48.6603" lon="2.8288"><ele>75.9</ele></trkpt>
    <trkpt lat="48.65977" lon="2.82771"><ele>77.6</ele></trkpt>
    <trkpt lat="48.65971" lon="2.82745"><ele>78.0</ele></trkpt>
    <trkpt lat="48.6597" lon="2.82691"><ele>78.8</ele></trkpt>
    <trkpt lat="48.65993" lon="2.82532"><ele>80.8</ele></trkpt>
    <trkpt lat="48.65991" lon="2.82478"><ele>81.4</ele></trkpt>
    <trkpt lat="48.65908" lon="2.82375"><ele>81.7</ele></trkpt>
    <trkpt lat="48.65959" lon="2.82348"><ele>80.9</ele></trkpt>
    <trkpt lat="48.65977" lon="2.82345"><ele>80.5</ele></trkpt>
    <trkpt lat="48.66065" lon="2.82368"><ele>77.7</ele></trkpt>
    <trkpt lat="48.66118" lon="2.82364"><ele>75.8</ele></trkpt>
    <trkpt lat="48.66363" lon="2.82192"><ele>69.7</ele></trkpt>
    <trkpt lat="48.66511" lon="2.82095"><ele>68.3</ele></trkpt>
    <trkpt lat="48.66563" lon="2.8207"><ele>68.6</ele></trkpt>
    <trkpt lat="48.66598" lon="2.82062"><ele>69.2</ele></trkpt>
    <trkpt lat="48.66651" lon="2.82074"><ele>70.9</ele></trkpt>
    <trkpt lat="48.66669" lon="2.82069"><ele>71.7</ele></trkpt>
    <trkpt lat="48.66683" lon="2.82054"><ele>72.6</ele></trkpt>
    <trkpt lat="48.66749" lon="2.81925"><ele>77.7</ele></trkpt>
    <trkpt lat="48.66777" lon="2.8189"><ele>79.7</ele></trkpt>
    <trkpt lat="48.66793" lon="2.81879"><ele>80.7</ele></trkpt>
    <trkpt lat="48.66936" lon="2.81849"><ele>88.1</ele></trkpt>
    <trkpt lat="48.6707" lon="2.81773"><ele>95.4</ele></trkpt>
    <trkpt lat="48.67088" lon="2.8177"><ele>96.2</ele></trkpt>
    <trkpt lat="48.67124" lon="2.81775"><ele>97.6</ele></trkpt>
    <trkpt lat="48.67158" lon="2.81791"><ele>98.9</ele></trkpt>
    <trkpt lat="48.67189" lon="2.81818"><ele>100.1</ele></trkpt>
    <trkpt lat="48.67209" lon="2.81862"><ele>101.3</ele></trkpt>
    <trkpt lat="48.67222" lon="2.8185"><ele>101.8</ele></trkpt>
    <trkpt lat="48.6732" lon="2.81691"><ele>104.3</ele></trkpt>
    <trkpt lat="48.67364" lon="2.81644"><ele>104.3</ele></trkpt>
    <trkpt lat="48.67415" lon="2.81568"><ele>103.9</ele></trkpt>
    <trkpt lat="48.67475" lon="2.814"><ele>102.7</ele></trkpt>
    <trkpt lat="48.67508" lon="2.81336"><ele>101.9</ele></trkpt>
    <trkpt lat="48.67525" lon="2.81259"><ele>101.0</ele></trkpt>
    <trkpt lat="48.67634" lon="2.81043"><ele>98.4</ele></trkpt>
    <trkpt lat="48.6765" lon="2.80994"><ele>98.0</ele></trkpt>
    <trkpt lat="48.67677" lon="2.80808"><ele>97.2</ele></trkpt>
    <trkpt lat="48.67714" lon="2.80683"><ele>96.8</ele></trkpt>
    <trkpt lat="48.67724" lon="2.80631"><ele>96.8</ele></trkpt>
    <trkpt lat="48.6775" lon="2.80362"><ele>97.5</ele></trkpt>
    <trkpt lat="48.67728" lon="2.80287"><ele>97.9</ele></trkpt>
    <trkpt lat="48.67716" lon="2.8018"><ele>98.4</ele></trkpt>
    <trkpt lat="48.67717" lon="2.79663"><ele>100.4</ele></trkpt>
    <trkpt lat="48.67722" lon="2.79636"><ele>100.4</ele></trkpt>
    <trkpt lat="48.67731" lon="2.79614"><ele>100.5</ele></trkpt>
    <trkpt lat="48.67745" lon="2.79597"><ele>100.6</ele></trkpt>
    <trkpt lat="48.67875" lon="2.79504"><ele>101.0</ele></trkpt>
    <trkpt lat="48.67876" lon="2.7948"><ele>101.1</ele></trkpt>
    <trkpt lat="48.67862" lon="2.7943"><ele>101.2</ele></trkpt>
    <trkpt lat="48.6786" lon="2.79377"><ele>101.3</ele></trkpt>
    <trkpt lat="48.67873" lon="2.79326"><ele>101.4</ele></trkpt>
    <trkpt lat="48.67984" lon="2.78984"><ele>101.8</ele></trkpt>
    <trkpt lat="48.68154" lon="2.78667"><ele>101.4</ele></trkpt>
    <trkpt lat="48.68413" lon="2.78077"><ele>98.8</ele></trkpt>
    <trkpt lat="48.68449" lon="2.77984"><ele>98.3</ele></trkpt>
    <trkpt lat="48.68477" lon="2.7795"><ele>97.9</ele></trkpt>
    <trkpt lat="48.68564" lon="2.77913"><ele>97.3</ele></trkpt>
    <trkpt lat="48.68599" lon="2.77904"><ele>97.1</ele></trkpt>
    <trkpt lat="48.68678" lon="2.77839"><ele>97.1</ele></trkpt>
    <trkpt lat="48.68728" lon="2.77808"><ele>97.3</ele></trkpt>
    <trkpt lat="48.6903" lon="2.77737"><ele>99.6</ele></trkpt>
    <trkpt lat="48.69063" lon="2.77717"><ele>100.1</ele></trkpt>
    <trkpt lat="48.69155" lon="2.77631"><ele>101.5</ele></trkpt>
    <trkpt lat="48.69221" lon="2.77588"><ele>102.6</ele></trkpt>
    <trkpt lat="48.69496" lon="2.7746"><ele>105.2</ele></trkpt>
    <trkpt lat="48.69564" lon="2.77435"><ele>105.8</ele></trkpt>
    <trkpt lat="48.69704" lon="2.77312"><ele>106.0</ele></trkpt>
    <trkpt lat="48.69803" lon="2.77195"><ele>105.2</ele></trkpt>
    <trkpt lat="48.6985" lon="2.77113"><ele>104.3</ele></trkpt>
    <trkpt lat="48.69874" lon="2.77011"><ele>102.8</ele></trkpt>
    <trkpt lat="48.69876" lon="2.76957"><ele>101.8</ele></trkpt>
    <trkpt lat="48.69841" lon="2.76831"><ele>99.0</ele></trkpt>
    <trkpt lat="48.69841" lon="2.76777"><ele>97.8</ele></trkpt>
    <trkpt lat="48.69955" lon="2.76034"><ele>86.1</ele></trkpt>
    <trkpt lat="48.69956" lon="2.7598"><ele>85.8</ele></trkpt>
    <trkpt lat="48.6995" lon="2.75899"><ele>85.7</ele></trkpt>
    <trkpt lat="48.69937" lon="2.75848"><ele>86.0</ele></trkpt>
    <trkpt lat="48.69775" lon="2.75456"><ele>92.6</ele></trkpt>
    <trkpt lat="48.69659" lon="2.74826"><ele>98.1</ele></trkpt>
    <trkpt lat="48.69661" lon="2.74771"><ele>98.2</ele></trkpt>
    <trkpt lat="48.69744" lon="2.74325"><ele>97.7</ele></trkpt>
    <trkpt lat="48.69754" lon="2.74322"><ele>97.6</ele></trkpt>
    <trkpt lat="48.70085" lon="2.74696"><ele>93.2</ele></trkpt>
    <trkpt lat="48.70179" lon="2.74573"><ele>92.1</ele></trkpt>
    <trkpt lat="48.70235" lon="2.74466"><ele>91.4</ele></trkpt>
    <trkpt lat="48.70322" lon="2.74229"><ele>89.9</ele></trkpt>
    <trkpt lat="48.70453" lon="2.74086"><ele>88.0</ele></trkpt>
    <trkpt lat="48.70486" lon="2.74062"><ele>87.6</ele></trkpt>
    <trkpt lat="48.70503" lon="2.74056"><ele>87.4</ele></trkpt>
    <trkpt lat="48.70753" lon="2.74004"><ele>86.1</ele></trkpt>
    <trkpt lat="48.71112" lon="2.74028"><ele>87.7</ele></trkpt>
    <trkpt lat="48.71144" lon="2.74052"><ele>88.2</ele></trkpt>
    <trkpt lat="48.71156" lon="2.74073"><ele>88.5</ele></trkpt>
    <trkpt lat="48.71173" lon="2.7412"><ele>88.9</ele></trkpt>
    <trkpt lat="48.71184" lon="2.74198"><ele>89.8</ele></trkpt>
    <trkpt lat="48.71212" lon="2.74231"><ele>90.7</ele></trkpt>
    <trkpt lat="48.71229" lon="2.74239"><ele>91.2</ele></trkpt>
    <trkpt lat="48.71283" lon="2.74235"><ele>92.5</ele></trkpt>
    <trkpt lat="48.71354" lon="2.74248"><ele>93.7</ele></trkpt>
    <trkpt lat="48.71407" lon="2.74233"><ele>94.6</ele></trkpt>
    <trkpt lat="48.71472" lon="2.7419"><ele>95.6</ele></trkpt>
    <trkpt lat="48.71578" lon="2.74168"><ele>96.3</ele></trkpt>
    <trkpt lat="48.71611" lon="2.74013"><ele>97.0</ele></trkpt>
    <trkpt lat="48.71625" lon="2.73851"><ele>97.0</ele></trkpt>
    <trkpt lat="48.71639" lon="2.73844"><ele>97.0</ele></trkpt>
    <trkpt lat="48.71762" lon="2.73879"><ele>96.1</ele></trkpt>
    <trkpt lat="48.71798" lon="2.73874"><ele>95.8</ele></trkpt>
    <trkpt lat="48.71868" lon="2.7385"><ele>95.4</ele></trkpt>
    <trkpt lat="48.7203" lon="2.73868"><ele>94.5</ele></trkpt>
    <trkpt lat="48.72101" lon="2.73869"><ele>94.5</ele></trkpt>
    <trkpt lat="48.72173" lon="2.73862"><ele>94.7</ele></trkpt>
    <trkpt lat="48.72262" lon="2.73881"><ele>95.0</ele></trkpt>
    <trkpt lat="48.72838" lon="2.73895"><ele>102.7</ele></trkpt>
    <trkpt lat="48.72945" lon="2.73905"><ele>104.1</ele></trkpt>
    <trkpt lat="48.73106" lon="2.73932"><ele>105.8</ele></trkpt>
    <trkpt lat="48.7312" lon="2.73943"><ele>106.1</ele></trkpt>
    <trkpt lat="48.73135" lon="2.73934"><ele>106.3</ele></trkpt>
    <trkpt lat="48.73119" lon="2.73894"><ele>106.7</ele></trkpt>
    <trkpt lat="48.73114" lon="2.73813"><ele>106.8</ele></trkpt>
    <trkpt lat="48.73139" lon="2.73515"><ele>106.5</ele></trkpt>
    <trkpt lat="48.73146" lon="2.73325"><ele>106.1</ele></trkpt>
    <trkpt lat="48.73109" lon="2.72837"><ele>105.5</ele></trkpt>
    <trkpt lat="48.7311" lon="2.7281"><ele>105.5</ele></trkpt>
    <trkpt lat="48.73121" lon="2.72792"><ele>105.5</ele></trkpt>
    <trkpt lat="48.73352" lon="2.72851"><ele>105.8</ele></trkpt>
    <trkpt lat="48.73368" lon="2.72861"><ele>105.8</ele></trkpt>
    <trkpt lat="48.73404" lon="2.73266"><ele>106.5</ele></trkpt>
    <trkpt lat="48.73412" lon="2.7329"><ele>106.6</ele></trkpt>
    <trkpt lat="48.73427" lon="2.73302"><ele>106.6</ele></trkpt>
    <trkpt lat="48.73535" lon="2.7329"><ele>106.8</ele></trkpt>
    <trkpt lat="48.74053" lon="2.73202"><ele>106.8</ele></trkpt>
    <trkpt lat="48.74124" lon="2.73181"><ele>106.9</ele></trkpt>
    <trkpt lat="48.74141" lon="2.73172"><ele>106.9</ele></trkpt>
    <trkpt lat="48.7415" lon="2.73159"><ele>106.9</ele></trkpt>
    <trkpt lat="48.73585" lon="2.70598"><ele>107.3</ele></trkpt>
    <trkpt lat="48.73585" lon="2.70544"><ele>107.2</ele></trkpt>
    <trkpt lat="48.73604" lon="2.70468"><ele>107.0</ele></trkpt>
    <trkpt lat="48.73642" lon="2.70376"><ele>106.8</ele></trkpt>
    <trkpt lat="48.73723" lon="2.70229"><ele>106.8</ele></trkpt>
    <trkpt lat="48.73732" lon="2.70206"><ele>106.8</ele></trkpt>
    <trkpt lat="48.73741" lon="2.70153"><ele>106.8</ele></trkpt>
    <trkpt lat="48.73731" lon="2.70141"><ele>106.9</ele></trkpt>
    <trkpt lat="48.73643" lon="2.70119"><ele>107.3</ele></trkpt>
    <trkpt lat="48.73482" lon="2.70089"><ele>108.0</ele></trkpt>
    <trkpt lat="48.73471" lon="2.70073"><ele>108.1</ele></trkpt>
    <trkpt lat="48.73336" lon="2.69481"><ele>110.1</ele></trkpt>
    <trkpt lat="48.7292" lon="2.67593"><ele>101.1</ele></trkpt>
    <trkpt lat="48.72618" lon="2.66633"><ele>98.8</ele></trkpt>
    <trkpt lat="48.72614" lon="2.66587"><ele>99.3</ele></trkpt>
    <trkpt lat="48.726" lon="2.6658"><ele>99.5</ele></trkpt>
    <trkpt lat="48.72584" lon="2.66532"><ele>99.9</ele></trkpt>
    <trkpt lat="48.7236" lon="2.66611"><ele>101.4</ele></trkpt>
    <trkpt lat="48.72396" lon="2.66345"><ele>102.6</ele></trkpt>
    <trkpt lat="48.72362" lon="2.66022"><ele>103.7</ele></trkpt>
    <trkpt lat="48.72339" lon="2.65948"><ele>103.8</ele></trkpt>
    <trkpt lat="48.72289" lon="2.65743"><ele>104.0</ele></trkpt>
    <trkpt lat="48.72276" lon="2.65739"><ele>104.0</ele></trkpt>
    <trkpt lat="48.72242" lon="2.65755"><ele>103.9</ele></trkpt>
    <trkpt lat="48.72224" lon="2.65757"><ele>103.9</ele></trkpt>
    <trkpt lat="48.72222" lon="2.65734"><ele>103.8</ele></trkpt>
    <trkpt lat="48.72226" lon="2.65625"><ele>103.6</ele></trkpt>
    <trkpt lat="48.72233" lon="2.65602"><ele>103.5</ele></trkpt>
    <trkpt lat="48.7225" lon="2.65597"><ele>103.3</ele></trkpt>
    <trkpt lat="48.7234" lon="2.65603"><ele>102.8</ele></trkpt>
    <trkpt lat="48.72372" lon="2.6558"><ele>102.3</ele></trkpt>
    <trkpt lat="48.72386" lon="2.65563"><ele>102.0</ele></trkpt>
    <trkpt lat="48.72395" lon="2.65543"><ele>101.9</ele></trkpt>
    <trkpt lat="48.72352" lon="2.65494"><ele>101.6</ele></trkpt>
    <trkpt lat="48.72168" lon="2.65235"><ele>100.6</ele></trkpt>
    <trkpt lat="48.72163" lon="2.65216"><ele>100.6</ele></trkpt>
    <trkpt lat="48.72634" lon="2.6432"><ele>97.9</ele></trkpt>
    <trkpt lat="48.72695" lon="2.64186"><ele>97.7</ele></trkpt>
    <trkpt lat="48.7276" lon="2.64093"><ele>97.5</ele></trkpt>
    <trkpt lat="48.72834" lon="2.63939"><ele>97.2</ele></trkpt>
    <trkpt lat="48.72936" lon="2.63681"><ele>96.7</ele></trkpt>
    <trkpt lat="48.72975" lon="2.63559"><ele>96.3</ele></trkpt>
    <trkpt lat="48.73082" lon="2.63039"><ele>95.4</ele></trkpt>
    <trkpt lat="48.73094" lon="2.62959"><ele>95.4</ele></trkpt>
    <trkpt lat="48.73117" lon="2.62716"><ele>96.1</ele></trkpt>
    <trkpt lat="48.73108" lon="2.62703"><ele>96.1</ele></trkpt>
    <trkpt lat="48.7275" lon="2.62643"><ele>98.9</ele></trkpt>
    <trkpt lat="48.72714" lon="2.62645"><ele>99.3</ele></trkpt>
    <trkpt lat="48.72625" lon="2.62665"><ele>100.0</ele></trkpt>
    <trkpt lat="48.72612" lon="2.62651"><ele>100.2</ele></trkpt>
    <trkpt lat="48.72605" lon="2.62434"><ele>100.7</ele></trkpt>
    <trkpt lat="48.72598" lon="2.62352"><ele>100.9</ele></trkpt>
    <trkpt lat="48.72577" lon="2.62249"><ele>100.9</ele></trkpt>
    <trkpt lat="48.72209" lon="2.61508"><ele>98.0</ele></trkpt>
    <trkpt lat="48.72036" lon="2.61094"><ele>94.8</ele></trkpt>
    <trkpt lat="48.71998" lon="2.61035"><ele>94.1</ele></trkpt>
    <trkpt lat="48.71909" lon="2.60945"><ele>92.9</ele></trkpt>
    <trkpt lat="48.71848" lon="2.60747"><ele>91.9</ele></trkpt>
    <trkpt lat="48.71813" lon="2.60592"><ele>91.1</ele></trkpt>
    <trkpt lat="48.71773" lon="2.60271"><ele>89.9</ele></trkpt>
    <trkpt lat="48.71737" lon="2.60121"><ele>89.3</ele></trkpt>
    <trkpt lat="48.7173" lon="2.60043"><ele>88.8</ele></trkpt>
    <trkpt lat="48.71733" lon="2.59852"><ele>88.2</ele></trkpt>
    <trkpt lat="48.71723" lon="2.598"><ele>87.9</ele></trkpt>
    <trkpt lat="48.71704" lon="2.59753"><ele>87.5</ele></trkpt>
    <trkpt lat="48.71705" lon="2.59726"><ele>87.3</ele></trkpt>
    <trkpt lat="48.71688" lon="2.59681"><ele>87.0</ele></trkpt>
    <trkpt lat="48.71675" lon="2.59601"><ele>86.7</ele></trkpt>
    <trkpt lat="48.71666" lon="2.59493"><ele>86.3</ele></trkpt>
    <trkpt lat="48.71668" lon="2.59384"><ele>86.1</ele></trkpt>
    <trkpt lat="48.71677" lon="2.59276"><ele>86.1</ele></trkpt>
    <trkpt lat="48.71677" lon="2.59194"><ele>86.3</ele></trkpt>
    <trkpt lat="48.7167" lon="2.59141"><ele>86.5</ele></trkpt>
    <trkpt lat="48.71646" lon="2.59038"><ele>87.1</ele></trkpt>
    <trkpt lat="48.71638" lon="2.59019"><ele>87.3</ele></trkpt>
    <trkpt lat="48.71644" lon="2.59054"><ele>87.6</ele></trkpt>
    <trkpt lat="48.71621" lon="2.58951"><ele>88.6</ele></trkpt>
    <trkpt lat="48.71594" lon="2.58764"><ele>90.2</ele></trkpt>
    <trkpt lat="48.71583" lon="2.58657"><ele>91.3</ele></trkpt>
    <trkpt lat="48.71585" lon="2.5863"><ele>91.6</ele></trkpt>
    <trkpt lat="48.71603" lon="2.58582"><ele>92.4</ele></trkpt>
    <trkpt lat="48.71604" lon="2.58561"><ele>92.8</ele></trkpt>
    <trkpt lat="48.71584" lon="2.58515"><ele>93.5</ele></trkpt>
    <trkpt lat="48.7157" lon="2.585"><ele>93.9</ele></trkpt>
    <trkpt lat="48.71481" lon="2.58477"><ele>95.3</ele></trkpt>
    <trkpt lat="48.71452" lon="2.58453"><ele>95.8</ele></trkpt>
    <trkpt lat="48.71476" lon="2.58379"><ele>96.5</ele></trkpt>
    <trkpt lat="48.71602" lon="2.58185"><ele>97.3</ele></trkpt>
    <trkpt lat="48.71661" lon="2.58123"><ele>97.4</ele></trkpt>
    <trkpt lat="48.7174" lon="2.58059"><ele>97.3</ele></trkpt>
    <trkpt lat="48.71752" lon="2.5804"><ele>97.2</ele></trkpt>
    <trkpt lat="48.71779" lon="2.57969"><ele>96.9</ele></trkpt>
    <trkpt lat="48.71829" lon="2.57857"><ele>96.3</ele></trkpt>
    <trkpt lat="48.71837" lon="2.57832"><ele>96.2</ele></trkpt>
    <trkpt lat="48.7185" lon="2.57726"><ele>95.3</ele></trkpt>
    <trkpt lat="48.71797" lon="2.57711"><ele>94.6</ele></trkpt>
    <trkpt lat="48.71789" lon="2.57697"><ele>94.3</ele></trkpt>
    <trkpt lat="48.71802" lon="2.57646"><ele>93.7</ele></trkpt>
    <trkpt lat="48.7182" lon="2.57513"><ele>91.9</ele></trkpt>
    <trkpt lat="48.71878" lon="2.57448"><ele>89.8</ele></trkpt>
    <trkpt lat="48.719" lon="2.57261"><ele>86.1</ele></trkpt>
    <trkpt lat="48.71909" lon="2.57245"><ele>85.5</ele></trkpt>
    <trkpt lat="48.72159" lon="2.57286"><ele>76.4</ele></trkpt>
    <trkpt lat="48.72171" lon="2.57303"><ele>75.2</ele></trkpt>
    <trkpt lat="48.72184" lon="2.57291"><ele>74.0</ele></trkpt>
    <trkpt lat="48.72202" lon="2.57292"><ele>72.8</ele></trkpt>
    <trkpt lat="48.72398" lon="2.57323"><ele>67.9</ele></trkpt>
    <trkpt lat="48.72451" lon="2.57344"><ele>67.0</ele></trkpt>
    <trkpt lat="48.72464" lon="2.57336"><ele>66.6</ele></trkpt>
    <trkpt lat="48.72497" lon="2.57239"><ele>65.5</ele></trkpt>
    <trkpt lat="48.72489" lon="2.57131"><ele>64.5</ele></trkpt>
    <trkpt lat="48.72502" lon="2.57023"><ele>63.7</ele></trkpt>
    <trkpt lat="48.72525" lon="2.57014"><ele>63.3</ele></trkpt>
    <trkpt lat="48.72671" lon="2.5667"><ele>61.4</ele></trkpt>
    <trkpt lat="48.72737" lon="2.56541"><ele>61.9</ele></trkpt>
    <trkpt lat="48.72803" lon="2.56379"><ele>63.8</ele></trkpt>
    <trkpt lat="48.72889" lon="2.56205"><ele>67.5</ele></trkpt>
    <trkpt lat="48.72915" lon="2.56166"><ele>68.7</ele></trkpt>
    <trkpt lat="48.72958" lon="2.56119"><ele>71.1</ele></trkpt>
    <trkpt lat="48.72969" lon="2.56096"><ele>71.9</ele></trkpt>
    <trkpt lat="48.72994" lon="2.55994"><ele>74.6</ele></trkpt>
    <trkpt lat="48.73057" lon="2.55829"><ele>79.0</ele></trkpt>
    <trkpt lat="48.7311" lon="2.55657"><ele>84.2</ele></trkpt>
    <trkpt lat="48.73119" lon="2.55654"><ele>85.0</ele></trkpt>
    <trkpt lat="48.73134" lon="2.55669"><ele>85.8</ele></trkpt>
    <trkpt lat="48.73239" lon="2.55706"><ele>89.3</ele></trkpt>
    <trkpt lat="48.73418" lon="2.55731"><ele>93.7</ele></trkpt>
    <trkpt lat="48.73536" lon="2.55795"><ele>95.1</ele></trkpt>
    <trkpt lat="48.73543" lon="2.55777"><ele>95.2</ele></trkpt>
    <trkpt lat="48.7358" lon="2.55595"><ele>95.5</ele></trkpt>
    <trkpt lat="48.736" lon="2.55436"><ele>95.2</ele></trkpt>
    <trkpt lat="48.73635" lon="2.55437"><ele>95.0</ele></trkpt>
    <trkpt lat="48.73705" lon="2.55459"><ele>94.4</ele></trkpt>
    <trkpt lat="48.73722" lon="2.5545"><ele>94.2</ele></trkpt>
    <trkpt lat="48.73734" lon="2.55431"><ele>94.1</ele></trkpt>
    <trkpt lat="48.73742" lon="2.55407"><ele>93.9</ele></trkpt>
    <trkpt lat="48.73751" lon="2.55326"><ele>93.6</ele></trkpt>
    <trkpt lat="48.7376" lon="2.55309"><ele>93.5</ele></trkpt>
    <trkpt lat="48.73776" lon="2.55309"><ele>93.4</ele></trkpt>
    <trkpt lat="48.73839" lon="2.55361"><ele>93.1</ele></trkpt>
    <trkpt lat="48.73904" lon="2.55386"><ele>93.0</ele></trkpt>
    <trkpt lat="48.74102" lon="2.55366"><ele>93.5</ele></trkpt>
    <trkpt lat="48.74155" lon="2.55378"><ele>93.8</ele></trkpt>
    <trkpt lat="48.74189" lon="2.55395"><ele>94.1</ele></trkpt>
    <trkpt lat="48.74235" lon="2.55436"><ele>94.5</ele></trkpt>
    <trkpt lat="48.74248" lon="2.55455"><ele>94.6</ele></trkpt>
    <trkpt lat="48.74267" lon="2.55502"><ele>94.8</ele></trkpt>
    <trkpt lat="48.74281" lon="2.55552"><ele>95.2</ele></trkpt>
    <trkpt lat="48.74288" lon="2.55602"><ele>95.7</ele></trkpt>
    <trkpt lat="48.74275" lon="2.5562"><ele>95.9</ele></trkpt>
    <trkpt lat="48.74275" lon="2.55646"><ele>96.1</ele></trkpt>
    <trkpt lat="48.74288" lon="2.55662"><ele>96.2</ele></trkpt>
    <trkpt lat="48.74321" lon="2.5565"><ele>96.4</ele></trkpt>
    <trkpt lat="48.7442" lon="2.55709"><ele>96.4</ele></trkpt>
    <trkpt lat="48.74438" lon="2.55715"><ele>96.4</ele></trkpt>
    <trkpt lat="48.74526" lon="2.5569"><ele>96.8</ele></trkpt>
    <trkpt lat="48.74579" lon="2.557"><ele>97.3</ele></trkpt>
    <trkpt lat="48.74615" lon="2.55699"><ele>97.8</ele></trkpt>
    <trkpt lat="48.74646" lon="2.55708"><ele>98.3</ele></trkpt>
    <trkpt lat="48.74662" lon="2.55699"><ele>98.5</ele></trkpt>
    <trkpt lat="48.7468" lon="2.55698"><ele>98.8</ele></trkpt>
    <trkpt lat="48.75525" lon="2.55733"><ele>102.8</ele></trkpt>
    <trkpt lat="48.75541" lon="2.55722"><ele>102.8</ele></trkpt>
    <trkpt lat="48.75838" lon="2.55368"><ele>101.3</ele></trkpt>
    <trkpt lat="48.75865" lon="2.55343"><ele>101.1</ele></trkpt>
    <trkpt lat="48.7605" lon="2.55238"><ele>100.8</ele></trkpt>
    <trkpt lat="48.76072" lon="2.55169"><ele>101.0</ele></trkpt>
    <trkpt lat="48.76102" lon="2.55041"><ele>101.3</ele></trkpt>
    <trkpt lat="48.76119" lon="2.5491"><ele>101.9</ele></trkpt>
    <trkpt lat="48.7612" lon="2.54864"><ele>102.3</ele></trkpt>
    <trkpt lat="48.76147" lon="2.54567"><ele>102.7</ele></trkpt>
    <trkpt lat="48.76232" lon="2.53924"><ele>100.7</ele></trkpt>
    <trkpt lat="48.76326" lon="2.5367"><ele>97.7</ele></trkpt>
    <trkpt lat="48.76372" lon="2.53593"><ele>97.1</ele></trkpt>
    <trkpt lat="48.76399" lon="2.53557"><ele>96.8</ele></trkpt>
    <trkpt lat="48.7655" lon="2.53408"><ele>96.1</ele></trkpt>
    <trkpt lat="48.7659" lon="2.53353"><ele>96.1</ele></trkpt>
    <trkpt lat="48.76661" lon="2.5323"><ele>96.1</ele></trkpt>
    <trkpt lat="48.76675" lon="2.53215"><ele>96.1</ele></trkpt>
    <trkpt lat="48.76691" lon="2.53214"><ele>96.0</ele></trkpt>
    <trkpt lat="48.76781" lon="2.53347"><ele>95.9</ele></trkpt>
    <trkpt lat="48.7681" lon="2.53379"><ele>95.8</ele></trkpt>
    <trkpt lat="48.76876" lon="2.53422"><ele>95.4</ele></trkpt>
    <trkpt lat="48.76946" lon="2.53449"><ele>94.9</ele></trkpt>
    <trkpt lat="48.76981" lon="2.53446"><ele>94.6</ele></trkpt>
    <trkpt lat="48.77031" lon="2.53425"><ele>94.1</ele></trkpt>
    <trkpt lat="48.77056" lon="2.53386"><ele>93.8</ele></trkpt>
    <trkpt lat="48.77114" lon="2.53283"><ele>93.7</ele></trkpt>
    <trkpt lat="48.77141" lon="2.53212"><ele>93.7</ele></trkpt>
    <trkpt lat="48.77154" lon="2.53161"><ele>93.8</ele></trkpt>
    <trkpt lat="48.77162" lon="2.53108"><ele>94.0</ele></trkpt>
    <trkpt lat="48.7717" lon="2.53"><ele>94.4</ele></trkpt>
    <trkpt lat="48.77166" lon="2.52918"><ele>94.7</ele></trkpt>
    <trkpt lat="48.77155" lon="2.52838"><ele>95.1</ele></trkpt>
    <trkpt lat="48.77157" lon="2.52811"><ele>95.3</ele></trkpt>
    <trkpt lat="48.77169" lon="2.5276"><ele>95.9</ele></trkpt>
    <trkpt lat="48.77181" lon="2.52747"><ele>96.4</ele></trkpt>
    <trkpt lat="48.77184" lon="2.52724"><ele>96.9</ele></trkpt>
    <trkpt lat="48.77146" lon="2.52488"><ele>98.7</ele></trkpt>
    <trkpt lat="48.77129" lon="2.52355"><ele>98.3</ele></trkpt>
    <trkpt lat="48.77091" lon="2.52233"><ele>96.2</ele></trkpt>
    <trkpt lat="48.77087" lon="2.52178"><ele>94.6</ele></trkpt>
    <trkpt lat="48.77092" lon="2.52153"><ele>93.6</ele></trkpt>
    <trkpt lat="48.77107" lon="2.52138"><ele>92.5</ele></trkpt>
    <trkpt lat="48.77203" lon="2.51976"><ele>83.1</ele></trkpt>
    <trkpt lat="48.77372" lon="2.5173"><ele>66.7</ele></trkpt>
    <trkpt lat="48.77537" lon="2.5152"><ele>50.5</ele></trkpt>
    <trkpt lat="48.77657" lon="2.51399"><ele>40.9</ele></trkpt>
    <trkpt lat="48.77775" lon="2.51231"><ele>34.9</ele></trkpt>
    <trkpt lat="48.77806" lon="2.51166"><ele>35.5</ele></trkpt>
    <trkpt lat="48.78074" lon="2.51219"><ele>36.8</ele></trkpt>
    <trkpt lat="48.78108" lon="2.51237"><ele>38.2</ele></trkpt>
    <trkpt lat="48.78137" lon="2.51268"><ele>37.6</ele></trkpt>
    <trkpt lat="48.78315" lon="2.51498"><ele>38.8</ele></trkpt>
    <trkpt lat="48.78329" lon="2.51514"><ele>39.1</ele></trkpt>
    <trkpt lat="48.78364" lon="2.51526"><ele>39.6</ele></trkpt>
    <trkpt lat="48.7838" lon="2.51539"><ele>39.5</ele></trkpt>
    <trkpt lat="48.78432" lon="2.51649"><ele>39.3</ele></trkpt>
    <trkpt lat="48.78748" lon="2.52054"><ele>38.5</ele></trkpt>
    <trkpt lat="48.7901" lon="2.52235"><ele>36.8</ele></trkpt>
    <trkpt lat="48.79026" lon="2.5224"><ele>36.7</ele></trkpt>
    <trkpt lat="48.79039" lon="2.5222"><ele>36.6</ele></trkpt>
    <trkpt lat="48.79089" lon="2.52107"><ele>36.4</ele></trkpt>
    <trkpt lat="48.79094" lon="2.52082"><ele>36.3</ele></trkpt>
    <trkpt lat="48.79128" lon="2.521"><ele>36.1</ele></trkpt>
    <trkpt lat="48.79144" lon="2.52091"><ele>35.9</ele></trkpt>
    <trkpt lat="48.79166" lon="2.52048"><ele>35.6</ele></trkpt>
    <trkpt lat="48.79182" lon="2.52042"><ele>35.5</ele></trkpt>
    <trkpt lat="48.79197" lon="2.52054"><ele>35.4</ele></trkpt>
    <trkpt lat="48.79197" lon="2.52134"><ele>35.2</ele></trkpt>
    <trkpt lat="48.7921" lon="2.52152"><ele>35.2</ele></trkpt>
    <trkpt lat="48.79262" lon="2.52172"><ele>35.1</ele></trkpt>
    <trkpt lat="48.7928" lon="2.52172"><ele>35.1</ele></trkpt>
    <trkpt lat="48.79296" lon="2.52182"><ele>35.1</ele></trkpt>
    <trkpt lat="48.79386" lon="2.52186"><ele>35.0</ele></trkpt>
    <trkpt lat="48.7951" lon="2.52209"><ele>35.0</ele></trkpt>
    <trkpt lat="48.79527" lon="2.52207"><ele>35.0</ele></trkpt>
    <trkpt lat="48.79543" lon="2.52217"><ele>34.9</ele></trkpt>
    <trkpt lat="48.79704" lon="2.52246"><ele>34.9</ele></trkpt>
    <trkpt lat="48.79881" lon="2.52208"><ele>35.1</ele></trkpt>
    <trkpt lat="48.79989" lon="2.52199"><ele>35.0</ele></trkpt>
    <trkpt lat="48.80167" lon="2.52231"><ele>34.7</ele></trkpt>
    <trkpt lat="48.80238" lon="2.52226"><ele>34.9</ele></trkpt>
    <trkpt lat="48.80448" lon="2.52171"><ele>35.0</ele></trkpt>
    <trkpt lat="48.80458" lon="2.52152"><ele>35.1</ele></trkpt>
    <trkpt lat="48.80644" lon="2.51992"><ele>35.4</ele></trkpt>
    <trkpt lat="48.80674" lon="2.51961"><ele>35.4</ele></trkpt>
    <trkpt lat="48.80742" lon="2.51873"><ele>35.3</ele></trkpt>
    <trkpt lat="48.80803" lon="2.51772"><ele>35.5</ele></trkpt>
    <trkpt lat="48.80841" lon="2.5168"><ele>35.8</ele></trkpt>
    <trkpt lat="48.80857" lon="2.51631"><ele>35.8</ele></trkpt>
    <trkpt lat="48.80902" lon="2.51453"><ele>36.0</ele></trkpt>
    <trkpt lat="48.80923" lon="2.51293"><ele>36.2</ele></trkpt>
    <trkpt lat="48.80948" lon="2.50996"><ele>39.8</ele></trkpt>
    <trkpt lat="48.80955" lon="2.50975"><ele>40.5</ele></trkpt>
    <trkpt lat="48.81025" lon="2.51"><ele>42.8</ele></trkpt>
  </trkseg></trk>
</gpx>
