<?xml version="1.0" encoding="UTF-8"?>
<gpx version="1.1" creator="Club Cycliste USO" xmlns="http://www.topografix.com/GPX/1/1">
  <metadata><name>Fontenay-Trésigny – 93 km</name><desc>92.8 km, D+ 387 m. Départ et arrivée : pont de Champigny.</desc></metadata>
  <trk><name>Fontenay-Trésigny – 93 km</name><trkseg>
    <trkpt lat="48.81032" lon="2.51002"><ele>42.8</ele></trkpt>
    <trkpt lat="48.80962" lon="2.50978"><ele>41.5</ele></trkpt>
    <trkpt lat="48.80948" lon="2.50985"><ele>40.6</ele></trkpt>
    <trkpt lat="48.80921" lon="2.5131"><ele>36.0</ele></trkpt>
    <trkpt lat="48.80904" lon="2.51443"><ele>36.0</ele></trkpt>
    <trkpt lat="48.80844" lon="2.51671"><ele>35.8</ele></trkpt>
    <trkpt lat="48.80807" lon="2.51764"><ele>35.5</ele></trkpt>
    <trkpt lat="48.80747" lon="2.51865"><ele>35.3</ele></trkpt>
    <trkpt lat="48.8065" lon="2.51986"><ele>35.4</ele></trkpt>
    <trkpt lat="48.80464" lon="2.52147"><ele>35.1</ele></trkpt>
    <trkpt lat="48.80439" lon="2.52176"><ele>35.0</ele></trkpt>
    <trkpt lat="48.80421" lon="2.52175"><ele>35.0</ele></trkpt>
    <trkpt lat="48.80369" lon="2.52194"><ele>34.9</ele></trkpt>
    <trkpt lat="48.80244" lon="2.52224"><ele>34.9</ele></trkpt>
    <trkpt lat="48.80191" lon="2.5223"><ele>34.8</ele></trkpt>
    <trkpt lat="48.80156" lon="2.52229"><ele>34.7</ele></trkpt>
    <trkpt lat="48.79995" lon="2.52199"><ele>34.9</ele></trkpt>
    <trkpt lat="48.79888" lon="2.52207"><ele>35.1</ele></trkpt>
    <trkpt lat="48.79693" lon="2.52244"><ele>35.0</ele></trkpt>
    <trkpt lat="48.79392" lon="2.52185"><ele>35.0</ele></trkpt>
    <trkpt lat="48.79375" lon="2.5219"><ele>35.1</ele></trkpt>
    <trkpt lat="48.79303" lon="2.52184"><ele>35.1</ele></trkpt>
    <trkpt lat="48.79216" lon="2.52154"><ele>35.2</ele></trkpt>
    <trkpt lat="48.792" lon="2.52143"><ele>35.2</ele></trkpt>
    <trkpt lat="48.79195" lon="2.52118"><ele>35.3</ele></trkpt>
    <trkpt lat="48.792" lon="2.52064"><ele>35.4</ele></trkpt>
    <trkpt lat="48.79189" lon="2.52044"><ele>35.4</ele></trkpt>
    <trkpt lat="48.79172" lon="2.52043"><ele>35.5</ele></trkpt>
    <trkpt lat="48.79149" lon="2.52084"><ele>35.8</ele></trkpt>
    <trkpt lat="48.79135" lon="2.52099"><ele>36.1</ele></trkpt>
    <trkpt lat="48.79101" lon="2.52086"><ele>36.7</ele></trkpt>
    <trkpt lat="48.79086" lon="2.52093"><ele>37.4</ele></trkpt>
    <trkpt lat="48.79027" lon="2.52231"><ele>39.4</ele></trkpt>
    <trkpt lat="48.79013" lon="2.52231"><ele>38.9</ele></trkpt>
    <trkpt lat="48.78749" lon="2.52056"><ele>38.3</ele></trkpt>
    <trkpt lat="48.78433" lon="2.51651"><ele>39.2</ele></trkpt>
    <trkpt lat="48.78381" lon="2.51541"><ele>38.6</ele></trkpt>
    <trkpt lat="48.78367" lon="2.51526"><ele>38.4</ele></trkpt>
    <trkpt lat="48.78332" lon="2.51516"><ele>38.1</ele></trkpt>
    <trkpt lat="48.78317" lon="2.51501"><ele>38.0</ele></trkpt>
    <trkpt lat="48.7814" lon="2.5127"><ele>39.7</ele></trkpt>
    <trkpt lat="48.78095" lon="2.51225"><ele>39.5</ele></trkpt>
    <trkpt lat="48.77935" lon="2.51189"><ele>38.4</ele></trkpt>
    <trkpt lat="48.77809" lon="2.51173"><ele>37.4</ele></trkpt>
    <trkpt lat="48.77762" lon="2.51251"><ele>36.9</ele></trkpt>
    <trkpt lat="48.77657" lon="2.514"><ele>39.1</ele></trkpt>
    <trkpt lat="48.77537" lon="2.5152"><ele>48.8</ele></trkpt>
    <trkpt lat="48.77372" lon="2.5173"><ele>63.9</ele></trkpt>
    <trkpt lat="48.77139" lon="2.5207"><ele>88.8</ele></trkpt>
    <trkpt lat="48.77102" lon="2.52131"><ele>92.2</ele></trkpt>
    <trkpt lat="48.77086" lon="2.5214"><ele>93.1</ele></trkpt>
    <trkpt lat="48.77076" lon="2.52156"><ele>93.8</ele></trkpt>
    <trkpt lat="48.77076" lon="2.5221"><ele>94.8</ele></trkpt>
    <trkpt lat="48.77068" lon="2.52227"><ele>95.0</ele></trkpt>
    <trkpt lat="48.77033" lon="2.52236"><ele>95.6</ele></trkpt>
    <trkpt lat="48.76879" lon="2.52377"><ele>101.2</ele></trkpt>
    <trkpt lat="48.76846" lon="2.52397"><ele>102.1</ele></trkpt>
    <trkpt lat="48.76841" lon="2.52418"><ele>102.3</ele></trkpt>
    <trkpt lat="48.76855" lon="2.52466"><ele>102.5</ele></trkpt>
    <trkpt lat="48.76857" lon="2.52493"><ele>102.5</ele></trkpt>
    <trkpt lat="48.76856" lon="2.5282"><ele>100.8</ele></trkpt>
    <trkpt lat="48.76846" lon="2.52838"><ele>100.5</ele></trkpt>
    <trkpt lat="48.76813" lon="2.52858"><ele>100.3</ele></trkpt>
    <trkpt lat="48.76801" lon="2.52878"><ele>100.2</ele></trkpt>
    <trkpt lat="48.76775" lon="2.5295"><ele>99.8</ele></trkpt>
    <trkpt lat="48.76685" lon="2.53154"><ele>99.1</ele></trkpt>
    <trkpt lat="48.76668" lon="2.53202"><ele>98.0</ele></trkpt>
    <trkpt lat="48.76573" lon="2.53366"><ele>96.3</ele></trkpt>
    <trkpt lat="48.76547" lon="2.53402"><ele>96.3</ele></trkpt>
    <trkpt lat="48.7641" lon="2.53534"><ele>96.3</ele></trkpt>
    <trkpt lat="48.76341" lon="2.53617"><ele>97.2</ele></trkpt>
    <trkpt lat="48.76328" lon="2.53667"><ele>97.8</ele></trkpt>
    <trkpt lat="48.76297" lon="2.53733"><ele>98.5</ele></trkpt>
    <trkpt lat="48.76231" lon="2.53926"><ele>100.6</ele></trkpt>
    <trkpt lat="48.76149" lon="2.54541"><ele>102.0</ele></trkpt>
    <trkpt lat="48.76116" lon="2.54891"><ele>101.7</ele></trkpt>
    <trkpt lat="48.76102" lon="2.54904"><ele>101.5</ele></trkpt>
    <trkpt lat="48.75805" lon="2.55015"><ele>100.2</ele></trkpt>
    <trkpt lat="48.75843" lon="2.55333"><ele>101.2</ele></trkpt>
    <trkpt lat="48.75841" lon="2.55359"><ele>101.3</ele></trkpt>
    <trkpt lat="48.7583" lon="2.5538"><ele>101.5</ele></trkpt>
    <trkpt lat="48.75531" lon="2.5573"><ele>103.0</ele></trkpt>
    <trkpt lat="48.74704" lon="2.557"><ele>98.6</ele></trkpt>
    <trkpt lat="48.74634" lon="2.55691"><ele>98.1</ele></trkpt>
    <trkpt lat="48.74617" lon="2.55696"><ele>97.9</ele></trkpt>
    <trkpt lat="48.7451" lon="2.55695"><ele>96.9</ele></trkpt>
    <trkpt lat="48.74439" lon="2.55712"><ele>96.5</ele></trkpt>
    <trkpt lat="48.74421" lon="2.55709"><ele>96.5</ele></trkpt>
    <trkpt lat="48.74321" lon="2.55647"><ele>96.4</ele></trkpt>
    <trkpt lat="48.74303" lon="2.55608"><ele>96.2</ele></trkpt>
    <trkpt lat="48.74286" lon="2.55606"><ele>96.4</ele></trkpt>
    <trkpt lat="48.74276" lon="2.55625"><ele>96.6</ele></trkpt>
    <trkpt lat="48.74273" lon="2.55652"><ele>96.9</ele></trkpt>
    <trkpt lat="48.74264" lon="2.55675"><ele>97.1</ele></trkpt>
    <trkpt lat="48.7426" lon="2.55701"><ele>97.2</ele></trkpt>
    <trkpt lat="48.74258" lon="2.55756"><ele>97.2</ele></trkpt>
    <trkpt lat="48.74242" lon="2.55861"><ele>97.4</ele></trkpt>
    <trkpt lat="48.7424" lon="2.55998"><ele>97.2</ele></trkpt>
    <trkpt lat="48.74226" lon="2.56075"><ele>97.1</ele></trkpt>
    <trkpt lat="48.742" lon="2.56112"><ele>97.1</ele></trkpt>
    <trkpt lat="48.74167" lon="2.56134"><ele>97.2</ele></trkpt>
    <trkpt lat="48.74113" lon="2.56137"><ele>97.5</ele></trkpt>
    <trkpt lat="48.74097" lon="2.56128"><ele>97.5</ele></trkpt>
    <trkpt lat="48.74085" lon="2.56143"><ele>97.3</ele></trkpt>
    <trkpt lat="48.73996" lon="2.56155"><ele>97.0</ele></trkpt>
    <trkpt lat="48.7396" lon="2.56166"><ele>97.1</ele></trkpt>
    <trkpt lat="48.73909" lon="2.56192"><ele>96.8</ele></trkpt>
    <trkpt lat="48.73864" lon="2.56235"><ele>96.6</ele></trkpt>
    <trkpt lat="48.73851" lon="2.56252"><ele>96.3</ele></trkpt>
    <trkpt lat="48.73839" lon="2.56303"><ele>96.1</ele></trkpt>
    <trkpt lat="48.73832" lon="2.56384"><ele>95.6</ele></trkpt>
    <trkpt lat="48.73834" lon="2.56439"><ele>95.2</ele></trkpt>
    <trkpt lat="48.73815" lon="2.56511"><ele>94.8</ele></trkpt>
    <trkpt lat="48.73798" lon="2.56516"><ele>94.3</ele></trkpt>
    <trkpt lat="48.73708" lon="2.56514"><ele>92.6</ele></trkpt>
    <trkpt lat="48.73565" lon="2.56492"><ele>91.0</ele></trkpt>
    <trkpt lat="48.73548" lon="2.56485"><ele>90.8</ele></trkpt>
    <trkpt lat="48.7353" lon="2.5644"><ele>90.5</ele></trkpt>
    <trkpt lat="48.73513" lon="2.5644"><ele>90.5</ele></trkpt>
    <trkpt lat="48.73492" lon="2.56484"><ele>90.4</ele></trkpt>
    <trkpt lat="48.73479" lon="2.565"><ele>90.5</ele></trkpt>
    <trkpt lat="48.73426" lon="2.56515"><ele>90.5</ele></trkpt>
    <trkpt lat="48.73392" lon="2.56532"><ele>90.6</ele></trkpt>
    <trkpt lat="48.73186" lon="2.567"><ele>92.3</ele></trkpt>
    <trkpt lat="48.73131" lon="2.5677"><ele>93.0</ele></trkpt>
    <trkpt lat="48.73115" lon="2.56812"><ele>93.1</ele></trkpt>
    <trkpt lat="48.73086" lon="2.57081"><ele>93.1</ele></trkpt>
    <trkpt lat="48.73041" lon="2.57373"><ele>92.2</ele></trkpt>
    <trkpt lat="48.73005" lon="2.57556"><ele>91.0</ele></trkpt>
    <trkpt lat="48.72991" lon="2.57605"><ele>90.6</ele></trkpt>
    <trkpt lat="48.72968" lon="2.57647"><ele>90.1</ele></trkpt>
    <trkpt lat="48.72939" lon="2.57678"><ele>89.5</ele></trkpt>
    <trkpt lat="48.72904" lon="2.57691"><ele>88.6</ele></trkpt>
    <trkpt lat="48.72886" lon="2.57689"><ele>88.1</ele></trkpt>
    <trkpt lat="48.72873" lon="2.57674"><ele>87.5</ele></trkpt>
    <trkpt lat="48.72855" lon="2.57674"><ele>86.9</ele></trkpt>
    <trkpt lat="48.72844" lon="2.57693"><ele>86.3</ele></trkpt>
    <trkpt lat="48.72778" lon="2.57734"><ele>85.1</ele></trkpt>
    <trkpt lat="48.72638" lon="2.57787"><ele>82.7</ele></trkpt>
    <trkpt lat="48.72573" lon="2.57827"><ele>80.9</ele></trkpt>
    <trkpt lat="48.72541" lon="2.57982"><ele>80.4</ele></trkpt>
    <trkpt lat="48.72514" lon="2.58141"><ele>83.1</ele></trkpt>
    <trkpt lat="48.72466" lon="2.58288"><ele>84.5</ele></trkpt>
    <trkpt lat="48.72386" lon="2.585"><ele>85.2</ele></trkpt>
    <trkpt lat="48.72354" lon="2.58656"><ele>85.4</ele></trkpt>
    <trkpt lat="48.72336" lon="2.58789"><ele>85.5</ele></trkpt>
    <trkpt lat="48.72307" lon="2.58914"><ele>85.9</ele></trkpt>
    <trkpt lat="48.72271" lon="2.58912"><ele>85.7</ele></trkpt>
    <trkpt lat="48.7193" lon="2.5895"><ele>71.6</ele></trkpt>
    <trkpt lat="48.71825" lon="2.58973"><ele>79.2</ele></trkpt>
    <trkpt lat="48.71645" lon="2.5899"><ele>87.2</ele></trkpt>
    <trkpt lat="48.71639" lon="2.59003"><ele>87.3</ele></trkpt>
    <trkpt lat="48.71661" lon="2.59107"><ele>86.7</ele></trkpt>
    <trkpt lat="48.71669" lon="2.59188"><ele>86.3</ele></trkpt>
    <trkpt lat="48.71666" lon="2.59542"><ele>87.9</ele></trkpt>
    <trkpt lat="48.71683" lon="2.5973"><ele>89.5</ele></trkpt>
    <trkpt lat="48.71696" lon="2.59746"><ele>89.7</ele></trkpt>
    <trkpt lat="48.71715" lon="2.59792"><ele>89.8</ele></trkpt>
    <trkpt lat="48.71724" lon="2.59845"><ele>89.8</ele></trkpt>
    <trkpt lat="48.71727" lon="2.60063"><ele>90.1</ele></trkpt>
    <trkpt lat="48.71733" lon="2.60116"><ele>90.1</ele></trkpt>
    <trkpt lat="48.71763" lon="2.60215"><ele>90.0</ele></trkpt>
    <trkpt lat="48.71774" lon="2.60267"><ele>90.0</ele></trkpt>
    <trkpt lat="48.71812" lon="2.60589"><ele>91.1</ele></trkpt>
    <trkpt lat="48.71846" lon="2.60744"><ele>91.9</ele></trkpt>
    <trkpt lat="48.71906" lon="2.60942"><ele>92.9</ele></trkpt>
    <trkpt lat="48.71996" lon="2.61032"><ele>94.1</ele></trkpt>
    <trkpt lat="48.72033" lon="2.6109"><ele>94.7</ele></trkpt>
    <trkpt lat="48.72207" lon="2.61504"><ele>97.9</ele></trkpt>
    <trkpt lat="48.72577" lon="2.62242"><ele>100.9</ele></trkpt>
    <trkpt lat="48.72599" lon="2.62346"><ele>100.9</ele></trkpt>
    <trkpt lat="48.72606" lon="2.62454"><ele>100.8</ele></trkpt>
    <trkpt lat="48.7261" lon="2.62645"><ele>100.3</ele></trkpt>
    <trkpt lat="48.72622" lon="2.62659"><ele>100.2</ele></trkpt>
    <trkpt lat="48.7273" lon="2.62646"><ele>99.2</ele></trkpt>
    <trkpt lat="48.72856" lon="2.6266"><ele>98.1</ele></trkpt>
    <trkpt lat="48.73106" lon="2.62701"><ele>95.8</ele></trkpt>
    <trkpt lat="48.73111" lon="2.6272"><ele>95.7</ele></trkpt>
    <trkpt lat="48.73087" lon="2.63017"><ele>96.5</ele></trkpt>
    <trkpt lat="48.73022" lon="2.63329"><ele>97.8</ele></trkpt>
    <trkpt lat="48.72999" lon="2.6346"><ele>97.4</ele></trkpt>
    <trkpt lat="48.72975" lon="2.63563"><ele>97.3</ele></trkpt>
    <trkpt lat="48.72952" lon="2.63637"><ele>97.4</ele></trkpt>
    <trkpt lat="48.72833" lon="2.63942"><ele>97.2</ele></trkpt>
    <trkpt lat="48.72759" lon="2.64096"><ele>97.5</ele></trkpt>
    <trkpt lat="48.72693" lon="2.64188"><ele>97.7</ele></trkpt>
    <trkpt lat="48.72633" lon="2.64324"><ele>98.3</ele></trkpt>
    <trkpt lat="48.72273" lon="2.65005"><ele>100.3</ele></trkpt>
    <trkpt lat="48.72164" lon="2.65222"><ele>101.9</ele></trkpt>
    <trkpt lat="48.72214" lon="2.65299"><ele>101.5</ele></trkpt>
    <trkpt lat="48.72387" lon="2.65538"><ele>100.9</ele></trkpt>
    <trkpt lat="48.72423" lon="2.65538"><ele>100.7</ele></trkpt>
    <trkpt lat="48.72438" lon="2.65547"><ele>100.6</ele></trkpt>
    <trkpt lat="48.7245" lon="2.65655"><ele>100.3</ele></trkpt>
    <trkpt lat="48.72499" lon="2.65945"><ele>100.8</ele></trkpt>
    <trkpt lat="48.72551" lon="2.66429"><ele>100.7</ele></trkpt>
    <trkpt lat="48.72576" lon="2.66502"><ele>100.5</ele></trkpt>
    <trkpt lat="48.72601" lon="2.66603"><ele>100.1</ele></trkpt>
    <trkpt lat="48.72613" lon="2.66618"><ele>99.8</ele></trkpt>
    <trkpt lat="48.72916" lon="2.67577"><ele>101.1</ele></trkpt>
    <trkpt lat="48.73437" lon="2.6993"><ele>108.8</ele></trkpt>
    <trkpt lat="48.73458" lon="2.70034"><ele>108.3</ele></trkpt>
    <trkpt lat="48.73463" lon="2.70087"><ele>108.0</ele></trkpt>
    <trkpt lat="48.73479" lon="2.70097"><ele>107.9</ele></trkpt>
    <trkpt lat="48.73568" lon="2.70115"><ele>107.6</ele></trkpt>
    <trkpt lat="48.73729" lon="2.70139"><ele>106.9</ele></trkpt>
    <trkpt lat="48.73735" lon="2.70155"><ele>106.9</ele></trkpt>
    <trkpt lat="48.73728" lon="2.70209"><ele>106.8</ele></trkpt>
    <trkpt lat="48.7372" lon="2.70233"><ele>106.8</ele></trkpt>
    <trkpt lat="48.7364" lon="2.7038"><ele>106.8</ele></trkpt>
    <trkpt lat="48.73602" lon="2.70472"><ele>107.0</ele></trkpt>
    <trkpt lat="48.7359" lon="2.70523"><ele>107.1</ele></trkpt>
    <trkpt lat="48.73589" lon="2.70604"><ele>107.3</ele></trkpt>
    <trkpt lat="48.74192" lon="2.73347"><ele>106.7</ele></trkpt>
    <trkpt lat="48.74219" lon="2.73477"><ele>106.2</ele></trkpt>
    <trkpt lat="48.7422" lon="2.73503"><ele>106.1</ele></trkpt>
    <trkpt lat="48.74209" lon="2.73524"><ele>106.0</ele></trkpt>
    <trkpt lat="48.74105" lon="2.73629"><ele>105.2</ele></trkpt>
    <trkpt lat="48.74025" lon="2.7381"><ele>104.5</ele></trkpt>
    <trkpt lat="48.73991" lon="2.73874"><ele>103.8</ele></trkpt>
    <trkpt lat="48.73977" lon="2.73883"><ele>103.6</ele></trkpt>
    <trkpt lat="48.73918" lon="2.7378"><ele>104.8</ele></trkpt>
    <trkpt lat="48.73878" lon="2.7369"><ele>105.3</ele></trkpt>
    <trkpt lat="48.73861" lon="2.73694"><ele>105.4</ele></trkpt>
    <trkpt lat="48.73821" lon="2.73747"><ele>105.4</ele></trkpt>
    <trkpt lat="48.73797" lon="2.73788"><ele>105.1</ele></trkpt>
    <trkpt lat="48.7378" lon="2.73795"><ele>105.0</ele></trkpt>
    <trkpt lat="48.73763" lon="2.73794"><ele>104.9</ele></trkpt>
    <trkpt lat="48.73698" lon="2.7375"><ele>105.0</ele></trkpt>
    <trkpt lat="48.73662" lon="2.7374"><ele>105.4</ele></trkpt>
    <trkpt lat="48.73555" lon="2.73745"><ele>106.5</ele></trkpt>
    <trkpt lat="48.7343" lon="2.73768"><ele>105.9</ele></trkpt>
    <trkpt lat="48.73413" lon="2.73777"><ele>105.7</ele></trkpt>
    <trkpt lat="48.7335" lon="2.7383"><ele>105.1</ele></trkpt>
    <trkpt lat="48.7326" lon="2.73921"><ele>105.4</ele></trkpt>
    <trkpt lat="48.73244" lon="2.73932"><ele>105.0</ele></trkpt>
    <trkpt lat="48.73209" lon="2.73939"><ele>103.8</ele></trkpt>
    <trkpt lat="48.73137" lon="2.73931"><ele>105.0</ele></trkpt>
    <trkpt lat="48.73127" lon="2.73915"><ele>105.5</ele></trkpt>
    <trkpt lat="48.73113" lon="2.73927"><ele>105.6</ele></trkpt>
    <trkpt lat="48.73095" lon="2.73926"><ele>105.4</ele></trkpt>
    <trkpt lat="48.72844" lon="2.73896"><ele>102.5</ele></trkpt>
    <trkpt lat="48.72268" lon="2.73881"><ele>95.0</ele></trkpt>
    <trkpt lat="48.72161" lon="2.73865"><ele>95.1</ele></trkpt>
    <trkpt lat="48.72089" lon="2.73869"><ele>95.1</ele></trkpt>
    <trkpt lat="48.71891" lon="2.73854"><ele>94.3</ele></trkpt>
    <trkpt lat="48.71856" lon="2.73855"><ele>94.2</ele></trkpt>
    <trkpt lat="48.71767" lon="2.73875"><ele>96.0</ele></trkpt>
    <trkpt lat="48.71642" lon="2.73851"><ele>96.9</ele></trkpt>
    <trkpt lat="48.71625" lon="2.73853"><ele>97.0</ele></trkpt>
    <trkpt lat="48.7161" lon="2.74015"><ele>96.7</ele></trkpt>
    <trkpt lat="48.71587" lon="2.74146"><ele>96.2</ele></trkpt>
    <trkpt lat="48.71588" lon="2.74225"><ele>94.1</ele></trkpt>
    <trkpt lat="48.71575" lon="2.74333"><ele>91.7</ele></trkpt>
    <trkpt lat="48.71552" lon="2.74464"><ele>88.9</ele></trkpt>
    <trkpt lat="48.71535" lon="2.74512"><ele>87.6</ele></trkpt>
    <trkpt lat="48.71459" lon="2.74664"><ele>83.2</ele></trkpt>
    <trkpt lat="48.71377" lon="2.74809"><ele>82.1</ele></trkpt>
    <trkpt lat="48.71284" lon="2.74936"><ele>84.4</ele></trkpt>
    <trkpt lat="48.71052" lon="2.75316"><ele>102.6</ele></trkpt>
    <trkpt lat="48.71032" lon="2.75357"><ele>105.1</ele></trkpt>
    <trkpt lat="48.7099" lon="2.75407"><ele>104.1</ele></trkpt>
    <trkpt lat="48.70942" lon="2.75441"><ele>104.0</ele></trkpt>
    <trkpt lat="48.70944" lon="2.75465"><ele>104.7</ele></trkpt>
    <trkpt lat="48.70964" lon="2.75509"><ele>104.9</ele></trkpt>
    <trkpt lat="48.70969" lon="2.75562"><ele>104.9</ele></trkpt>
    <trkpt lat="48.70968" lon="2.75616"><ele>104.9</ele></trkpt>
    <trkpt lat="48.70946" lon="2.75748"><ele>104.7</ele></trkpt>
    <trkpt lat="48.70849" lon="2.76245"><ele>102.1</ele></trkpt>
    <trkpt lat="48.70842" lon="2.76267"><ele>102.0</ele></trkpt>
    <trkpt lat="48.70722" lon="2.76325"><ele>100.6</ele></trkpt>
    <trkpt lat="48.70487" lon="2.76578"><ele>99.7</ele></trkpt>
    <trkpt lat="48.70394" lon="2.76661"><ele>100.9</ele></trkpt>
    <trkpt lat="48.7008" lon="2.77325"><ele>106.5</ele></trkpt>
    <trkpt lat="48.70002" lon="2.77509"><ele>106.8</ele></trkpt>
    <trkpt lat="48.7" lon="2.7753"><ele>106.8</ele></trkpt>
    <trkpt lat="48.70026" lon="2.77568"><ele>106.7</ele></trkpt>
    <trkpt lat="48.70091" lon="2.77699"><ele>106.3</ele></trkpt>
    <trkpt lat="48.70148" lon="2.77765"><ele>105.7</ele></trkpt>
    <trkpt lat="48.70226" lon="2.77832"><ele>105.0</ele></trkpt>
    <trkpt lat="48.70238" lon="2.77852"><ele>104.9</ele></trkpt>
    <trkpt lat="48.70645" lon="2.78784"><ele>103.8</ele></trkpt>
    <trkpt lat="48.70766" lon="2.79118"><ele>104.3</ele></trkpt>
    <trkpt lat="48.70787" lon="2.79194"><ele>104.3</ele></trkpt>
    <trkpt lat="48.71012" lon="2.80172"><ele>107.0</ele></trkpt>
    <trkpt lat="48.71067" lon="2.80373"><ele>109.1</ele></trkpt>
    <trkpt lat="48.7109" lon="2.8056"><ele>111.0</ele></trkpt>
    <trkpt lat="48.7109" lon="2.80669"><ele>112.4</ele></trkpt>
    <trkpt lat="48.7108" lon="2.80721"><ele>113.2</ele></trkpt>
    <trkpt lat="48.71087" lon="2.80745"><ele>113.5</ele></trkpt>
    <trkpt lat="48.71138" lon="2.80822"><ele>114.8</ele></trkpt>
    <trkpt lat="48.71146" lon="2.80846"><ele>115.1</ele></trkpt>
    <trkpt lat="48.71145" lon="2.80873"><ele>115.3</ele></trkpt>
    <trkpt lat="48.71114" lon="2.81"><ele>116.0</ele></trkpt>
    <trkpt lat="48.71099" lon="2.81014"><ele>115.9</ele></trkpt>
    <trkpt lat="48.7109" lon="2.81037"><ele>115.9</ele></trkpt>
    <trkpt lat="48.71048" lon="2.81088"><ele>115.3</ele></trkpt>
    <trkpt lat="48.71003" lon="2.81236"><ele>113.4</ele></trkpt>
    <trkpt lat="48.70975" lon="2.81422"><ele>110.8</ele></trkpt>
    <trkpt lat="48.70969" lon="2.81558"><ele>108.5</ele></trkpt>
    <trkpt lat="48.70942" lon="2.81688"><ele>106.5</ele></trkpt>
    <trkpt lat="48.70906" lon="2.82203"><ele>103.4</ele></trkpt>
    <trkpt lat="48.70899" lon="2.82256"><ele>103.4</ele></trkpt>
    <trkpt lat="48.70822" lon="2.82648"><ele>105.5</ele></trkpt>
    <trkpt lat="48.70802" lon="2.82781"><ele>106.9</ele></trkpt>
    <trkpt lat="48.70802" lon="2.83026"><ele>110.2</ele></trkpt>
    <trkpt lat="48.70778" lon="2.83515"><ele>114.9</ele></trkpt>
    <trkpt lat="48.70773" lon="2.83787"><ele>114.8</ele></trkpt>
    <trkpt lat="48.70776" lon="2.83896"><ele>114.6</ele></trkpt>
    <trkpt lat="48.7075" lon="2.84686"><ele>105.7</ele></trkpt>
    <trkpt lat="48.70747" lon="2.85067"><ele>101.1</ele></trkpt>
    <trkpt lat="48.7074" lon="2.8512"><ele>100.6</ele></trkpt>
    <trkpt lat="48.70701" lon="2.85243"><ele>99.7</ele></trkpt>
    <trkpt lat="48.70692" lon="2.85487"><ele>99.2</ele></trkpt>
    <trkpt lat="48.70658" lon="2.85727"><ele>99.5</ele></trkpt>
    <trkpt lat="48.70673" lon="2.85776"><ele>99.6</ele></trkpt>
    <trkpt lat="48.70703" lon="2.85844"><ele>99.5</ele></trkpt>
    <trkpt lat="48.70722" lon="2.85976"><ele>100.1</ele></trkpt>
    <trkpt lat="48.70731" lon="2.86085"><ele>100.1</ele></trkpt>
    <trkpt lat="48.70722" lon="2.8622"><ele>100.3</ele></trkpt>
    <trkpt lat="48.70676" lon="2.86455"><ele>100.8</ele></trkpt>
    <trkpt lat="48.70666" lon="2.86563"><ele>101.0</ele></trkpt>
    <trkpt lat="48.70681" lon="2.86999"><ele>102.9</ele></trkpt>
    <trkpt lat="48.70673" lon="2.87014"><ele>102.9</ele></trkpt>
    <trkpt lat="48.70296" lon="2.87052"><ele>102.5</ele></trkpt>
    <trkpt lat="48.70134" lon="2.87055"><ele>104.1</ele></trkpt>
    <trkpt lat="48.70116" lon="2.87049"><ele>104.5</ele></trkpt>
    <trkpt lat="48.70085" lon="2.87022"><ele>105.2</ele></trkpt>
    <trkpt lat="48.68828" lon="2.85521"><ele>106.5</ele></trkpt>
    <trkpt lat="48.68796" lon="2.85498"><ele>105.5</ele></trkpt>
    <trkpt lat="48.68398" lon="2.85341"><ele>95.2</ele></trkpt>
    <trkpt lat="48.68456" lon="2.85142"><ele>92.6</ele></trkpt>
    <trkpt lat="48.68514" lon="2.85004"><ele>90.7</ele></trkpt>
    <trkpt lat="48.68525" lon="2.84988"><ele>90.4</ele></trkpt>
    <trkpt lat="48.68668" lon="2.85016"><ele>90.1</ele></trkpt>
    <trkpt lat="48.68684" lon="2.85005"><ele>90.3</ele></trkpt>
    <trkpt lat="48.68801" lon="2.84607"><ele>94.4</ele></trkpt>
    <trkpt lat="48.68755" lon="2.84575"><ele>95.4</ele></trkpt>
    <trkpt lat="48.68551" lon="2.8447"><ele>98.0</ele></trkpt>
    <trkpt lat="48.68518" lon="2.84447"><ele>98.1</ele></trkpt>
    <trkpt lat="48.68506" lon="2.84428"><ele>98.2</ele></trkpt>
    <trkpt lat="48.68446" lon="2.84292"><ele>99.9</ele></trkpt>
    <trkpt lat="48.68363" lon="2.84082"><ele>102.0</ele></trkpt>
    <trkpt lat="48.68326" lon="2.84023"><ele>102.1</ele></trkpt>
    <trkpt lat="48.68255" lon="2.83939"><ele>104.2</ele></trkpt>
    <trkpt lat="48.68137" lon="2.83771"><ele>109.7</ele></trkpt>
    <trkpt lat="48.68082" lon="2.83701"><ele>109.4</ele></trkpt>
    <trkpt lat="48.67904" lon="2.83515"><ele>109.9</ele></trkpt>
    <trkpt lat="48.67848" lon="2.83409"><ele>109.5</ele></trkpt>
    <trkpt lat="48.67704" lon="2.83204"><ele>105.3</ele></trkpt>
    <trkpt lat="48.67478" lon="2.82935"><ele>103.3</ele></trkpt>
    <trkpt lat="48.6737" lon="2.82791"><ele>100.6</ele></trkpt>
    <trkpt lat="48.67348" lon="2.82748"><ele>100.0</ele></trkpt>
    <trkpt lat="48.67343" lon="2.82722"><ele>99.8</ele></trkpt>
    <trkpt lat="48.67336" lon="2.82586"><ele>98.8</ele></trkpt>
    <trkpt lat="48.67327" lon="2.82506"><ele>98.1</ele></trkpt>
    <trkpt lat="48.67285" lon="2.82269"><ele>95.1</ele></trkpt>
    <trkpt lat="48.67262" lon="2.82166"><ele>94.9</ele></trkpt>
    <trkpt lat="48.67254" lon="2.82142"><ele>95.0</ele></trkpt>
    <trkpt lat="48.6724" lon="2.82125"><ele>95.2</ele></trkpt>
    <trkpt lat="48.67224" lon="2.82113"><ele>95.5</ele></trkpt>
    <trkpt lat="48.67171" lon="2.82106"><ele>97.1</ele></trkpt>
    <trkpt lat="48.67159" lon="2.82088"><ele>97.8</ele></trkpt>
    <trkpt lat="48.67158" lon="2.82007"><ele>99.8</ele></trkpt>
    <trkpt lat="48.67168" lon="2.81956"><ele>100.8</ele></trkpt>
    <trkpt lat="48.67209" lon="2.81866"><ele>101.6</ele></trkpt>
    <trkpt lat="48.67296" lon="2.81728"><ele>103.9</ele></trkpt>
    <trkpt lat="48.67321" lon="2.81689"><ele>104.3</ele></trkpt>
    <trkpt lat="48.67379" lon="2.81624"><ele>104.2</ele></trkpt>
    <trkpt lat="48.67405" lon="2.81587"><ele>104.0</ele></trkpt>
    <trkpt lat="48.67477" lon="2.81398"><ele>102.7</ele></trkpt>
    <trkpt lat="48.67509" lon="2.81334"><ele>101.9</ele></trkpt>
    <trkpt lat="48.67524" lon="2.81256"><ele>101.0</ele></trkpt>
    <trkpt lat="48.67636" lon="2.81043"><ele>98.4</ele></trkpt>
    <trkpt lat="48.67651" lon="2.80994"><ele>98.0</ele></trkpt>
    <trkpt lat="48.67677" lon="2.80807"><ele>97.2</ele></trkpt>
    <trkpt lat="48.67715" lon="2.80684"><ele>96.9</ele></trkpt>
    <trkpt lat="48.67725" lon="2.80632"><ele>96.8</ele></trkpt>
    <trkpt lat="48.6774" lon="2.80442"><ele>97.2</ele></trkpt>
    <trkpt lat="48.67743" lon="2.80361"><ele>97.5</ele></trkpt>
    <trkpt lat="48.67727" lon="2.80283"><ele>98.0</ele></trkpt>
    <trkpt lat="48.67718" lon="2.80175"><ele>98.5</ele></trkpt>
    <trkpt lat="48.67717" lon="2.79793"><ele>100.0</ele></trkpt>
    <trkpt lat="48.67721" lon="2.7963"><ele>100.5</ele></trkpt>
    <trkpt lat="48.67732" lon="2.79609"><ele>100.5</ele></trkpt>
    <trkpt lat="48.67747" lon="2.79595"><ele>100.6</ele></trkpt>
    <trkpt lat="48.67861" lon="2.79514"><ele>101.0</ele></trkpt>
    <trkpt lat="48.67873" lon="2.79496"><ele>101.0</ele></trkpt>
    <trkpt lat="48.67863" lon="2.79389"><ele>101.3</ele></trkpt>
    <trkpt lat="48.67871" lon="2.79337"><ele>101.4</ele></trkpt>
    <trkpt lat="48.6798" lon="2.78993"><ele>101.8</ele></trkpt>
    <trkpt lat="48.6815" lon="2.78676"><ele>101.5</ele></trkpt>
    <trkpt lat="48.6842" lon="2.78064"><ele>98.8</ele></trkpt>
    <trkpt lat="48.68444" lon="2.77991"><ele>98.4</ele></trkpt>
    <trkpt lat="48.68469" lon="2.77953"><ele>98.0</ele></trkpt>
    <trkpt lat="48.68555" lon="2.77915"><ele>97.3</ele></trkpt>
    <trkpt lat="48.68608" lon="2.77899"><ele>97.0</ele></trkpt>
    <trkpt lat="48.68686" lon="2.77832"><ele>97.1</ele></trkpt>
    <trkpt lat="48.68719" lon="2.77811"><ele>97.3</ele></trkpt>
    <trkpt lat="48.69021" lon="2.77742"><ele>99.5</ele></trkpt>
    <trkpt lat="48.69055" lon="2.77724"><ele>100.0</ele></trkpt>
    <trkpt lat="48.69147" lon="2.77638"><ele>101.4</ele></trkpt>
    <trkpt lat="48.69195" lon="2.77602"><ele>102.2</ele></trkpt>
    <trkpt lat="48.69487" lon="2.77462"><ele>105.2</ele></trkpt>
    <trkpt lat="48.69557" lon="2.7744"><ele>105.7</ele></trkpt>
    <trkpt lat="48.69696" lon="2.7732"><ele>106.0</ele></trkpt>
    <trkpt lat="48.69797" lon="2.77206"><ele>105.3</ele></trkpt>
    <trkpt lat="48.69846" lon="2.77126"><ele>104.4</ele></trkpt>
    <trkpt lat="48.69855" lon="2.77104"><ele>104.1</ele></trkpt>
    <trkpt lat="48.6987" lon="2.77025"><ele>103.0</ele></trkpt>
    <trkpt lat="48.69873" lon="2.76998"><ele>102.5</ele></trkpt>
    <trkpt lat="48.69871" lon="2.76944"><ele>101.5</ele></trkpt>
    <trkpt lat="48.69845" lon="2.76842"><ele>99.2</ele></trkpt>
    <trkpt lat="48.69843" lon="2.76788"><ele>98.0</ele></trkpt>
    <trkpt lat="48.69859" lon="2.76654"><ele>95.2</ele></trkpt>
    <trkpt lat="48.69943" lon="2.76124"><ele>86.8</ele></trkpt>
    <trkpt lat="48.69953" lon="2.76017"><ele>86.0</ele></trkpt>
    <trkpt lat="48.69951" lon="2.75908"><ele>85.7</ele></trkpt>
    <trkpt lat="48.69941" lon="2.75856"><ele>85.9</ele></trkpt>
    <trkpt lat="48.69776" lon="2.75467"><ele>92.4</ele></trkpt>
    <trkpt lat="48.69684" lon="2.74968"><ele>97.6</ele></trkpt>
    <trkpt lat="48.69665" lon="2.74835"><ele>98.1</ele></trkpt>
    <trkpt lat="48.69668" lon="2.74754"><ele>98.2</ele></trkpt>
    <trkpt lat="48.69737" lon="2.74331"><ele>97.8</ele></trkpt>
    <trkpt lat="48.69736" lon="2.74307"><ele>97.8</ele></trkpt>
    <trkpt lat="48.69681" lon="2.74236"><ele>98.1</ele></trkpt>
    <trkpt lat="48.69465" lon="2.73992"><ele>100.5</ele></trkpt>
    <trkpt lat="48.68832" lon="2.72805"><ele>107.1</ele></trkpt>
    <trkpt lat="48.68705" lon="2.72575"><ele>115.3</ele></trkpt>
    <trkpt lat="48.68631" lon="2.72456"><ele>116.1</ele></trkpt>
    <trkpt lat="48.68563" lon="2.72368"><ele>115.2</ele></trkpt>
    <trkpt lat="48.68503" lon="2.72306"><ele>113.3</ele></trkpt>
    <trkpt lat="48.68442" lon="2.72249"><ele>110.3</ele></trkpt>
    <trkpt lat="48.68362" lon="2.72186"><ele>105.8</ele></trkpt>
    <trkpt lat="48.68287" lon="2.72112"><ele>102.1</ele></trkpt>
    <trkpt lat="48.67856" lon="2.71535"><ele>100.5</ele></trkpt>
    <trkpt lat="48.67832" lon="2.71494"><ele>100.3</ele></trkpt>
    <trkpt lat="48.67532" lon="2.70414"><ele>93.2</ele></trkpt>
    <trkpt lat="48.67527" lon="2.70361"><ele>93.0</ele></trkpt>
    <trkpt lat="48.6753" lon="2.69599"><ele>95.2</ele></trkpt>
    <trkpt lat="48.67542" lon="2.69584"><ele>95.4</ele></trkpt>
    <trkpt lat="48.67577" lon="2.69589"><ele>95.7</ele></trkpt>
    <trkpt lat="48.67695" lon="2.69655"><ele>95.3</ele></trkpt>
    <trkpt lat="48.67713" lon="2.69658"><ele>95.1</ele></trkpt>
    <trkpt lat="48.67748" lon="2.69651"><ele>94.6</ele></trkpt>
    <trkpt lat="48.67813" lon="2.69603"><ele>93.6</ele></trkpt>
    <trkpt lat="48.67867" lon="2.69599"><ele>92.3</ele></trkpt>
    <trkpt lat="48.68011" lon="2.69602"><ele>88.1</ele></trkpt>
    <trkpt lat="48.68024" lon="2.69612"><ele>87.6</ele></trkpt>
    <trkpt lat="48.6804" lon="2.69606"><ele>87.1</ele></trkpt>
    <trkpt lat="48.68112" lon="2.69607"><ele>85.3</ele></trkpt>
    <trkpt lat="48.68616" lon="2.69619"><ele>93.0</ele></trkpt>
    <trkpt lat="48.68634" lon="2.69615"><ele>93.4</ele></trkpt>
    <trkpt lat="48.68648" lon="2.69599"><ele>93.8</ele></trkpt>
    <trkpt lat="48.68681" lon="2.69534"><ele>94.3</ele></trkpt>
    <trkpt lat="48.6871" lon="2.69503"><ele>94.3</ele></trkpt>
    <trkpt lat="48.68871" lon="2.69519"><ele>92.0</ele></trkpt>
    <trkpt lat="48.69051" lon="2.69515"><ele>91.2</ele></trkpt>
    <trkpt lat="48.69387" lon="2.69426"><ele>95.8</ele></trkpt>
    <trkpt lat="48.69392" lon="2.69405"><ele>96.1</ele></trkpt>
    <trkpt lat="48.69389" lon="2.69351"><ele>96.7</ele></trkpt>
    <trkpt lat="48.69374" lon="2.69244"><ele>97.5</ele></trkpt>
    <trkpt lat="48.69283" lon="2.68831"><ele>98.2</ele></trkpt>
    <trkpt lat="48.69243" lon="2.68679"><ele>99.0</ele></trkpt>
    <trkpt lat="48.69223" lon="2.68575"><ele>99.9</ele></trkpt>
    <trkpt lat="48.6922" lon="2.68521"><ele>100.1</ele></trkpt>
    <trkpt lat="48.69225" lon="2.68412"><ele>100.7</ele></trkpt>
    <trkpt lat="48.6922" lon="2.68359"><ele>101.2</ele></trkpt>
    <trkpt lat="48.69211" lon="2.68336"><ele>101.5</ele></trkpt>
    <trkpt lat="48.69137" lon="2.68216"><ele>103.0</ele></trkpt>
    <trkpt lat="48.69006" lon="2.67956"><ele>103.0</ele></trkpt>
    <trkpt lat="48.68788" lon="2.67632"><ele>99.4</ele></trkpt>
    <trkpt lat="48.68777" lon="2.6761"><ele>99.3</ele></trkpt>
    <trkpt lat="48.68715" lon="2.67413"><ele>99.1</ele></trkpt>
    <trkpt lat="48.68655" lon="2.67186"><ele>98.0</ele></trkpt>
    <trkpt lat="48.68605" lon="2.66981"><ele>97.4</ele></trkpt>
    <trkpt lat="48.68584" lon="2.66849"><ele>97.0</ele></trkpt>
    <trkpt lat="48.68705" lon="2.66798"><ele>96.0</ele></trkpt>
    <trkpt lat="48.68811" lon="2.66772"><ele>95.6</ele></trkpt>
    <trkpt lat="48.68829" lon="2.66773"><ele>95.6</ele></trkpt>
    <trkpt lat="48.68952" lon="2.6681"><ele>95.1</ele></trkpt>
    <trkpt lat="48.68998" lon="2.66853"><ele>94.9</ele></trkpt>
    <trkpt lat="48.69051" lon="2.66927"><ele>94.8</ele></trkpt>
    <trkpt lat="48.69124" lon="2.67007"><ele>94.4</ele></trkpt>
    <trkpt lat="48.69204" lon="2.67069"><ele>93.7</ele></trkpt>
    <trkpt lat="48.69263" lon="2.6713"><ele>92.9</ele></trkpt>
    <trkpt lat="48.69315" lon="2.67204"><ele>92.8</ele></trkpt>
    <trkpt lat="48.69385" lon="2.6733"><ele>94.1</ele></trkpt>
    <trkpt lat="48.69399" lon="2.67345"><ele>94.2</ele></trkpt>
    <trkpt lat="48.69417" lon="2.6735"><ele>94.1</ele></trkpt>
    <trkpt lat="48.69434" lon="2.67345"><ele>93.9</ele></trkpt>
    <trkpt lat="48.69531" lon="2.67272"><ele>92.4</ele></trkpt>
    <trkpt lat="48.69752" lon="2.67155"><ele>92.0</ele></trkpt>
    <trkpt lat="48.69949" lon="2.67134"><ele>92.1</ele></trkpt>
    <trkpt lat="48.70049" lon="2.67075"><ele>96.4</ele></trkpt>
    <trkpt lat="48.70204" lon="2.67004"><ele>106.0</ele></trkpt>
    <trkpt lat="48.70415" lon="2.66937"><ele>109.1</ele></trkpt>
    <trkpt lat="48.70469" lon="2.66929"><ele>108.1</ele></trkpt>
    <trkpt lat="48.70523" lon="2.66934"><ele>106.3</ele></trkpt>
    <trkpt lat="48.70557" lon="2.6695"><ele>104.6</ele></trkpt>
    <trkpt lat="48.70589" lon="2.66976"><ele>103.2</ele></trkpt>
    <trkpt lat="48.70629" lon="2.6703"><ele>102.1</ele></trkpt>
    <trkpt lat="48.70834" lon="2.67444"><ele>102.5</ele></trkpt>
    <trkpt lat="48.70894" lon="2.67545"><ele>102.9</ele></trkpt>
    <trkpt lat="48.70924" lon="2.67574"><ele>103.0</ele></trkpt>
    <trkpt lat="48.7096" lon="2.67579"><ele>103.0</ele></trkpt>
    <trkpt lat="48.70991" lon="2.67553"><ele>103.0</ele></trkpt>
    <trkpt lat="48.71076" lon="2.67452"><ele>103.1</ele></trkpt>
    <trkpt lat="48.71671" lon="2.67001"><ele>105.0</ele></trkpt>
    <trkpt lat="48.71723" lon="2.66981"><ele>104.6</ele></trkpt>
    <trkpt lat="48.71866" lon="2.6695"><ele>103.4</ele></trkpt>
    <trkpt lat="48.72289" lon="2.66648"><ele>101.5</ele></trkpt>
    <trkpt lat="48.72358" lon="2.66619"><ele>101.4</ele></trkpt>
    <trkpt lat="48.72365" lon="2.66597"><ele>101.5</ele></trkpt>
    <trkpt lat="48.7238" lon="2.6649"><ele>101.9</ele></trkpt>
    <trkpt lat="48.72392" lon="2.66355"><ele>102.6</ele></trkpt>
    <trkpt lat="48.72372" lon="2.66084"><ele>103.6</ele></trkpt>
    <trkpt lat="48.72359" lon="2.66005"><ele>103.7</ele></trkpt>
    <trkpt lat="48.72343" lon="2.65957"><ele>103.8</ele></trkpt>
    <trkpt lat="48.72291" lon="2.65753"><ele>104.0</ele></trkpt>
    <trkpt lat="48.7228" lon="2.6574"><ele>104.0</ele></trkpt>
    <trkpt lat="48.72227" lon="2.65754"><ele>103.9</ele></trkpt>
    <trkpt lat="48.72229" lon="2.65619"><ele>103.5</ele></trkpt>
    <trkpt lat="48.72237" lon="2.65601"><ele>103.4</ele></trkpt>
    <trkpt lat="48.72345" lon="2.65598"><ele>102.7</ele></trkpt>
    <trkpt lat="48.72377" lon="2.65576"><ele>101.9</ele></trkpt>
    <trkpt lat="48.7239" lon="2.65556"><ele>101.6</ele></trkpt>
    <trkpt lat="48.72385" lon="2.65537"><ele>101.3</ele></trkpt>
    <trkpt lat="48.72225" lon="2.65317"><ele>101.4</ele></trkpt>
    <trkpt lat="48.72166" lon="2.6522"><ele>101.9</ele></trkpt>
    <trkpt lat="48.72263" lon="2.65024"><ele>100.5</ele></trkpt>
    <trkpt lat="48.72634" lon="2.64321"><ele>98.2</ele></trkpt>
    <trkpt lat="48.72694" lon="2.64186"><ele>97.7</ele></trkpt>
    <trkpt lat="48.7276" lon="2.64094"><ele>97.4</ele></trkpt>
    <trkpt lat="48.72834" lon="2.63939"><ele>97.2</ele></trkpt>
    <trkpt lat="48.72954" lon="2.63635"><ele>97.4</ele></trkpt>
    <trkpt lat="48.72976" lon="2.6356"><ele>97.3</ele></trkpt>
    <trkpt lat="48.72999" lon="2.63457"><ele>97.4</ele></trkpt>
    <trkpt lat="48.73023" lon="2.63326"><ele>97.8</ele></trkpt>
    <trkpt lat="48.73088" lon="2.63014"><ele>96.5</ele></trkpt>
    <trkpt lat="48.73111" lon="2.62717"><ele>95.7</ele></trkpt>
    <trkpt lat="48.73104" lon="2.62701"><ele>95.8</ele></trkpt>
    <trkpt lat="48.72853" lon="2.62659"><ele>98.2</ele></trkpt>
    <trkpt lat="48.72728" lon="2.62646"><ele>99.3</ele></trkpt>
    <trkpt lat="48.7262" lon="2.62659"><ele>100.2</ele></trkpt>
    <trkpt lat="48.7261" lon="2.62642"><ele>100.3</ele></trkpt>
    <trkpt lat="48.72601" lon="2.6237"><ele>100.9</ele></trkpt>
    <trkpt lat="48.72589" lon="2.6229"><ele>100.9</ele></trkpt>
    <trkpt lat="48.72576" lon="2.62239"><ele>100.9</ele></trkpt>
    <trkpt lat="48.72205" lon="2.61502"><ele>97.8</ele></trkpt>
    <trkpt lat="48.72032" lon="2.61088"><ele>94.7</ele></trkpt>
    <trkpt lat="48.71994" lon="2.61031"><ele>94.1</ele></trkpt>
    <trkpt lat="48.71905" lon="2.60939"><ele>92.9</ele></trkpt>
    <trkpt lat="48.71846" lon="2.6074"><ele>91.9</ele></trkpt>
    <trkpt lat="48.71806" lon="2.6056"><ele>91.0</ele></trkpt>
    <trkpt lat="48.71794" lon="2.60424"><ele>90.5</ele></trkpt>
    <trkpt lat="48.71773" lon="2.60264"><ele>90.0</ele></trkpt>
    <trkpt lat="48.71735" lon="2.60111"><ele>90.1</ele></trkpt>
    <trkpt lat="48.71729" lon="2.59839"><ele>89.8</ele></trkpt>
    <trkpt lat="48.71726" lon="2.59812"><ele>89.7</ele></trkpt>
    <trkpt lat="48.71704" lon="2.59739"><ele>89.7</ele></trkpt>
    <trkpt lat="48.71702" lon="2.59712"><ele>89.5</ele></trkpt>
    <trkpt lat="48.71689" lon="2.59692"><ele>89.2</ele></trkpt>
    <trkpt lat="48.71674" lon="2.59586"><ele>88.2</ele></trkpt>
    <trkpt lat="48.71669" lon="2.59477"><ele>87.6</ele></trkpt>
    <trkpt lat="48.71674" lon="2.5926"><ele>86.1</ele></trkpt>
    <trkpt lat="48.71672" lon="2.59178"><ele>86.3</ele></trkpt>
    <trkpt lat="48.71666" lon="2.59124"><ele>86.6</ele></trkpt>
    <trkpt lat="48.71642" lon="2.59021"><ele>87.4</ele></trkpt>
    <trkpt lat="48.71633" lon="2.59003"><ele>87.7</ele></trkpt>
    <trkpt lat="48.71616" lon="2.59001"><ele>87.8</ele></trkpt>
    <trkpt lat="48.71562" lon="2.59007"><ele>88.5</ele></trkpt>
    <trkpt lat="48.71547" lon="2.5902"><ele>88.8</ele></trkpt>
    <trkpt lat="48.71537" lon="2.59043"><ele>89.1</ele></trkpt>
    <trkpt lat="48.71524" lon="2.59121"><ele>90.1</ele></trkpt>
    <trkpt lat="48.71451" lon="2.59201"><ele>91.8</ele></trkpt>
    <trkpt lat="48.7139" lon="2.59256"><ele>92.9</ele></trkpt>
    <trkpt lat="48.71336" lon="2.59257"><ele>93.8</ele></trkpt>
    <trkpt lat="48.71321" lon="2.59248"><ele>94.0</ele></trkpt>
    <trkpt lat="48.71289" lon="2.59182"><ele>94.4</ele></trkpt>
    <trkpt lat="48.7128" lon="2.59158"><ele>94.5</ele></trkpt>
    <trkpt lat="48.71279" lon="2.59131"><ele>94.5</ele></trkpt>
    <trkpt lat="48.71282" lon="2.58886"><ele>95.4</ele></trkpt>
    <trkpt lat="48.71316" lon="2.58791"><ele>96.1</ele></trkpt>
    <trkpt lat="48.71435" lon="2.58519"><ele>95.8</ele></trkpt>
    <trkpt lat="48.71469" lon="2.58393"><ele>96.3</ele></trkpt>
    <trkpt lat="48.71491" lon="2.5835"><ele>96.7</ele></trkpt>
    <trkpt lat="48.7162" lon="2.58161"><ele>97.3</ele></trkpt>
    <trkpt lat="48.71746" lon="2.58055"><ele>97.3</ele></trkpt>
    <trkpt lat="48.71782" lon="2.57962"><ele>96.9</ele></trkpt>
    <trkpt lat="48.71834" lon="2.57851"><ele>96.3</ele></trkpt>
    <trkpt lat="48.71847" lon="2.57745"><ele>95.5</ele></trkpt>
    <trkpt lat="48.71842" lon="2.57725"><ele>95.2</ele></trkpt>
    <trkpt lat="48.71806" lon="2.57715"><ele>94.7</ele></trkpt>
    <trkpt lat="48.71795" lon="2.57703"><ele>94.4</ele></trkpt>
    <trkpt lat="48.71821" lon="2.57517"><ele>92.0</ele></trkpt>
    <trkpt lat="48.71878" lon="2.57452"><ele>89.7</ele></trkpt>
    <trkpt lat="48.71898" lon="2.57264"><ele>86.2</ele></trkpt>
    <trkpt lat="48.71908" lon="2.57251"><ele>85.6</ele></trkpt>
    <trkpt lat="48.72016" lon="2.57257"><ele>82.4</ele></trkpt>
    <trkpt lat="48.72023" lon="2.57237"><ele>82.0</ele></trkpt>
    <trkpt lat="48.7203" lon="2.57183"><ele>81.7</ele></trkpt>
    <trkpt lat="48.72036" lon="2.57102"><ele>81.2</ele></trkpt>
    <trkpt lat="48.72047" lon="2.57092"><ele>81.0</ele></trkpt>
    <trkpt lat="48.72118" lon="2.57096"><ele>79.4</ele></trkpt>
    <trkpt lat="48.72133" lon="2.57087"><ele>78.8</ele></trkpt>
    <trkpt lat="48.72157" lon="2.57046"><ele>77.4</ele></trkpt>
    <trkpt lat="48.72163" lon="2.57022"><ele>76.7</ele></trkpt>
    <trkpt lat="48.7218" lon="2.56834"><ele>72.9</ele></trkpt>
    <trkpt lat="48.72197" lon="2.56829"><ele>72.1</ele></trkpt>
    <trkpt lat="48.72215" lon="2.56834"><ele>71.2</ele></trkpt>
    <trkpt lat="48.72284" lon="2.56866"><ele>67.6</ele></trkpt>
    <trkpt lat="48.72401" lon="2.56932"><ele>65.5</ele></trkpt>
    <trkpt lat="48.72515" lon="2.57016"><ele>64.8</ele></trkpt>
    <trkpt lat="48.72527" lon="2.57007"><ele>64.0</ele></trkpt>
    <trkpt lat="48.72674" lon="2.56664"><ele>61.5</ele></trkpt>
    <trkpt lat="48.7274" lon="2.56535"><ele>62.0</ele></trkpt>
    <trkpt lat="48.72806" lon="2.56372"><ele>64.0</ele></trkpt>
    <trkpt lat="48.72892" lon="2.56198"><ele>67.6</ele></trkpt>
    <trkpt lat="48.72918" lon="2.5616"><ele>68.9</ele></trkpt>
    <trkpt lat="48.72962" lon="2.56114"><ele>71.3</ele></trkpt>
    <trkpt lat="48.72994" lon="2.55987"><ele>74.8</ele></trkpt>
    <trkpt lat="48.7306" lon="2.55824"><ele>79.2</ele></trkpt>
    <trkpt lat="48.73071" lon="2.55773"><ele>80.7</ele></trkpt>
    <trkpt lat="48.73113" lon="2.55653"><ele>84.4</ele></trkpt>
    <trkpt lat="48.73126" lon="2.55668"><ele>85.2</ele></trkpt>
    <trkpt lat="48.73249" lon="2.55709"><ele>89.6</ele></trkpt>
    <trkpt lat="48.7341" lon="2.55727"><ele>93.6</ele></trkpt>
    <trkpt lat="48.73529" lon="2.55789"><ele>95.0</ele></trkpt>
    <trkpt lat="48.73542" lon="2.55785"><ele>95.1</ele></trkpt>
    <trkpt lat="48.73584" lon="2.55576"><ele>95.4</ele></trkpt>
    <trkpt lat="48.73597" lon="2.55442"><ele>95.2</ele></trkpt>
    <trkpt lat="48.73614" lon="2.55437"><ele>95.1</ele></trkpt>
    <trkpt lat="48.73702" lon="2.55456"><ele>94.4</ele></trkpt>
    <trkpt lat="48.7372" lon="2.55452"><ele>94.3</ele></trkpt>
    <trkpt lat="48.73733" lon="2.55435"><ele>94.1</ele></trkpt>
    <trkpt lat="48.73741" lon="2.55411"><ele>93.9</ele></trkpt>
    <trkpt lat="48.7375" lon="2.5533"><ele>93.6</ele></trkpt>
    <trkpt lat="48.73759" lon="2.5531"><ele>93.5</ele></trkpt>
    <trkpt lat="48.73776" lon="2.55312"><ele>93.4</ele></trkpt>
    <trkpt lat="48.73857" lon="2.55372"><ele>93.1</ele></trkpt>
    <trkpt lat="48.73892" lon="2.55383"><ele>93.0</ele></trkpt>
    <trkpt lat="48.74107" lon="2.5537"><ele>93.6</ele></trkpt>
    <trkpt lat="48.74143" lon="2.55374"><ele>93.8</ele></trkpt>
    <trkpt lat="48.74177" lon="2.55387"><ele>94.0</ele></trkpt>
    <trkpt lat="48.74225" lon="2.55424"><ele>94.4</ele></trkpt>
    <trkpt lat="48.74261" lon="2.55484"><ele>94.8</ele></trkpt>
    <trkpt lat="48.74281" lon="2.5556"><ele>95.4</ele></trkpt>
    <trkpt lat="48.74284" lon="2.55587"><ele>95.7</ele></trkpt>
    <trkpt lat="48.74277" lon="2.55636"><ele>96.7</ele></trkpt>
    <trkpt lat="48.74284" lon="2.55659"><ele>96.7</ele></trkpt>
    <trkpt lat="48.74319" lon="2.55656"><ele>96.9</ele></trkpt>
    <trkpt lat="48.74336" lon="2.55661"><ele>96.8</ele></trkpt>
    <trkpt lat="48.7442" lon="2.55708"><ele>96.5</ele></trkpt>
    <trkpt lat="48.74456" lon="2.55711"><ele>96.6</ele></trkpt>
    <trkpt lat="48.74509" lon="2.55695"><ele>96.9</ele></trkpt>
    <trkpt lat="48.74545" lon="2.55694"><ele>97.2</ele></trkpt>
    <trkpt lat="48.74633" lon="2.55704"><ele>98.1</ele></trkpt>
    <trkpt lat="48.74829" lon="2.55704"><ele>99.6</ele></trkpt>
    <trkpt lat="48.7553" lon="2.55731"><ele>103.0</ele></trkpt>
    <trkpt lat="48.75856" lon="2.55349"><ele>101.5</ele></trkpt>
    <trkpt lat="48.76056" lon="2.55233"><ele>101.0</ele></trkpt>
    <trkpt lat="48.76101" lon="2.55055"><ele>101.0</ele></trkpt>
    <trkpt lat="48.76121" lon="2.54896"><ele>101.5</ele></trkpt>
    <trkpt lat="48.76149" lon="2.54544"><ele>101.7</ele></trkpt>
    <trkpt lat="48.76231" lon="2.53929"><ele>100.6</ele></trkpt>
    <trkpt lat="48.76326" lon="2.53669"><ele>97.8</ele></trkpt>
    <trkpt lat="48.76372" lon="2.53591"><ele>96.7</ele></trkpt>
    <trkpt lat="48.76399" lon="2.53556"><ele>96.3</ele></trkpt>
    <trkpt lat="48.7655" lon="2.53408"><ele>96.2</ele></trkpt>
    <trkpt lat="48.7659" lon="2.53352"><ele>96.1</ele></trkpt>
    <trkpt lat="48.76686" lon="2.53196"><ele>98.4</ele></trkpt>
    <trkpt lat="48.76705" lon="2.5312"><ele>98.8</ele></trkpt>
    <trkpt lat="48.76757" lon="2.53009"><ele>99.6</ele></trkpt>
    <trkpt lat="48.76802" lon="2.52891"><ele>100.2</ele></trkpt>
    <trkpt lat="48.76814" lon="2.5287"><ele>100.3</ele></trkpt>
    <trkpt lat="48.76863" lon="2.52841"><ele>100.4</ele></trkpt>
    <trkpt lat="48.76877" lon="2.52791"><ele>100.2</ele></trkpt>
    <trkpt lat="48.7701" lon="2.52435"><ele>98.7</ele></trkpt>
    <trkpt lat="48.77034" lon="2.52333"><ele>97.6</ele></trkpt>
    <trkpt lat="48.77046" lon="2.52253"><ele>96.1</ele></trkpt>
    <trkpt lat="48.77059" lon="2.5224"><ele>95.6</ele></trkpt>
    <trkpt lat="48.77077" lon="2.52238"><ele>95.2</ele></trkpt>
    <trkpt lat="48.77088" lon="2.52222"><ele>94.8</ele></trkpt>
    <trkpt lat="48.77088" lon="2.52167"><ele>93.7</ele></trkpt>
    <trkpt lat="48.77098" lon="2.52147"><ele>92.8</ele></trkpt>
    <trkpt lat="48.77196" lon="2.51987"><ele>83.1</ele></trkpt>
    <trkpt lat="48.77377" lon="2.51722"><ele>63.8</ele></trkpt>
    <trkpt lat="48.77543" lon="2.51513"><ele>48.3</ele></trkpt>
    <trkpt lat="48.77649" lon="2.5141"><ele>39.4</ele></trkpt>
    <trkpt lat="48.77768" lon="2.51243"><ele>37.0</ele></trkpt>
    <trkpt lat="48.77802" lon="2.5118"><ele>37.3</ele></trkpt>
    <trkpt lat="48.77817" lon="2.51174"><ele>37.4</ele></trkpt>
    <trkpt lat="48.77924" lon="2.51188"><ele>38.3</ele></trkpt>
    <trkpt lat="48.78085" lon="2.5122"><ele>39.5</ele></trkpt>
    <trkpt lat="48.78101" lon="2.51231"><ele>39.6</ele></trkpt>
    <trkpt lat="48.78145" lon="2.51278"><ele>39.7</ele></trkpt>
    <trkpt lat="48.78323" lon="2.51509"><ele>38.1</ele></trkpt>
    <trkpt lat="48.78374" lon="2.5153"><ele>38.6</ele></trkpt>
    <trkpt lat="48.78425" lon="2.51641"><ele>39.2</ele></trkpt>
    <trkpt lat="48.78741" lon="2.52046"><ele>38.3</ele></trkpt>
    <trkpt lat="48.78888" lon="2.52151"><ele>37.5</ele></trkpt>
    <trkpt lat="48.7902" lon="2.52235"><ele>39.1</ele></trkpt>
    <trkpt lat="48.79034" lon="2.52225"><ele>39.4</ele></trkpt>
    <trkpt lat="48.79046" lon="2.52204"><ele>40.0</ele></trkpt>
    <trkpt lat="48.79096" lon="2.52091"><ele>37.0</ele></trkpt>
    <trkpt lat="48.79129" lon="2.521"><ele>36.2</ele></trkpt>
    <trkpt lat="48.79145" lon="2.5209"><ele>35.9</ele></trkpt>
    <trkpt lat="48.79167" lon="2.52047"><ele>35.6</ele></trkpt>
    <trkpt lat="48.79183" lon="2.52042"><ele>35.5</ele></trkpt>
    <trkpt lat="48.79198" lon="2.52055"><ele>35.4</ele></trkpt>
    <trkpt lat="48.79197" lon="2.52136"><ele>35.2</ele></trkpt>
    <trkpt lat="48.79211" lon="2.52152"><ele>35.2</ele></trkpt>
    <trkpt lat="48.79263" lon="2.52172"><ele>35.1</ele></trkpt>
    <trkpt lat="48.79281" lon="2.52172"><ele>35.1</ele></trkpt>
    <trkpt lat="48.79297" lon="2.52182"><ele>35.1</ele></trkpt>
    <trkpt lat="48.79369" lon="2.52189"><ele>35.1</ele></trkpt>
    <trkpt lat="48.79387" lon="2.52186"><ele>35.0</ele></trkpt>
    <trkpt lat="48.79511" lon="2.5221"><ele>35.0</ele></trkpt>
    <trkpt lat="48.79528" lon="2.52207"><ele>34.9</ele></trkpt>
    <trkpt lat="48.79544" lon="2.52218"><ele>34.9</ele></trkpt>
    <trkpt lat="48.79705" lon="2.52246"><ele>34.9</ele></trkpt>
    <trkpt lat="48.79882" lon="2.52208"><ele>35.1</ele></trkpt>
    <trkpt lat="48.7999" lon="2.52199"><ele>34.9</ele></trkpt>
    <trkpt lat="48.80168" lon="2.52231"><ele>34.7</ele></trkpt>
    <trkpt lat="48.80239" lon="2.52225"><ele>34.9</ele></trkpt>
    <trkpt lat="48.80449" lon="2.52169"><ele>35.0</ele></trkpt>
    <trkpt lat="48.80459" lon="2.52151"><ele>35.1</ele></trkpt>
    <trkpt lat="48.80645" lon="2.51991"><ele>35.4</ele></trkpt>
    <trkpt lat="48.80743" lon="2.51872"><ele>35.3</ele></trkpt>
    <trkpt lat="48.80804" lon="2.51771"><ele>35.5</ele></trkpt>
    <trkpt lat="48.80842" lon="2.51678"><ele>35.8</ele></trkpt>
    <trkpt lat="48.80902" lon="2.51452"><ele>36.0</ele></trkpt>
    <trkpt lat="48.80923" lon="2.51291"><ele>36.1</ele></trkpt>
    <trkpt lat="48.80948" lon="2.50994"><ele>40.3</ele></trkpt>
    <trkpt lat="48.80956" lon="2.50975"><ele>41.1</ele></trkpt>
    <trkpt lat="48.81026" lon="2.51"><ele>42.9</ele></trkpt>
  </trkseg></trk>
</gpx>
