<?xml version="1.0" encoding="UTF-8"?>
<gpx version="1.1" creator="Club Cycliste USO" xmlns="http://www.topografix.com/GPX/1/1">
  <metadata><name>Guérard – 110 km</name><desc>109.8 km, D+ 517 m. Départ et arrivée : pont de Champigny.</desc></metadata>
  <trk><name>Guérard – 110 km</name><trkseg>
    <trkpt lat="48.81032" lon="2.51002"><ele>42.8</ele></trkpt>
    <trkpt lat="48.80962" lon="2.50978"><ele>41.5</ele></trkpt>
    <trkpt lat="48.80948" lon="2.50985"><ele>40.6</ele></trkpt>
    <trkpt lat="48.80921" lon="2.5131"><ele>36.0</ele></trkpt>
    <trkpt lat="48.80904" lon="2.51443"><ele>36.0</ele></trkpt>
    <trkpt lat="48.80844" lon="2.51671"><ele>35.8</ele></trkpt>
    <trkpt lat="48.80807" lon="2.51764"><ele>35.5</ele></trkpt>
    <trkpt lat="48.80747" lon="2.51865"><ele>35.3</ele></trkpt>
    <trkpt lat="48.8065" lon="2.51986"><ele>35.4</ele></trkpt>
    <trkpt lat="48.80464" lon="2.52147"><ele>35.1</ele></trkpt>
    <trkpt lat="48.80439" lon="2.52176"><ele>35.0</ele></trkpt>
    <trkpt lat="48.80421" lon="2.52175"><ele>35.0</ele></trkpt>
    <trkpt lat="48.80369" lon="2.52194"><ele>34.9</ele></trkpt>
    <trkpt lat="48.80244" lon="2.52224"><ele>34.9</ele></trkpt>
    <trkpt lat="48.80191" lon="2.5223"><ele>34.8</ele></trkpt>
    <trkpt lat="48.80156" lon="2.52229"><ele>34.7</ele></trkpt>
    <trkpt lat="48.79995" lon="2.52199"><ele>34.9</ele></trkpt>
    <trkpt lat="48.79888" lon="2.52207"><ele>35.1</ele></trkpt>
    <trkpt lat="48.79693" lon="2.52244"><ele>35.0</ele></trkpt>
    <trkpt lat="48.79392" lon="2.52185"><ele>35.0</ele></trkpt>
    <trkpt lat="48.79375" lon="2.5219"><ele>35.1</ele></trkpt>
    <trkpt lat="48.79303" lon="2.52184"><ele>35.1</ele></trkpt>
    <trkpt lat="48.79216" lon="2.52154"><ele>35.2</ele></trkpt>
    <trkpt lat="48.792" lon="2.52143"><ele>35.2</ele></trkpt>
    <trkpt lat="48.79195" lon="2.52118"><ele>35.3</ele></trkpt>
    <trkpt lat="48.792" lon="2.52064"><ele>35.4</ele></trkpt>
    <trkpt lat="48.79189" lon="2.52044"><ele>35.4</ele></trkpt>
    <trkpt lat="48.79172" lon="2.52043"><ele>35.5</ele></trkpt>
    <trkpt lat="48.79149" lon="2.52084"><ele>35.8</ele></trkpt>
    <trkpt lat="48.79135" lon="2.52099"><ele>36.1</ele></trkpt>
    <trkpt lat="48.79101" lon="2.52086"><ele>36.7</ele></trkpt>
    <trkpt lat="48.79085" lon="2.52092"><ele>37.5</ele></trkpt>
    <trkpt lat="48.79027" lon="2.5223"><ele>39.6</ele></trkpt>
    <trkpt lat="48.79016" lon="2.52239"><ele>39.0</ele></trkpt>
    <trkpt lat="48.78739" lon="2.52043"><ele>38.3</ele></trkpt>
    <trkpt lat="48.78437" lon="2.51655"><ele>39.2</ele></trkpt>
    <trkpt lat="48.78424" lon="2.51636"><ele>39.2</ele></trkpt>
    <trkpt lat="48.78383" lon="2.51547"><ele>38.7</ele></trkpt>
    <trkpt lat="48.7837" lon="2.51529"><ele>38.5</ele></trkpt>
    <trkpt lat="48.78335" lon="2.51517"><ele>38.3</ele></trkpt>
    <trkpt lat="48.7832" lon="2.51504"><ele>38.2</ele></trkpt>
    <trkpt lat="48.78142" lon="2.51274"><ele>39.7</ele></trkpt>
    <trkpt lat="48.78097" lon="2.51228"><ele>39.5</ele></trkpt>
    <trkpt lat="48.7808" lon="2.5122"><ele>39.4</ele></trkpt>
    <trkpt lat="48.77813" lon="2.51167"><ele>37.4</ele></trkpt>
    <trkpt lat="48.77766" lon="2.51244"><ele>37.1</ele></trkpt>
    <trkpt lat="48.77662" lon="2.51393"><ele>38.8</ele></trkpt>
    <trkpt lat="48.77542" lon="2.51514"><ele>48.4</ele></trkpt>
    <trkpt lat="48.7739" lon="2.51706"><ele>62.1</ele></trkpt>
    <trkpt lat="48.77143" lon="2.52064"><ele>88.3</ele></trkpt>
    <trkpt lat="48.77107" lon="2.52125"><ele>91.9</ele></trkpt>
    <trkpt lat="48.77075" lon="2.52146"><ele>93.5</ele></trkpt>
    <trkpt lat="48.77075" lon="2.52224"><ele>95.0</ele></trkpt>
    <trkpt lat="48.7704" lon="2.52233"><ele>95.4</ele></trkpt>
    <trkpt lat="48.77024" lon="2.52245"><ele>95.7</ele></trkpt>
    <trkpt lat="48.76885" lon="2.52371"><ele>101.1</ele></trkpt>
    <trkpt lat="48.76837" lon="2.52404"><ele>102.3</ele></trkpt>
    <trkpt lat="48.76851" lon="2.52449"><ele>102.5</ele></trkpt>
    <trkpt lat="48.76861" lon="2.52502"><ele>102.5</ele></trkpt>
    <trkpt lat="48.76856" lon="2.52829"><ele>100.7</ele></trkpt>
    <trkpt lat="48.76809" lon="2.52865"><ele>100.3</ele></trkpt>
    <trkpt lat="48.76663" lon="2.53209"><ele>97.3</ele></trkpt>
    <trkpt lat="48.76568" lon="2.53372"><ele>96.1</ele></trkpt>
    <trkpt lat="48.76541" lon="2.53407"><ele>96.2</ele></trkpt>
    <trkpt lat="48.76419" lon="2.53524"><ele>96.3</ele></trkpt>
    <trkpt lat="48.76349" lon="2.53607"><ele>97.0</ele></trkpt>
    <trkpt lat="48.76237" lon="2.53905"><ele>100.5</ele></trkpt>
    <trkpt lat="48.76231" lon="2.5393"><ele>100.6</ele></trkpt>
    <trkpt lat="48.7615" lon="2.54546"><ele>102.0</ele></trkpt>
    <trkpt lat="48.7612" lon="2.5487"><ele>101.7</ele></trkpt>
    <trkpt lat="48.76112" lon="2.54891"><ele>101.5</ele></trkpt>
    <trkpt lat="48.76116" lon="2.54911"><ele>101.3</ele></trkpt>
    <trkpt lat="48.76101" lon="2.55046"><ele>101.0</ele></trkpt>
    <trkpt lat="48.76057" lon="2.55224"><ele>100.9</ele></trkpt>
    <trkpt lat="48.75985" lon="2.5559"><ele>99.3</ele></trkpt>
    <trkpt lat="48.75926" lon="2.55727"><ele>100.5</ele></trkpt>
    <trkpt lat="48.759" lon="2.55748"><ele>101.0</ele></trkpt>
    <trkpt lat="48.75828" lon="2.55747"><ele>102.1</ele></trkpt>
    <trkpt lat="48.75559" lon="2.55735"><ele>103.1</ele></trkpt>
    <trkpt lat="48.75549" lon="2.55718"><ele>103.0</ele></trkpt>
    <trkpt lat="48.75519" lon="2.55732"><ele>103.0</ele></trkpt>
    <trkpt lat="48.74709" lon="2.557"><ele>98.6</ele></trkpt>
    <trkpt lat="48.74656" lon="2.55695"><ele>98.3</ele></trkpt>
    <trkpt lat="48.74639" lon="2.55685"><ele>98.1</ele></trkpt>
    <trkpt lat="48.74625" lon="2.55698"><ele>98.0</ele></trkpt>
    <trkpt lat="48.74571" lon="2.55699"><ele>97.5</ele></trkpt>
    <trkpt lat="48.74518" lon="2.55691"><ele>96.9</ele></trkpt>
    <trkpt lat="48.74448" lon="2.55715"><ele>96.5</ele></trkpt>
    <trkpt lat="48.74413" lon="2.55705"><ele>96.5</ele></trkpt>
    <trkpt lat="48.74313" lon="2.55643"><ele>96.3</ele></trkpt>
    <trkpt lat="48.74312" lon="2.55617"><ele>96.2</ele></trkpt>
    <trkpt lat="48.74298" lon="2.55601"><ele>96.2</ele></trkpt>
    <trkpt lat="48.74281" lon="2.55607"><ele>96.4</ele></trkpt>
    <trkpt lat="48.74273" lon="2.5563"><ele>96.7</ele></trkpt>
    <trkpt lat="48.74275" lon="2.55655"><ele>96.9</ele></trkpt>
    <trkpt lat="48.74264" lon="2.55676"><ele>97.1</ele></trkpt>
    <trkpt lat="48.74258" lon="2.55756"><ele>97.2</ele></trkpt>
    <trkpt lat="48.74243" lon="2.55835"><ele>97.4</ele></trkpt>
    <trkpt lat="48.74241" lon="2.55998"><ele>97.2</ele></trkpt>
    <trkpt lat="48.74224" lon="2.56075"><ele>97.1</ele></trkpt>
    <trkpt lat="48.74198" lon="2.56111"><ele>97.1</ele></trkpt>
    <trkpt lat="48.74166" lon="2.56134"><ele>97.2</ele></trkpt>
    <trkpt lat="48.74112" lon="2.56143"><ele>97.3</ele></trkpt>
    <trkpt lat="48.74102" lon="2.56125"><ele>97.3</ele></trkpt>
    <trkpt lat="48.74073" lon="2.56144"><ele>97.2</ele></trkpt>
    <trkpt lat="48.73984" lon="2.56159"><ele>97.1</ele></trkpt>
    <trkpt lat="48.73915" lon="2.56189"><ele>96.8</ele></trkpt>
    <trkpt lat="48.73884" lon="2.56216"><ele>96.6</ele></trkpt>
    <trkpt lat="48.73848" lon="2.5627"><ele>96.3</ele></trkpt>
    <trkpt lat="48.73842" lon="2.56296"><ele>96.0</ele></trkpt>
    <trkpt lat="48.7383" lon="2.56375"><ele>95.5</ele></trkpt>
    <trkpt lat="48.73834" lon="2.56456"><ele>95.1</ele></trkpt>
    <trkpt lat="48.73822" lon="2.5647"><ele>95.0</ele></trkpt>
    <trkpt lat="48.73823" lon="2.56495"><ele>94.9</ele></trkpt>
    <trkpt lat="48.73812" lon="2.56514"><ele>94.7</ele></trkpt>
    <trkpt lat="48.73795" lon="2.5652"><ele>94.4</ele></trkpt>
    <trkpt lat="48.73705" lon="2.56514"><ele>92.7</ele></trkpt>
    <trkpt lat="48.73562" lon="2.5649"><ele>91.0</ele></trkpt>
    <trkpt lat="48.73545" lon="2.56481"><ele>90.8</ele></trkpt>
    <trkpt lat="48.73529" lon="2.56436"><ele>90.5</ele></trkpt>
    <trkpt lat="48.73512" lon="2.56439"><ele>90.4</ele></trkpt>
    <trkpt lat="48.73492" lon="2.56483"><ele>90.5</ele></trkpt>
    <trkpt lat="48.73477" lon="2.56497"><ele>90.5</ele></trkpt>
    <trkpt lat="48.73424" lon="2.56514"><ele>90.6</ele></trkpt>
    <trkpt lat="48.73391" lon="2.56533"><ele>90.6</ele></trkpt>
    <trkpt lat="48.732" lon="2.56686"><ele>92.2</ele></trkpt>
    <trkpt lat="48.7313" lon="2.56771"><ele>93.1</ele></trkpt>
    <trkpt lat="48.73114" lon="2.56769"><ele>93.2</ele></trkpt>
    <trkpt lat="48.73106" lon="2.56785"><ele>93.2</ele></trkpt>
    <trkpt lat="48.73114" lon="2.56805"><ele>93.1</ele></trkpt>
    <trkpt lat="48.73112" lon="2.56859"><ele>93.0</ele></trkpt>
    <trkpt lat="48.73083" lon="2.571"><ele>93.1</ele></trkpt>
    <trkpt lat="48.73037" lon="2.57392"><ele>92.1</ele></trkpt>
    <trkpt lat="48.73006" lon="2.57549"><ele>91.1</ele></trkpt>
    <trkpt lat="48.72993" lon="2.57599"><ele>90.7</ele></trkpt>
    <trkpt lat="48.72958" lon="2.5766"><ele>89.9</ele></trkpt>
    <trkpt lat="48.72926" lon="2.57686"><ele>89.2</ele></trkpt>
    <trkpt lat="48.72909" lon="2.57695"><ele>88.8</ele></trkpt>
    <trkpt lat="48.72891" lon="2.57691"><ele>88.2</ele></trkpt>
    <trkpt lat="48.72861" lon="2.57669"><ele>87.1</ele></trkpt>
    <trkpt lat="48.72834" lon="2.57702"><ele>86.1</ele></trkpt>
    <trkpt lat="48.72817" lon="2.57711"><ele>85.8</ele></trkpt>
    <trkpt lat="48.72749" lon="2.57746"><ele>84.7</ele></trkpt>
    <trkpt lat="48.72644" lon="2.57784"><ele>82.7</ele></trkpt>
    <trkpt lat="48.7261" lon="2.57803"><ele>82.1</ele></trkpt>
    <trkpt lat="48.72594" lon="2.57814"><ele>81.8</ele></trkpt>
    <trkpt lat="48.72572" lon="2.57849"><ele>80.8</ele></trkpt>
    <trkpt lat="48.72552" lon="2.57925"><ele>80.8</ele></trkpt>
    <trkpt lat="48.72515" lon="2.58136"><ele>83.1</ele></trkpt>
    <trkpt lat="48.72459" lon="2.58307"><ele>84.6</ele></trkpt>
    <trkpt lat="48.72387" lon="2.58495"><ele>85.2</ele></trkpt>
    <trkpt lat="48.7235" lon="2.58678"><ele>85.4</ele></trkpt>
    <trkpt lat="48.72337" lon="2.58785"><ele>85.5</ele></trkpt>
    <trkpt lat="48.72315" lon="2.58889"><ele>85.5</ele></trkpt>
    <trkpt lat="48.72317" lon="2.58913"><ele>85.5</ele></trkpt>
    <trkpt lat="48.72335" lon="2.58959"><ele>85.4</ele></trkpt>
    <trkpt lat="48.72481" lon="2.59458"><ele>85.7</ele></trkpt>
    <trkpt lat="48.72501" lon="2.59502"><ele>86.0</ele></trkpt>
    <trkpt lat="48.72608" lon="2.59686"><ele>87.6</ele></trkpt>
    <trkpt lat="48.72804" lon="2.59926"><ele>90.0</ele></trkpt>
    <trkpt lat="48.72949" lon="2.6013"><ele>91.5</ele></trkpt>
    <trkpt lat="48.72981" lon="2.60154"><ele>91.7</ele></trkpt>
    <trkpt lat="48.7299" lon="2.60177"><ele>91.8</ele></trkpt>
    <trkpt lat="48.7302" lon="2.60205"><ele>91.9</ele></trkpt>
    <trkpt lat="48.73154" lon="2.60286"><ele>91.8</ele></trkpt>
    <trkpt lat="48.73204" lon="2.60315"><ele>91.6</ele></trkpt>
    <trkpt lat="48.7324" lon="2.60319"><ele>91.4</ele></trkpt>
    <trkpt lat="48.7364" lon="2.6056"><ele>91.6</ele></trkpt>
    <trkpt lat="48.73692" lon="2.60581"><ele>92.1</ele></trkpt>
    <trkpt lat="48.73708" lon="2.60572"><ele>92.3</ele></trkpt>
    <trkpt lat="48.73733" lon="2.60605"><ele>92.8</ele></trkpt>
    <trkpt lat="48.73934" lon="2.60723"><ele>95.4</ele></trkpt>
    <trkpt lat="48.74053" lon="2.60785"><ele>97.1</ele></trkpt>
    <trkpt lat="48.74112" lon="2.60847"><ele>98.0</ele></trkpt>
    <trkpt lat="48.74128" lon="2.60846"><ele>98.2</ele></trkpt>
    <trkpt lat="48.74133" lon="2.6087"><ele>98.4</ele></trkpt>
    <trkpt lat="48.74145" lon="2.60888"><ele>98.6</ele></trkpt>
    <trkpt lat="48.74371" lon="2.61158"><ele>98.7</ele></trkpt>
    <trkpt lat="48.74398" lon="2.61196"><ele>98.5</ele></trkpt>
    <trkpt lat="48.74427" lon="2.61222"><ele>98.2</ele></trkpt>
    <trkpt lat="48.74437" lon="2.61243"><ele>98.0</ele></trkpt>
    <trkpt lat="48.74465" lon="2.61276"><ele>97.8</ele></trkpt>
    <trkpt lat="48.74456" lon="2.6129"><ele>97.7</ele></trkpt>
    <trkpt lat="48.74441" lon="2.61282"><ele>97.6</ele></trkpt>
    <trkpt lat="48.74433" lon="2.61303"><ele>97.6</ele></trkpt>
    <trkpt lat="48.74459" lon="2.61328"><ele>97.5</ele></trkpt>
    <trkpt lat="48.74471" lon="2.61348"><ele>97.5</ele></trkpt>
    <trkpt lat="48.74505" lon="2.61366"><ele>97.4</ele></trkpt>
    <trkpt lat="48.74517" lon="2.61384"><ele>97.4</ele></trkpt>
    <trkpt lat="48.7453" lon="2.61435"><ele>97.4</ele></trkpt>
    <trkpt lat="48.74542" lon="2.61455"><ele>97.3</ele></trkpt>
    <trkpt lat="48.74674" lon="2.61543"><ele>97.6</ele></trkpt>
    <trkpt lat="48.74692" lon="2.61547"><ele>97.6</ele></trkpt>
    <trkpt lat="48.74706" lon="2.61559"><ele>97.7</ele></trkpt>
    <trkpt lat="48.7472" lon="2.61552"><ele>97.8</ele></trkpt>
    <trkpt lat="48.74754" lon="2.61569"><ele>97.9</ele></trkpt>
    <trkpt lat="48.74843" lon="2.61661"><ele>98.1</ele></trkpt>
    <trkpt lat="48.74848" lon="2.61705"><ele>98.1</ele></trkpt>
    <trkpt lat="48.74775" lon="2.61861"><ele>98.0</ele></trkpt>
    <trkpt lat="48.74761" lon="2.61871"><ele>97.8</ele></trkpt>
    <trkpt lat="48.74758" lon="2.61894"><ele>97.7</ele></trkpt>
    <trkpt lat="48.74733" lon="2.61933"><ele>97.3</ele></trkpt>
    <trkpt lat="48.74701" lon="2.61999"><ele>96.8</ele></trkpt>
    <trkpt lat="48.74684" lon="2.62047"><ele>96.5</ele></trkpt>
    <trkpt lat="48.74677" lon="2.621"><ele>96.1</ele></trkpt>
    <trkpt lat="48.74681" lon="2.62127"><ele>96.0</ele></trkpt>
    <trkpt lat="48.74696" lon="2.62176"><ele>95.7</ele></trkpt>
    <trkpt lat="48.74777" lon="2.62322"><ele>94.3</ele></trkpt>
    <trkpt lat="48.74784" lon="2.62347"><ele>94.0</ele></trkpt>
    <trkpt lat="48.74788" lon="2.62374"><ele>93.7</ele></trkpt>
    <trkpt lat="48.74788" lon="2.62428"><ele>93.1</ele></trkpt>
    <trkpt lat="48.74796" lon="2.62481"><ele>92.0</ele></trkpt>
    <trkpt lat="48.74805" lon="2.62505"><ele>91.4</ele></trkpt>
    <trkpt lat="48.74804" lon="2.62524"><ele>91.1</ele></trkpt>
    <trkpt lat="48.74811" lon="2.62545"><ele>90.8</ele></trkpt>
    <trkpt lat="48.74823" lon="2.62556"><ele>90.7</ele></trkpt>
    <trkpt lat="48.74829" lon="2.62582"><ele>90.8</ele></trkpt>
    <trkpt lat="48.74868" lon="2.62672"><ele>90.9</ele></trkpt>
    <trkpt lat="48.74884" lon="2.62722"><ele>91.0</ele></trkpt>
    <trkpt lat="48.74914" lon="2.6299"><ele>91.3</ele></trkpt>
    <trkpt lat="48.74933" lon="2.63067"><ele>91.5</ele></trkpt>
    <trkpt lat="48.7496" lon="2.63137"><ele>91.7</ele></trkpt>
    <trkpt lat="48.75005" lon="2.63222"><ele>92.3</ele></trkpt>
    <trkpt lat="48.75018" lon="2.63272"><ele>92.6</ele></trkpt>
    <trkpt lat="48.75017" lon="2.63299"><ele>92.7</ele></trkpt>
    <trkpt lat="48.75" lon="2.63377"><ele>93.1</ele></trkpt>
    <trkpt lat="48.74985" lon="2.63426"><ele>93.6</ele></trkpt>
    <trkpt lat="48.74965" lon="2.63471"><ele>94.3</ele></trkpt>
    <trkpt lat="48.7488" lon="2.63516"><ele>94.4</ele></trkpt>
    <trkpt lat="48.748" lon="2.63578"><ele>98.4</ele></trkpt>
    <trkpt lat="48.74787" lon="2.63596"><ele>99.1</ele></trkpt>
    <trkpt lat="48.74777" lon="2.63619"><ele>99.8</ele></trkpt>
    <trkpt lat="48.74772" lon="2.63644"><ele>100.5</ele></trkpt>
    <trkpt lat="48.74773" lon="2.63671"><ele>101.1</ele></trkpt>
    <trkpt lat="48.7478" lon="2.63696"><ele>101.6</ele></trkpt>
    <trkpt lat="48.74868" lon="2.63833"><ele>104.2</ele></trkpt>
    <trkpt lat="48.75011" lon="2.63998"><ele>107.0</ele></trkpt>
    <trkpt lat="48.75027" lon="2.64042"><ele>107.6</ele></trkpt>
    <trkpt lat="48.7504" lon="2.64056"><ele>107.9</ele></trkpt>
    <trkpt lat="48.75055" lon="2.64058"><ele>108.2</ele></trkpt>
    <trkpt lat="48.75103" lon="2.64097"><ele>108.6</ele></trkpt>
    <trkpt lat="48.75138" lon="2.64158"><ele>108.6</ele></trkpt>
    <trkpt lat="48.75204" lon="2.64352"><ele>108.1</ele></trkpt>
    <trkpt lat="48.75248" lon="2.6453"><ele>107.2</ele></trkpt>
    <trkpt lat="48.75278" lon="2.64598"><ele>106.6</ele></trkpt>
    <trkpt lat="48.75317" lon="2.64654"><ele>106.0</ele></trkpt>
    <trkpt lat="48.75349" lon="2.64719"><ele>105.4</ele></trkpt>
    <trkpt lat="48.75397" lon="2.64925"><ele>104.7</ele></trkpt>
    <trkpt lat="48.75509" lon="2.65297"><ele>102.5</ele></trkpt>
    <trkpt lat="48.75647" lon="2.65548"><ele>101.7</ele></trkpt>
    <trkpt lat="48.75779" lon="2.65807"><ele>102.0</ele></trkpt>
    <trkpt lat="48.75888" lon="2.65989"><ele>102.8</ele></trkpt>
    <trkpt lat="48.75952" lon="2.66084"><ele>103.3</ele></trkpt>
    <trkpt lat="48.76074" lon="2.66244"><ele>104.4</ele></trkpt>
    <trkpt lat="48.76087" lon="2.66263"><ele>104.6</ele></trkpt>
    <trkpt lat="48.76092" lon="2.66286"><ele>104.7</ele></trkpt>
    <trkpt lat="48.76107" lon="2.66286"><ele>104.9</ele></trkpt>
    <trkpt lat="48.76213" lon="2.66434"><ele>104.8</ele></trkpt>
    <trkpt lat="48.7627" lon="2.66499"><ele>104.7</ele></trkpt>
    <trkpt lat="48.7632" lon="2.66527"><ele>104.8</ele></trkpt>
    <trkpt lat="48.76335" lon="2.66518"><ele>104.8</ele></trkpt>
    <trkpt lat="48.76406" lon="2.66532"><ele>105.1</ele></trkpt>
    <trkpt lat="48.7646" lon="2.66525"><ele>105.3</ele></trkpt>
    <trkpt lat="48.76549" lon="2.66501"><ele>105.9</ele></trkpt>
    <trkpt lat="48.76584" lon="2.66499"><ele>106.1</ele></trkpt>
    <trkpt lat="48.76618" lon="2.66516"><ele>106.3</ele></trkpt>
    <trkpt lat="48.76648" lon="2.66547"><ele>106.5</ele></trkpt>
    <trkpt lat="48.76698" lon="2.66659"><ele>106.9</ele></trkpt>
    <trkpt lat="48.7672" lon="2.66734"><ele>107.1</ele></trkpt>
    <trkpt lat="48.76737" lon="2.66812"><ele>107.4</ele></trkpt>
    <trkpt lat="48.76747" lon="2.66834"><ele>107.5</ele></trkpt>
    <trkpt lat="48.76747" lon="2.66882"><ele>107.7</ele></trkpt>
    <trkpt lat="48.76762" lon="2.66895"><ele>107.7</ele></trkpt>
    <trkpt lat="48.76761" lon="2.66921"><ele>107.7</ele></trkpt>
    <trkpt lat="48.76803" lon="2.67298"><ele>107.5</ele></trkpt>
    <trkpt lat="48.76833" lon="2.67343"><ele>107.5</ele></trkpt>
    <trkpt lat="48.7692" lon="2.67367"><ele>107.8</ele></trkpt>
    <trkpt lat="48.77281" lon="2.67613"><ele>109.0</ele></trkpt>
    <trkpt lat="48.7729" lon="2.67632"><ele>109.1</ele></trkpt>
    <trkpt lat="48.7732" lon="2.67638"><ele>109.4</ele></trkpt>
    <trkpt lat="48.77566" lon="2.67804"><ele>111.3</ele></trkpt>
    <trkpt lat="48.77577" lon="2.67824"><ele>111.6</ele></trkpt>
    <trkpt lat="48.77594" lon="2.67826"><ele>112.0</ele></trkpt>
    <trkpt lat="48.77856" lon="2.68004"><ele>114.4</ele></trkpt>
    <trkpt lat="48.7787" lon="2.68018"><ele>114.5</ele></trkpt>
    <trkpt lat="48.77879" lon="2.6804"><ele>114.7</ele></trkpt>
    <trkpt lat="48.77894" lon="2.68033"><ele>114.9</ele></trkpt>
    <trkpt lat="48.77911" lon="2.68041"><ele>115.2</ele></trkpt>
    <trkpt lat="48.78058" lon="2.68144"><ele>116.3</ele></trkpt>
    <trkpt lat="48.78295" lon="2.68339"><ele>117.0</ele></trkpt>
    <trkpt lat="48.78376" lon="2.68399"><ele>117.2</ele></trkpt>
    <trkpt lat="48.78662" lon="2.68562"><ele>118.4</ele></trkpt>
    <trkpt lat="48.78958" lon="2.68762"><ele>117.4</ele></trkpt>
    <trkpt lat="48.78975" lon="2.68766"><ele>116.4</ele></trkpt>
    <trkpt lat="48.78985" lon="2.68781"><ele>115.5</ele></trkpt>
    <trkpt lat="48.79001" lon="2.68781"><ele>114.5</ele></trkpt>
    <trkpt lat="48.79135" lon="2.69197"><ele>115.3</ele></trkpt>
    <trkpt lat="48.7953" lon="2.70484"><ele>114.6</ele></trkpt>
    <trkpt lat="48.7954" lon="2.70507"><ele>114.6</ele></trkpt>
    <trkpt lat="48.79555" lon="2.7052"><ele>114.6</ele></trkpt>
    <trkpt lat="48.79591" lon="2.70522"><ele>114.7</ele></trkpt>
    <trkpt lat="48.79605" lon="2.70536"><ele>114.9</ele></trkpt>
    <trkpt lat="48.79621" lon="2.70642"><ele>115.9</ele></trkpt>
    <trkpt lat="48.79611" lon="2.71188"><ele>116.2</ele></trkpt>
    <trkpt lat="48.79597" lon="2.7135"><ele>116.7</ele></trkpt>
    <trkpt lat="48.79584" lon="2.71399"><ele>116.9</ele></trkpt>
    <trkpt lat="48.79589" lon="2.71424"><ele>117.0</ele></trkpt>
    <trkpt lat="48.796" lon="2.71444"><ele>116.9</ele></trkpt>
    <trkpt lat="48.79604" lon="2.7147"><ele>116.8</ele></trkpt>
    <trkpt lat="48.7959" lon="2.72316"><ele>118.1</ele></trkpt>
    <trkpt lat="48.79597" lon="2.72397"><ele>118.1</ele></trkpt>
    <trkpt lat="48.7974" lon="2.72807"><ele>121.1</ele></trkpt>
    <trkpt lat="48.79956" lon="2.73375"><ele>122.9</ele></trkpt>
    <trkpt lat="48.80285" lon="2.74704"><ele>122.8</ele></trkpt>
    <trkpt lat="48.80346" lon="2.74932"><ele>122.6</ele></trkpt>
    <trkpt lat="48.80618" lon="2.75854"><ele>125.8</ele></trkpt>
    <trkpt lat="48.80628" lon="2.75906"><ele>126.0</ele></trkpt>
    <trkpt lat="48.80633" lon="2.75988"><ele>126.8</ele></trkpt>
    <trkpt lat="48.80661" lon="2.76806"><ele>128.6</ele></trkpt>
    <trkpt lat="48.80832" lon="2.77725"><ele>126.5</ele></trkpt>
    <trkpt lat="48.8096" lon="2.78236"><ele>124.4</ele></trkpt>
    <trkpt lat="48.80997" lon="2.78329"><ele>123.9</ele></trkpt>
    <trkpt lat="48.81028" lon="2.78428"><ele>123.2</ele></trkpt>
    <trkpt lat="48.81038" lon="2.78481"><ele>122.8</ele></trkpt>
    <trkpt lat="48.81046" lon="2.78562"><ele>122.3</ele></trkpt>
    <trkpt lat="48.81047" lon="2.78753"><ele>121.0</ele></trkpt>
    <trkpt lat="48.81054" lon="2.78806"><ele>120.6</ele></trkpt>
    <trkpt lat="48.81066" lon="2.78858"><ele>120.3</ele></trkpt>
    <trkpt lat="48.81094" lon="2.78928"><ele>119.7</ele></trkpt>
    <trkpt lat="48.81118" lon="2.78967"><ele>119.5</ele></trkpt>
    <trkpt lat="48.81179" lon="2.79024"><ele>119.0</ele></trkpt>
    <trkpt lat="48.81249" lon="2.79048"><ele>118.9</ele></trkpt>
    <trkpt lat="48.81357" lon="2.79039"><ele>118.9</ele></trkpt>
    <trkpt lat="48.81393" lon="2.79042"><ele>119.0</ele></trkpt>
    <trkpt lat="48.81428" lon="2.79052"><ele>119.1</ele></trkpt>
    <trkpt lat="48.81474" lon="2.79093"><ele>119.4</ele></trkpt>
    <trkpt lat="48.815" lon="2.79131"><ele>119.6</ele></trkpt>
    <trkpt lat="48.8156" lon="2.79267"><ele>120.6</ele></trkpt>
    <trkpt lat="48.81631" lon="2.79518"><ele>121.0</ele></trkpt>
    <trkpt lat="48.81648" lon="2.79595"><ele>121.1</ele></trkpt>
    <trkpt lat="48.81646" lon="2.79649"><ele>121.3</ele></trkpt>
    <trkpt lat="48.816" lon="2.79941"><ele>122.2</ele></trkpt>
    <trkpt lat="48.81596" lon="2.8005"><ele>122.3</ele></trkpt>
    <trkpt lat="48.81596" lon="2.80323"><ele>121.4</ele></trkpt>
    <trkpt lat="48.81654" lon="2.80779"><ele>121.5</ele></trkpt>
    <trkpt lat="48.81704" lon="2.81012"><ele>122.5</ele></trkpt>
    <trkpt lat="48.81761" lon="2.813"><ele>123.7</ele></trkpt>
    <trkpt lat="48.81777" lon="2.81407"><ele>124.1</ele></trkpt>
    <trkpt lat="48.81799" lon="2.81623"><ele>124.8</ele></trkpt>
    <trkpt lat="48.81837" lon="2.81804"><ele>125.1</ele></trkpt>
    <trkpt lat="48.81837" lon="2.81858"><ele>125.3</ele></trkpt>
    <trkpt lat="48.8183" lon="2.81883"><ele>125.3</ele></trkpt>
    <trkpt lat="48.81807" lon="2.81926"><ele>125.5</ele></trkpt>
    <trkpt lat="48.81744" lon="2.82024"><ele>125.6</ele></trkpt>
    <trkpt lat="48.81717" lon="2.82094"><ele>125.8</ele></trkpt>
    <trkpt lat="48.81573" lon="2.82769"><ele>126.6</ele></trkpt>
    <trkpt lat="48.81561" lon="2.82789"><ele>126.6</ele></trkpt>
    <trkpt lat="48.81497" lon="2.82838"><ele>126.3</ele></trkpt>
    <trkpt lat="48.81449" lon="2.82984"><ele>125.8</ele></trkpt>
    <trkpt lat="48.81344" lon="2.82951"><ele>126.5</ele></trkpt>
    <trkpt lat="48.81236" lon="2.82937"><ele>128.7</ele></trkpt>
    <trkpt lat="48.81219" lon="2.8294"><ele>129.1</ele></trkpt>
    <trkpt lat="48.81203" lon="2.82927"><ele>129.5</ele></trkpt>
    <trkpt lat="48.81171" lon="2.82922"><ele>130.4</ele></trkpt>
    <trkpt lat="48.80976" lon="2.82866"><ele>132.6</ele></trkpt>
    <trkpt lat="48.802" lon="2.82635"><ele>138.6</ele></trkpt>
    <trkpt lat="48.79353" lon="2.82263"><ele>132.7</ele></trkpt>
    <trkpt lat="48.79335" lon="2.82258"><ele>132.5</ele></trkpt>
    <trkpt lat="48.793" lon="2.8226"><ele>131.8</ele></trkpt>
    <trkpt lat="48.78578" lon="2.82493"><ele>121.1</ele></trkpt>
    <trkpt lat="48.77878" lon="2.8256"><ele>112.9</ele></trkpt>
    <trkpt lat="48.7743" lon="2.82607"><ele>121.9</ele></trkpt>
    <trkpt lat="48.77358" lon="2.82619"><ele>122.2</ele></trkpt>
    <trkpt lat="48.77309" lon="2.82651"><ele>122.1</ele></trkpt>
    <trkpt lat="48.77202" lon="2.82796"><ele>121.1</ele></trkpt>
    <trkpt lat="48.77175" lon="2.82818"><ele>121.2</ele></trkpt>
    <trkpt lat="48.77172" lon="2.82841"><ele>121.2</ele></trkpt>
    <trkpt lat="48.77107" lon="2.82935"><ele>120.8</ele></trkpt>
    <trkpt lat="48.76924" lon="2.8305"><ele>121.0</ele></trkpt>
    <trkpt lat="48.7679" lon="2.83125"><ele>123.5</ele></trkpt>
    <trkpt lat="48.76776" lon="2.83125"><ele>123.8</ele></trkpt>
    <trkpt lat="48.76578" lon="2.82889"><ele>123.2</ele></trkpt>
    <trkpt lat="48.7653" lon="2.82808"><ele>122.3</ele></trkpt>
    <trkpt lat="48.7614" lon="2.83194"><ele>127.9</ele></trkpt>
    <trkpt lat="48.76057" lon="2.83246"><ele>129.1</ele></trkpt>
    <trkpt lat="48.75987" lon="2.83269"><ele>128.5</ele></trkpt>
    <trkpt lat="48.75954" lon="2.83292"><ele>127.9</ele></trkpt>
    <trkpt lat="48.75882" lon="2.83374"><ele>126.0</ele></trkpt>
    <trkpt lat="48.75851" lon="2.834"><ele>125.4</ele></trkpt>
    <trkpt lat="48.75816" lon="2.83414"><ele>124.7</ele></trkpt>
    <trkpt lat="48.7571" lon="2.83435"><ele>122.9</ele></trkpt>
    <trkpt lat="48.7564" lon="2.8346"><ele>121.8</ele></trkpt>
    <trkpt lat="48.75588" lon="2.83483"><ele>120.6</ele></trkpt>
    <trkpt lat="48.75523" lon="2.8353"><ele>120.3</ele></trkpt>
    <trkpt lat="48.75398" lon="2.8353"><ele>119.9</ele></trkpt>
    <trkpt lat="48.75383" lon="2.83545"><ele>119.7</ele></trkpt>
    <trkpt lat="48.75324" lon="2.83713"><ele>117.6</ele></trkpt>
    <trkpt lat="48.75299" lon="2.83753"><ele>117.0</ele></trkpt>
    <trkpt lat="48.75218" lon="2.83812"><ele>115.2</ele></trkpt>
    <trkpt lat="48.75168" lon="2.83841"><ele>114.5</ele></trkpt>
    <trkpt lat="48.75116" lon="2.83862"><ele>114.2</ele></trkpt>
    <trkpt lat="48.74537" lon="2.84061"><ele>114.8</ele></trkpt>
    <trkpt lat="48.74752" lon="2.85243"><ele>113.2</ele></trkpt>
    <trkpt lat="48.74978" lon="2.86192"><ele>112.5</ele></trkpt>
    <trkpt lat="48.751" lon="2.86557"><ele>113.6</ele></trkpt>
    <trkpt lat="48.75113" lon="2.86568"><ele>113.6</ele></trkpt>
    <trkpt lat="48.75364" lon="2.86541"><ele>114.9</ele></trkpt>
    <trkpt lat="48.75379" lon="2.86547"><ele>114.8</ele></trkpt>
    <trkpt lat="48.75656" lon="2.87404"><ele>115.0</ele></trkpt>
    <trkpt lat="48.76024" lon="2.8811"><ele>114.7</ele></trkpt>
    <trkpt lat="48.76063" lon="2.88166"><ele>114.8</ele></trkpt>
    <trkpt lat="48.76712" lon="2.88988"><ele>119.9</ele></trkpt>
    <trkpt lat="48.77037" lon="2.89331"><ele>120.4</ele></trkpt>
    <trkpt lat="48.77473" lon="2.89765"><ele>120.4</ele></trkpt>
    <trkpt lat="48.77504" lon="2.89793"><ele>120.5</ele></trkpt>
    <trkpt lat="48.77573" lon="2.89818"><ele>120.7</ele></trkpt>
    <trkpt lat="48.77589" lon="2.89832"><ele>120.8</ele></trkpt>
    <trkpt lat="48.776" lon="2.89853"><ele>120.9</ele></trkpt>
    <trkpt lat="48.77604" lon="2.8988"><ele>121.0</ele></trkpt>
    <trkpt lat="48.77597" lon="2.89903"><ele>121.1</ele></trkpt>
    <trkpt lat="48.77552" lon="2.89988"><ele>121.3</ele></trkpt>
    <trkpt lat="48.77562" lon="2.90008"><ele>121.2</ele></trkpt>
    <trkpt lat="48.77595" lon="2.90028"><ele>121.0</ele></trkpt>
    <trkpt lat="48.77665" lon="2.90049"><ele>120.8</ele></trkpt>
    <trkpt lat="48.77697" lon="2.90073"><ele>120.8</ele></trkpt>
    <trkpt lat="48.78056" lon="2.90438"><ele>119.8</ele></trkpt>
    <trkpt lat="48.78084" lon="2.90473"><ele>119.5</ele></trkpt>
    <trkpt lat="48.78308" lon="2.90899"><ele>108.8</ele></trkpt>
    <trkpt lat="48.78719" lon="2.91694"><ele>119.7</ele></trkpt>
    <trkpt lat="48.78734" lon="2.91695"><ele>120.1</ele></trkpt>
    <trkpt lat="48.78751" lon="2.91687"><ele>120.2</ele></trkpt>
    <trkpt lat="48.78865" lon="2.91605"><ele>120.2</ele></trkpt>
    <trkpt lat="48.78918" lon="2.91596"><ele>120.5</ele></trkpt>
    <trkpt lat="48.78953" lon="2.916"><ele>120.6</ele></trkpt>
    <trkpt lat="48.78967" lon="2.91703"><ele>121.4</ele></trkpt>
    <trkpt lat="48.79072" lon="2.92168"><ele>125.2</ele></trkpt>
    <trkpt lat="48.79217" lon="2.92985"><ele>128.4</ele></trkpt>
    <trkpt lat="48.79256" lon="2.93501"><ele>130.1</ele></trkpt>
    <trkpt lat="48.79443" lon="2.9478"><ele>123.2</ele></trkpt>
    <trkpt lat="48.79616" lon="2.94639"><ele>121.5</ele></trkpt>
    <trkpt lat="48.79765" lon="2.94543"><ele>116.0</ele></trkpt>
    <trkpt lat="48.79818" lon="2.94525"><ele>114.7</ele></trkpt>
    <trkpt lat="48.80034" lon="2.94514"><ele>115.3</ele></trkpt>
    <trkpt lat="48.80194" lon="2.94542"><ele>120.0</ele></trkpt>
    <trkpt lat="48.80374" lon="2.94529"><ele>128.2</ele></trkpt>
    <trkpt lat="48.80496" lon="2.94576"><ele>129.2</ele></trkpt>
    <trkpt lat="48.80602" lon="2.94677"><ele>126.4</ele></trkpt>
    <trkpt lat="48.80661" lon="2.9478"><ele>124.1</ele></trkpt>
    <trkpt lat="48.80713" lon="2.94854"><ele>122.4</ele></trkpt>
    <trkpt lat="48.80754" lon="2.94908"><ele>120.6</ele></trkpt>
    <trkpt lat="48.80842" lon="2.95003"><ele>116.9</ele></trkpt>
    <trkpt lat="48.80874" lon="2.95027"><ele>115.9</ele></trkpt>
    <trkpt lat="48.81011" lon="2.95095"><ele>113.0</ele></trkpt>
    <trkpt lat="48.81021" lon="2.95116"><ele>112.9</ele></trkpt>
    <trkpt lat="48.81027" lon="2.95142"><ele>112.7</ele></trkpt>
    <trkpt lat="48.81057" lon="2.95356"><ele>108.4</ele></trkpt>
    <trkpt lat="48.81047" lon="2.95408"><ele>107.0</ele></trkpt>
    <trkpt lat="48.8102" lon="2.95478"><ele>104.8</ele></trkpt>
    <trkpt lat="48.81017" lon="2.95504"><ele>104.1</ele></trkpt>
    <trkpt lat="48.81025" lon="2.95528"><ele>103.4</ele></trkpt>
    <trkpt lat="48.81164" lon="2.95653"><ele>96.2</ele></trkpt>
    <trkpt lat="48.81285" lon="2.95855"><ele>84.9</ele></trkpt>
    <trkpt lat="48.8134" lon="2.95962"><ele>79.3</ele></trkpt>
    <trkpt lat="48.81366" lon="2.96"><ele>77.7</ele></trkpt>
    <trkpt lat="48.81396" lon="2.9603"><ele>76.2</ele></trkpt>
    <trkpt lat="48.81463" lon="2.96071"><ele>72.9</ele></trkpt>
    <trkpt lat="48.81498" lon="2.9608"><ele>71.2</ele></trkpt>
    <trkpt lat="48.8157" lon="2.96086"><ele>68.5</ele></trkpt>
    <trkpt lat="48.81749" lon="2.9606"><ele>63.6</ele></trkpt>
    <trkpt lat="48.81802" lon="2.96045"><ele>62.4</ele></trkpt>
    <trkpt lat="48.82055" lon="2.95903"><ele>57.2</ele></trkpt>
    <trkpt lat="48.82225" lon="2.95814"><ele>55.0</ele></trkpt>
    <trkpt lat="48.82296" lon="2.95794"><ele>54.0</ele></trkpt>
    <trkpt lat="48.82402" lon="2.95785"><ele>53.0</ele></trkpt>
    <trkpt lat="48.82426" lon="2.95745"><ele>53.3</ele></trkpt>
    <trkpt lat="48.82455" lon="2.95713"><ele>54.1</ele></trkpt>
    <trkpt lat="48.82494" lon="2.95655"><ele>55.7</ele></trkpt>
    <trkpt lat="48.82541" lon="2.95573"><ele>57.7</ele></trkpt>
    <trkpt lat="48.82587" lon="2.95456"><ele>59.8</ele></trkpt>
    <trkpt lat="48.82602" lon="2.95445"><ele>60.5</ele></trkpt>
    <trkpt lat="48.8269" lon="2.95471"><ele>66.5</ele></trkpt>
    <trkpt lat="48.82738" lon="2.95506"><ele>70.6</ele></trkpt>
    <trkpt lat="48.82767" lon="2.9554"><ele>73.3</ele></trkpt>
    <trkpt lat="48.8287" lon="2.95728"><ele>88.2</ele></trkpt>
    <trkpt lat="48.82882" lon="2.95717"><ele>89.8</ele></trkpt>
    <trkpt lat="48.82831" lon="2.9526"><ele>112.0</ele></trkpt>
    <trkpt lat="48.82817" lon="2.95209"><ele>114.6</ele></trkpt>
    <trkpt lat="48.8275" lon="2.95047"><ele>123.3</ele></trkpt>
    <trkpt lat="48.82752" lon="2.95021"><ele>124.5</ele></trkpt>
    <trkpt lat="48.82762" lon="2.94998"><ele>125.5</ele></trkpt>
    <trkpt lat="48.82778" lon="2.94987"><ele>126.2</ele></trkpt>
    <trkpt lat="48.83087" lon="2.94841"><ele>143.3</ele></trkpt>
    <trkpt lat="48.8312" lon="2.94821"><ele>144.8</ele></trkpt>
    <trkpt lat="48.83229" lon="2.94677"><ele>146.7</ele></trkpt>
    <trkpt lat="48.83342" lon="2.94501"><ele>146.5</ele></trkpt>
    <trkpt lat="48.83372" lon="2.94433"><ele>145.5</ele></trkpt>
    <trkpt lat="48.83393" lon="2.94329"><ele>144.0</ele></trkpt>
    <trkpt lat="48.83403" lon="2.94111"><ele>141.1</ele></trkpt>
    <trkpt lat="48.83401" lon="2.93838"><ele>137.3</ele></trkpt>
    <trkpt lat="48.83408" lon="2.93729"><ele>135.2</ele></trkpt>
    <trkpt lat="48.83405" lon="2.93675"><ele>134.1</ele></trkpt>
    <trkpt lat="48.834" lon="2.93621"><ele>133.1</ele></trkpt>
    <trkpt lat="48.83385" lon="2.93542"><ele>131.5</ele></trkpt>
    <trkpt lat="48.83317" lon="2.9335"><ele>127.4</ele></trkpt>
    <trkpt lat="48.83271" lon="2.93172"><ele>124.7</ele></trkpt>
    <trkpt lat="48.83259" lon="2.93152"><ele>124.5</ele></trkpt>
    <trkpt lat="48.8321" lon="2.93118"><ele>123.9</ele></trkpt>
    <trkpt lat="48.83199" lon="2.93098"><ele>123.7</ele></trkpt>
    <trkpt lat="48.83199" lon="2.92961"><ele>122.2</ele></trkpt>
    <trkpt lat="48.83194" lon="2.92935"><ele>122.1</ele></trkpt>
    <trkpt lat="48.83207" lon="2.92718"><ele>121.0</ele></trkpt>
    <trkpt lat="48.83173" lon="2.92591"><ele>120.4</ele></trkpt>
    <trkpt lat="48.83164" lon="2.92539"><ele>120.2</ele></trkpt>
    <trkpt lat="48.8315" lon="2.92404"><ele>119.6</ele></trkpt>
    <trkpt lat="48.83148" lon="2.92349"><ele>119.4</ele></trkpt>
    <trkpt lat="48.83149" lon="2.92267"><ele>119.0</ele></trkpt>
    <trkpt lat="48.83171" lon="2.91886"><ele>115.8</ele></trkpt>
    <trkpt lat="48.83195" lon="2.91755"><ele>113.4</ele></trkpt>
    <trkpt lat="48.832" lon="2.91701"><ele>112.0</ele></trkpt>
    <trkpt lat="48.83185" lon="2.91538"><ele>107.1</ele></trkpt>
    <trkpt lat="48.8314" lon="2.91303"><ele>99.4</ele></trkpt>
    <trkpt lat="48.83144" lon="2.91249"><ele>97.2</ele></trkpt>
    <trkpt lat="48.83173" lon="2.91181"><ele>93.2</ele></trkpt>
    <trkpt lat="48.83175" lon="2.91155"><ele>91.7</ele></trkpt>
    <trkpt lat="48.83163" lon="2.91135"><ele>90.2</ele></trkpt>
    <trkpt lat="48.83146" lon="2.91127"><ele>88.6</ele></trkpt>
    <trkpt lat="48.83041" lon="2.91096"><ele>80.9</ele></trkpt>
    <trkpt lat="48.83036" lon="2.9107"><ele>79.3</ele></trkpt>
    <trkpt lat="48.83045" lon="2.91048"><ele>77.8</ele></trkpt>
    <trkpt lat="48.83061" lon="2.91036"><ele>76.2</ele></trkpt>
    <trkpt lat="48.83146" lon="2.90993"><ele>69.2</ele></trkpt>
    <trkpt lat="48.83157" lon="2.90972"><ele>67.4</ele></trkpt>
    <trkpt lat="48.83154" lon="2.90946"><ele>65.5</ele></trkpt>
    <trkpt lat="48.83142" lon="2.90927"><ele>63.9</ele></trkpt>
    <trkpt lat="48.83125" lon="2.90919"><ele>62.5</ele></trkpt>
    <trkpt lat="48.83107" lon="2.90921"><ele>61.2</ele></trkpt>
    <trkpt lat="48.83019" lon="2.90949"><ele>56.6</ele></trkpt>
    <trkpt lat="48.83003" lon="2.90943"><ele>55.4</ele></trkpt>
    <trkpt lat="48.82991" lon="2.90923"><ele>54.2</ele></trkpt>
    <trkpt lat="48.82986" lon="2.90897"><ele>53.1</ele></trkpt>
    <trkpt lat="48.82992" lon="2.90871"><ele>52.0</ele></trkpt>
    <trkpt lat="48.83025" lon="2.90807"><ele>50.0</ele></trkpt>
    <trkpt lat="48.83032" lon="2.90782"><ele>49.5</ele></trkpt>
    <trkpt lat="48.83031" lon="2.90755"><ele>49.1</ele></trkpt>
    <trkpt lat="48.82997" lon="2.90571"><ele>47.8</ele></trkpt>
    <trkpt lat="48.82982" lon="2.90436"><ele>48.6</ele></trkpt>
    <trkpt lat="48.82988" lon="2.90273"><ele>51.5</ele></trkpt>
    <trkpt lat="48.82975" lon="2.90138"><ele>57.0</ele></trkpt>
    <trkpt lat="48.82991" lon="2.90126"><ele>58.5</ele></trkpt>
    <trkpt lat="48.83002" lon="2.90105"><ele>59.5</ele></trkpt>
    <trkpt lat="48.83002" lon="2.90079"><ele>60.8</ele></trkpt>
    <trkpt lat="48.82955" lon="2.89815"><ele>74.4</ele></trkpt>
    <trkpt lat="48.82943" lon="2.89796"><ele>76.1</ele></trkpt>
    <trkpt lat="48.82908" lon="2.89788"><ele>79.0</ele></trkpt>
    <trkpt lat="48.82896" lon="2.89768"><ele>80.6</ele></trkpt>
    <trkpt lat="48.82891" lon="2.89742"><ele>82.1</ele></trkpt>
    <trkpt lat="48.82895" lon="2.89524"><ele>91.7</ele></trkpt>
    <trkpt lat="48.82885" lon="2.89444"><ele>94.8</ele></trkpt>
    <trkpt lat="48.82725" lon="2.88925"><ele>107.8</ele></trkpt>
    <trkpt lat="48.82633" lon="2.88658"><ele>114.5</ele></trkpt>
    <trkpt lat="48.82497" lon="2.88369"><ele>124.2</ele></trkpt>
    <trkpt lat="48.82472" lon="2.8833"><ele>124.9</ele></trkpt>
    <trkpt lat="48.82376" lon="2.88207"><ele>127.1</ele></trkpt>
    <trkpt lat="48.82367" lon="2.88127"><ele>127.7</ele></trkpt>
    <trkpt lat="48.82355" lon="2.88076"><ele>128.1</ele></trkpt>
    <trkpt lat="48.82257" lon="2.87784"><ele>129.3</ele></trkpt>
    <trkpt lat="48.82255" lon="2.87757"><ele>129.4</ele></trkpt>
    <trkpt lat="48.82266" lon="2.87706"><ele>129.4</ele></trkpt>
    <trkpt lat="48.82256" lon="2.87684"><ele>129.5</ele></trkpt>
    <trkpt lat="48.82247" lon="2.87633"><ele>129.6</ele></trkpt>
    <trkpt lat="48.82224" lon="2.87591"><ele>129.7</ele></trkpt>
    <trkpt lat="48.82194" lon="2.87562"><ele>129.7</ele></trkpt>
    <trkpt lat="48.82169" lon="2.87523"><ele>129.8</ele></trkpt>
    <trkpt lat="48.81863" lon="2.86626"><ele>130.9</ele></trkpt>
    <trkpt lat="48.81841" lon="2.86522"><ele>130.7</ele></trkpt>
    <trkpt lat="48.81571" lon="2.84823"><ele>126.5</ele></trkpt>
    <trkpt lat="48.81544" lon="2.84581"><ele>125.5</ele></trkpt>
    <trkpt lat="48.81521" lon="2.8431"><ele>124.9</ele></trkpt>
    <trkpt lat="48.81522" lon="2.84255"><ele>125.0</ele></trkpt>
    <trkpt lat="48.81539" lon="2.84208"><ele>125.1</ele></trkpt>
    <trkpt lat="48.8154" lon="2.84182"><ele>125.0</ele></trkpt>
    <trkpt lat="48.81531" lon="2.84159"><ele>124.9</ele></trkpt>
    <trkpt lat="48.81515" lon="2.84145"><ele>124.7</ele></trkpt>
    <trkpt lat="48.81506" lon="2.84123"><ele>124.5</ele></trkpt>
    <trkpt lat="48.81498" lon="2.8407"><ele>124.0</ele></trkpt>
    <trkpt lat="48.81439" lon="2.8342"><ele>124.9</ele></trkpt>
    <trkpt lat="48.81412" lon="2.82986"><ele>125.9</ele></trkpt>
    <trkpt lat="48.81423" lon="2.82977"><ele>125.8</ele></trkpt>
    <trkpt lat="48.8144" lon="2.82983"><ele>125.8</ele></trkpt>
    <trkpt lat="48.81452" lon="2.82972"><ele>125.8</ele></trkpt>
    <trkpt lat="48.81491" lon="2.82849"><ele>126.2</ele></trkpt>
    <trkpt lat="48.81504" lon="2.8283"><ele>126.3</ele></trkpt>
    <trkpt lat="48.81567" lon="2.8278"><ele>126.6</ele></trkpt>
    <trkpt lat="48.81575" lon="2.82756"><ele>126.6</ele></trkpt>
    <trkpt lat="48.81715" lon="2.82107"><ele>125.9</ele></trkpt>
    <trkpt lat="48.81729" lon="2.82057"><ele>125.8</ele></trkpt>
    <trkpt lat="48.8175" lon="2.82013"><ele>125.6</ele></trkpt>
    <trkpt lat="48.81801" lon="2.81936"><ele>125.4</ele></trkpt>
    <trkpt lat="48.81845" lon="2.81888"><ele>125.6</ele></trkpt>
    <trkpt lat="48.81879" lon="2.81881"><ele>125.6</ele></trkpt>
    <trkpt lat="48.81892" lon="2.81863"><ele>125.6</ele></trkpt>
    <trkpt lat="48.81894" lon="2.81836"><ele>125.6</ele></trkpt>
    <trkpt lat="48.81887" lon="2.81812"><ele>125.5</ele></trkpt>
    <trkpt lat="48.81872" lon="2.81798"><ele>125.4</ele></trkpt>
    <trkpt lat="48.81856" lon="2.81791"><ele>125.3</ele></trkpt>
    <trkpt lat="48.81843" lon="2.81773"><ele>125.2</ele></trkpt>
    <trkpt lat="48.81833" lon="2.8175"><ele>125.1</ele></trkpt>
    <trkpt lat="48.81804" lon="2.8165"><ele>124.9</ele></trkpt>
    <trkpt lat="48.81795" lon="2.81597"><ele>124.7</ele></trkpt>
    <trkpt lat="48.81765" lon="2.81328"><ele>123.8</ele></trkpt>
    <trkpt lat="48.81705" lon="2.81013"><ele>122.5</ele></trkpt>
    <trkpt lat="48.81654" lon="2.8078"><ele>121.5</ele></trkpt>
    <trkpt lat="48.81625" lon="2.80538"><ele>120.8</ele></trkpt>
    <trkpt lat="48.81601" lon="2.80378"><ele>121.2</ele></trkpt>
    <trkpt lat="48.81594" lon="2.80242"><ele>121.8</ele></trkpt>
    <trkpt lat="48.816" lon="2.79942"><ele>122.2</ele></trkpt>
    <trkpt lat="48.81646" lon="2.7965"><ele>121.3</ele></trkpt>
    <trkpt lat="48.81648" lon="2.79596"><ele>121.1</ele></trkpt>
    <trkpt lat="48.81631" lon="2.79519"><ele>121.0</ele></trkpt>
    <trkpt lat="48.8156" lon="2.79268"><ele>120.6</ele></trkpt>
    <trkpt lat="48.815" lon="2.79131"><ele>119.6</ele></trkpt>
    <trkpt lat="48.81475" lon="2.79094"><ele>119.4</ele></trkpt>
    <trkpt lat="48.81429" lon="2.79052"><ele>119.1</ele></trkpt>
    <trkpt lat="48.81393" lon="2.79042"><ele>119.0</ele></trkpt>
    <trkpt lat="48.81357" lon="2.79039"><ele>118.9</ele></trkpt>
    <trkpt lat="48.8125" lon="2.79049"><ele>118.9</ele></trkpt>
    <trkpt lat="48.8118" lon="2.79024"><ele>119.0</ele></trkpt>
    <trkpt lat="48.81149" lon="2.78996"><ele>119.2</ele></trkpt>
    <trkpt lat="48.81098" lon="2.7892"><ele>119.8</ele></trkpt>
    <trkpt lat="48.81071" lon="2.78849"><ele>120.3</ele></trkpt>
    <trkpt lat="48.81056" lon="2.7877"><ele>120.9</ele></trkpt>
    <trkpt lat="48.81049" lon="2.7858"><ele>122.2</ele></trkpt>
    <trkpt lat="48.81032" lon="2.78446"><ele>123.1</ele></trkpt>
    <trkpt lat="48.81003" lon="2.78346"><ele>123.8</ele></trkpt>
    <trkpt lat="48.80958" lon="2.78228"><ele>124.5</ele></trkpt>
    <trkpt lat="48.80836" lon="2.77743"><ele>126.5</ele></trkpt>
    <trkpt lat="48.80664" lon="2.76824"><ele>128.5</ele></trkpt>
    <trkpt lat="48.8066" lon="2.76797"><ele>128.6</ele></trkpt>
    <trkpt lat="48.80642" lon="2.76252"><ele>128.3</ele></trkpt>
    <trkpt lat="48.80664" lon="2.76185"><ele>128.1</ele></trkpt>
    <trkpt lat="48.8066" lon="2.76131"><ele>127.9</ele></trkpt>
    <trkpt lat="48.80646" lon="2.76128"><ele>127.8</ele></trkpt>
    <trkpt lat="48.80637" lon="2.76113"><ele>127.6</ele></trkpt>
    <trkpt lat="48.80629" lon="2.75923"><ele>126.2</ele></trkpt>
    <trkpt lat="48.80621" lon="2.75869"><ele>125.8</ele></trkpt>
    <trkpt lat="48.8035" lon="2.74947"><ele>122.0</ele></trkpt>
    <trkpt lat="48.80289" lon="2.74719"><ele>122.4</ele></trkpt>
    <trkpt lat="48.7996" lon="2.7339"><ele>121.7</ele></trkpt>
    <trkpt lat="48.79737" lon="2.72798"><ele>122.7</ele></trkpt>
    <trkpt lat="48.79595" lon="2.72387"><ele>118.4</ele></trkpt>
    <trkpt lat="48.7959" lon="2.72306"><ele>118.3</ele></trkpt>
    <trkpt lat="48.79603" lon="2.71596"><ele>116.5</ele></trkpt>
    <trkpt lat="48.79618" lon="2.71434"><ele>116.0</ele></trkpt>
    <trkpt lat="48.79628" lon="2.71413"><ele>115.7</ele></trkpt>
    <trkpt lat="48.79628" lon="2.71387"><ele>115.7</ele></trkpt>
    <trkpt lat="48.79616" lon="2.71367"><ele>115.7</ele></trkpt>
    <trkpt lat="48.79609" lon="2.71343"><ele>115.9</ele></trkpt>
    <trkpt lat="48.79621" lon="2.7066"><ele>116.1</ele></trkpt>
    <trkpt lat="48.7962" lon="2.70633"><ele>116.0</ele></trkpt>
    <trkpt lat="48.79601" lon="2.70529"><ele>114.8</ele></trkpt>
    <trkpt lat="48.79549" lon="2.70518"><ele>114.6</ele></trkpt>
    <trkpt lat="48.79536" lon="2.705"><ele>114.5</ele></trkpt>
    <trkpt lat="48.79528" lon="2.70476"><ele>114.5</ele></trkpt>
    <trkpt lat="48.79133" lon="2.69189"><ele>116.2</ele></trkpt>
    <trkpt lat="48.79002" lon="2.68772"><ele>114.5</ele></trkpt>
    <trkpt lat="48.78991" lon="2.68755"><ele>115.5</ele></trkpt>
    <trkpt lat="48.78977" lon="2.68766"><ele>116.4</ele></trkpt>
    <trkpt lat="48.78959" lon="2.68763"><ele>117.4</ele></trkpt>
    <trkpt lat="48.78663" lon="2.68563"><ele>118.4</ele></trkpt>
    <trkpt lat="48.78394" lon="2.68411"><ele>117.2</ele></trkpt>
    <trkpt lat="48.78297" lon="2.6834"><ele>117.0</ele></trkpt>
    <trkpt lat="48.78059" lon="2.68145"><ele>116.3</ele></trkpt>
    <trkpt lat="48.77896" lon="2.68032"><ele>115.2</ele></trkpt>
    <trkpt lat="48.77892" lon="2.68008"><ele>115.0</ele></trkpt>
    <trkpt lat="48.77863" lon="2.68009"><ele>114.7</ele></trkpt>
    <trkpt lat="48.77617" lon="2.67842"><ele>112.6</ele></trkpt>
    <trkpt lat="48.77601" lon="2.67829"><ele>112.3</ele></trkpt>
    <trkpt lat="48.77596" lon="2.67806"><ele>111.9</ele></trkpt>
    <trkpt lat="48.7758" lon="2.67797"><ele>111.6</ele></trkpt>
    <trkpt lat="48.77565" lon="2.67804"><ele>111.3</ele></trkpt>
    <trkpt lat="48.77548" lon="2.67793"><ele>111.0</ele></trkpt>
    <trkpt lat="48.77319" lon="2.67637"><ele>109.4</ele></trkpt>
    <trkpt lat="48.77309" lon="2.67619"><ele>109.2</ele></trkpt>
    <trkpt lat="48.77295" lon="2.67609"><ele>109.1</ele></trkpt>
    <trkpt lat="48.7728" lon="2.67612"><ele>109.0</ele></trkpt>
    <trkpt lat="48.77215" lon="2.67566"><ele>108.6</ele></trkpt>
    <trkpt lat="48.772" lon="2.67552"><ele>108.6</ele></trkpt>
    <trkpt lat="48.76927" lon="2.67118"><ele>108.0</ele></trkpt>
    <trkpt lat="48.76928" lon="2.67094"><ele>108.0</ele></trkpt>
    <trkpt lat="48.76914" lon="2.67081"><ele>107.9</ele></trkpt>
    <trkpt lat="48.769" lon="2.67076"><ele>107.9</ele></trkpt>
    <trkpt lat="48.76787" lon="2.669"><ele>107.6</ele></trkpt>
    <trkpt lat="48.76776" lon="2.6688"><ele>107.6</ele></trkpt>
    <trkpt lat="48.76775" lon="2.66854"><ele>107.5</ele></trkpt>
    <trkpt lat="48.76747" lon="2.66834"><ele>107.4</ele></trkpt>
    <trkpt lat="48.76737" lon="2.66811"><ele>107.3</ele></trkpt>
    <trkpt lat="48.7672" lon="2.66733"><ele>107.1</ele></trkpt>
    <trkpt lat="48.76698" lon="2.66658"><ele>106.9</ele></trkpt>
    <trkpt lat="48.76659" lon="2.66566"><ele>106.6</ele></trkpt>
    <trkpt lat="48.76633" lon="2.66529"><ele>106.4</ele></trkpt>
    <trkpt lat="48.76601" lon="2.66505"><ele>106.2</ele></trkpt>
    <trkpt lat="48.76566" lon="2.66498"><ele>106.0</ele></trkpt>
    <trkpt lat="48.76442" lon="2.66528"><ele>105.3</ele></trkpt>
    <trkpt lat="48.7637" lon="2.66528"><ele>105.0</ele></trkpt>
    <trkpt lat="48.76335" lon="2.66518"><ele>104.8</ele></trkpt>
    <trkpt lat="48.76325" lon="2.66499"><ele>104.7</ele></trkpt>
    <trkpt lat="48.76291" lon="2.66507"><ele>104.7</ele></trkpt>
    <trkpt lat="48.76257" lon="2.66489"><ele>104.7</ele></trkpt>
    <trkpt lat="48.76109" lon="2.66289"><ele>104.8</ele></trkpt>
    <trkpt lat="48.76105" lon="2.66266"><ele>104.7</ele></trkpt>
    <trkpt lat="48.76077" lon="2.66248"><ele>104.4</ele></trkpt>
    <trkpt lat="48.75941" lon="2.66069"><ele>103.2</ele></trkpt>
    <trkpt lat="48.75878" lon="2.65973"><ele>102.7</ele></trkpt>
    <trkpt lat="48.75781" lon="2.65811"><ele>102.0</ele></trkpt>
    <trkpt lat="48.75649" lon="2.65552"><ele>101.7</ele></trkpt>
    <trkpt lat="48.7551" lon="2.65302"><ele>102.5</ele></trkpt>
    <trkpt lat="48.75398" lon="2.6493"><ele>104.6</ele></trkpt>
    <trkpt lat="48.75351" lon="2.64724"><ele>105.4</ele></trkpt>
    <trkpt lat="48.7532" lon="2.64657"><ele>106.0</ele></trkpt>
    <trkpt lat="48.7528" lon="2.64602"><ele>106.6</ele></trkpt>
    <trkpt lat="48.75249" lon="2.64535"><ele>107.2</ele></trkpt>
    <trkpt lat="48.75234" lon="2.64485"><ele>107.5</ele></trkpt>
    <trkpt lat="48.75206" lon="2.64356"><ele>108.1</ele></trkpt>
    <trkpt lat="48.7514" lon="2.64162"><ele>108.6</ele></trkpt>
    <trkpt lat="48.75105" lon="2.64099"><ele>108.6</ele></trkpt>
    <trkpt lat="48.75058" lon="2.6406"><ele>108.2</ele></trkpt>
    <trkpt lat="48.75037" lon="2.64026"><ele>107.7</ele></trkpt>
    <trkpt lat="48.75023" lon="2.64023"><ele>107.3</ele></trkpt>
    <trkpt lat="48.74999" lon="2.63983"><ele>106.7</ele></trkpt>
    <trkpt lat="48.7487" lon="2.63836"><ele>104.2</ele></trkpt>
    <trkpt lat="48.74843" lon="2.63798"><ele>103.5</ele></trkpt>
    <trkpt lat="48.74839" lon="2.63779"><ele>103.2</ele></trkpt>
    <trkpt lat="48.7479" lon="2.63698"><ele>101.7</ele></trkpt>
    <trkpt lat="48.74783" lon="2.63674"><ele>101.2</ele></trkpt>
    <trkpt lat="48.7478" lon="2.63647"><ele>100.6</ele></trkpt>
    <trkpt lat="48.74786" lon="2.63622"><ele>99.8</ele></trkpt>
    <trkpt lat="48.7481" lon="2.63582"><ele>98.3</ele></trkpt>
    <trkpt lat="48.74857" lon="2.6354"><ele>96.1</ele></trkpt>
    <trkpt lat="48.74958" lon="2.63484"><ele>94.5</ele></trkpt>
    <trkpt lat="48.74971" lon="2.63467"><ele>94.1</ele></trkpt>
    <trkpt lat="48.75007" lon="2.63373"><ele>93.0</ele></trkpt>
    <trkpt lat="48.75022" lon="2.63294"><ele>92.7</ele></trkpt>
    <trkpt lat="48.75019" lon="2.63241"><ele>92.5</ele></trkpt>
    <trkpt lat="48.7501" lon="2.63217"><ele>92.3</ele></trkpt>
    <trkpt lat="48.74964" lon="2.63134"><ele>91.7</ele></trkpt>
    <trkpt lat="48.74931" lon="2.63037"><ele>91.4</ele></trkpt>
    <trkpt lat="48.74916" lon="2.62959"><ele>91.3</ele></trkpt>
    <trkpt lat="48.74888" lon="2.62717"><ele>91.0</ele></trkpt>
    <trkpt lat="48.74874" lon="2.62667"><ele>90.9</ele></trkpt>
    <trkpt lat="48.74834" lon="2.62577"><ele>91.1</ele></trkpt>
    <trkpt lat="48.74829" lon="2.62551"><ele>91.3</ele></trkpt>
    <trkpt lat="48.74835" lon="2.62526"><ele>91.3</ele></trkpt>
    <trkpt lat="48.74823" lon="2.62512"><ele>91.6</ele></trkpt>
    <trkpt lat="48.74806" lon="2.62506"><ele>91.9</ele></trkpt>
    <trkpt lat="48.74797" lon="2.62483"><ele>92.2</ele></trkpt>
    <trkpt lat="48.74788" lon="2.62431"><ele>93.0</ele></trkpt>
    <trkpt lat="48.74788" lon="2.62376"><ele>93.7</ele></trkpt>
    <trkpt lat="48.74778" lon="2.62324"><ele>94.2</ele></trkpt>
    <trkpt lat="48.74697" lon="2.62178"><ele>95.7</ele></trkpt>
    <trkpt lat="48.74681" lon="2.62129"><ele>96.0</ele></trkpt>
    <trkpt lat="48.74678" lon="2.62103"><ele>96.2</ele></trkpt>
    <trkpt lat="48.74684" lon="2.62049"><ele>96.5</ele></trkpt>
    <trkpt lat="48.747" lon="2.62001"><ele>96.8</ele></trkpt>
    <trkpt lat="48.74757" lon="2.61896"><ele>97.6</ele></trkpt>
    <trkpt lat="48.74772" lon="2.61893"><ele>97.8</ele></trkpt>
    <trkpt lat="48.7478" lon="2.61848"><ele>98.1</ele></trkpt>
    <trkpt lat="48.7479" lon="2.61826"><ele>98.1</ele></trkpt>
    <trkpt lat="48.74843" lon="2.61716"><ele>98.2</ele></trkpt>
    <trkpt lat="48.74855" lon="2.61698"><ele>98.2</ele></trkpt>
    <trkpt lat="48.7487" lon="2.61688"><ele>98.2</ele></trkpt>
    <trkpt lat="48.74867" lon="2.61664"><ele>98.1</ele></trkpt>
    <trkpt lat="48.74837" lon="2.61654"><ele>98.0</ele></trkpt>
    <trkpt lat="48.74746" lon="2.61565"><ele>97.9</ele></trkpt>
    <trkpt lat="48.74701" lon="2.61539"><ele>97.6</ele></trkpt>
    <trkpt lat="48.74687" lon="2.61546"><ele>97.6</ele></trkpt>
    <trkpt lat="48.7467" lon="2.61541"><ele>97.5</ele></trkpt>
    <trkpt lat="48.74539" lon="2.61451"><ele>97.4</ele></trkpt>
    <trkpt lat="48.74528" lon="2.61429"><ele>97.4</ele></trkpt>
    <trkpt lat="48.74515" lon="2.61378"><ele>97.4</ele></trkpt>
    <trkpt lat="48.74468" lon="2.61344"><ele>97.5</ele></trkpt>
    <trkpt lat="48.74456" lon="2.61323"><ele>97.6</ele></trkpt>
    <trkpt lat="48.74457" lon="2.61301"><ele>97.6</ele></trkpt>
    <trkpt lat="48.74428" lon="2.61242"><ele>98.1</ele></trkpt>
    <trkpt lat="48.74426" lon="2.61222"><ele>98.2</ele></trkpt>
    <trkpt lat="48.74397" lon="2.61195"><ele>98.5</ele></trkpt>
    <trkpt lat="48.74371" lon="2.61157"><ele>98.7</ele></trkpt>
    <trkpt lat="48.74144" lon="2.60887"><ele>98.6</ele></trkpt>
    <trkpt lat="48.74132" lon="2.60868"><ele>98.5</ele></trkpt>
    <trkpt lat="48.74127" lon="2.60845"><ele>98.2</ele></trkpt>
    <trkpt lat="48.74111" lon="2.60847"><ele>98.0</ele></trkpt>
    <trkpt lat="48.74052" lon="2.60784"><ele>97.1</ele></trkpt>
    <trkpt lat="48.73933" lon="2.60722"><ele>95.4</ele></trkpt>
    <trkpt lat="48.73732" lon="2.60605"><ele>92.8</ele></trkpt>
    <trkpt lat="48.73707" lon="2.60571"><ele>92.2</ele></trkpt>
    <trkpt lat="48.73691" lon="2.60581"><ele>92.1</ele></trkpt>
    <trkpt lat="48.73639" lon="2.6056"><ele>91.6</ele></trkpt>
    <trkpt lat="48.73454" lon="2.60453"><ele>90.8</ele></trkpt>
    <trkpt lat="48.73423" lon="2.60426"><ele>90.8</ele></trkpt>
    <trkpt lat="48.73356" lon="2.60386"><ele>90.9</ele></trkpt>
    <trkpt lat="48.73239" lon="2.60318"><ele>91.5</ele></trkpt>
    <trkpt lat="48.73203" lon="2.60314"><ele>91.6</ele></trkpt>
    <trkpt lat="48.73003" lon="2.60191"><ele>91.8</ele></trkpt>
    <trkpt lat="48.7299" lon="2.60175"><ele>91.8</ele></trkpt>
    <trkpt lat="48.7298" lon="2.60153"><ele>91.7</ele></trkpt>
    <trkpt lat="48.72948" lon="2.60129"><ele>91.5</ele></trkpt>
    <trkpt lat="48.72803" lon="2.59924"><ele>90.0</ele></trkpt>
    <trkpt lat="48.72607" lon="2.59685"><ele>87.6</ele></trkpt>
    <trkpt lat="48.725" lon="2.59501"><ele>85.9</ele></trkpt>
    <trkpt lat="48.7248" lon="2.59456"><ele>85.7</ele></trkpt>
    <trkpt lat="48.72335" lon="2.58957"><ele>85.5</ele></trkpt>
    <trkpt lat="48.72316" lon="2.58911"><ele>85.5</ele></trkpt>
    <trkpt lat="48.72316" lon="2.58887"><ele>85.5</ele></trkpt>
    <trkpt lat="48.72337" lon="2.58783"><ele>85.5</ele></trkpt>
    <trkpt lat="48.7235" lon="2.58676"><ele>85.4</ele></trkpt>
    <trkpt lat="48.72387" lon="2.58494"><ele>85.2</ele></trkpt>
    <trkpt lat="48.72459" lon="2.58305"><ele>84.6</ele></trkpt>
    <trkpt lat="48.72515" lon="2.58134"><ele>83.1</ele></trkpt>
    <trkpt lat="48.72552" lon="2.57924"><ele>80.2</ele></trkpt>
    <trkpt lat="48.72572" lon="2.57847"><ele>80.9</ele></trkpt>
    <trkpt lat="48.72595" lon="2.57814"><ele>81.9</ele></trkpt>
    <trkpt lat="48.72645" lon="2.57783"><ele>82.7</ele></trkpt>
    <trkpt lat="48.72821" lon="2.57729"><ele>87.1</ele></trkpt>
    <trkpt lat="48.72839" lon="2.57726"><ele>88.2</ele></trkpt>
    <trkpt lat="48.72854" lon="2.57738"><ele>89.3</ele></trkpt>
    <trkpt lat="48.72872" lon="2.57738"><ele>90.3</ele></trkpt>
    <trkpt lat="48.72899" lon="2.57705"><ele>90.2</ele></trkpt>
    <trkpt lat="48.72948" lon="2.5767"><ele>89.7</ele></trkpt>
    <trkpt lat="48.72975" lon="2.57634"><ele>90.3</ele></trkpt>
    <trkpt lat="48.72996" lon="2.5759"><ele>90.8</ele></trkpt>
    <trkpt lat="48.73003" lon="2.57565"><ele>91.0</ele></trkpt>
    <trkpt lat="48.73038" lon="2.57382"><ele>92.2</ele></trkpt>
    <trkpt lat="48.73088" lon="2.57064"><ele>93.1</ele></trkpt>
    <trkpt lat="48.73114" lon="2.5685"><ele>93.1</ele></trkpt>
    <trkpt lat="48.73115" lon="2.56796"><ele>93.2</ele></trkpt>
    <trkpt lat="48.73123" lon="2.56776"><ele>93.0</ele></trkpt>
    <trkpt lat="48.73194" lon="2.56692"><ele>92.2</ele></trkpt>
    <trkpt lat="48.734" lon="2.56525"><ele>90.6</ele></trkpt>
    <trkpt lat="48.7347" lon="2.56502"><ele>90.5</ele></trkpt>
    <trkpt lat="48.73503" lon="2.5648"><ele>90.7</ele></trkpt>
    <trkpt lat="48.73699" lon="2.56514"><ele>92.6</ele></trkpt>
    <trkpt lat="48.73789" lon="2.5652"><ele>94.3</ele></trkpt>
    <trkpt lat="48.73807" lon="2.56516"><ele>94.7</ele></trkpt>
    <trkpt lat="48.73821" lon="2.56502"><ele>94.9</ele></trkpt>
    <trkpt lat="48.73836" lon="2.56499"><ele>95.0</ele></trkpt>
    <trkpt lat="48.73845" lon="2.56478"><ele>95.1</ele></trkpt>
    <trkpt lat="48.73834" lon="2.56459"><ele>95.2</ele></trkpt>
    <trkpt lat="48.73831" lon="2.56351"><ele>95.7</ele></trkpt>
    <trkpt lat="48.73847" lon="2.56273"><ele>96.2</ele></trkpt>
    <trkpt lat="48.73883" lon="2.56219"><ele>96.7</ele></trkpt>
    <trkpt lat="48.7393" lon="2.5618"><ele>96.9</ele></trkpt>
    <trkpt lat="48.73982" lon="2.5616"><ele>96.9</ele></trkpt>
    <trkpt lat="48.74071" lon="2.56144"><ele>97.4</ele></trkpt>
    <trkpt lat="48.74087" lon="2.56147"><ele>97.5</ele></trkpt>
    <trkpt lat="48.741" lon="2.56161"><ele>97.5</ele></trkpt>
    <trkpt lat="48.74112" lon="2.56143"><ele>97.5</ele></trkpt>
    <trkpt lat="48.74165" lon="2.56134"><ele>97.2</ele></trkpt>
    <trkpt lat="48.74198" lon="2.56112"><ele>97.1</ele></trkpt>
    <trkpt lat="48.74224" lon="2.56075"><ele>97.1</ele></trkpt>
    <trkpt lat="48.74245" lon="2.56031"><ele>97.2</ele></trkpt>
    <trkpt lat="48.74248" lon="2.56004"><ele>97.2</ele></trkpt>
    <trkpt lat="48.74242" lon="2.5595"><ele>97.2</ele></trkpt>
    <trkpt lat="48.74242" lon="2.55842"><ele>97.2</ele></trkpt>
    <trkpt lat="48.74257" lon="2.55763"><ele>97.5</ele></trkpt>
    <trkpt lat="48.74262" lon="2.55682"><ele>97.5</ele></trkpt>
    <trkpt lat="48.74272" lon="2.5566"><ele>97.5</ele></trkpt>
    <trkpt lat="48.74302" lon="2.5566"><ele>97.1</ele></trkpt>
    <trkpt lat="48.74315" lon="2.55644"><ele>96.9</ele></trkpt>
    <trkpt lat="48.74415" lon="2.55706"><ele>96.6</ele></trkpt>
    <trkpt lat="48.7445" lon="2.55715"><ele>96.5</ele></trkpt>
    <trkpt lat="48.74502" lon="2.55694"><ele>96.8</ele></trkpt>
    <trkpt lat="48.74538" lon="2.55691"><ele>97.1</ele></trkpt>
    <trkpt lat="48.74573" lon="2.55699"><ele>97.5</ele></trkpt>
    <trkpt lat="48.74627" lon="2.55698"><ele>98.0</ele></trkpt>
    <trkpt lat="48.7464" lon="2.55712"><ele>98.1</ele></trkpt>
    <trkpt lat="48.74656" lon="2.55701"><ele>98.2</ele></trkpt>
    <trkpt lat="48.74674" lon="2.55697"><ele>98.4</ele></trkpt>
    <trkpt lat="48.75519" lon="2.55732"><ele>103.0</ele></trkpt>
    <trkpt lat="48.75536" lon="2.55727"><ele>103.0</ele></trkpt>
    <trkpt lat="48.75846" lon="2.55357"><ele>101.4</ele></trkpt>
    <trkpt lat="48.76056" lon="2.55228"><ele>101.0</ele></trkpt>
    <trkpt lat="48.76101" lon="2.5505"><ele>101.0</ele></trkpt>
    <trkpt lat="48.76116" lon="2.54915"><ele>101.2</ele></trkpt>
    <trkpt lat="48.76105" lon="2.54872"><ele>101.7</ele></trkpt>
    <trkpt lat="48.76118" lon="2.54827"><ele>102.1</ele></trkpt>
    <trkpt lat="48.7614" lon="2.54584"><ele>102.0</ele></trkpt>
    <trkpt lat="48.76229" lon="2.53915"><ele>100.6</ele></trkpt>
    <trkpt lat="48.76281" lon="2.53772"><ele>99.0</ele></trkpt>
    <trkpt lat="48.76289" lon="2.53748"><ele>98.7</ele></trkpt>
    <trkpt lat="48.76292" lon="2.53721"><ele>98.4</ele></trkpt>
    <trkpt lat="48.76304" lon="2.53703"><ele>98.1</ele></trkpt>
    <trkpt lat="48.76333" lon="2.53633"><ele>97.6</ele></trkpt>
    <trkpt lat="48.76346" lon="2.53635"><ele>97.3</ele></trkpt>
    <trkpt lat="48.76409" lon="2.53546"><ele>96.3</ele></trkpt>
    <trkpt lat="48.76545" lon="2.53413"><ele>96.2</ele></trkpt>
    <trkpt lat="48.76586" lon="2.53359"><ele>96.1</ele></trkpt>
    <trkpt lat="48.76657" lon="2.53236"><ele>97.0</ele></trkpt>
    <trkpt lat="48.76685" lon="2.53206"><ele>97.9</ele></trkpt>
    <trkpt lat="48.76693" lon="2.53154"><ele>98.5</ele></trkpt>
    <trkpt lat="48.76762" lon="2.52994"><ele>99.7</ele></trkpt>
    <trkpt lat="48.76798" lon="2.529"><ele>100.1</ele></trkpt>
    <trkpt lat="48.76809" lon="2.52878"><ele>100.3</ele></trkpt>
    <trkpt lat="48.76823" lon="2.52862"><ele>100.4</ele></trkpt>
    <trkpt lat="48.76857" lon="2.52845"><ele>100.4</ele></trkpt>
    <trkpt lat="48.77013" lon="2.52425"><ele>98.6</ele></trkpt>
    <trkpt lat="48.77048" lon="2.52243"><ele>95.8</ele></trkpt>
    <trkpt lat="48.77083" lon="2.52234"><ele>95.1</ele></trkpt>
    <trkpt lat="48.77089" lon="2.52213"><ele>94.7</ele></trkpt>
    <trkpt lat="48.77089" lon="2.5216"><ele>93.5</ele></trkpt>
    <trkpt lat="48.77128" lon="2.52104"><ele>90.3</ele></trkpt>
    <trkpt lat="48.772" lon="2.51982"><ele>82.6</ele></trkpt>
    <trkpt lat="48.77381" lon="2.51717"><ele>63.3</ele></trkpt>
    <trkpt lat="48.77533" lon="2.51525"><ele>49.3</ele></trkpt>
    <trkpt lat="48.77653" lon="2.51405"><ele>39.4</ele></trkpt>
    <trkpt lat="48.77771" lon="2.51237"><ele>37.1</ele></trkpt>
    <trkpt lat="48.77804" lon="2.51173"><ele>37.4</ele></trkpt>
    <trkpt lat="48.77819" lon="2.51168"><ele>37.7</ele></trkpt>
    <trkpt lat="48.77855" lon="2.51174"><ele>37.9</ele></trkpt>
    <trkpt lat="48.78086" lon="2.51221"><ele>39.5</ele></trkpt>
    <trkpt lat="48.78103" lon="2.51232"><ele>39.6</ele></trkpt>
    <trkpt lat="48.78147" lon="2.5128"><ele>39.7</ele></trkpt>
    <trkpt lat="48.78324" lon="2.5151"><ele>38.1</ele></trkpt>
    <trkpt lat="48.78376" lon="2.51533"><ele>38.2</ele></trkpt>
    <trkpt lat="48.78428" lon="2.51644"><ele>39.2</ele></trkpt>
    <trkpt lat="48.78744" lon="2.52049"><ele>38.3</ele></trkpt>
    <trkpt lat="48.79022" lon="2.52243"><ele>39.3</ele></trkpt>
    <trkpt lat="48.79045" lon="2.52204"><ele>39.9</ele></trkpt>
    <trkpt lat="48.79093" lon="2.5209"><ele>37.0</ele></trkpt>
    <trkpt lat="48.79106" lon="2.52089"><ele>36.6</ele></trkpt>
    <trkpt lat="48.79123" lon="2.52099"><ele>36.3</ele></trkpt>
    <trkpt lat="48.7914" lon="2.52096"><ele>36.0</ele></trkpt>
    <trkpt lat="48.79162" lon="2.52054"><ele>35.6</ele></trkpt>
    <trkpt lat="48.79177" lon="2.5204"><ele>35.5</ele></trkpt>
    <trkpt lat="48.79194" lon="2.52047"><ele>35.4</ele></trkpt>
    <trkpt lat="48.79199" lon="2.52072"><ele>35.4</ele></trkpt>
    <trkpt lat="48.79196" lon="2.52126"><ele>35.2</ele></trkpt>
    <trkpt lat="48.79205" lon="2.52148"><ele>35.2</ele></trkpt>
    <trkpt lat="48.79309" lon="2.52185"><ele>35.1</ele></trkpt>
    <trkpt lat="48.79398" lon="2.52187"><ele>35.0</ele></trkpt>
    <trkpt lat="48.79698" lon="2.52245"><ele>35.0</ele></trkpt>
    <trkpt lat="48.79876" lon="2.52209"><ele>35.1</ele></trkpt>
    <trkpt lat="48.79983" lon="2.522"><ele>35.0</ele></trkpt>
    <trkpt lat="48.80072" lon="2.52211"><ele>34.8</ele></trkpt>
    <trkpt lat="48.80161" lon="2.52231"><ele>34.7</ele></trkpt>
    <trkpt lat="48.80196" lon="2.52229"><ele>34.8</ele></trkpt>
    <trkpt lat="48.80303" lon="2.5221"><ele>34.9</ele></trkpt>
    <trkpt lat="48.80427" lon="2.52173"><ele>35.0</ele></trkpt>
    <trkpt lat="48.80444" lon="2.52175"><ele>35.0</ele></trkpt>
    <trkpt lat="48.80454" lon="2.52156"><ele>35.1</ele></trkpt>
    <trkpt lat="48.80654" lon="2.51981"><ele>35.4</ele></trkpt>
    <trkpt lat="48.80751" lon="2.51859"><ele>35.3</ele></trkpt>
    <trkpt lat="48.80799" lon="2.51778"><ele>35.5</ele></trkpt>
    <trkpt lat="48.80838" lon="2.51687"><ele>35.8</ele></trkpt>
    <trkpt lat="48.80855" lon="2.51639"><ele>35.8</ele></trkpt>
    <trkpt lat="48.80859" lon="2.51612"><ele>35.8</ele></trkpt>
    <trkpt lat="48.809" lon="2.51461"><ele>35.9</ele></trkpt>
    <trkpt lat="48.80922" lon="2.51301"><ele>36.1</ele></trkpt>
    <trkpt lat="48.8095" lon="2.50978"><ele>40.3</ele></trkpt>
    <trkpt lat="48.8102" lon="2.50998"><ele>43.0</ele></trkpt>
  </trkseg></trk>
</gpx>
