<?xml version="1.0" encoding="UTF-8"?>
<gpx version="1.1" creator="Club Cycliste USO" xmlns="http://www.topografix.com/GPX/1/1">
  <metadata><name>Guérard – 118 km</name><desc>118.4 km, D+ 954 m. Départ et arrivée : pont de Champigny.</desc></metadata>
  <trk><name>Guérard – 118 km</name><trkseg>
    <trkpt lat="48.81032" lon="2.51002"><ele>41.0</ele></trkpt>
    <trkpt lat="48.81188" lon="2.51068"><ele>37.2</ele></trkpt>
    <trkpt lat="48.81241" lon="2.51083"><ele>37.2</ele></trkpt>
    <trkpt lat="48.8131" lon="2.51113"><ele>39.2</ele></trkpt>
    <trkpt lat="48.81344" lon="2.51119"><ele>40.7</ele></trkpt>
    <trkpt lat="48.81396" lon="2.50945"><ele>41.7</ele></trkpt>
    <trkpt lat="48.81463" lon="2.50784"><ele>41.9</ele></trkpt>
    <trkpt lat="48.81584" lon="2.50358"><ele>41.4</ele></trkpt>
    <trkpt lat="48.81827" lon="2.49215"><ele>43.5</ele></trkpt>
    <trkpt lat="48.81841" lon="2.49108"><ele>43.9</ele></trkpt>
    <trkpt lat="48.81896" lon="2.48848"><ele>43.1</ele></trkpt>
    <trkpt lat="48.81913" lon="2.48801"><ele>43.0</ele></trkpt>
    <trkpt lat="48.8198" lon="2.48489"><ele>43.2</ele></trkpt>
    <trkpt lat="48.81994" lon="2.48439"><ele>43.0</ele></trkpt>
    <trkpt lat="48.82004" lon="2.4842"><ele>42.9</ele></trkpt>
    <trkpt lat="48.8202" lon="2.48498"><ele>42.6</ele></trkpt>
    <trkpt lat="48.82055" lon="2.48592"><ele>42.8</ele></trkpt>
    <trkpt lat="48.82415" lon="2.49814"><ele>49.2</ele></trkpt>
    <trkpt lat="48.82466" lon="2.49989"><ele>52.9</ele></trkpt>
    <trkpt lat="48.82469" lon="2.50015"><ele>53.3</ele></trkpt>
    <trkpt lat="48.82655" lon="2.50637"><ele>59.4</ele></trkpt>
    <trkpt lat="48.82711" lon="2.50838"><ele>62.6</ele></trkpt>
    <trkpt lat="48.82687" lon="2.5097"><ele>62.1</ele></trkpt>
    <trkpt lat="48.82687" lon="2.50996"><ele>62.2</ele></trkpt>
    <trkpt lat="48.82724" lon="2.51089"><ele>64.0</ele></trkpt>
    <trkpt lat="48.82731" lon="2.5117"><ele>66.0</ele></trkpt>
    <trkpt lat="48.82718" lon="2.5147"><ele>69.5</ele></trkpt>
    <trkpt lat="48.8272" lon="2.51688"><ele>73.5</ele></trkpt>
    <trkpt lat="48.82708" lon="2.51796"><ele>76.7</ele></trkpt>
    <trkpt lat="48.82706" lon="2.51851"><ele>78.5</ele></trkpt>
    <trkpt lat="48.82727" lon="2.52094"><ele>84.7</ele></trkpt>
    <trkpt lat="48.82745" lon="2.52256"><ele>86.4</ele></trkpt>
    <trkpt lat="48.82759" lon="2.52335"><ele>86.7</ele></trkpt>
    <trkpt lat="48.82785" lon="2.52407"><ele>87.4</ele></trkpt>
    <trkpt lat="48.82819" lon="2.5247"><ele>88.8</ele></trkpt>
    <trkpt lat="48.83066" lon="2.52829"><ele>98.1</ele></trkpt>
    <trkpt lat="48.83189" lon="2.53029"><ele>96.8</ele></trkpt>
    <trkpt lat="48.83233" lon="2.53114"><ele>96.4</ele></trkpt>
    <trkpt lat="48.83243" lon="2.53137"><ele>96.3</ele></trkpt>
    <trkpt lat="48.83224" lon="2.53214"><ele>95.7</ele></trkpt>
    <trkpt lat="48.83199" lon="2.53287"><ele>95.1</ele></trkpt>
    <trkpt lat="48.8317" lon="2.53313"><ele>94.8</ele></trkpt>
    <trkpt lat="48.83169" lon="2.53339"><ele>94.8</ele></trkpt>
    <trkpt lat="48.83182" lon="2.53356"><ele>94.9</ele></trkpt>
    <trkpt lat="48.83199" lon="2.53357"><ele>95.0</ele></trkpt>
    <trkpt lat="48.83214" lon="2.53372"><ele>95.2</ele></trkpt>
    <trkpt lat="48.83275" lon="2.53471"><ele>96.6</ele></trkpt>
    <trkpt lat="48.83365" lon="2.53643"><ele>98.2</ele></trkpt>
    <trkpt lat="48.83503" lon="2.53962"><ele>96.9</ele></trkpt>
    <trkpt lat="48.83523" lon="2.54038"><ele>96.9</ele></trkpt>
    <trkpt lat="48.83531" lon="2.54119"><ele>97.4</ele></trkpt>
    <trkpt lat="48.83534" lon="2.54228"><ele>98.1</ele></trkpt>
    <trkpt lat="48.8353" lon="2.54254"><ele>98.3</ele></trkpt>
    <trkpt lat="48.83517" lon="2.54272"><ele>98.4</ele></trkpt>
    <trkpt lat="48.83514" lon="2.54298"><ele>98.5</ele></trkpt>
    <trkpt lat="48.83526" lon="2.54319"><ele>98.5</ele></trkpt>
    <trkpt lat="48.83532" lon="2.54344"><ele>98.5</ele></trkpt>
    <trkpt lat="48.83533" lon="2.54453"><ele>98.1</ele></trkpt>
    <trkpt lat="48.8353" lon="2.5448"><ele>97.9</ele></trkpt>
    <trkpt lat="48.83494" lon="2.54605"><ele>96.6</ele></trkpt>
    <trkpt lat="48.8349" lon="2.54687"><ele>95.9</ele></trkpt>
    <trkpt lat="48.83494" lon="2.54877"><ele>96.1</ele></trkpt>
    <trkpt lat="48.83478" lon="2.54924"><ele>96.3</ele></trkpt>
    <trkpt lat="48.83327" lon="2.55118"><ele>98.2</ele></trkpt>
    <trkpt lat="48.83303" lon="2.55158"><ele>98.6</ele></trkpt>
    <trkpt lat="48.83274" lon="2.55192"><ele>99.1</ele></trkpt>
    <trkpt lat="48.83258" lon="2.552"><ele>99.3</ele></trkpt>
    <trkpt lat="48.8324" lon="2.55198"><ele>99.5</ele></trkpt>
    <trkpt lat="48.8323" lon="2.55218"><ele>99.6</ele></trkpt>
    <trkpt lat="48.83233" lon="2.55244"><ele>99.8</ele></trkpt>
    <trkpt lat="48.83244" lon="2.5526"><ele>99.8</ele></trkpt>
    <trkpt lat="48.8324" lon="2.55314"><ele>99.8</ele></trkpt>
    <trkpt lat="48.83198" lon="2.55719"><ele>97.1</ele></trkpt>
    <trkpt lat="48.83184" lon="2.55732"><ele>96.9</ele></trkpt>
    <trkpt lat="48.83184" lon="2.55758"><ele>96.8</ele></trkpt>
    <trkpt lat="48.83213" lon="2.55777"><ele>96.6</ele></trkpt>
    <trkpt lat="48.83435" lon="2.5617"><ele>98.9</ele></trkpt>
    <trkpt lat="48.83511" lon="2.56287"><ele>101.8</ele></trkpt>
    <trkpt lat="48.83519" lon="2.56307"><ele>101.9</ele></trkpt>
    <trkpt lat="48.83517" lon="2.56334"><ele>101.7</ele></trkpt>
    <trkpt lat="48.83526" lon="2.56442"><ele>99.8</ele></trkpt>
    <trkpt lat="48.8352" lon="2.56496"><ele>98.6</ele></trkpt>
    <trkpt lat="48.83511" lon="2.5652"><ele>98.1</ele></trkpt>
    <trkpt lat="48.83475" lon="2.56576"><ele>97.4</ele></trkpt>
    <trkpt lat="48.83486" lon="2.56711"><ele>98.1</ele></trkpt>
    <trkpt lat="48.83474" lon="2.56956"><ele>99.2</ele></trkpt>
    <trkpt lat="48.83461" lon="2.56969"><ele>99.4</ele></trkpt>
    <trkpt lat="48.83389" lon="2.56962"><ele>100.1</ele></trkpt>
    <trkpt lat="48.83375" lon="2.56976"><ele>100.3</ele></trkpt>
    <trkpt lat="48.83369" lon="2.57002"><ele>100.5</ele></trkpt>
    <trkpt lat="48.83332" lon="2.5771"><ele>99.0</ele></trkpt>
    <trkpt lat="48.83323" lon="2.57755"><ele>99.0</ele></trkpt>
    <trkpt lat="48.83328" lon="2.57777"><ele>99.0</ele></trkpt>
    <trkpt lat="48.83316" lon="2.58049"><ele>98.9</ele></trkpt>
    <trkpt lat="48.83311" lon="2.58103"><ele>99.0</ele></trkpt>
    <trkpt lat="48.83303" lon="2.58128"><ele>99.0</ele></trkpt>
    <trkpt lat="48.83291" lon="2.58147"><ele>99.1</ele></trkpt>
    <trkpt lat="48.83257" lon="2.58166"><ele>99.2</ele></trkpt>
    <trkpt lat="48.83025" lon="2.58131"><ele>98.7</ele></trkpt>
    <trkpt lat="48.83007" lon="2.5813"><ele>98.7</ele></trkpt>
    <trkpt lat="48.82998" lon="2.58142"><ele>98.7</ele></trkpt>
    <trkpt lat="48.8303" lon="2.58521"><ele>99.0</ele></trkpt>
    <trkpt lat="48.83036" lon="2.58547"><ele>98.9</ele></trkpt>
    <trkpt lat="48.83066" lon="2.58615"><ele>98.9</ele></trkpt>
    <trkpt lat="48.83073" lon="2.5864"><ele>98.8</ele></trkpt>
    <trkpt lat="48.83077" lon="2.58749"><ele>98.4</ele></trkpt>
    <trkpt lat="48.83084" lon="2.58803"><ele>98.1</ele></trkpt>
    <trkpt lat="48.83103" lon="2.58879"><ele>97.7</ele></trkpt>
    <trkpt lat="48.83095" lon="2.58902"><ele>97.4</ele></trkpt>
    <trkpt lat="48.83101" lon="2.58927"><ele>97.1</ele></trkpt>
    <trkpt lat="48.83117" lon="2.58938"><ele>96.7</ele></trkpt>
    <trkpt lat="48.83132" lon="2.58936"><ele>96.2</ele></trkpt>
    <trkpt lat="48.83214" lon="2.59081"><ele>91.3</ele></trkpt>
    <trkpt lat="48.83242" lon="2.59151"><ele>89.7</ele></trkpt>
    <trkpt lat="48.8326" lon="2.59228"><ele>89.1</ele></trkpt>
    <trkpt lat="48.83266" lon="2.59282"><ele>88.8</ele></trkpt>
    <trkpt lat="48.83265" lon="2.59364"><ele>88.7</ele></trkpt>
    <trkpt lat="48.83255" lon="2.59444"><ele>89.1</ele></trkpt>
    <trkpt lat="48.83233" lon="2.59519"><ele>89.6</ele></trkpt>
    <trkpt lat="48.83149" lon="2.59696"><ele>95.0</ele></trkpt>
    <trkpt lat="48.83126" lon="2.5977"><ele>98.0</ele></trkpt>
    <trkpt lat="48.8298" lon="2.60671"><ele>102.1</ele></trkpt>
    <trkpt lat="48.8296" lon="2.60748"><ele>102.8</ele></trkpt>
    <trkpt lat="48.82929" lon="2.60814"><ele>103.5</ele></trkpt>
    <trkpt lat="48.82875" lon="2.60887"><ele>104.4</ele></trkpt>
    <trkpt lat="48.82421" lon="2.61275"><ele>108.2</ele></trkpt>
    <trkpt lat="48.82369" lon="2.61295"><ele>107.9</ele></trkpt>
    <trkpt lat="48.82261" lon="2.6131"><ele>107.5</ele></trkpt>
    <trkpt lat="48.82155" lon="2.61341"><ele>107.2</ele></trkpt>
    <trkpt lat="48.82137" lon="2.61342"><ele>107.2</ele></trkpt>
    <trkpt lat="48.82085" lon="2.6133"><ele>107.4</ele></trkpt>
    <trkpt lat="48.82071" lon="2.61347"><ele>107.5</ele></trkpt>
    <trkpt lat="48.82067" lon="2.61372"><ele>107.6</ele></trkpt>
    <trkpt lat="48.82068" lon="2.61399"><ele>107.7</ele></trkpt>
    <trkpt lat="48.82061" lon="2.61424"><ele>107.7</ele></trkpt>
    <trkpt lat="48.82067" lon="2.61447"><ele>107.7</ele></trkpt>
    <trkpt lat="48.82084" lon="2.61447"><ele>107.6</ele></trkpt>
    <trkpt lat="48.82098" lon="2.61431"><ele>107.3</ele></trkpt>
    <trkpt lat="48.82115" lon="2.61424"><ele>107.1</ele></trkpt>
    <trkpt lat="48.82168" lon="2.61412"><ele>106.3</ele></trkpt>
    <trkpt lat="48.82204" lon="2.61413"><ele>105.9</ele></trkpt>
    <trkpt lat="48.82254" lon="2.61442"><ele>105.6</ele></trkpt>
    <trkpt lat="48.82281" lon="2.61478"><ele>105.6</ele></trkpt>
    <trkpt lat="48.82303" lon="2.61522"><ele>105.7</ele></trkpt>
    <trkpt lat="48.82318" lon="2.61571"><ele>106.1</ele></trkpt>
    <trkpt lat="48.82324" lon="2.61596"><ele>106.3</ele></trkpt>
    <trkpt lat="48.82322" lon="2.61624"><ele>106.6</ele></trkpt>
    <trkpt lat="48.82326" lon="2.61649"><ele>106.8</ele></trkpt>
    <trkpt lat="48.82341" lon="2.61664"><ele>106.9</ele></trkpt>
    <trkpt lat="48.82352" lon="2.61685"><ele>107.0</ele></trkpt>
    <trkpt lat="48.82391" lon="2.61808"><ele>107.5</ele></trkpt>
    <trkpt lat="48.82408" lon="2.61885"><ele>107.8</ele></trkpt>
    <trkpt lat="48.82418" lon="2.61966"><ele>108.1</ele></trkpt>
    <trkpt lat="48.82495" lon="2.62914"><ele>107.1</ele></trkpt>
    <trkpt lat="48.82496" lon="2.62969"><ele>107.0</ele></trkpt>
    <trkpt lat="48.82477" lon="2.63129"><ele>106.6</ele></trkpt>
    <trkpt lat="48.82391" lon="2.63545"><ele>105.3</ele></trkpt>
    <trkpt lat="48.82365" lon="2.63647"><ele>105.5</ele></trkpt>
    <trkpt lat="48.82288" lon="2.64011"><ele>105.5</ele></trkpt>
    <trkpt lat="48.82279" lon="2.64064"><ele>105.4</ele></trkpt>
    <trkpt lat="48.82282" lon="2.64091"><ele>105.3</ele></trkpt>
    <trkpt lat="48.82293" lon="2.64112"><ele>105.2</ele></trkpt>
    <trkpt lat="48.8231" lon="2.64123"><ele>105.0</ele></trkpt>
    <trkpt lat="48.82327" lon="2.64123"><ele>104.9</ele></trkpt>
    <trkpt lat="48.82359" lon="2.64098"><ele>104.8</ele></trkpt>
    <trkpt lat="48.82376" lon="2.64097"><ele>104.8</ele></trkpt>
    <trkpt lat="48.82829" lon="2.64271"><ele>102.9</ele></trkpt>
    <trkpt lat="48.82839" lon="2.64292"><ele>102.9</ele></trkpt>
    <trkpt lat="48.8281" lon="2.64359"><ele>102.8</ele></trkpt>
    <trkpt lat="48.82803" lon="2.64385"><ele>102.8</ele></trkpt>
    <trkpt lat="48.82788" lon="2.64392"><ele>102.9</ele></trkpt>
    <trkpt lat="48.8278" lon="2.64414"><ele>102.9</ele></trkpt>
    <trkpt lat="48.82786" lon="2.64437"><ele>102.9</ele></trkpt>
    <trkpt lat="48.82801" lon="2.64446"><ele>102.8</ele></trkpt>
    <trkpt lat="48.82806" lon="2.64472"><ele>102.6</ele></trkpt>
    <trkpt lat="48.82826" lon="2.64517"><ele>102.3</ele></trkpt>
    <trkpt lat="48.83027" lon="2.64903"><ele>100.3</ele></trkpt>
    <trkpt lat="48.83055" lon="2.64973"><ele>100.0</ele></trkpt>
    <trkpt lat="48.83068" lon="2.65024"><ele>99.7</ele></trkpt>
    <trkpt lat="48.83073" lon="2.65406"><ele>95.3</ele></trkpt>
    <trkpt lat="48.83088" lon="2.65512"><ele>94.2</ele></trkpt>
    <trkpt lat="48.83087" lon="2.65539"><ele>94.0</ele></trkpt>
    <trkpt lat="48.82992" lon="2.65864"><ele>95.6</ele></trkpt>
    <trkpt lat="48.82983" lon="2.65886"><ele>96.1</ele></trkpt>
    <trkpt lat="48.82969" lon="2.65903"><ele>96.6</ele></trkpt>
    <trkpt lat="48.8288" lon="2.6591"><ele>98.6</ele></trkpt>
    <trkpt lat="48.8278" lon="2.65972"><ele>99.8</ele></trkpt>
    <trkpt lat="48.8269" lon="2.65976"><ele>100.3</ele></trkpt>
    <trkpt lat="48.82674" lon="2.65985"><ele>100.5</ele></trkpt>
    <trkpt lat="48.82672" lon="2.66038"><ele>101.0</ele></trkpt>
    <trkpt lat="48.82678" lon="2.66064"><ele>101.4</ele></trkpt>
    <trkpt lat="48.82766" lon="2.66333"><ele>104.6</ele></trkpt>
    <trkpt lat="48.82775" lon="2.66385"><ele>104.8</ele></trkpt>
    <trkpt lat="48.82769" lon="2.6641"><ele>104.9</ele></trkpt>
    <trkpt lat="48.82756" lon="2.66428"><ele>104.9</ele></trkpt>
    <trkpt lat="48.82687" lon="2.66457"><ele>105.4</ele></trkpt>
    <trkpt lat="48.82672" lon="2.66471"><ele>105.6</ele></trkpt>
    <trkpt lat="48.82667" lon="2.66496"><ele>105.7</ele></trkpt>
    <trkpt lat="48.82678" lon="2.66604"><ele>106.2</ele></trkpt>
    <trkpt lat="48.8269" lon="2.66655"><ele>106.5</ele></trkpt>
    <trkpt lat="48.82722" lon="2.66753"><ele>107.1</ele></trkpt>
    <trkpt lat="48.82712" lon="2.66775"><ele>107.2</ele></trkpt>
    <trkpt lat="48.82716" lon="2.66801"><ele>107.2</ele></trkpt>
    <trkpt lat="48.82727" lon="2.66822"><ele>107.2</ele></trkpt>
    <trkpt lat="48.82726" lon="2.66931"><ele>107.2</ele></trkpt>
    <trkpt lat="48.8272" lon="2.6704"><ele>107.6</ele></trkpt>
    <trkpt lat="48.82727" lon="2.67832"><ele>107.9</ele></trkpt>
    <trkpt lat="48.82723" lon="2.67914"><ele>107.7</ele></trkpt>
    <trkpt lat="48.82712" lon="2.67966"><ele>107.6</ele></trkpt>
    <trkpt lat="48.82701" lon="2.67987"><ele>107.6</ele></trkpt>
    <trkpt lat="48.8267" lon="2.68009"><ele>107.6</ele></trkpt>
    <trkpt lat="48.82659" lon="2.6803"><ele>107.6</ele></trkpt>
    <trkpt lat="48.82657" lon="2.68057"><ele>107.7</ele></trkpt>
    <trkpt lat="48.82662" lon="2.68083"><ele>107.7</ele></trkpt>
    <trkpt lat="48.82675" lon="2.68102"><ele>107.8</ele></trkpt>
    <trkpt lat="48.82692" lon="2.68111"><ele>107.8</ele></trkpt>
    <trkpt lat="48.82709" lon="2.68108"><ele>107.8</ele></trkpt>
    <trkpt lat="48.82724" lon="2.68093"><ele>107.7</ele></trkpt>
    <trkpt lat="48.82735" lon="2.68071"><ele>107.7</ele></trkpt>
    <trkpt lat="48.82827" lon="2.67985"><ele>107.7</ele></trkpt>
    <trkpt lat="48.82843" lon="2.67979"><ele>107.8</ele></trkpt>
    <trkpt lat="48.82859" lon="2.67988"><ele>107.8</ele></trkpt>
    <trkpt lat="48.8288" lon="2.68032"><ele>107.7</ele></trkpt>
    <trkpt lat="48.82968" lon="2.68271"><ele>105.0</ele></trkpt>
    <trkpt lat="48.83021" lon="2.68617"><ele>92.3</ele></trkpt>
    <trkpt lat="48.83028" lon="2.68641"><ele>91.3</ele></trkpt>
    <trkpt lat="48.83153" lon="2.68874"><ele>87.6</ele></trkpt>
    <trkpt lat="48.8317" lon="2.68922"><ele>88.0</ele></trkpt>
    <trkpt lat="48.83182" lon="2.68974"><ele>88.8</ele></trkpt>
    <trkpt lat="48.83185" lon="2.69055"><ele>90.9</ele></trkpt>
    <trkpt lat="48.83151" lon="2.69351"><ele>102.2</ele></trkpt>
    <trkpt lat="48.83147" lon="2.69487"><ele>106.0</ele></trkpt>
    <trkpt lat="48.83156" lon="2.69595"><ele>107.2</ele></trkpt>
    <trkpt lat="48.83251" lon="2.70291"><ele>109.2</ele></trkpt>
    <trkpt lat="48.8328" lon="2.7056"><ele>113.6</ele></trkpt>
    <trkpt lat="48.83272" lon="2.70583"><ele>113.8</ele></trkpt>
    <trkpt lat="48.83256" lon="2.70595"><ele>114.0</ele></trkpt>
    <trkpt lat="48.83149" lon="2.70602"><ele>115.4</ele></trkpt>
    <trkpt lat="48.83132" lon="2.70595"><ele>115.8</ele></trkpt>
    <trkpt lat="48.83119" lon="2.70576"><ele>116.2</ele></trkpt>
    <trkpt lat="48.83103" lon="2.70565"><ele>116.6</ele></trkpt>
    <trkpt lat="48.83085" lon="2.70569"><ele>117.2</ele></trkpt>
    <trkpt lat="48.83073" lon="2.70588"><ele>117.7</ele></trkpt>
    <trkpt lat="48.83068" lon="2.70613"><ele>118.1</ele></trkpt>
    <trkpt lat="48.83075" lon="2.70638"><ele>118.3</ele></trkpt>
    <trkpt lat="48.83106" lon="2.70664"><ele>117.9</ele></trkpt>
    <trkpt lat="48.83132" lon="2.70735"><ele>117.0</ele></trkpt>
    <trkpt lat="48.83133" lon="2.70762"><ele>116.8</ele></trkpt>
    <trkpt lat="48.83108" lon="2.70893"><ele>116.6</ele></trkpt>
    <trkpt lat="48.8308" lon="2.70959"><ele>116.7</ele></trkpt>
    <trkpt lat="48.83084" lon="2.70984"><ele>116.8</ele></trkpt>
    <trkpt lat="48.83098" lon="2.71001"><ele>117.0</ele></trkpt>
    <trkpt lat="48.83107" lon="2.71024"><ele>117.1</ele></trkpt>
    <trkpt lat="48.83111" lon="2.71051"><ele>117.2</ele></trkpt>
    <trkpt lat="48.83252" lon="2.72234"><ele>121.8</ele></trkpt>
    <trkpt lat="48.83254" lon="2.72261"><ele>121.8</ele></trkpt>
    <trkpt lat="48.83234" lon="2.72304"><ele>122.0</ele></trkpt>
    <trkpt lat="48.83234" lon="2.72331"><ele>122.1</ele></trkpt>
    <trkpt lat="48.83243" lon="2.72353"><ele>122.2</ele></trkpt>
    <trkpt lat="48.83259" lon="2.72367"><ele>122.3</ele></trkpt>
    <trkpt lat="48.8327" lon="2.72388"><ele>122.4</ele></trkpt>
    <trkpt lat="48.83274" lon="2.72414"><ele>122.4</ele></trkpt>
    <trkpt lat="48.83464" lon="2.74"><ele>124.9</ele></trkpt>
    <trkpt lat="48.83477" lon="2.74006"><ele>125.0</ele></trkpt>
    <trkpt lat="48.83707" lon="2.73943"><ele>124.6</ele></trkpt>
    <trkpt lat="48.83714" lon="2.73959"><ele>124.7</ele></trkpt>
    <trkpt lat="48.8377" lon="2.74692"><ele>122.6</ele></trkpt>
    <trkpt lat="48.83515" lon="2.74824"><ele>122.5</ele></trkpt>
    <trkpt lat="48.83402" lon="2.74908"><ele>122.9</ele></trkpt>
    <trkpt lat="48.83371" lon="2.74937"><ele>123.1</ele></trkpt>
    <trkpt lat="48.8333" lon="2.7499"><ele>123.3</ele></trkpt>
    <trkpt lat="48.8331" lon="2.75034"><ele>123.1</ele></trkpt>
    <trkpt lat="48.83291" lon="2.75111"><ele>122.9</ele></trkpt>
    <trkpt lat="48.83256" lon="2.75434"><ele>124.8</ele></trkpt>
    <trkpt lat="48.8325" lon="2.75456"><ele>125.1</ele></trkpt>
    <trkpt lat="48.83167" lon="2.75508"><ele>128.2</ele></trkpt>
    <trkpt lat="48.82956" lon="2.75572"><ele>133.1</ele></trkpt>
    <trkpt lat="48.82911" lon="2.75614"><ele>132.8</ele></trkpt>
    <trkpt lat="48.82884" lon="2.75649"><ele>132.3</ele></trkpt>
    <trkpt lat="48.82854" lon="2.75717"><ele>132.0</ele></trkpt>
    <trkpt lat="48.82632" lon="2.76342"><ele>138.3</ele></trkpt>
    <trkpt lat="48.82618" lon="2.76392"><ele>139.0</ele></trkpt>
    <trkpt lat="48.8262" lon="2.76446"><ele>139.9</ele></trkpt>
    <trkpt lat="48.82648" lon="2.76516"><ele>141.3</ele></trkpt>
    <trkpt lat="48.82661" lon="2.76566"><ele>142.1</ele></trkpt>
    <trkpt lat="48.82662" lon="2.76593"><ele>142.5</ele></trkpt>
    <trkpt lat="48.82655" lon="2.76618"><ele>142.7</ele></trkpt>
    <trkpt lat="48.82645" lon="2.7664"><ele>142.8</ele></trkpt>
    <trkpt lat="48.82483" lon="2.76812"><ele>138.3</ele></trkpt>
    <trkpt lat="48.82458" lon="2.7685"><ele>137.0</ele></trkpt>
    <trkpt lat="48.82211" lon="2.77548"><ele>126.0</ele></trkpt>
    <trkpt lat="48.81927" lon="2.78212"><ele>130.4</ele></trkpt>
    <trkpt lat="48.81655" lon="2.78952"><ele>120.6</ele></trkpt>
    <trkpt lat="48.81649" lon="2.79005"><ele>120.4</ele></trkpt>
    <trkpt lat="48.81681" lon="2.79161"><ele>120.0</ele></trkpt>
    <trkpt lat="48.81678" lon="2.79214"><ele>120.0</ele></trkpt>
    <trkpt lat="48.81593" lon="2.79257"><ele>120.4</ele></trkpt>
    <trkpt lat="48.81564" lon="2.79282"><ele>120.9</ele></trkpt>
    <trkpt lat="48.81635" lon="2.79533"><ele>121.0</ele></trkpt>
    <trkpt lat="48.8165" lon="2.79611"><ele>121.2</ele></trkpt>
    <trkpt lat="48.81604" lon="2.79903"><ele>122.1</ele></trkpt>
    <trkpt lat="48.81599" lon="2.79957"><ele>122.2</ele></trkpt>
    <trkpt lat="48.81595" lon="2.80312"><ele>121.3</ele></trkpt>
    <trkpt lat="48.81652" lon="2.80768"><ele>121.4</ele></trkpt>
    <trkpt lat="48.81702" lon="2.81002"><ele>122.5</ele></trkpt>
    <trkpt lat="48.81763" lon="2.81316"><ele>123.9</ele></trkpt>
    <trkpt lat="48.81775" lon="2.81396"><ele>124.3</ele></trkpt>
    <trkpt lat="48.81797" lon="2.81612"><ele>125.0</ele></trkpt>
    <trkpt lat="48.81839" lon="2.8182"><ele>125.1</ele></trkpt>
    <trkpt lat="48.81833" lon="2.81872"><ele>125.2</ele></trkpt>
    <trkpt lat="48.81824" lon="2.81895"><ele>125.3</ele></trkpt>
    <trkpt lat="48.8175" lon="2.82014"><ele>125.7</ele></trkpt>
    <trkpt lat="48.81721" lon="2.82083"><ele>125.9</ele></trkpt>
    <trkpt lat="48.81575" lon="2.82757"><ele>126.5</ele></trkpt>
    <trkpt lat="48.81567" lon="2.82781"><ele>126.5</ele></trkpt>
    <trkpt lat="48.81503" lon="2.8283"><ele>126.1</ele></trkpt>
    <trkpt lat="48.8149" lon="2.82849"><ele>126.0</ele></trkpt>
    <trkpt lat="48.81452" lon="2.82973"><ele>125.8</ele></trkpt>
    <trkpt lat="48.8144" lon="2.82983"><ele>125.8</ele></trkpt>
    <trkpt lat="48.81422" lon="2.82977"><ele>125.8</ele></trkpt>
    <trkpt lat="48.81412" lon="2.82987"><ele>125.8</ele></trkpt>
    <trkpt lat="48.81434" lon="2.83367"><ele>125.1</ele></trkpt>
    <trkpt lat="48.81498" lon="2.8407"><ele>123.9</ele></trkpt>
    <trkpt lat="48.81496" lon="2.84151"><ele>124.0</ele></trkpt>
    <trkpt lat="48.81484" lon="2.84171"><ele>124.0</ele></trkpt>
    <trkpt lat="48.81481" lon="2.84197"><ele>124.1</ele></trkpt>
    <trkpt lat="48.81487" lon="2.84222"><ele>124.2</ele></trkpt>
    <trkpt lat="48.81502" lon="2.84238"><ele>124.3</ele></trkpt>
    <trkpt lat="48.81511" lon="2.84261"><ele>124.4</ele></trkpt>
    <trkpt lat="48.8152" lon="2.84314"><ele>124.6</ele></trkpt>
    <trkpt lat="48.81571" lon="2.84827"><ele>126.5</ele></trkpt>
    <trkpt lat="48.81846" lon="2.86552"><ele>130.8</ele></trkpt>
    <trkpt lat="48.81864" lon="2.86629"><ele>130.9</ele></trkpt>
    <trkpt lat="48.8217" lon="2.87527"><ele>129.8</ele></trkpt>
    <trkpt lat="48.82182" lon="2.87548"><ele>129.7</ele></trkpt>
    <trkpt lat="48.82226" lon="2.87593"><ele>129.6</ele></trkpt>
    <trkpt lat="48.82238" lon="2.87614"><ele>129.7</ele></trkpt>
    <trkpt lat="48.82244" lon="2.87667"><ele>129.7</ele></trkpt>
    <trkpt lat="48.82234" lon="2.87717"><ele>129.6</ele></trkpt>
    <trkpt lat="48.82244" lon="2.87738"><ele>129.5</ele></trkpt>
    <trkpt lat="48.82257" lon="2.87788"><ele>129.2</ele></trkpt>
    <trkpt lat="48.82356" lon="2.88079"><ele>127.8</ele></trkpt>
    <trkpt lat="48.82367" lon="2.88131"><ele>127.3</ele></trkpt>
    <trkpt lat="48.82373" lon="2.88212"><ele>126.6</ele></trkpt>
    <trkpt lat="48.82305" lon="2.88776"><ele>125.2</ele></trkpt>
    <trkpt lat="48.82285" lon="2.88852"><ele>125.6</ele></trkpt>
    <trkpt lat="48.82221" lon="2.89016"><ele>126.9</ele></trkpt>
    <trkpt lat="48.82206" lon="2.89031"><ele>127.1</ele></trkpt>
    <trkpt lat="48.8212" lon="2.89068"><ele>127.9</ele></trkpt>
    <trkpt lat="48.82103" lon="2.89079"><ele>128.0</ele></trkpt>
    <trkpt lat="48.82092" lon="2.89099"><ele>128.0</ele></trkpt>
    <trkpt lat="48.82089" lon="2.89125"><ele>127.9</ele></trkpt>
    <trkpt lat="48.82093" lon="2.89152"><ele>127.8</ele></trkpt>
    <trkpt lat="48.82178" lon="2.89569"><ele>118.4</ele></trkpt>
    <trkpt lat="48.8221" lon="2.89754"><ele>106.8</ele></trkpt>
    <trkpt lat="48.82111" lon="2.90193"><ele>77.0</ele></trkpt>
    <trkpt lat="48.82077" lon="2.90377"><ele>66.6</ele></trkpt>
    <trkpt lat="48.82044" lon="2.90505"><ele>60.8</ele></trkpt>
    <trkpt lat="48.82011" lon="2.906"><ele>58.6</ele></trkpt>
    <trkpt lat="48.81976" lon="2.90923"><ele>56.3</ele></trkpt>
    <trkpt lat="48.81955" lon="2.90999"><ele>57.1</ele></trkpt>
    <trkpt lat="48.81831" lon="2.913"><ele>58.7</ele></trkpt>
    <trkpt lat="48.81828" lon="2.91326"><ele>58.7</ele></trkpt>
    <trkpt lat="48.81836" lon="2.91407"><ele>58.9</ele></trkpt>
    <trkpt lat="48.8187" lon="2.91619"><ele>62.5</ele></trkpt>
    <trkpt lat="48.8192" lon="2.91878"><ele>67.1</ele></trkpt>
    <trkpt lat="48.81973" lon="2.91885"><ele>67.2</ele></trkpt>
    <trkpt lat="48.82115" lon="2.91854"><ele>65.4</ele></trkpt>
    <trkpt lat="48.82222" lon="2.91874"><ele>60.3</ele></trkpt>
    <trkpt lat="48.82347" lon="2.91861"><ele>55.3</ele></trkpt>
    <trkpt lat="48.82452" lon="2.91898"><ele>54.8</ele></trkpt>
    <trkpt lat="48.82488" lon="2.91899"><ele>55.2</ele></trkpt>
    <trkpt lat="48.82541" lon="2.91889"><ele>56.3</ele></trkpt>
    <trkpt lat="48.82559" lon="2.91893"><ele>56.8</ele></trkpt>
    <trkpt lat="48.82588" lon="2.91925"><ele>58.5</ele></trkpt>
    <trkpt lat="48.82605" lon="2.91973"><ele>60.9</ele></trkpt>
    <trkpt lat="48.82624" lon="2.9205"><ele>65.2</ele></trkpt>
    <trkpt lat="48.82679" lon="2.92157"><ele>72.5</ele></trkpt>
    <trkpt lat="48.82699" lon="2.92233"><ele>77.1</ele></trkpt>
    <trkpt lat="48.82756" lon="2.92298"><ele>82.8</ele></trkpt>
    <trkpt lat="48.82902" lon="2.92539"><ele>100.6</ele></trkpt>
    <trkpt lat="48.83005" lon="2.92647"><ele>109.1</ele></trkpt>
    <trkpt lat="48.83015" lon="2.9267"><ele>109.8</ele></trkpt>
    <trkpt lat="48.83027" lon="2.9275"><ele>111.6</ele></trkpt>
    <trkpt lat="48.83048" lon="2.92825"><ele>113.8</ele></trkpt>
    <trkpt lat="48.83049" lon="2.92879"><ele>115.6</ele></trkpt>
    <trkpt lat="48.83055" lon="2.929"><ele>116.7</ele></trkpt>
    <trkpt lat="48.83126" lon="2.92912"><ele>120.7</ele></trkpt>
    <trkpt lat="48.83195" lon="2.92938"><ele>122.2</ele></trkpt>
    <trkpt lat="48.83199" lon="2.92964"><ele>122.5</ele></trkpt>
    <trkpt lat="48.83199" lon="2.931"><ele>124.0</ele></trkpt>
    <trkpt lat="48.83212" lon="2.93119"><ele>124.2</ele></trkpt>
    <trkpt lat="48.8326" lon="2.93153"><ele>124.6</ele></trkpt>
    <trkpt lat="48.83272" lon="2.93174"><ele>124.8</ele></trkpt>
    <trkpt lat="48.83317" lon="2.93352"><ele>127.6</ele></trkpt>
    <trkpt lat="48.83385" lon="2.93545"><ele>131.8</ele></trkpt>
    <trkpt lat="48.834" lon="2.93623"><ele>133.4</ele></trkpt>
    <trkpt lat="48.83408" lon="2.93732"><ele>135.7</ele></trkpt>
    <trkpt lat="48.83401" lon="2.93841"><ele>137.9</ele></trkpt>
    <trkpt lat="48.83403" lon="2.94114"><ele>141.9</ele></trkpt>
    <trkpt lat="48.83399" lon="2.94223"><ele>143.3</ele></trkpt>
    <trkpt lat="48.83388" lon="2.94358"><ele>144.9</ele></trkpt>
    <trkpt lat="48.83371" lon="2.94435"><ele>145.8</ele></trkpt>
    <trkpt lat="48.83351" lon="2.94481"><ele>146.4</ele></trkpt>
    <trkpt lat="48.83329" lon="2.94524"><ele>146.7</ele></trkpt>
    <trkpt lat="48.8324" lon="2.9466"><ele>146.7</ele></trkpt>
    <trkpt lat="48.83119" lon="2.94822"><ele>144.3</ele></trkpt>
    <trkpt lat="48.82776" lon="2.94988"><ele>126.0</ele></trkpt>
    <trkpt lat="48.8276" lon="2.95"><ele>125.0</ele></trkpt>
    <trkpt lat="48.82751" lon="2.95024"><ele>123.9</ele></trkpt>
    <trkpt lat="48.82751" lon="2.9505"><ele>122.7</ele></trkpt>
    <trkpt lat="48.82818" lon="2.95212"><ele>113.9</ele></trkpt>
    <trkpt lat="48.82831" lon="2.95263"><ele>111.5</ele></trkpt>
    <trkpt lat="48.82881" lon="2.95693"><ele>90.7</ele></trkpt>
    <trkpt lat="48.82881" lon="2.9572"><ele>89.3</ele></trkpt>
    <trkpt lat="48.82869" lon="2.95727"><ele>87.7</ele></trkpt>
    <trkpt lat="48.82765" lon="2.95538"><ele>72.9</ele></trkpt>
    <trkpt lat="48.82722" lon="2.95491"><ele>68.6</ele></trkpt>
    <trkpt lat="48.82688" lon="2.9547"><ele>65.8</ele></trkpt>
    <trkpt lat="48.826" lon="2.95444"><ele>60.3</ele></trkpt>
    <trkpt lat="48.82585" lon="2.95458"><ele>59.6</ele></trkpt>
    <trkpt lat="48.82577" lon="2.95482"><ele>59.1</ele></trkpt>
    <trkpt lat="48.82473" lon="2.95454"><ele>57.7</ele></trkpt>
    <trkpt lat="48.82441" lon="2.95431"><ele>57.7</ele></trkpt>
    <trkpt lat="48.82417" lon="2.9539"><ele>57.9</ele></trkpt>
    <trkpt lat="48.82399" lon="2.95344"><ele>58.0</ele></trkpt>
    <trkpt lat="48.82382" lon="2.95338"><ele>58.0</ele></trkpt>
    <trkpt lat="48.82369" lon="2.95356"><ele>57.8</ele></trkpt>
    <trkpt lat="48.82352" lon="2.95366"><ele>57.6</ele></trkpt>
    <trkpt lat="48.82298" lon="2.9537"><ele>57.1</ele></trkpt>
    <trkpt lat="48.82197" lon="2.95314"><ele>59.3</ele></trkpt>
    <trkpt lat="48.82163" lon="2.95325"><ele>61.0</ele></trkpt>
    <trkpt lat="48.82113" lon="2.95357"><ele>65.1</ele></trkpt>
    <trkpt lat="48.82095" lon="2.95358"><ele>66.8</ele></trkpt>
    <trkpt lat="48.82044" lon="2.95333"><ele>72.4</ele></trkpt>
    <trkpt lat="48.8199" lon="2.95336"><ele>78.1</ele></trkpt>
    <trkpt lat="48.81955" lon="2.95329"><ele>81.3</ele></trkpt>
    <trkpt lat="48.81937" lon="2.95323"><ele>82.9</ele></trkpt>
    <trkpt lat="48.81928" lon="2.95312"><ele>84.4</ele></trkpt>
    <trkpt lat="48.81969" lon="2.95259"><ele>89.3</ele></trkpt>
    <trkpt lat="48.82078" lon="2.95164"><ele>98.5</ele></trkpt>
    <trkpt lat="48.82198" lon="2.95044"><ele>107.3</ele></trkpt>
    <trkpt lat="48.8223" lon="2.9502"><ele>110.1</ele></trkpt>
    <trkpt lat="48.82332" lon="2.94965"><ele>117.1</ele></trkpt>
    <trkpt lat="48.8235" lon="2.94968"><ele>117.9</ele></trkpt>
    <trkpt lat="48.82365" lon="2.94957"><ele>118.6</ele></trkpt>
    <trkpt lat="48.82389" lon="2.94917"><ele>120.1</ele></trkpt>
    <trkpt lat="48.82406" lon="2.9491"><ele>120.7</ele></trkpt>
    <trkpt lat="48.82477" lon="2.94925"><ele>122.2</ele></trkpt>
    <trkpt lat="48.82529" lon="2.94916"><ele>122.3</ele></trkpt>
    <trkpt lat="48.826" lon="2.94934"><ele>123.1</ele></trkpt>
    <trkpt lat="48.82634" lon="2.94952"><ele>123.9</ele></trkpt>
    <trkpt lat="48.82687" lon="2.95024"><ele>123.8</ele></trkpt>
    <trkpt lat="48.82705" lon="2.95032"><ele>123.8</ele></trkpt>
    <trkpt lat="48.8274" lon="2.95034"><ele>124.6</ele></trkpt>
    <trkpt lat="48.82752" lon="2.95021"><ele>125.3</ele></trkpt>
    <trkpt lat="48.82761" lon="2.94999"><ele>126.0</ele></trkpt>
    <trkpt lat="48.82778" lon="2.94987"><ele>126.8</ele></trkpt>
    <trkpt lat="48.83104" lon="2.94832"><ele>144.3</ele></trkpt>
    <trkpt lat="48.83135" lon="2.94806"><ele>145.4</ele></trkpt>
    <trkpt lat="48.83241" lon="2.94659"><ele>146.8</ele></trkpt>
    <trkpt lat="48.8333" lon="2.94522"><ele>146.6</ele></trkpt>
    <trkpt lat="48.83371" lon="2.94433"><ele>145.4</ele></trkpt>
    <trkpt lat="48.83406" lon="2.94418"><ele>144.5</ele></trkpt>
    <trkpt lat="48.83531" lon="2.94398"><ele>141.0</ele></trkpt>
    <trkpt lat="48.83639" lon="2.94395"><ele>140.0</ele></trkpt>
    <trkpt lat="48.8419" lon="2.94269"><ele>149.0</ele></trkpt>
    <trkpt lat="48.84223" lon="2.94251"><ele>149.5</ele></trkpt>
    <trkpt lat="48.84422" lon="2.94063"><ele>145.7</ele></trkpt>
    <trkpt lat="48.84457" lon="2.94049"><ele>145.3</ele></trkpt>
    <trkpt lat="48.846" lon="2.94059"><ele>144.9</ele></trkpt>
    <trkpt lat="48.8469" lon="2.94047"><ele>143.5</ele></trkpt>
    <trkpt lat="48.84761" lon="2.94029"><ele>141.4</ele></trkpt>
    <trkpt lat="48.84778" lon="2.94033"><ele>141.0</ele></trkpt>
    <trkpt lat="48.84804" lon="2.94066"><ele>140.4</ele></trkpt>
    <trkpt lat="48.84819" lon="2.94054"><ele>139.9</ele></trkpt>
    <trkpt lat="48.8482" lon="2.94028"><ele>139.4</ele></trkpt>
    <trkpt lat="48.84827" lon="2.94003"><ele>138.8</ele></trkpt>
    <trkpt lat="48.85066" lon="2.93392"><ele>117.1</ele></trkpt>
    <trkpt lat="48.85087" lon="2.93348"><ele>114.3</ele></trkpt>
    <trkpt lat="48.85112" lon="2.93309"><ele>111.4</ele></trkpt>
    <trkpt lat="48.85156" lon="2.93262"><ele>107.0</ele></trkpt>
    <trkpt lat="48.85465" lon="2.9304"><ele>83.2</ele></trkpt>
    <trkpt lat="48.85576" lon="2.92951"><ele>73.9</ele></trkpt>
    <trkpt lat="48.85606" lon="2.92919"><ele>71.2</ele></trkpt>
    <trkpt lat="48.85811" lon="2.92653"><ele>55.4</ele></trkpt>
    <trkpt lat="48.85827" lon="2.92698"><ele>57.8</ele></trkpt>
    <trkpt lat="48.85817" lon="2.92718"><ele>59.7</ele></trkpt>
    <trkpt lat="48.85803" lon="2.92735"><ele>61.8</ele></trkpt>
    <trkpt lat="48.85799" lon="2.9276"><ele>63.9</ele></trkpt>
    <trkpt lat="48.85812" lon="2.92868"><ele>70.8</ele></trkpt>
    <trkpt lat="48.85838" lon="2.9297"><ele>73.6</ele></trkpt>
    <trkpt lat="48.85865" lon="2.93128"><ele>72.9</ele></trkpt>
    <trkpt lat="48.85869" lon="2.93237"><ele>72.0</ele></trkpt>
    <trkpt lat="48.85891" lon="2.93426"><ele>69.2</ele></trkpt>
    <trkpt lat="48.85888" lon="2.9348"><ele>68.1</ele></trkpt>
    <trkpt lat="48.85893" lon="2.93506"><ele>67.5</ele></trkpt>
    <trkpt lat="48.85929" lon="2.93566"><ele>67.0</ele></trkpt>
    <trkpt lat="48.85935" lon="2.93591"><ele>67.6</ele></trkpt>
    <trkpt lat="48.85906" lon="2.93719"><ele>74.2</ele></trkpt>
    <trkpt lat="48.85867" lon="2.93775"><ele>78.7</ele></trkpt>
    <trkpt lat="48.85836" lon="2.938"><ele>81.8</ele></trkpt>
    <trkpt lat="48.85827" lon="2.93822"><ele>83.3</ele></trkpt>
    <trkpt lat="48.8584" lon="2.93839"><ele>84.7</ele></trkpt>
    <trkpt lat="48.85893" lon="2.93837"><ele>88.9</ele></trkpt>
    <trkpt lat="48.85905" lon="2.93857"><ele>90.5</ele></trkpt>
    <trkpt lat="48.85913" lon="2.93881"><ele>92.1</ele></trkpt>
    <trkpt lat="48.85974" lon="2.9428"><ele>115.1</ele></trkpt>
    <trkpt lat="48.85993" lon="2.94357"><ele>117.1</ele></trkpt>
    <trkpt lat="48.86047" lon="2.94465"><ele>120.5</ele></trkpt>
    <trkpt lat="48.86074" lon="2.945"><ele>121.9</ele></trkpt>
    <trkpt lat="48.86089" lon="2.94508"><ele>122.2</ele></trkpt>
    <trkpt lat="48.86244" lon="2.94368"><ele>116.4</ele></trkpt>
    <trkpt lat="48.86297" lon="2.94358"><ele>113.4</ele></trkpt>
    <trkpt lat="48.86351" lon="2.94358"><ele>110.3</ele></trkpt>
    <trkpt lat="48.86457" lon="2.94382"><ele>105.1</ele></trkpt>
    <trkpt lat="48.86445" lon="2.94278"><ele>102.0</ele></trkpt>
    <trkpt lat="48.86417" lon="2.94148"><ele>99.6</ele></trkpt>
    <trkpt lat="48.86368" lon="2.93972"><ele>98.0</ele></trkpt>
    <trkpt lat="48.86221" lon="2.93533"><ele>92.7</ele></trkpt>
    <trkpt lat="48.86169" lon="2.93359"><ele>91.7</ele></trkpt>
    <trkpt lat="48.86083" lon="2.92772"><ele>82.2</ele></trkpt>
    <trkpt lat="48.86075" lon="2.92582"><ele>80.3</ele></trkpt>
    <trkpt lat="48.86058" lon="2.92504"><ele>78.5</ele></trkpt>
    <trkpt lat="48.86036" lon="2.92461"><ele>77.1</ele></trkpt>
    <trkpt lat="48.8601" lon="2.92423"><ele>76.9</ele></trkpt>
    <trkpt lat="48.86013" lon="2.92398"><ele>77.4</ele></trkpt>
    <trkpt lat="48.85991" lon="2.92294"><ele>82.2</ele></trkpt>
    <trkpt lat="48.85993" lon="2.92268"><ele>83.5</ele></trkpt>
    <trkpt lat="48.86006" lon="2.9225"><ele>84.9</ele></trkpt>
    <trkpt lat="48.86023" lon="2.92242"><ele>86.2</ele></trkpt>
    <trkpt lat="48.86184" lon="2.92214"><ele>96.3</ele></trkpt>
    <trkpt lat="48.8622" lon="2.92218"><ele>98.7</ele></trkpt>
    <trkpt lat="48.86322" lon="2.9227"><ele>105.8</ele></trkpt>
    <trkpt lat="48.86357" lon="2.92259"><ele>108.1</ele></trkpt>
    <trkpt lat="48.86424" lon="2.92169"><ele>114.6</ele></trkpt>
    <trkpt lat="48.86608" lon="2.9187"><ele>130.3</ele></trkpt>
    <trkpt lat="48.8664" lon="2.91846"><ele>131.3</ele></trkpt>
    <trkpt lat="48.86743" lon="2.91797"><ele>133.2</ele></trkpt>
    <trkpt lat="48.86831" lon="2.91704"><ele>133.6</ele></trkpt>
    <trkpt lat="48.87074" lon="2.91524"><ele>123.0</ele></trkpt>
    <trkpt lat="48.87136" lon="2.9147"><ele>118.9</ele></trkpt>
    <trkpt lat="48.87253" lon="2.91343"><ele>110.9</ele></trkpt>
    <trkpt lat="48.87339" lon="2.91305"><ele>105.7</ele></trkpt>
    <trkpt lat="48.87506" lon="2.91203"><ele>100.4</ele></trkpt>
    <trkpt lat="48.87614" lon="2.91186"><ele>98.0</ele></trkpt>
    <trkpt lat="48.87649" lon="2.9119"><ele>97.6</ele></trkpt>
    <trkpt lat="48.87684" lon="2.91203"><ele>97.2</ele></trkpt>
    <trkpt lat="48.87697" lon="2.91199"><ele>97.0</ele></trkpt>
    <trkpt lat="48.87698" lon="2.91007"><ele>95.6</ele></trkpt>
    <trkpt lat="48.87709" lon="2.90927"><ele>95.0</ele></trkpt>
    <trkpt lat="48.87754" lon="2.90778"><ele>93.4</ele></trkpt>
    <trkpt lat="48.87769" lon="2.907"><ele>92.5</ele></trkpt>
    <trkpt lat="48.87813" lon="2.90613"><ele>91.4</ele></trkpt>
    <trkpt lat="48.87809" lon="2.90596"><ele>91.5</ele></trkpt>
    <trkpt lat="48.87729" lon="2.90487"><ele>95.8</ele></trkpt>
    <trkpt lat="48.87654" lon="2.90412"><ele>100.2</ele></trkpt>
    <trkpt lat="48.87572" lon="2.90356"><ele>104.2</ele></trkpt>
    <trkpt lat="48.87366" lon="2.90262"><ele>112.4</ele></trkpt>
    <trkpt lat="48.87134" lon="2.90301"><ele>120.2</ele></trkpt>
    <trkpt lat="48.86774" lon="2.90297"><ele>116.4</ele></trkpt>
    <trkpt lat="48.8674" lon="2.90313"><ele>114.0</ele></trkpt>
    <trkpt lat="48.866" lon="2.90436"><ele>103.7</ele></trkpt>
    <trkpt lat="48.86564" lon="2.90444"><ele>101.5</ele></trkpt>
    <trkpt lat="48.86457" lon="2.90444"><ele>94.1</ele></trkpt>
    <trkpt lat="48.86441" lon="2.90431"><ele>92.8</ele></trkpt>
    <trkpt lat="48.86429" lon="2.90411"><ele>91.4</ele></trkpt>
    <trkpt lat="48.86401" lon="2.90342"><ele>87.1</ele></trkpt>
    <trkpt lat="48.86386" lon="2.90326"><ele>85.6</ele></trkpt>
    <trkpt lat="48.86368" lon="2.9032"><ele>84.1</ele></trkpt>
    <trkpt lat="48.86351" lon="2.90323"><ele>82.5</ele></trkpt>
    <trkpt lat="48.86322" lon="2.90354"><ele>79.5</ele></trkpt>
    <trkpt lat="48.86284" lon="2.90447"><ele>73.6</ele></trkpt>
    <trkpt lat="48.86248" lon="2.90508"><ele>69.4</ele></trkpt>
    <trkpt lat="48.86221" lon="2.90543"><ele>66.7</ele></trkpt>
    <trkpt lat="48.8619" lon="2.90571"><ele>63.9</ele></trkpt>
    <trkpt lat="48.8599" lon="2.90694"><ele>53.0</ele></trkpt>
    <trkpt lat="48.85883" lon="2.90719"><ele>51.2</ele></trkpt>
    <trkpt lat="48.85829" lon="2.90724"><ele>50.7</ele></trkpt>
    <trkpt lat="48.85813" lon="2.90732"><ele>50.6</ele></trkpt>
    <trkpt lat="48.85723" lon="2.90901"><ele>50.4</ele></trkpt>
    <trkpt lat="48.85663" lon="2.91003"><ele>50.5</ele></trkpt>
    <trkpt lat="48.85627" lon="2.91097"><ele>50.3</ele></trkpt>
    <trkpt lat="48.85615" lon="2.91093"><ele>50.2</ele></trkpt>
    <trkpt lat="48.85573" lon="2.91042"><ele>50.3</ele></trkpt>
    <trkpt lat="48.85553" lon="2.90998"><ele>50.7</ele></trkpt>
    <trkpt lat="48.85539" lon="2.90984"><ele>50.8</ele></trkpt>
    <trkpt lat="48.85485" lon="2.90988"><ele>51.4</ele></trkpt>
    <trkpt lat="48.85472" lon="2.90972"><ele>51.7</ele></trkpt>
    <trkpt lat="48.85448" lon="2.90869"><ele>54.1</ele></trkpt>
    <trkpt lat="48.85426" lon="2.90765"><ele>57.8</ele></trkpt>
    <trkpt lat="48.85419" lon="2.90656"><ele>62.1</ele></trkpt>
    <trkpt lat="48.85448" lon="2.90359"><ele>73.2</ele></trkpt>
    <trkpt lat="48.85445" lon="2.9014"><ele>81.1</ele></trkpt>
    <trkpt lat="48.85428" lon="2.90063"><ele>84.1</ele></trkpt>
    <trkpt lat="48.85408" lon="2.90017"><ele>86.2</ele></trkpt>
    <trkpt lat="48.85384" lon="2.89976"><ele>88.2</ele></trkpt>
    <trkpt lat="48.85325" lon="2.89915"><ele>92.1</ele></trkpt>
    <trkpt lat="48.85274" lon="2.89885"><ele>94.8</ele></trkpt>
    <trkpt lat="48.85222" lon="2.89868"><ele>97.4</ele></trkpt>
    <trkpt lat="48.85061" lon="2.89844"><ele>105.6</ele></trkpt>
    <trkpt lat="48.84993" lon="2.89808"><ele>108.1</ele></trkpt>
    <trkpt lat="48.84962" lon="2.89781"><ele>109.3</ele></trkpt>
    <trkpt lat="48.84564" lon="2.89358"><ele>130.3</ele></trkpt>
    <trkpt lat="48.84518" lon="2.89122"><ele>131.9</ele></trkpt>
    <trkpt lat="48.84484" lon="2.88996"><ele>132.8</ele></trkpt>
    <trkpt lat="48.84452" lon="2.88839"><ele>133.3</ele></trkpt>
    <trkpt lat="48.84452" lon="2.88812"><ele>133.3</ele></trkpt>
    <trkpt lat="48.84467" lon="2.88811"><ele>133.3</ele></trkpt>
    <trkpt lat="48.84716" lon="2.88865"><ele>131.4</ele></trkpt>
    <trkpt lat="48.84799" lon="2.88917"><ele>129.0</ele></trkpt>
    <trkpt lat="48.84912" lon="2.89002"><ele>121.8</ele></trkpt>
    <trkpt lat="48.84996" lon="2.89053"><ele>114.6</ele></trkpt>
    <trkpt lat="48.85057" lon="2.8911"><ele>109.0</ele></trkpt>
    <trkpt lat="48.85074" lon="2.89117"><ele>108.0</ele></trkpt>
    <trkpt lat="48.85183" lon="2.88974"><ele>101.8</ele></trkpt>
    <trkpt lat="48.85228" lon="2.8889"><ele>98.8</ele></trkpt>
    <trkpt lat="48.85294" lon="2.88797"><ele>95.8</ele></trkpt>
    <trkpt lat="48.85394" lon="2.8868"><ele>89.8</ele></trkpt>
    <trkpt lat="48.85425" lon="2.88655"><ele>87.0</ele></trkpt>
    <trkpt lat="48.85477" lon="2.88635"><ele>81.6</ele></trkpt>
    <trkpt lat="48.8551" lon="2.88611"><ele>77.9</ele></trkpt>
    <trkpt lat="48.85611" lon="2.88556"><ele>67.3</ele></trkpt>
    <trkpt lat="48.85734" lon="2.88444"><ele>53.1</ele></trkpt>
    <trkpt lat="48.85854" lon="2.88384"><ele>50.1</ele></trkpt>
    <trkpt lat="48.85865" lon="2.88368"><ele>50.0</ele></trkpt>
    <trkpt lat="48.85891" lon="2.88267"><ele>49.9</ele></trkpt>
    <trkpt lat="48.85964" lon="2.88082"><ele>52.0</ele></trkpt>
    <trkpt lat="48.85935" lon="2.88051"><ele>52.4</ele></trkpt>
    <trkpt lat="48.85934" lon="2.88025"><ele>52.6</ele></trkpt>
    <trkpt lat="48.85951" lon="2.87977"><ele>52.9</ele></trkpt>
    <trkpt lat="48.86008" lon="2.87871"><ele>53.2</ele></trkpt>
    <trkpt lat="48.86082" lon="2.87717"><ele>53.4</ele></trkpt>
    <trkpt lat="48.86157" lon="2.87599"><ele>52.9</ele></trkpt>
    <trkpt lat="48.8629" lon="2.87415"><ele>51.8</ele></trkpt>
    <trkpt lat="48.86455" lon="2.87126"><ele>52.4</ele></trkpt>
    <trkpt lat="48.86507" lon="2.87014"><ele>54.5</ele></trkpt>
    <trkpt lat="48.86511" lon="2.8696"><ele>55.9</ele></trkpt>
    <trkpt lat="48.86509" lon="2.86823"><ele>62.7</ele></trkpt>
    <trkpt lat="48.86517" lon="2.86715"><ele>70.9</ele></trkpt>
    <trkpt lat="48.86534" lon="2.86637"><ele>77.1</ele></trkpt>
    <trkpt lat="48.86583" lon="2.86492"><ele>88.5</ele></trkpt>
    <trkpt lat="48.86568" lon="2.86479"><ele>90.1</ele></trkpt>
    <trkpt lat="48.86563" lon="2.86458"><ele>91.6</ele></trkpt>
    <trkpt lat="48.86572" lon="2.86377"><ele>96.1</ele></trkpt>
    <trkpt lat="48.8656" lon="2.86241"><ele>101.8</ele></trkpt>
    <trkpt lat="48.86555" lon="2.86216"><ele>102.7</ele></trkpt>
    <trkpt lat="48.86481" lon="2.8606"><ele>109.0</ele></trkpt>
    <trkpt lat="48.86448" lon="2.85995"><ele>112.7</ele></trkpt>
    <trkpt lat="48.86374" lon="2.85877"><ele>123.1</ele></trkpt>
    <trkpt lat="48.86276" lon="2.85681"><ele>131.4</ele></trkpt>
    <trkpt lat="48.86284" lon="2.85664"><ele>131.6</ele></trkpt>
    <trkpt lat="48.86315" lon="2.85637"><ele>131.3</ele></trkpt>
    <trkpt lat="48.86386" lon="2.85637"><ele>128.0</ele></trkpt>
    <trkpt lat="48.8642" lon="2.8562"><ele>125.6</ele></trkpt>
    <trkpt lat="48.86482" lon="2.85565"><ele>120.9</ele></trkpt>
    <trkpt lat="48.8651" lon="2.8553"><ele>120.2</ele></trkpt>
    <trkpt lat="48.8652" lon="2.85508"><ele>120.7</ele></trkpt>
    <trkpt lat="48.86507" lon="2.85506"><ele>121.5</ele></trkpt>
    <trkpt lat="48.85941" lon="2.85667"><ele>134.0</ele></trkpt>
    <trkpt lat="48.85673" lon="2.85889"><ele>129.2</ele></trkpt>
    <trkpt lat="48.85644" lon="2.85874"><ele>129.2</ele></trkpt>
    <trkpt lat="48.85632" lon="2.85891"><ele>128.9</ele></trkpt>
    <trkpt lat="48.85637" lon="2.85916"><ele>128.5</ele></trkpt>
    <trkpt lat="48.85653" lon="2.85921"><ele>127.8</ele></trkpt>
    <trkpt lat="48.8573" lon="2.86105"><ele>122.1</ele></trkpt>
    <trkpt lat="48.85753" lon="2.86146"><ele>121.0</ele></trkpt>
    <trkpt lat="48.85842" lon="2.8624"><ele>117.5</ele></trkpt>
    <trkpt lat="48.85938" lon="2.86312"><ele>112.1</ele></trkpt>
    <trkpt lat="48.85991" lon="2.86388"><ele>108.7</ele></trkpt>
    <trkpt lat="48.86087" lon="2.8651"><ele>104.1</ele></trkpt>
    <trkpt lat="48.86164" lon="2.86581"><ele>100.4</ele></trkpt>
    <trkpt lat="48.8617" lon="2.86605"><ele>99.6</ele></trkpt>
    <trkpt lat="48.86139" lon="2.86702"><ele>96.0</ele></trkpt>
    <trkpt lat="48.8614" lon="2.86728"><ele>95.1</ele></trkpt>
    <trkpt lat="48.86256" lon="2.86856"><ele>86.6</ele></trkpt>
    <trkpt lat="48.86269" lon="2.86876"><ele>85.6</ele></trkpt>
    <trkpt lat="48.86276" lon="2.869"><ele>84.6</ele></trkpt>
    <trkpt lat="48.86275" lon="2.86927"><ele>83.6</ele></trkpt>
    <trkpt lat="48.86268" lon="2.86952"><ele>82.5</ele></trkpt>
    <trkpt lat="48.86199" lon="2.87144"><ele>74.4</ele></trkpt>
    <trkpt lat="48.86173" lon="2.87246"><ele>70.7</ele></trkpt>
    <trkpt lat="48.86113" lon="2.87503"><ele>60.4</ele></trkpt>
    <trkpt lat="48.86082" lon="2.87717"><ele>53.7</ele></trkpt>
    <trkpt lat="48.86008" lon="2.87871"><ele>53.2</ele></trkpt>
    <trkpt lat="48.85941" lon="2.87994"><ele>53.3</ele></trkpt>
    <trkpt lat="48.85925" lon="2.87987"><ele>53.7</ele></trkpt>
    <trkpt lat="48.85878" lon="2.88024"><ele>56.0</ele></trkpt>
    <trkpt lat="48.85806" lon="2.88016"><ele>63.8</ele></trkpt>
    <trkpt lat="48.85773" lon="2.87995"><ele>68.3</ele></trkpt>
    <trkpt lat="48.85397" lon="2.87573"><ele>98.0</ele></trkpt>
    <trkpt lat="48.85377" lon="2.87529"><ele>99.0</ele></trkpt>
    <trkpt lat="48.85322" lon="2.8746"><ele>101.0</ele></trkpt>
    <trkpt lat="48.852" lon="2.87411"><ele>101.8</ele></trkpt>
    <trkpt lat="48.85164" lon="2.87404"><ele>100.7</ele></trkpt>
    <trkpt lat="48.85111" lon="2.87401"><ele>99.8</ele></trkpt>
    <trkpt lat="48.85003" lon="2.8741"><ele>100.9</ele></trkpt>
    <trkpt lat="48.84967" lon="2.87405"><ele>101.5</ele></trkpt>
    <trkpt lat="48.8495" lon="2.874"><ele>101.9</ele></trkpt>
    <trkpt lat="48.84886" lon="2.8735"><ele>103.5</ele></trkpt>
    <trkpt lat="48.84868" lon="2.87344"><ele>103.9</ele></trkpt>
    <trkpt lat="48.84852" lon="2.87355"><ele>104.2</ele></trkpt>
    <trkpt lat="48.84808" lon="2.87439"><ele>106.0</ele></trkpt>
    <trkpt lat="48.8479" lon="2.87438"><ele>106.6</ele></trkpt>
    <trkpt lat="48.84692" lon="2.87372"><ele>111.2</ele></trkpt>
    <trkpt lat="48.84607" lon="2.87326"><ele>115.2</ele></trkpt>
    <trkpt lat="48.84546" lon="2.8727"><ele>118.4</ele></trkpt>
    <trkpt lat="48.8449" lon="2.872"><ele>121.5</ele></trkpt>
    <trkpt lat="48.84389" lon="2.87008"><ele>126.2</ele></trkpt>
    <trkpt lat="48.84375" lon="2.87007"><ele>126.6</ele></trkpt>
    <trkpt lat="48.83405" lon="2.87843"><ele>132.9</ele></trkpt>
    <trkpt lat="48.83294" lon="2.87932"><ele>133.7</ele></trkpt>
    <trkpt lat="48.83277" lon="2.87936"><ele>133.7</ele></trkpt>
    <trkpt lat="48.83263" lon="2.87953"><ele>133.6</ele></trkpt>
    <trkpt lat="48.83246" lon="2.8796"><ele>133.4</ele></trkpt>
    <trkpt lat="48.8321" lon="2.87963"><ele>132.9</ele></trkpt>
    <trkpt lat="48.83174" lon="2.87956"><ele>132.4</ele></trkpt>
    <trkpt lat="48.82341" lon="2.87741"><ele>129.1</ele></trkpt>
    <trkpt lat="48.82273" lon="2.87705"><ele>129.4</ele></trkpt>
    <trkpt lat="48.82259" lon="2.87689"><ele>129.4</ele></trkpt>
    <trkpt lat="48.82239" lon="2.87615"><ele>129.6</ele></trkpt>
    <trkpt lat="48.82227" lon="2.87595"><ele>129.7</ele></trkpt>
    <trkpt lat="48.82183" lon="2.87549"><ele>129.8</ele></trkpt>
    <trkpt lat="48.82171" lon="2.87529"><ele>129.8</ele></trkpt>
    <trkpt lat="48.81865" lon="2.86631"><ele>130.9</ele></trkpt>
    <trkpt lat="48.81842" lon="2.86528"><ele>130.7</ele></trkpt>
    <trkpt lat="48.81572" lon="2.84829"><ele>126.4</ele></trkpt>
    <trkpt lat="48.81523" lon="2.84343"><ele>124.8</ele></trkpt>
    <trkpt lat="48.81522" lon="2.84261"><ele>125.0</ele></trkpt>
    <trkpt lat="48.81527" lon="2.84236"><ele>125.0</ele></trkpt>
    <trkpt lat="48.81538" lon="2.84214"><ele>124.9</ele></trkpt>
    <trkpt lat="48.81554" lon="2.84202"><ele>124.8</ele></trkpt>
    <trkpt lat="48.81643" lon="2.84193"><ele>124.4</ele></trkpt>
    <trkpt lat="48.81967" lon="2.84194"><ele>125.9</ele></trkpt>
    <trkpt lat="48.82055" lon="2.84169"><ele>126.5</ele></trkpt>
    <trkpt lat="48.82089" lon="2.84151"><ele>126.8</ele></trkpt>
    <trkpt lat="48.82153" lon="2.84102"><ele>127.2</ele></trkpt>
    <trkpt lat="48.82211" lon="2.84036"><ele>127.6</ele></trkpt>
    <trkpt lat="48.82236" lon="2.83996"><ele>127.8</ele></trkpt>
    <trkpt lat="48.82269" lon="2.83932"><ele>127.9</ele></trkpt>
    <trkpt lat="48.82297" lon="2.83862"><ele>127.8</ele></trkpt>
    <trkpt lat="48.82329" lon="2.83735"><ele>127.5</ele></trkpt>
    <trkpt lat="48.8234" lon="2.83655"><ele>127.5</ele></trkpt>
    <trkpt lat="48.82348" lon="2.83546"><ele>127.5</ele></trkpt>
    <trkpt lat="48.82366" lon="2.83502"><ele>127.4</ele></trkpt>
    <trkpt lat="48.82366" lon="2.83475"><ele>127.3</ele></trkpt>
    <trkpt lat="48.82357" lon="2.83452"><ele>127.3</ele></trkpt>
    <trkpt lat="48.82341" lon="2.83439"><ele>127.3</ele></trkpt>
    <trkpt lat="48.82331" lon="2.83417"><ele>127.3</ele></trkpt>
    <trkpt lat="48.81985" lon="2.82245"><ele>127.9</ele></trkpt>
    <trkpt lat="48.81929" lon="2.81986"><ele>125.7</ele></trkpt>
    <trkpt lat="48.81897" lon="2.81889"><ele>125.6</ele></trkpt>
    <trkpt lat="48.81892" lon="2.81863"><ele>125.6</ele></trkpt>
    <trkpt lat="48.81895" lon="2.81836"><ele>125.6</ele></trkpt>
    <trkpt lat="48.81887" lon="2.81811"><ele>125.5</ele></trkpt>
    <trkpt lat="48.81856" lon="2.81791"><ele>125.3</ele></trkpt>
    <trkpt lat="48.81843" lon="2.81772"><ele>125.2</ele></trkpt>
    <trkpt lat="48.81811" lon="2.81675"><ele>125.0</ele></trkpt>
    <trkpt lat="48.81799" lon="2.81623"><ele>125.0</ele></trkpt>
    <trkpt lat="48.81765" lon="2.81327"><ele>123.8</ele></trkpt>
    <trkpt lat="48.81705" lon="2.81013"><ele>122.4</ele></trkpt>
    <trkpt lat="48.81654" lon="2.80779"><ele>121.3</ele></trkpt>
    <trkpt lat="48.81625" lon="2.80537"><ele>120.8</ele></trkpt>
    <trkpt lat="48.81601" lon="2.80378"><ele>121.1</ele></trkpt>
    <trkpt lat="48.81595" lon="2.80296"><ele>121.5</ele></trkpt>
    <trkpt lat="48.816" lon="2.79942"><ele>122.1</ele></trkpt>
    <trkpt lat="48.81646" lon="2.7965"><ele>121.2</ele></trkpt>
    <trkpt lat="48.81648" lon="2.79596"><ele>121.1</ele></trkpt>
    <trkpt lat="48.81575" lon="2.79317"><ele>121.0</ele></trkpt>
    <trkpt lat="48.81551" lon="2.79244"><ele>120.8</ele></trkpt>
    <trkpt lat="48.815" lon="2.79131"><ele>120.5</ele></trkpt>
    <trkpt lat="48.81475" lon="2.79093"><ele>120.4</ele></trkpt>
    <trkpt lat="48.81445" lon="2.79061"><ele>120.6</ele></trkpt>
    <trkpt lat="48.81394" lon="2.79039"><ele>121.5</ele></trkpt>
    <trkpt lat="48.8125" lon="2.7905"><ele>125.3</ele></trkpt>
    <trkpt lat="48.81215" lon="2.79041"><ele>126.1</ele></trkpt>
    <trkpt lat="48.81181" lon="2.79024"><ele>126.8</ele></trkpt>
    <trkpt lat="48.8115" lon="2.78996"><ele>127.2</ele></trkpt>
    <trkpt lat="48.8111" lon="2.7894"><ele>127.4</ele></trkpt>
    <trkpt lat="48.81088" lon="2.78898"><ele>127.4</ele></trkpt>
    <trkpt lat="48.81065" lon="2.78824"><ele>127.5</ele></trkpt>
    <trkpt lat="48.81057" lon="2.78771"><ele>127.4</ele></trkpt>
    <trkpt lat="48.81048" lon="2.7858"><ele>125.4</ele></trkpt>
    <trkpt lat="48.81032" lon="2.78446"><ele>122.8</ele></trkpt>
    <trkpt lat="48.81003" lon="2.78346"><ele>121.4</ele></trkpt>
    <trkpt lat="48.80958" lon="2.78228"><ele>121.0</ele></trkpt>
    <trkpt lat="48.80836" lon="2.77743"><ele>121.0</ele></trkpt>
    <trkpt lat="48.80668" lon="2.76851"><ele>120.5</ele></trkpt>
    <trkpt lat="48.80662" lon="2.76797"><ele>120.7</ele></trkpt>
    <trkpt lat="48.80629" lon="2.75924"><ele>125.8</ele></trkpt>
    <trkpt lat="48.80666" lon="2.7587"><ele>125.7</ele></trkpt>
    <trkpt lat="48.80699" lon="2.75847"><ele>125.3</ele></trkpt>
    <trkpt lat="48.80853" lon="2.75771"><ele>121.4</ele></trkpt>
    <trkpt lat="48.81141" lon="2.75615"><ele>123.3</ele></trkpt>
    <trkpt lat="48.81296" lon="2.75544"><ele>124.0</ele></trkpt>
    <trkpt lat="48.81366" lon="2.75561"><ele>124.5</ele></trkpt>
    <trkpt lat="48.81436" lon="2.75587"><ele>124.9</ele></trkpt>
    <trkpt lat="48.81742" lon="2.75748"><ele>123.1</ele></trkpt>
    <trkpt lat="48.81778" lon="2.7575"><ele>123.4</ele></trkpt>
    <trkpt lat="48.81829" lon="2.75725"><ele>123.9</ele></trkpt>
    <trkpt lat="48.82075" lon="2.75559"><ele>125.9</ele></trkpt>
    <trkpt lat="48.82264" lon="2.75466"><ele>127.4</ele></trkpt>
    <trkpt lat="48.82281" lon="2.75465"><ele>127.4</ele></trkpt>
    <trkpt lat="48.82316" lon="2.75476"><ele>127.3</ele></trkpt>
    <trkpt lat="48.82852" lon="2.75572"><ele>133.4</ele></trkpt>
    <trkpt lat="48.82906" lon="2.75576"><ele>133.2</ele></trkpt>
    <trkpt lat="48.82978" lon="2.75567"><ele>132.8</ele></trkpt>
    <trkpt lat="48.83154" lon="2.75513"><ele>127.7</ele></trkpt>
    <trkpt lat="48.83205" lon="2.75489"><ele>125.8</ele></trkpt>
    <trkpt lat="48.834" lon="2.75348"><ele>125.1</ele></trkpt>
    <trkpt lat="48.83451" lon="2.75322"><ele>125.4</ele></trkpt>
    <trkpt lat="48.8372" lon="2.75294"><ele>127.0</ele></trkpt>
    <trkpt lat="48.83953" lon="2.75301"><ele>125.7</ele></trkpt>
    <trkpt lat="48.83989" lon="2.75294"><ele>125.4</ele></trkpt>
    <trkpt lat="48.84119" lon="2.75201"><ele>124.2</ele></trkpt>
    <trkpt lat="48.84243" lon="2.75089"><ele>123.2</ele></trkpt>
    <trkpt lat="48.84357" lon="2.75011"><ele>122.3</ele></trkpt>
    <trkpt lat="48.84377" lon="2.74966"><ele>122.1</ele></trkpt>
    <trkpt lat="48.84494" lon="2.74566"><ele>121.2</ele></trkpt>
    <trkpt lat="48.84504" lon="2.74544"><ele>121.1</ele></trkpt>
    <trkpt lat="48.84535" lon="2.74522"><ele>120.8</ele></trkpt>
    <trkpt lat="48.84541" lon="2.74497"><ele>120.5</ele></trkpt>
    <trkpt lat="48.84533" lon="2.74445"><ele>119.8</ele></trkpt>
    <trkpt lat="48.84568" lon="2.7432"><ele>118.0</ele></trkpt>
    <trkpt lat="48.84834" lon="2.73638"><ele>108.3</ele></trkpt>
    <trkpt lat="48.84869" lon="2.73576"><ele>107.5</ele></trkpt>
    <trkpt lat="48.84956" lon="2.73479"><ele>106.2</ele></trkpt>
    <trkpt lat="48.84973" lon="2.73474"><ele>106.0</ele></trkpt>
    <trkpt lat="48.8499" lon="2.7348"><ele>105.7</ele></trkpt>
    <trkpt lat="48.85005" lon="2.73467"><ele>105.5</ele></trkpt>
    <trkpt lat="48.8501" lon="2.73441"><ele>105.4</ele></trkpt>
    <trkpt lat="48.84994" lon="2.73395"><ele>105.4</ele></trkpt>
    <trkpt lat="48.84996" lon="2.73368"><ele>105.5</ele></trkpt>
    <trkpt lat="48.85217" lon="2.72501"><ele>111.8</ele></trkpt>
    <trkpt lat="48.85227" lon="2.72449"><ele>111.7</ele></trkpt>
    <trkpt lat="48.85233" lon="2.72367"><ele>111.2</ele></trkpt>
    <trkpt lat="48.85244" lon="2.71903"><ele>112.3</ele></trkpt>
    <trkpt lat="48.85239" lon="2.71794"><ele>111.7</ele></trkpt>
    <trkpt lat="48.85247" lon="2.7177"><ele>111.5</ele></trkpt>
    <trkpt lat="48.85245" lon="2.71718"><ele>110.7</ele></trkpt>
    <trkpt lat="48.85251" lon="2.71664"><ele>110.0</ele></trkpt>
    <trkpt lat="48.85257" lon="2.71446"><ele>107.7</ele></trkpt>
    <trkpt lat="48.85267" lon="2.71394"><ele>107.0</ele></trkpt>
    <trkpt lat="48.85278" lon="2.71372"><ele>106.6</ele></trkpt>
    <trkpt lat="48.85376" lon="2.71212"><ele>101.3</ele></trkpt>
    <trkpt lat="48.85395" lon="2.71166"><ele>100.1</ele></trkpt>
    <trkpt lat="48.85462" lon="2.70573"><ele>98.5</ele></trkpt>
    <trkpt lat="48.85496" lon="2.70333"><ele>97.8</ele></trkpt>
    <trkpt lat="48.855" lon="2.70251"><ele>97.8</ele></trkpt>
    <trkpt lat="48.85498" lon="2.70142"><ele>97.4</ele></trkpt>
    <trkpt lat="48.8553" lon="2.69873"><ele>91.8</ele></trkpt>
    <trkpt lat="48.85391" lon="2.69053"><ele>80.7</ele></trkpt>
    <trkpt lat="48.85349" lon="2.68902"><ele>77.5</ele></trkpt>
    <trkpt lat="48.85285" lon="2.68706"><ele>72.7</ele></trkpt>
    <trkpt lat="48.85248" lon="2.68647"><ele>71.0</ele></trkpt>
    <trkpt lat="48.85178" lon="2.68562"><ele>67.9</ele></trkpt>
    <trkpt lat="48.85147" lon="2.68534"><ele>66.6</ele></trkpt>
    <trkpt lat="48.85113" lon="2.68519"><ele>65.4</ele></trkpt>
    <trkpt lat="48.84987" lon="2.68506"><ele>60.5</ele></trkpt>
    <trkpt lat="48.84954" lon="2.68485"><ele>59.0</ele></trkpt>
    <trkpt lat="48.8494" lon="2.68468"><ele>58.3</ele></trkpt>
    <trkpt lat="48.84931" lon="2.68445"><ele>57.8</ele></trkpt>
    <trkpt lat="48.84905" lon="2.68314"><ele>56.2</ele></trkpt>
    <trkpt lat="48.84904" lon="2.68261"><ele>55.9</ele></trkpt>
    <trkpt lat="48.84987" lon="2.67561"><ele>67.6</ele></trkpt>
    <trkpt lat="48.85012" lon="2.67291"><ele>69.3</ele></trkpt>
    <trkpt lat="48.85035" lon="2.66471"><ele>85.3</ele></trkpt>
    <trkpt lat="48.85013" lon="2.66283"><ele>90.3</ele></trkpt>
    <trkpt lat="48.85013" lon="2.66256"><ele>90.7</ele></trkpt>
    <trkpt lat="48.85002" lon="2.66248"><ele>91.0</ele></trkpt>
    <trkpt lat="48.84966" lon="2.6626"><ele>91.5</ele></trkpt>
    <trkpt lat="48.84933" lon="2.66278"><ele>92.0</ele></trkpt>
    <trkpt lat="48.84774" lon="2.6633"><ele>94.4</ele></trkpt>
    <trkpt lat="48.8474" lon="2.66347"><ele>94.7</ele></trkpt>
    <trkpt lat="48.84482" lon="2.66643"><ele>94.7</ele></trkpt>
    <trkpt lat="48.84449" lon="2.66665"><ele>95.3</ele></trkpt>
    <trkpt lat="48.84278" lon="2.66749"><ele>100.6</ele></trkpt>
    <trkpt lat="48.84261" lon="2.66754"><ele>100.9</ele></trkpt>
    <trkpt lat="48.84244" lon="2.6675"><ele>101.0</ele></trkpt>
    <trkpt lat="48.84218" lon="2.66715"><ele>100.9</ele></trkpt>
    <trkpt lat="48.84206" lon="2.66664"><ele>100.6</ele></trkpt>
    <trkpt lat="48.84192" lon="2.66557"><ele>99.9</ele></trkpt>
    <trkpt lat="48.84197" lon="2.66531"><ele>99.7</ele></trkpt>
    <trkpt lat="48.84208" lon="2.66513"><ele>99.3</ele></trkpt>
    <trkpt lat="48.84206" lon="2.66487"><ele>98.9</ele></trkpt>
    <trkpt lat="48.84178" lon="2.66456"><ele>97.9</ele></trkpt>
    <trkpt lat="48.84173" lon="2.6643"><ele>97.5</ele></trkpt>
    <trkpt lat="48.84153" lon="2.66297"><ele>97.6</ele></trkpt>
    <trkpt lat="48.84156" lon="2.6627"><ele>97.9</ele></trkpt>
    <trkpt lat="48.84168" lon="2.66251"><ele>98.2</ele></trkpt>
    <trkpt lat="48.84168" lon="2.66226"><ele>98.4</ele></trkpt>
    <trkpt lat="48.84141" lon="2.66195"><ele>99.0</ele></trkpt>
    <trkpt lat="48.84135" lon="2.66169"><ele>99.2</ele></trkpt>
    <trkpt lat="48.84096" lon="2.65902"><ele>100.2</ele></trkpt>
    <trkpt lat="48.84096" lon="2.65875"><ele>100.3</ele></trkpt>
    <trkpt lat="48.84103" lon="2.65851"><ele>100.5</ele></trkpt>
    <trkpt lat="48.84103" lon="2.65824"><ele>100.7</ele></trkpt>
    <trkpt lat="48.84093" lon="2.65803"><ele>100.9</ele></trkpt>
    <trkpt lat="48.84076" lon="2.65798"><ele>101.1</ele></trkpt>
    <trkpt lat="48.84044" lon="2.65813"><ele>101.4</ele></trkpt>
    <trkpt lat="48.83973" lon="2.65798"><ele>101.2</ele></trkpt>
    <trkpt lat="48.8396" lon="2.65779"><ele>100.9</ele></trkpt>
    <trkpt lat="48.83942" lon="2.65778"><ele>100.5</ele></trkpt>
    <trkpt lat="48.83928" lon="2.65794"><ele>100.0</ele></trkpt>
    <trkpt lat="48.83922" lon="2.65818"><ele>99.5</ele></trkpt>
    <trkpt lat="48.83905" lon="2.65829"><ele>99.1</ele></trkpt>
    <trkpt lat="48.83887" lon="2.65828"><ele>98.8</ele></trkpt>
    <trkpt lat="48.83854" lon="2.65845"><ele>98.5</ele></trkpt>
    <trkpt lat="48.83788" lon="2.65889"><ele>98.4</ele></trkpt>
    <trkpt lat="48.83644" lon="2.66001"><ele>99.9</ele></trkpt>
    <trkpt lat="48.83507" lon="2.66055"><ele>101.0</ele></trkpt>
    <trkpt lat="48.83476" lon="2.65957"><ele>99.0</ele></trkpt>
    <trkpt lat="48.83462" lon="2.65945"><ele>98.2</ele></trkpt>
    <trkpt lat="48.83445" lon="2.65941"><ele>97.3</ele></trkpt>
    <trkpt lat="48.83311" lon="2.65862"><ele>89.4</ele></trkpt>
    <trkpt lat="48.83293" lon="2.65856"><ele>89.1</ele></trkpt>
    <trkpt lat="48.83221" lon="2.6586"><ele>89.4</ele></trkpt>
    <trkpt lat="48.83186" lon="2.65855"><ele>90.2</ele></trkpt>
    <trkpt lat="48.83169" lon="2.65847"><ele>90.6</ele></trkpt>
    <trkpt lat="48.83042" lon="2.65742"><ele>93.9</ele></trkpt>
    <trkpt lat="48.83032" lon="2.65726"><ele>93.9</ele></trkpt>
    <trkpt lat="48.83078" lon="2.65578"><ele>94.0</ele></trkpt>
    <trkpt lat="48.83089" lon="2.65527"><ele>94.4</ele></trkpt>
    <trkpt lat="48.83074" lon="2.6542"><ele>95.6</ele></trkpt>
    <trkpt lat="48.8307" lon="2.65065"><ele>99.6</ele></trkpt>
    <trkpt lat="48.83066" lon="2.65011"><ele>100.0</ele></trkpt>
    <trkpt lat="48.83033" lon="2.64914"><ele>100.4</ele></trkpt>
    <trkpt lat="48.82821" lon="2.64507"><ele>102.6</ele></trkpt>
    <trkpt lat="48.82803" lon="2.6446"><ele>102.8</ele></trkpt>
    <trkpt lat="48.82805" lon="2.64438"><ele>102.8</ele></trkpt>
    <trkpt lat="48.82813" lon="2.64415"><ele>102.8</ele></trkpt>
    <trkpt lat="48.82804" lon="2.64393"><ele>102.9</ele></trkpt>
    <trkpt lat="48.82787" lon="2.64392"><ele>103.0</ele></trkpt>
    <trkpt lat="48.82778" lon="2.64414"><ele>103.1</ele></trkpt>
    <trkpt lat="48.82761" lon="2.64422"><ele>103.3</ele></trkpt>
    <trkpt lat="48.82746" lon="2.6441"><ele>103.4</ele></trkpt>
    <trkpt lat="48.82699" lon="2.64328"><ele>103.9</ele></trkpt>
    <trkpt lat="48.8267" lon="2.64295"><ele>104.2</ele></trkpt>
    <trkpt lat="48.82638" lon="2.6427"><ele>104.3</ele></trkpt>
    <trkpt lat="48.82587" lon="2.64245"><ele>104.3</ele></trkpt>
    <trkpt lat="48.82358" lon="2.64176"><ele>104.5</ele></trkpt>
    <trkpt lat="48.82343" lon="2.64162"><ele>104.7</ele></trkpt>
    <trkpt lat="48.82337" lon="2.64136"><ele>104.7</ele></trkpt>
    <trkpt lat="48.82358" lon="2.64068"><ele>104.9</ele></trkpt>
    <trkpt lat="48.82354" lon="2.64041"><ele>105.0</ele></trkpt>
    <trkpt lat="48.82329" lon="2.64003"><ele>105.1</ele></trkpt>
    <trkpt lat="48.8232" lon="2.6398"><ele>105.2</ele></trkpt>
    <trkpt lat="48.82315" lon="2.63954"><ele>105.3</ele></trkpt>
    <trkpt lat="48.82317" lon="2.63928"><ele>105.3</ele></trkpt>
    <trkpt lat="48.8248" lon="2.63146"><ele>106.3</ele></trkpt>
    <trkpt lat="48.82493" lon="2.63067"><ele>106.7</ele></trkpt>
    <trkpt lat="48.82496" lon="2.63013"><ele>106.9</ele></trkpt>
    <trkpt lat="48.82496" lon="2.62877"><ele>107.3</ele></trkpt>
    <trkpt lat="48.82414" lon="2.61873"><ele>107.8</ele></trkpt>
    <trkpt lat="48.82398" lon="2.61795"><ele>107.4</ele></trkpt>
    <trkpt lat="48.82359" lon="2.61673"><ele>106.9</ele></trkpt>
    <trkpt lat="48.82362" lon="2.6162"><ele>106.7</ele></trkpt>
    <trkpt lat="48.82337" lon="2.61582"><ele>106.5</ele></trkpt>
    <trkpt lat="48.8231" lon="2.61512"><ele>106.3</ele></trkpt>
    <trkpt lat="48.82287" lon="2.61469"><ele>106.3</ele></trkpt>
    <trkpt lat="48.82261" lon="2.61433"><ele>106.3</ele></trkpt>
    <trkpt lat="48.82211" lon="2.61401"><ele>106.5</ele></trkpt>
    <trkpt lat="48.82175" lon="2.61397"><ele>106.6</ele></trkpt>
    <trkpt lat="48.82087" lon="2.61413"><ele>107.3</ele></trkpt>
    <trkpt lat="48.82077" lon="2.61391"><ele>107.3</ele></trkpt>
    <trkpt lat="48.82076" lon="2.61364"><ele>107.3</ele></trkpt>
    <trkpt lat="48.82085" lon="2.61342"><ele>107.2</ele></trkpt>
    <trkpt lat="48.82102" lon="2.61334"><ele>107.2</ele></trkpt>
    <trkpt lat="48.82155" lon="2.61341"><ele>107.2</ele></trkpt>
    <trkpt lat="48.82261" lon="2.6131"><ele>107.6</ele></trkpt>
    <trkpt lat="48.82368" lon="2.61295"><ele>108.0</ele></trkpt>
    <trkpt lat="48.8242" lon="2.61275"><ele>108.3</ele></trkpt>
    <trkpt lat="48.82875" lon="2.60887"><ele>104.1</ele></trkpt>
    <trkpt lat="48.82929" lon="2.60815"><ele>103.1</ele></trkpt>
    <trkpt lat="48.8296" lon="2.60748"><ele>102.4</ele></trkpt>
    <trkpt lat="48.8298" lon="2.60672"><ele>101.7</ele></trkpt>
    <trkpt lat="48.83126" lon="2.5977"><ele>96.5</ele></trkpt>
    <trkpt lat="48.83149" lon="2.59697"><ele>93.4</ele></trkpt>
    <trkpt lat="48.83233" lon="2.59519"><ele>89.3</ele></trkpt>
    <trkpt lat="48.83254" lon="2.59445"><ele>88.9</ele></trkpt>
    <trkpt lat="48.83263" lon="2.59392"><ele>88.7</ele></trkpt>
    <trkpt lat="48.83267" lon="2.5931"><ele>88.9</ele></trkpt>
    <trkpt lat="48.83264" lon="2.59256"><ele>89.1</ele></trkpt>
    <trkpt lat="48.83255" lon="2.59203"><ele>89.6</ele></trkpt>
    <trkpt lat="48.83242" lon="2.59151"><ele>90.4</ele></trkpt>
    <trkpt lat="48.83215" lon="2.59081"><ele>92.3</ele></trkpt>
    <trkpt lat="48.83132" lon="2.58937"><ele>96.6</ele></trkpt>
    <trkpt lat="48.83134" lon="2.58889"><ele>97.2</ele></trkpt>
    <trkpt lat="48.83121" lon="2.58873"><ele>97.5</ele></trkpt>
    <trkpt lat="48.83104" lon="2.58876"><ele>97.8</ele></trkpt>
    <trkpt lat="48.83084" lon="2.588"><ele>98.4</ele></trkpt>
    <trkpt lat="48.83077" lon="2.58746"><ele>98.7</ele></trkpt>
    <trkpt lat="48.83072" lon="2.58637"><ele>98.9</ele></trkpt>
    <trkpt lat="48.83045" lon="2.58567"><ele>98.7</ele></trkpt>
    <trkpt lat="48.83037" lon="2.58514"><ele>98.6</ele></trkpt>
    <trkpt lat="48.8302" lon="2.58352"><ele>98.7</ele></trkpt>
    <trkpt lat="48.83013" lon="2.58327"><ele>98.7</ele></trkpt>
    <trkpt lat="48.82999" lon="2.58164"><ele>98.7</ele></trkpt>
    <trkpt lat="48.83017" lon="2.5813"><ele>98.7</ele></trkpt>
    <trkpt lat="48.83249" lon="2.58165"><ele>99.1</ele></trkpt>
    <trkpt lat="48.83284" lon="2.58153"><ele>99.0</ele></trkpt>
    <trkpt lat="48.83298" lon="2.58138"><ele>99.0</ele></trkpt>
    <trkpt lat="48.83308" lon="2.58115"><ele>99.0</ele></trkpt>
    <trkpt lat="48.83319" lon="2.58063"><ele>98.9</ele></trkpt>
    <trkpt lat="48.83329" lon="2.57764"><ele>99.0</ele></trkpt>
    <trkpt lat="48.83337" lon="2.57745"><ele>99.0</ele></trkpt>
    <trkpt lat="48.83332" lon="2.57722"><ele>99.0</ele></trkpt>
    <trkpt lat="48.83371" lon="2.56987"><ele>100.1</ele></trkpt>
    <trkpt lat="48.83382" lon="2.56966"><ele>99.8</ele></trkpt>
    <trkpt lat="48.834" lon="2.56961"><ele>99.6</ele></trkpt>
    <trkpt lat="48.83471" lon="2.56966"><ele>99.1</ele></trkpt>
    <trkpt lat="48.83475" lon="2.56941"><ele>99.0</ele></trkpt>
    <trkpt lat="48.83487" lon="2.56696"><ele>97.7</ele></trkpt>
    <trkpt lat="48.83475" lon="2.56588"><ele>97.4</ele></trkpt>
    <trkpt lat="48.83481" lon="2.56569"><ele>97.6</ele></trkpt>
    <trkpt lat="48.83497" lon="2.56561"><ele>97.9</ele></trkpt>
    <trkpt lat="48.83512" lon="2.56544"><ele>98.4</ele></trkpt>
    <trkpt lat="48.83529" lon="2.56497"><ele>99.5</ele></trkpt>
    <trkpt lat="48.83519" lon="2.56308"><ele>101.7</ele></trkpt>
    <trkpt lat="48.83512" lon="2.56287"><ele>101.2</ele></trkpt>
    <trkpt lat="48.83436" lon="2.56171"><ele>98.5</ele></trkpt>
    <trkpt lat="48.83213" lon="2.55777"><ele>96.9</ele></trkpt>
    <trkpt lat="48.83208" lon="2.55731"><ele>97.3</ele></trkpt>
    <trkpt lat="48.83199" lon="2.55713"><ele>97.6</ele></trkpt>
    <trkpt lat="48.83245" lon="2.55254"><ele>99.7</ele></trkpt>
    <trkpt lat="48.83261" lon="2.55245"><ele>99.5</ele></trkpt>
    <trkpt lat="48.83276" lon="2.55198"><ele>99.1</ele></trkpt>
    <trkpt lat="48.83343" lon="2.55106"><ele>98.0</ele></trkpt>
    <trkpt lat="48.83505" lon="2.54898"><ele>96.3</ele></trkpt>
    <trkpt lat="48.83501" lon="2.54873"><ele>96.2</ele></trkpt>
    <trkpt lat="48.835" lon="2.54627"><ele>95.8</ele></trkpt>
    <trkpt lat="48.83508" lon="2.54574"><ele>96.2</ele></trkpt>
    <trkpt lat="48.83536" lon="2.54473"><ele>97.1</ele></trkpt>
    <trkpt lat="48.8354" lon="2.54337"><ele>98.1</ele></trkpt>
    <trkpt lat="48.83556" lon="2.54291"><ele>98.0</ele></trkpt>
    <trkpt lat="48.83551" lon="2.54266"><ele>97.9</ele></trkpt>
    <trkpt lat="48.83541" lon="2.54245"><ele>97.7</ele></trkpt>
    <trkpt lat="48.83536" lon="2.54081"><ele>96.3</ele></trkpt>
    <trkpt lat="48.83528" lon="2.54028"><ele>96.1</ele></trkpt>
    <trkpt lat="48.83507" lon="2.53952"><ele>96.3</ele></trkpt>
    <trkpt lat="48.83468" lon="2.5386"><ele>96.9</ele></trkpt>
    <trkpt lat="48.83438" lon="2.53793"><ele>97.4</ele></trkpt>
    <trkpt lat="48.83427" lon="2.53797"><ele>97.5</ele></trkpt>
    <trkpt lat="48.83486" lon="2.53935"><ele>97.0</ele></trkpt>
    <trkpt lat="48.83433" lon="2.5381"><ele>97.3</ele></trkpt>
    <trkpt lat="48.83428" lon="2.5377"><ele>97.0</ele></trkpt>
    <trkpt lat="48.83367" lon="2.53634"><ele>97.2</ele></trkpt>
    <trkpt lat="48.83312" lon="2.53526"><ele>96.7</ele></trkpt>
    <trkpt lat="48.83206" lon="2.53341"><ele>95.0</ele></trkpt>
    <trkpt lat="48.83203" lon="2.53315"><ele>95.0</ele></trkpt>
    <trkpt lat="48.83253" lon="2.5314"><ele>96.3</ele></trkpt>
    <trkpt lat="48.83247" lon="2.53118"><ele>96.3</ele></trkpt>
    <trkpt lat="48.8301" lon="2.52744"><ele>95.7</ele></trkpt>
    <trkpt lat="48.82826" lon="2.52482"><ele>88.2</ele></trkpt>
    <trkpt lat="48.8278" lon="2.52398"><ele>86.8</ele></trkpt>
    <trkpt lat="48.82764" lon="2.5235"><ele>86.6</ele></trkpt>
    <trkpt lat="48.82748" lon="2.52272"><ele>86.2</ele></trkpt>
    <trkpt lat="48.82728" lon="2.52111"><ele>84.2</ele></trkpt>
    <trkpt lat="48.82715" lon="2.51976"><ele>80.9</ele></trkpt>
    <trkpt lat="48.82707" lon="2.5184"><ele>76.5</ele></trkpt>
    <trkpt lat="48.8272" lon="2.51678"><ele>72.2</ele></trkpt>
    <trkpt lat="48.82718" lon="2.51459"><ele>68.9</ele></trkpt>
    <trkpt lat="48.82732" lon="2.51159"><ele>65.5</ele></trkpt>
    <trkpt lat="48.82752" lon="2.51055"><ele>63.9</ele></trkpt>
    <trkpt lat="48.82756" lon="2.51002"><ele>63.2</ele></trkpt>
    <trkpt lat="48.82735" lon="2.50897"><ele>62.8</ele></trkpt>
    <trkpt lat="48.82666" lon="2.50645"><ele>60.1</ele></trkpt>
    <trkpt lat="48.82487" lon="2.50048"><ele>53.4</ele></trkpt>
    <trkpt lat="48.82462" lon="2.49977"><ele>51.9</ele></trkpt>
    <trkpt lat="48.82108" lon="2.48781"><ele>43.2</ele></trkpt>
    <trkpt lat="48.82051" lon="2.48581"><ele>42.7</ele></trkpt>
    <trkpt lat="48.82041" lon="2.48529"><ele>42.7</ele></trkpt>
    <trkpt lat="48.8203" lon="2.48523"><ele>42.7</ele></trkpt>
    <trkpt lat="48.82" lon="2.48429"><ele>43.1</ele></trkpt>
    <trkpt lat="48.81978" lon="2.48498"><ele>43.2</ele></trkpt>
    <trkpt lat="48.81911" lon="2.4881"><ele>43.0</ele></trkpt>
    <trkpt lat="48.81894" lon="2.48857"><ele>43.1</ele></trkpt>
    <trkpt lat="48.81839" lon="2.49117"><ele>43.9</ele></trkpt>
    <trkpt lat="48.8183" lon="2.49198"><ele>43.5</ele></trkpt>
    <trkpt lat="48.81582" lon="2.50366"><ele>41.5</ele></trkpt>
    <trkpt lat="48.8146" lon="2.50793"><ele>41.9</ele></trkpt>
    <trkpt lat="48.81393" lon="2.50954"><ele>41.7</ele></trkpt>
    <trkpt lat="48.81349" lon="2.51102"><ele>41.0</ele></trkpt>
    <trkpt lat="48.81339" lon="2.51121"><ele>40.4</ele></trkpt>
    <trkpt lat="48.81304" lon="2.51111"><ele>38.9</ele></trkpt>
    <trkpt lat="48.81043" lon="2.51007"><ele>41.0</ele></trkpt>
  </trkseg></trk>
</gpx>
