<?xml version="1.0" encoding="UTF-8"?>
<gpx version="1.1" creator="Club Cycliste USO" xmlns="http://www.topografix.com/GPX/1/1">
  <metadata><name>Guérard – 98 km</name><desc>98.1 km, D+ 516 m. Départ et arrivée : pont de Champigny.</desc></metadata>
  <trk><name>Guérard – 98 km</name><trkseg>
    <trkpt lat="48.81032" lon="2.51002"><ele>42.8</ele></trkpt>
    <trkpt lat="48.80962" lon="2.50978"><ele>41.5</ele></trkpt>
    <trkpt lat="48.80948" lon="2.50985"><ele>40.6</ele></trkpt>
    <trkpt lat="48.80921" lon="2.5131"><ele>36.0</ele></trkpt>
    <trkpt lat="48.80904" lon="2.51443"><ele>36.0</ele></trkpt>
    <trkpt lat="48.80844" lon="2.51671"><ele>35.8</ele></trkpt>
    <trkpt lat="48.80807" lon="2.51764"><ele>35.5</ele></trkpt>
    <trkpt lat="48.80747" lon="2.51865"><ele>35.3</ele></trkpt>
    <trkpt lat="48.8065" lon="2.51986"><ele>35.4</ele></trkpt>
    <trkpt lat="48.80464" lon="2.52147"><ele>35.1</ele></trkpt>
    <trkpt lat="48.80439" lon="2.52176"><ele>35.0</ele></trkpt>
    <trkpt lat="48.80421" lon="2.52175"><ele>35.0</ele></trkpt>
    <trkpt lat="48.80369" lon="2.52194"><ele>34.9</ele></trkpt>
    <trkpt lat="48.80244" lon="2.52224"><ele>34.9</ele></trkpt>
    <trkpt lat="48.80191" lon="2.5223"><ele>34.8</ele></trkpt>
    <trkpt lat="48.80156" lon="2.52229"><ele>34.7</ele></trkpt>
    <trkpt lat="48.79995" lon="2.52199"><ele>34.9</ele></trkpt>
    <trkpt lat="48.79888" lon="2.52207"><ele>35.1</ele></trkpt>
    <trkpt lat="48.79693" lon="2.52244"><ele>35.0</ele></trkpt>
    <trkpt lat="48.79392" lon="2.52185"><ele>35.0</ele></trkpt>
    <trkpt lat="48.79375" lon="2.5219"><ele>35.1</ele></trkpt>
    <trkpt lat="48.79303" lon="2.52184"><ele>35.1</ele></trkpt>
    <trkpt lat="48.79216" lon="2.52154"><ele>35.2</ele></trkpt>
    <trkpt lat="48.792" lon="2.52143"><ele>35.2</ele></trkpt>
    <trkpt lat="48.79195" lon="2.52118"><ele>35.3</ele></trkpt>
    <trkpt lat="48.792" lon="2.52064"><ele>35.4</ele></trkpt>
    <trkpt lat="48.79189" lon="2.52044"><ele>35.4</ele></trkpt>
    <trkpt lat="48.79172" lon="2.52043"><ele>35.5</ele></trkpt>
    <trkpt lat="48.79149" lon="2.52084"><ele>35.8</ele></trkpt>
    <trkpt lat="48.79135" lon="2.52099"><ele>36.1</ele></trkpt>
    <trkpt lat="48.79101" lon="2.52086"><ele>36.7</ele></trkpt>
    <trkpt lat="48.79085" lon="2.52092"><ele>37.5</ele></trkpt>
    <trkpt lat="48.79027" lon="2.5223"><ele>39.6</ele></trkpt>
    <trkpt lat="48.79016" lon="2.52239"><ele>39.0</ele></trkpt>
    <trkpt lat="48.78739" lon="2.52043"><ele>38.3</ele></trkpt>
    <trkpt lat="48.78437" lon="2.51655"><ele>39.2</ele></trkpt>
    <trkpt lat="48.78424" lon="2.51636"><ele>39.2</ele></trkpt>
    <trkpt lat="48.78383" lon="2.51547"><ele>38.7</ele></trkpt>
    <trkpt lat="48.7837" lon="2.51529"><ele>38.5</ele></trkpt>
    <trkpt lat="48.78335" lon="2.51517"><ele>38.3</ele></trkpt>
    <trkpt lat="48.7832" lon="2.51504"><ele>38.2</ele></trkpt>
    <trkpt lat="48.78142" lon="2.51274"><ele>39.7</ele></trkpt>
    <trkpt lat="48.78097" lon="2.51228"><ele>39.7</ele></trkpt>
    <trkpt lat="48.78092" lon="2.51243"><ele>39.9</ele></trkpt>
    <trkpt lat="48.78079" lon="2.52826"><ele>87.6</ele></trkpt>
    <trkpt lat="48.78083" lon="2.52879"><ele>88.0</ele></trkpt>
    <trkpt lat="48.78414" lon="2.5366"><ele>95.0</ele></trkpt>
    <trkpt lat="48.78423" lon="2.53683"><ele>94.5</ele></trkpt>
    <trkpt lat="48.78422" lon="2.5371"><ele>93.9</ele></trkpt>
    <trkpt lat="48.78394" lon="2.53744"><ele>92.3</ele></trkpt>
    <trkpt lat="48.78377" lon="2.53753"><ele>91.2</ele></trkpt>
    <trkpt lat="48.78274" lon="2.53802"><ele>84.9</ele></trkpt>
    <trkpt lat="48.78221" lon="2.53812"><ele>82.0</ele></trkpt>
    <trkpt lat="48.77951" lon="2.53664"><ele>65.9</ele></trkpt>
    <trkpt lat="48.77919" lon="2.53639"><ele>63.7</ele></trkpt>
    <trkpt lat="48.77898" lon="2.53596"><ele>61.7</ele></trkpt>
    <trkpt lat="48.77853" lon="2.53449"><ele>58.1</ele></trkpt>
    <trkpt lat="48.77842" lon="2.53428"><ele>57.8</ele></trkpt>
    <trkpt lat="48.77825" lon="2.53423"><ele>57.5</ele></trkpt>
    <trkpt lat="48.77668" lon="2.53451"><ele>58.4</ele></trkpt>
    <trkpt lat="48.77687" lon="2.53584"><ele>58.9</ele></trkpt>
    <trkpt lat="48.77743" lon="2.53755"><ele>64.5</ele></trkpt>
    <trkpt lat="48.77747" lon="2.53891"><ele>71.2</ele></trkpt>
    <trkpt lat="48.77739" lon="2.53944"><ele>73.8</ele></trkpt>
    <trkpt lat="48.77712" lon="2.54045"><ele>79.3</ele></trkpt>
    <trkpt lat="48.77701" lon="2.54066"><ele>80.6</ele></trkpt>
    <trkpt lat="48.77671" lon="2.54098"><ele>82.9</ele></trkpt>
    <trkpt lat="48.77664" lon="2.54122"><ele>83.8</ele></trkpt>
    <trkpt lat="48.77678" lon="2.54172"><ele>85.8</ele></trkpt>
    <trkpt lat="48.77759" lon="2.54385"><ele>90.9</ele></trkpt>
    <trkpt lat="48.77788" lon="2.54453"><ele>91.6</ele></trkpt>
    <trkpt lat="48.77836" lon="2.54535"><ele>91.7</ele></trkpt>
    <trkpt lat="48.77864" lon="2.54605"><ele>91.7</ele></trkpt>
    <trkpt lat="48.77876" lon="2.54656"><ele>91.9</ele></trkpt>
    <trkpt lat="48.77881" lon="2.54737"><ele>92.5</ele></trkpt>
    <trkpt lat="48.77874" lon="2.5479"><ele>92.9</ele></trkpt>
    <trkpt lat="48.77857" lon="2.54832"><ele>93.3</ele></trkpt>
    <trkpt lat="48.77628" lon="2.54992"><ele>98.2</ele></trkpt>
    <trkpt lat="48.77795" lon="2.55376"><ele>99.0</ele></trkpt>
    <trkpt lat="48.78052" lon="2.56065"><ele>101.0</ele></trkpt>
    <trkpt lat="48.78103" lon="2.56269"><ele>99.2</ele></trkpt>
    <trkpt lat="48.78134" lon="2.56425"><ele>97.8</ele></trkpt>
    <trkpt lat="48.7816" lon="2.56696"><ele>100.8</ele></trkpt>
    <trkpt lat="48.7818" lon="2.56994"><ele>103.6</ele></trkpt>
    <trkpt lat="48.7818" lon="2.5702"><ele>103.6</ele></trkpt>
    <trkpt lat="48.78156" lon="2.57123"><ele>103.5</ele></trkpt>
    <trkpt lat="48.78082" lon="2.57341"><ele>103.2</ele></trkpt>
    <trkpt lat="48.78038" lon="2.57491"><ele>103.0</ele></trkpt>
    <trkpt lat="48.7797" lon="2.58027"><ele>102.6</ele></trkpt>
    <trkpt lat="48.77888" lon="2.58474"><ele>102.7</ele></trkpt>
    <trkpt lat="48.77866" lon="2.58548"><ele>102.6</ele></trkpt>
    <trkpt lat="48.77838" lon="2.58568"><ele>102.7</ele></trkpt>
    <trkpt lat="48.77805" lon="2.58547"><ele>103.0</ele></trkpt>
    <trkpt lat="48.77715" lon="2.58549"><ele>104.0</ele></trkpt>
    <trkpt lat="48.77662" lon="2.58564"><ele>104.4</ele></trkpt>
    <trkpt lat="48.77611" lon="2.58591"><ele>105.0</ele></trkpt>
    <trkpt lat="48.77596" lon="2.58605"><ele>105.1</ele></trkpt>
    <trkpt lat="48.77573" lon="2.58647"><ele>105.4</ele></trkpt>
    <trkpt lat="48.77547" lon="2.58748"><ele>105.8</ele></trkpt>
    <trkpt lat="48.775" lon="2.59234"><ele>105.6</ele></trkpt>
    <trkpt lat="48.77496" lon="2.59259"><ele>105.6</ele></trkpt>
    <trkpt lat="48.77484" lon="2.59276"><ele>105.6</ele></trkpt>
    <trkpt lat="48.77486" lon="2.59299"><ele>105.5</ele></trkpt>
    <trkpt lat="48.7745" lon="2.59424"><ele>105.0</ele></trkpt>
    <trkpt lat="48.77447" lon="2.59477"><ele>104.8</ele></trkpt>
    <trkpt lat="48.77438" lon="2.59496"><ele>104.8</ele></trkpt>
    <trkpt lat="48.77445" lon="2.59516"><ele>104.7</ele></trkpt>
    <trkpt lat="48.77442" lon="2.5957"><ele>104.5</ele></trkpt>
    <trkpt lat="48.77465" lon="2.59869"><ele>104.8</ele></trkpt>
    <trkpt lat="48.77466" lon="2.60086"><ele>105.1</ele></trkpt>
    <trkpt lat="48.7747" lon="2.60113"><ele>105.1</ele></trkpt>
    <trkpt lat="48.77504" lon="2.60239"><ele>105.4</ele></trkpt>
    <trkpt lat="48.77504" lon="2.60264"><ele>105.4</ele></trkpt>
    <trkpt lat="48.77493" lon="2.60286"><ele>105.4</ele></trkpt>
    <trkpt lat="48.77488" lon="2.60312"><ele>105.5</ele></trkpt>
    <trkpt lat="48.7749" lon="2.60338"><ele>105.4</ele></trkpt>
    <trkpt lat="48.77508" lon="2.60415"><ele>105.5</ele></trkpt>
    <trkpt lat="48.77511" lon="2.60442"><ele>105.6</ele></trkpt>
    <trkpt lat="48.77473" lon="2.60652"><ele>105.9</ele></trkpt>
    <trkpt lat="48.77459" lon="2.60702"><ele>105.7</ele></trkpt>
    <trkpt lat="48.7743" lon="2.60731"><ele>105.6</ele></trkpt>
    <trkpt lat="48.77327" lon="2.60782"><ele>105.5</ele></trkpt>
    <trkpt lat="48.77266" lon="2.60839"><ele>105.6</ele></trkpt>
    <trkpt lat="48.77224" lon="2.6089"><ele>105.5</ele></trkpt>
    <trkpt lat="48.77054" lon="2.61133"><ele>105.6</ele></trkpt>
    <trkpt lat="48.76992" lon="2.61189"><ele>105.6</ele></trkpt>
    <trkpt lat="48.76924" lon="2.61222"><ele>105.1</ele></trkpt>
    <trkpt lat="48.76817" lon="2.61244"><ele>104.5</ele></trkpt>
    <trkpt lat="48.7675" lon="2.61281"><ele>104.1</ele></trkpt>
    <trkpt lat="48.76573" lon="2.61337"><ele>103.2</ele></trkpt>
    <trkpt lat="48.76497" lon="2.61406"><ele>102.9</ele></trkpt>
    <trkpt lat="48.76455" lon="2.61458"><ele>102.7</ele></trkpt>
    <trkpt lat="48.76408" lon="2.61499"><ele>102.6</ele></trkpt>
    <trkpt lat="48.76307" lon="2.61556"><ele>102.7</ele></trkpt>
    <trkpt lat="48.76272" lon="2.61566"><ele>102.7</ele></trkpt>
    <trkpt lat="48.76236" lon="2.61567"><ele>102.6</ele></trkpt>
    <trkpt lat="48.76201" lon="2.61557"><ele>102.5</ele></trkpt>
    <trkpt lat="48.7614" lon="2.61501"><ele>102.2</ele></trkpt>
    <trkpt lat="48.76106" lon="2.61487"><ele>101.9</ele></trkpt>
    <trkpt lat="48.75962" lon="2.61471"><ele>101.4</ele></trkpt>
    <trkpt lat="48.75928" lon="2.61483"><ele>101.2</ele></trkpt>
    <trkpt lat="48.75897" lon="2.61511"><ele>101.1</ele></trkpt>
    <trkpt lat="48.75861" lon="2.61517"><ele>100.9</ele></trkpt>
    <trkpt lat="48.75753" lon="2.61516"><ele>100.5</ele></trkpt>
    <trkpt lat="48.75556" lon="2.61487"><ele>99.5</ele></trkpt>
    <trkpt lat="48.75183" lon="2.61397"><ele>99.1</ele></trkpt>
    <trkpt lat="48.75149" lon="2.61384"><ele>99.2</ele></trkpt>
    <trkpt lat="48.75122" lon="2.61349"><ele>99.5</ele></trkpt>
    <trkpt lat="48.75073" lon="2.61268"><ele>100.0</ele></trkpt>
    <trkpt lat="48.75058" lon="2.61256"><ele>100.0</ele></trkpt>
    <trkpt lat="48.7504" lon="2.61251"><ele>100.0</ele></trkpt>
    <trkpt lat="48.74968" lon="2.61249"><ele>99.9</ele></trkpt>
    <trkpt lat="48.74951" lon="2.61255"><ele>99.9</ele></trkpt>
    <trkpt lat="48.7488" lon="2.61337"><ele>99.5</ele></trkpt>
    <trkpt lat="48.74845" lon="2.61348"><ele>99.3</ele></trkpt>
    <trkpt lat="48.74737" lon="2.61346"><ele>98.8</ele></trkpt>
    <trkpt lat="48.74594" lon="2.61323"><ele>98.1</ele></trkpt>
    <trkpt lat="48.74558" lon="2.61329"><ele>97.9</ele></trkpt>
    <trkpt lat="48.7454" lon="2.61325"><ele>97.8</ele></trkpt>
    <trkpt lat="48.74473" lon="2.61288"><ele>97.7</ele></trkpt>
    <trkpt lat="48.74456" lon="2.6129"><ele>97.6</ele></trkpt>
    <trkpt lat="48.7444" lon="2.61282"><ele>97.6</ele></trkpt>
    <trkpt lat="48.74433" lon="2.61304"><ele>97.6</ele></trkpt>
    <trkpt lat="48.74459" lon="2.61329"><ele>97.5</ele></trkpt>
    <trkpt lat="48.74472" lon="2.61348"><ele>97.5</ele></trkpt>
    <trkpt lat="48.74505" lon="2.61366"><ele>97.4</ele></trkpt>
    <trkpt lat="48.74518" lon="2.61385"><ele>97.4</ele></trkpt>
    <trkpt lat="48.74531" lon="2.61435"><ele>97.4</ele></trkpt>
    <trkpt lat="48.74543" lon="2.61455"><ele>97.4</ele></trkpt>
    <trkpt lat="48.74674" lon="2.61543"><ele>97.6</ele></trkpt>
    <trkpt lat="48.74692" lon="2.61547"><ele>97.6</ele></trkpt>
    <trkpt lat="48.74706" lon="2.6156"><ele>97.7</ele></trkpt>
    <trkpt lat="48.7472" lon="2.61552"><ele>97.8</ele></trkpt>
    <trkpt lat="48.74754" lon="2.61569"><ele>97.9</ele></trkpt>
    <trkpt lat="48.74844" lon="2.61662"><ele>98.1</ele></trkpt>
    <trkpt lat="48.74848" lon="2.61706"><ele>98.1</ele></trkpt>
    <trkpt lat="48.74775" lon="2.61861"><ele>98.0</ele></trkpt>
    <trkpt lat="48.74761" lon="2.61872"><ele>97.8</ele></trkpt>
    <trkpt lat="48.74758" lon="2.61895"><ele>97.6</ele></trkpt>
    <trkpt lat="48.74733" lon="2.61934"><ele>97.2</ele></trkpt>
    <trkpt lat="48.74701" lon="2.61999"><ele>96.8</ele></trkpt>
    <trkpt lat="48.74684" lon="2.62048"><ele>96.5</ele></trkpt>
    <trkpt lat="48.74677" lon="2.62101"><ele>96.1</ele></trkpt>
    <trkpt lat="48.74681" lon="2.62127"><ele>96.0</ele></trkpt>
    <trkpt lat="48.74696" lon="2.62176"><ele>95.7</ele></trkpt>
    <trkpt lat="48.74777" lon="2.62323"><ele>94.3</ele></trkpt>
    <trkpt lat="48.74784" lon="2.62348"><ele>94.0</ele></trkpt>
    <trkpt lat="48.74788" lon="2.62374"><ele>93.7</ele></trkpt>
    <trkpt lat="48.74788" lon="2.62429"><ele>93.1</ele></trkpt>
    <trkpt lat="48.74796" lon="2.62481"><ele>92.0</ele></trkpt>
    <trkpt lat="48.74805" lon="2.62505"><ele>91.4</ele></trkpt>
    <trkpt lat="48.74804" lon="2.62524"><ele>91.1</ele></trkpt>
    <trkpt lat="48.74812" lon="2.62545"><ele>90.8</ele></trkpt>
    <trkpt lat="48.74823" lon="2.62557"><ele>90.7</ele></trkpt>
    <trkpt lat="48.74829" lon="2.62582"><ele>90.8</ele></trkpt>
    <trkpt lat="48.74859" lon="2.6265"><ele>90.8</ele></trkpt>
    <trkpt lat="48.74884" lon="2.62722"><ele>91.0</ele></trkpt>
    <trkpt lat="48.74914" lon="2.62991"><ele>91.3</ele></trkpt>
    <trkpt lat="48.74933" lon="2.63068"><ele>91.5</ele></trkpt>
    <trkpt lat="48.7496" lon="2.63138"><ele>91.7</ele></trkpt>
    <trkpt lat="48.75006" lon="2.63222"><ele>92.4</ele></trkpt>
    <trkpt lat="48.75018" lon="2.63272"><ele>92.7</ele></trkpt>
    <trkpt lat="48.75017" lon="2.633"><ele>92.7</ele></trkpt>
    <trkpt lat="48.75" lon="2.63377"><ele>93.1</ele></trkpt>
    <trkpt lat="48.74985" lon="2.63427"><ele>93.6</ele></trkpt>
    <trkpt lat="48.74964" lon="2.63471"><ele>94.3</ele></trkpt>
    <trkpt lat="48.7488" lon="2.63517"><ele>95.4</ele></trkpt>
    <trkpt lat="48.748" lon="2.63578"><ele>98.5</ele></trkpt>
    <trkpt lat="48.74786" lon="2.63596"><ele>99.1</ele></trkpt>
    <trkpt lat="48.74777" lon="2.63619"><ele>99.8</ele></trkpt>
    <trkpt lat="48.74772" lon="2.63645"><ele>100.5</ele></trkpt>
    <trkpt lat="48.74773" lon="2.63672"><ele>101.1</ele></trkpt>
    <trkpt lat="48.7478" lon="2.63696"><ele>101.6</ele></trkpt>
    <trkpt lat="48.74868" lon="2.63834"><ele>104.2</ele></trkpt>
    <trkpt lat="48.75011" lon="2.63999"><ele>107.0</ele></trkpt>
    <trkpt lat="48.75027" lon="2.64043"><ele>107.6</ele></trkpt>
    <trkpt lat="48.7504" lon="2.64056"><ele>107.9</ele></trkpt>
    <trkpt lat="48.75056" lon="2.64058"><ele>108.2</ele></trkpt>
    <trkpt lat="48.75103" lon="2.64097"><ele>108.6</ele></trkpt>
    <trkpt lat="48.75138" lon="2.64159"><ele>108.6</ele></trkpt>
    <trkpt lat="48.75204" lon="2.64352"><ele>108.1</ele></trkpt>
    <trkpt lat="48.75248" lon="2.64531"><ele>107.2</ele></trkpt>
    <trkpt lat="48.75278" lon="2.64599"><ele>106.6</ele></trkpt>
    <trkpt lat="48.75317" lon="2.64654"><ele>106.0</ele></trkpt>
    <trkpt lat="48.75349" lon="2.6472"><ele>105.4</ele></trkpt>
    <trkpt lat="48.75397" lon="2.64925"><ele>104.7</ele></trkpt>
    <trkpt lat="48.75509" lon="2.65298"><ele>102.5</ele></trkpt>
    <trkpt lat="48.75647" lon="2.65548"><ele>101.7</ele></trkpt>
    <trkpt lat="48.75779" lon="2.65807"><ele>102.0</ele></trkpt>
    <trkpt lat="48.75876" lon="2.65969"><ele>102.7</ele></trkpt>
    <trkpt lat="48.75952" lon="2.66084"><ele>103.3</ele></trkpt>
    <trkpt lat="48.76075" lon="2.66245"><ele>104.4</ele></trkpt>
    <trkpt lat="48.76087" lon="2.66264"><ele>104.6</ele></trkpt>
    <trkpt lat="48.76092" lon="2.66286"><ele>104.7</ele></trkpt>
    <trkpt lat="48.76108" lon="2.66287"><ele>104.9</ele></trkpt>
    <trkpt lat="48.76227" lon="2.66452"><ele>104.8</ele></trkpt>
    <trkpt lat="48.76271" lon="2.66499"><ele>104.7</ele></trkpt>
    <trkpt lat="48.7632" lon="2.66527"><ele>104.8</ele></trkpt>
    <trkpt lat="48.76336" lon="2.66519"><ele>104.8</ele></trkpt>
    <trkpt lat="48.76407" lon="2.66532"><ele>105.1</ele></trkpt>
    <trkpt lat="48.76461" lon="2.66525"><ele>105.3</ele></trkpt>
    <trkpt lat="48.76549" lon="2.66501"><ele>105.9</ele></trkpt>
    <trkpt lat="48.76585" lon="2.66499"><ele>106.1</ele></trkpt>
    <trkpt lat="48.76619" lon="2.66516"><ele>106.3</ele></trkpt>
    <trkpt lat="48.76648" lon="2.66548"><ele>106.5</ele></trkpt>
    <trkpt lat="48.76698" lon="2.6666"><ele>106.9</ele></trkpt>
    <trkpt lat="48.76721" lon="2.66735"><ele>107.1</ele></trkpt>
    <trkpt lat="48.76738" lon="2.66812"><ele>107.3</ele></trkpt>
    <trkpt lat="48.76747" lon="2.66835"><ele>107.5</ele></trkpt>
    <trkpt lat="48.76747" lon="2.66882"><ele>107.6</ele></trkpt>
    <trkpt lat="48.76763" lon="2.66895"><ele>107.7</ele></trkpt>
    <trkpt lat="48.76761" lon="2.66922"><ele>107.7</ele></trkpt>
    <trkpt lat="48.76803" lon="2.67298"><ele>107.5</ele></trkpt>
    <trkpt lat="48.76834" lon="2.67343"><ele>107.5</ele></trkpt>
    <trkpt lat="48.76921" lon="2.67367"><ele>107.8</ele></trkpt>
    <trkpt lat="48.77282" lon="2.67613"><ele>109.0</ele></trkpt>
    <trkpt lat="48.77291" lon="2.67633"><ele>109.1</ele></trkpt>
    <trkpt lat="48.77321" lon="2.67638"><ele>109.4</ele></trkpt>
    <trkpt lat="48.77567" lon="2.67804"><ele>111.3</ele></trkpt>
    <trkpt lat="48.77578" lon="2.67824"><ele>111.6</ele></trkpt>
    <trkpt lat="48.77595" lon="2.67825"><ele>112.0</ele></trkpt>
    <trkpt lat="48.77856" lon="2.68004"><ele>114.2</ele></trkpt>
    <trkpt lat="48.7787" lon="2.68019"><ele>114.3</ele></trkpt>
    <trkpt lat="48.77879" lon="2.68041"><ele>114.5</ele></trkpt>
    <trkpt lat="48.77895" lon="2.68033"><ele>114.7</ele></trkpt>
    <trkpt lat="48.77911" lon="2.68042"><ele>115.2</ele></trkpt>
    <trkpt lat="48.78058" lon="2.68144"><ele>116.3</ele></trkpt>
    <trkpt lat="48.78296" lon="2.68339"><ele>117.0</ele></trkpt>
    <trkpt lat="48.78376" lon="2.68399"><ele>117.2</ele></trkpt>
    <trkpt lat="48.78662" lon="2.68562"><ele>118.4</ele></trkpt>
    <trkpt lat="48.78958" lon="2.68762"><ele>117.4</ele></trkpt>
    <trkpt lat="48.78976" lon="2.68766"><ele>116.4</ele></trkpt>
    <trkpt lat="48.78985" lon="2.68782"><ele>115.5</ele></trkpt>
    <trkpt lat="48.79001" lon="2.68781"><ele>114.5</ele></trkpt>
    <trkpt lat="48.79135" lon="2.69198"><ele>115.7</ele></trkpt>
    <trkpt lat="48.79531" lon="2.70485"><ele>114.6</ele></trkpt>
    <trkpt lat="48.7954" lon="2.70507"><ele>114.6</ele></trkpt>
    <trkpt lat="48.79555" lon="2.7052"><ele>114.6</ele></trkpt>
    <trkpt lat="48.79591" lon="2.70522"><ele>114.7</ele></trkpt>
    <trkpt lat="48.79605" lon="2.70536"><ele>114.9</ele></trkpt>
    <trkpt lat="48.79617" lon="2.70616"><ele>115.9</ele></trkpt>
    <trkpt lat="48.79621" lon="2.7067"><ele>116.1</ele></trkpt>
    <trkpt lat="48.79611" lon="2.71189"><ele>116.4</ele></trkpt>
    <trkpt lat="48.79597" lon="2.71351"><ele>116.7</ele></trkpt>
    <trkpt lat="48.79584" lon="2.714"><ele>116.9</ele></trkpt>
    <trkpt lat="48.79589" lon="2.71425"><ele>117.0</ele></trkpt>
    <trkpt lat="48.796" lon="2.71445"><ele>116.9</ele></trkpt>
    <trkpt lat="48.79604" lon="2.71471"><ele>116.8</ele></trkpt>
    <trkpt lat="48.7959" lon="2.72317"><ele>118.1</ele></trkpt>
    <trkpt lat="48.79592" lon="2.72371"><ele>118.1</ele></trkpt>
    <trkpt lat="48.79605" lon="2.72422"><ele>118.1</ele></trkpt>
    <trkpt lat="48.79732" lon="2.72784"><ele>121.6</ele></trkpt>
    <trkpt lat="48.79956" lon="2.73376"><ele>122.9</ele></trkpt>
    <trkpt lat="48.80285" lon="2.74705"><ele>122.8</ele></trkpt>
    <trkpt lat="48.80346" lon="2.74932"><ele>122.6</ele></trkpt>
    <trkpt lat="48.80618" lon="2.75854"><ele>125.8</ele></trkpt>
    <trkpt lat="48.80628" lon="2.75907"><ele>126.0</ele></trkpt>
    <trkpt lat="48.80631" lon="2.75961"><ele>126.5</ele></trkpt>
    <trkpt lat="48.80661" lon="2.76807"><ele>128.6</ele></trkpt>
    <trkpt lat="48.80833" lon="2.77726"><ele>126.5</ele></trkpt>
    <trkpt lat="48.8096" lon="2.78237"><ele>124.4</ele></trkpt>
    <trkpt lat="48.80998" lon="2.7833"><ele>123.9</ele></trkpt>
    <trkpt lat="48.81029" lon="2.78429"><ele>123.2</ele></trkpt>
    <trkpt lat="48.81038" lon="2.78481"><ele>122.8</ele></trkpt>
    <trkpt lat="48.81046" lon="2.78562"><ele>122.3</ele></trkpt>
    <trkpt lat="48.81048" lon="2.78753"><ele>121.0</ele></trkpt>
    <trkpt lat="48.81059" lon="2.78833"><ele>120.4</ele></trkpt>
    <trkpt lat="48.81084" lon="2.78906"><ele>119.9</ele></trkpt>
    <trkpt lat="48.81118" lon="2.78968"><ele>119.5</ele></trkpt>
    <trkpt lat="48.8118" lon="2.79024"><ele>119.0</ele></trkpt>
    <trkpt lat="48.8125" lon="2.79048"><ele>118.9</ele></trkpt>
    <trkpt lat="48.81357" lon="2.79039"><ele>118.9</ele></trkpt>
    <trkpt lat="48.81393" lon="2.79042"><ele>119.0</ele></trkpt>
    <trkpt lat="48.81428" lon="2.79052"><ele>119.1</ele></trkpt>
    <trkpt lat="48.81474" lon="2.79094"><ele>119.4</ele></trkpt>
    <trkpt lat="48.815" lon="2.79131"><ele>119.6</ele></trkpt>
    <trkpt lat="48.8156" lon="2.79268"><ele>120.6</ele></trkpt>
    <trkpt lat="48.81644" lon="2.7957"><ele>121.1</ele></trkpt>
    <trkpt lat="48.81648" lon="2.79596"><ele>121.1</ele></trkpt>
    <trkpt lat="48.81646" lon="2.7965"><ele>121.3</ele></trkpt>
    <trkpt lat="48.816" lon="2.79942"><ele>122.2</ele></trkpt>
    <trkpt lat="48.81596" lon="2.80051"><ele>122.3</ele></trkpt>
    <trkpt lat="48.81596" lon="2.80324"><ele>121.4</ele></trkpt>
    <trkpt lat="48.81654" lon="2.8078"><ele>121.5</ele></trkpt>
    <trkpt lat="48.81705" lon="2.81013"><ele>122.5</ele></trkpt>
    <trkpt lat="48.81761" lon="2.81301"><ele>123.7</ele></trkpt>
    <trkpt lat="48.81777" lon="2.81408"><ele>124.1</ele></trkpt>
    <trkpt lat="48.81795" lon="2.81597"><ele>124.7</ele></trkpt>
    <trkpt lat="48.81837" lon="2.81805"><ele>125.2</ele></trkpt>
    <trkpt lat="48.81837" lon="2.81859"><ele>125.3</ele></trkpt>
    <trkpt lat="48.8183" lon="2.81884"><ele>125.4</ele></trkpt>
    <trkpt lat="48.81807" lon="2.81926"><ele>125.5</ele></trkpt>
    <trkpt lat="48.81744" lon="2.82024"><ele>125.6</ele></trkpt>
    <trkpt lat="48.81717" lon="2.82095"><ele>125.8</ele></trkpt>
    <trkpt lat="48.81572" lon="2.8277"><ele>126.6</ele></trkpt>
    <trkpt lat="48.8156" lon="2.82789"><ele>126.6</ele></trkpt>
    <trkpt lat="48.81496" lon="2.82839"><ele>126.3</ele></trkpt>
    <trkpt lat="48.81448" lon="2.82985"><ele>125.8</ele></trkpt>
    <trkpt lat="48.81414" lon="2.82974"><ele>125.8</ele></trkpt>
    <trkpt lat="48.81414" lon="2.83055"><ele>125.9</ele></trkpt>
    <trkpt lat="48.81437" lon="2.83408"><ele>125.0</ele></trkpt>
    <trkpt lat="48.81497" lon="2.84057"><ele>123.9</ele></trkpt>
    <trkpt lat="48.81498" lon="2.84139"><ele>124.2</ele></trkpt>
    <trkpt lat="48.81481" lon="2.84184"><ele>124.5</ele></trkpt>
    <trkpt lat="48.81484" lon="2.8421"><ele>124.6</ele></trkpt>
    <trkpt lat="48.81507" lon="2.84249"><ele>125.0</ele></trkpt>
    <trkpt lat="48.81519" lon="2.843"><ele>124.9</ele></trkpt>
    <trkpt lat="48.81543" lon="2.84571"><ele>125.5</ele></trkpt>
    <trkpt lat="48.81573" lon="2.8484"><ele>126.6</ele></trkpt>
    <trkpt lat="48.81665" lon="2.85396"><ele>128.5</ele></trkpt>
    <trkpt lat="48.81695" lon="2.8561"><ele>128.9</ele></trkpt>
    <trkpt lat="48.81844" lon="2.86539"><ele>130.8</ele></trkpt>
    <trkpt lat="48.8186" lon="2.86617"><ele>130.9</ele></trkpt>
    <trkpt lat="48.82166" lon="2.87514"><ele>129.9</ele></trkpt>
    <trkpt lat="48.82188" lon="2.87557"><ele>129.8</ele></trkpt>
    <trkpt lat="48.82232" lon="2.87603"><ele>129.6</ele></trkpt>
    <trkpt lat="48.82241" lon="2.87627"><ele>129.6</ele></trkpt>
    <trkpt lat="48.82242" lon="2.8768"><ele>129.6</ele></trkpt>
    <trkpt lat="48.82234" lon="2.87703"><ele>129.5</ele></trkpt>
    <trkpt lat="48.82239" lon="2.87727"><ele>129.5</ele></trkpt>
    <trkpt lat="48.82251" lon="2.87777"><ele>129.4</ele></trkpt>
    <trkpt lat="48.82353" lon="2.88066"><ele>128.2</ele></trkpt>
    <trkpt lat="48.82366" lon="2.88117"><ele>127.8</ele></trkpt>
    <trkpt lat="48.82373" lon="2.88198"><ele>127.2</ele></trkpt>
    <trkpt lat="48.82397" lon="2.88239"><ele>126.7</ele></trkpt>
    <trkpt lat="48.82467" lon="2.88323"><ele>125.1</ele></trkpt>
    <trkpt lat="48.82493" lon="2.88362"><ele>124.5</ele></trkpt>
    <trkpt lat="48.82639" lon="2.88672"><ele>114.0</ele></trkpt>
    <trkpt lat="48.82722" lon="2.88915"><ele>106.9</ele></trkpt>
    <trkpt lat="48.82883" lon="2.89434"><ele>95.0</ele></trkpt>
    <trkpt lat="48.82895" lon="2.89514"><ele>92.4</ele></trkpt>
    <trkpt lat="48.8289" lon="2.89732"><ele>82.6</ele></trkpt>
    <trkpt lat="48.82893" lon="2.89759"><ele>81.2</ele></trkpt>
    <trkpt lat="48.82902" lon="2.89782"><ele>79.8</ele></trkpt>
    <trkpt lat="48.82936" lon="2.89793"><ele>76.7</ele></trkpt>
    <trkpt lat="48.82951" lon="2.89807"><ele>75.2</ele></trkpt>
    <trkpt lat="48.82978" lon="2.89936"><ele>67.7</ele></trkpt>
    <trkpt lat="48.83004" lon="2.90095"><ele>60.1</ele></trkpt>
    <trkpt lat="48.82996" lon="2.90119"><ele>58.9</ele></trkpt>
    <trkpt lat="48.82981" lon="2.90134"><ele>57.4</ele></trkpt>
    <trkpt lat="48.82975" lon="2.90155"><ele>56.0</ele></trkpt>
    <trkpt lat="48.82988" lon="2.9029"><ele>51.2</ele></trkpt>
    <trkpt lat="48.82983" lon="2.90453"><ele>48.4</ele></trkpt>
    <trkpt lat="48.82995" lon="2.90561"><ele>47.8</ele></trkpt>
    <trkpt lat="48.83033" lon="2.90772"><ele>49.4</ele></trkpt>
    <trkpt lat="48.83029" lon="2.90798"><ele>50.0</ele></trkpt>
    <trkpt lat="48.82988" lon="2.90887"><ele>52.7</ele></trkpt>
    <trkpt lat="48.82988" lon="2.90913"><ele>53.8</ele></trkpt>
    <trkpt lat="48.82997" lon="2.90937"><ele>54.9</ele></trkpt>
    <trkpt lat="48.83012" lon="2.90949"><ele>56.1</ele></trkpt>
    <trkpt lat="48.83118" lon="2.90919"><ele>61.8</ele></trkpt>
    <trkpt lat="48.83136" lon="2.90922"><ele>63.2</ele></trkpt>
    <trkpt lat="48.8315" lon="2.90937"><ele>64.8</ele></trkpt>
    <trkpt lat="48.83157" lon="2.90962"><ele>66.6</ele></trkpt>
    <trkpt lat="48.83151" lon="2.90987"><ele>68.4</ele></trkpt>
    <trkpt lat="48.83136" lon="2.91"><ele>70.1</ele></trkpt>
    <trkpt lat="48.83051" lon="2.91043"><ele>76.9</ele></trkpt>
    <trkpt lat="48.83037" lon="2.9106"><ele>78.4</ele></trkpt>
    <trkpt lat="48.83038" lon="2.91087"><ele>80.0</ele></trkpt>
    <trkpt lat="48.83051" lon="2.91102"><ele>81.6</ele></trkpt>
    <trkpt lat="48.83069" lon="2.91108"><ele>83.0</ele></trkpt>
    <trkpt lat="48.83157" lon="2.9113"><ele>89.6</ele></trkpt>
    <trkpt lat="48.83171" lon="2.91146"><ele>91.2</ele></trkpt>
    <trkpt lat="48.83175" lon="2.91171"><ele>92.7</ele></trkpt>
    <trkpt lat="48.83147" lon="2.9124"><ele>96.8</ele></trkpt>
    <trkpt lat="48.8314" lon="2.91265"><ele>97.9</ele></trkpt>
    <trkpt lat="48.8314" lon="2.91292"><ele>99.0</ele></trkpt>
    <trkpt lat="48.83184" lon="2.91528"><ele>106.9</ele></trkpt>
    <trkpt lat="48.832" lon="2.91718"><ele>112.5</ele></trkpt>
    <trkpt lat="48.83172" lon="2.91876"><ele>115.6</ele></trkpt>
    <trkpt lat="48.83148" lon="2.92339"><ele>119.3</ele></trkpt>
    <trkpt lat="48.83151" lon="2.9242"><ele>119.7</ele></trkpt>
    <trkpt lat="48.83166" lon="2.92555"><ele>120.3</ele></trkpt>
    <trkpt lat="48.83205" lon="2.92708"><ele>120.9</ele></trkpt>
    <trkpt lat="48.83195" lon="2.92925"><ele>122.0</ele></trkpt>
    <trkpt lat="48.83199" lon="2.92951"><ele>122.2</ele></trkpt>
    <trkpt lat="48.83199" lon="2.93087"><ele>123.6</ele></trkpt>
    <trkpt lat="48.83205" lon="2.93111"><ele>123.8</ele></trkpt>
    <trkpt lat="48.8322" lon="2.93126"><ele>124.1</ele></trkpt>
    <trkpt lat="48.83253" lon="2.93145"><ele>124.5</ele></trkpt>
    <trkpt lat="48.83267" lon="2.93163"><ele>124.6</ele></trkpt>
    <trkpt lat="48.83275" lon="2.93187"><ele>124.8</ele></trkpt>
    <trkpt lat="48.83321" lon="2.93365"><ele>127.9</ele></trkpt>
    <trkpt lat="48.83382" lon="2.93532"><ele>131.2</ele></trkpt>
    <trkpt lat="48.83398" lon="2.93611"><ele>132.9</ele></trkpt>
    <trkpt lat="48.83408" lon="2.93719"><ele>135.1</ele></trkpt>
    <trkpt lat="48.83401" lon="2.93855"><ele>137.6</ele></trkpt>
    <trkpt lat="48.83403" lon="2.94128"><ele>141.4</ele></trkpt>
    <trkpt lat="48.83393" lon="2.94319"><ele>143.9</ele></trkpt>
    <trkpt lat="48.83391" lon="2.94346"><ele>144.3</ele></trkpt>
    <trkpt lat="48.83373" lon="2.94423"><ele>145.4</ele></trkpt>
    <trkpt lat="48.83346" lon="2.94493"><ele>146.4</ele></trkpt>
    <trkpt lat="48.83234" lon="2.9467"><ele>146.7</ele></trkpt>
    <trkpt lat="48.83126" lon="2.94815"><ele>144.9</ele></trkpt>
    <trkpt lat="48.83077" lon="2.94846"><ele>142.7</ele></trkpt>
    <trkpt lat="48.82785" lon="2.94984"><ele>126.6</ele></trkpt>
    <trkpt lat="48.82768" lon="2.94993"><ele>125.8</ele></trkpt>
    <trkpt lat="48.82754" lon="2.95011"><ele>124.9</ele></trkpt>
    <trkpt lat="48.82749" lon="2.95037"><ele>123.8</ele></trkpt>
    <trkpt lat="48.82756" lon="2.95061"><ele>122.6</ele></trkpt>
    <trkpt lat="48.82822" lon="2.95225"><ele>113.8</ele></trkpt>
    <trkpt lat="48.82834" lon="2.95276"><ele>111.4</ele></trkpt>
    <trkpt lat="48.82882" lon="2.95707"><ele>90.5</ele></trkpt>
    <trkpt lat="48.82876" lon="2.95731"><ele>89.1</ele></trkpt>
    <trkpt lat="48.82862" lon="2.95718"><ele>87.4</ele></trkpt>
    <trkpt lat="48.82771" lon="2.95548"><ele>73.9</ele></trkpt>
    <trkpt lat="48.8273" lon="2.95496"><ele>69.7</ele></trkpt>
    <trkpt lat="48.82679" lon="2.95466"><ele>65.4</ele></trkpt>
    <trkpt lat="48.82609" lon="2.95447"><ele>60.7</ele></trkpt>
    <trkpt lat="48.82592" lon="2.95448"><ele>60.0</ele></trkpt>
    <trkpt lat="48.82545" lon="2.95564"><ele>57.7</ele></trkpt>
    <trkpt lat="48.82498" lon="2.95648"><ele>55.9</ele></trkpt>
    <trkpt lat="48.82461" lon="2.95706"><ele>54.4</ele></trkpt>
    <trkpt lat="48.82392" lon="2.95789"><ele>53.2</ele></trkpt>
    <trkpt lat="48.82303" lon="2.95793"><ele>54.2</ele></trkpt>
    <trkpt lat="48.82232" lon="2.95812"><ele>54.8</ele></trkpt>
    <trkpt lat="48.82061" lon="2.95899"><ele>53.0</ele></trkpt>
    <trkpt lat="48.82048" lon="2.95893"><ele>52.7</ele></trkpt>
    <trkpt lat="48.82022" lon="2.95822"><ele>51.8</ele></trkpt>
    <trkpt lat="48.81999" lon="2.9578"><ele>51.4</ele></trkpt>
    <trkpt lat="48.81932" lon="2.95741"><ele>50.2</ele></trkpt>
    <trkpt lat="48.81915" lon="2.95735"><ele>49.8</ele></trkpt>
    <trkpt lat="48.81807" lon="2.95741"><ele>47.0</ele></trkpt>
    <trkpt lat="48.81591" lon="2.95725"><ele>47.8</ele></trkpt>
    <trkpt lat="48.81432" lon="2.95685"><ele>50.3</ele></trkpt>
    <trkpt lat="48.81381" lon="2.9566"><ele>52.2</ele></trkpt>
    <trkpt lat="48.81373" lon="2.95636"><ele>53.0</ele></trkpt>
    <trkpt lat="48.81358" lon="2.95502"><ele>57.3</ele></trkpt>
    <trkpt lat="48.81312" lon="2.95266"><ele>64.5</ele></trkpt>
    <trkpt lat="48.81297" lon="2.95159"><ele>67.8</ele></trkpt>
    <trkpt lat="48.81296" lon="2.9505"><ele>71.5</ele></trkpt>
    <trkpt lat="48.81305" lon="2.9486"><ele>77.1</ele></trkpt>
    <trkpt lat="48.81286" lon="2.94506"><ele>86.4</ele></trkpt>
    <trkpt lat="48.81327" lon="2.94185"><ele>90.5</ele></trkpt>
    <trkpt lat="48.81423" lon="2.93745"><ele>91.5</ele></trkpt>
    <trkpt lat="48.81463" lon="2.93535"><ele>92.0</ele></trkpt>
    <trkpt lat="48.81501" lon="2.93411"><ele>92.8</ele></trkpt>
    <trkpt lat="48.81517" lon="2.93333"><ele>93.7</ele></trkpt>
    <trkpt lat="48.81532" lon="2.93283"><ele>94.7</ele></trkpt>
    <trkpt lat="48.81562" lon="2.93216"><ele>96.2</ele></trkpt>
    <trkpt lat="48.81763" lon="2.92943"><ele>101.0</ele></trkpt>
    <trkpt lat="48.81819" lon="2.92836"><ele>102.4</ele></trkpt>
    <trkpt lat="48.81823" lon="2.92811"><ele>102.6</ele></trkpt>
    <trkpt lat="48.81806" lon="2.92803"><ele>102.9</ele></trkpt>
    <trkpt lat="48.81609" lon="2.92774"><ele>102.0</ele></trkpt>
    <trkpt lat="48.81593" lon="2.92765"><ele>101.9</ele></trkpt>
    <trkpt lat="48.81597" lon="2.9274"><ele>101.8</ele></trkpt>
    <trkpt lat="48.81627" lon="2.92641"><ele>101.1</ele></trkpt>
    <trkpt lat="48.81644" lon="2.92564"><ele>99.9</ele></trkpt>
    <trkpt lat="48.81661" lon="2.92319"><ele>94.2</ele></trkpt>
    <trkpt lat="48.81653" lon="2.92238"><ele>91.7</ele></trkpt>
    <trkpt lat="48.81648" lon="2.92213"><ele>90.7</ele></trkpt>
    <trkpt lat="48.81585" lon="2.92161"><ele>87.0</ele></trkpt>
    <trkpt lat="48.81497" lon="2.92133"><ele>82.3</ele></trkpt>
    <trkpt lat="48.8149" lon="2.92121"><ele>81.4</ele></trkpt>
    <trkpt lat="48.81789" lon="2.91407"><ele>59.9</ele></trkpt>
    <trkpt lat="48.8195" lon="2.91012"><ele>57.0</ele></trkpt>
    <trkpt lat="48.81972" lon="2.90937"><ele>56.3</ele></trkpt>
    <trkpt lat="48.81981" lon="2.90884"><ele>56.0</ele></trkpt>
    <trkpt lat="48.82008" lon="2.90614"><ele>59.1</ele></trkpt>
    <trkpt lat="48.8203" lon="2.9054"><ele>60.5</ele></trkpt>
    <trkpt lat="48.82041" lon="2.90518"><ele>61.1</ele></trkpt>
    <trkpt lat="48.82056" lon="2.90503"><ele>61.9</ele></trkpt>
    <trkpt lat="48.82051" lon="2.90479"><ele>62.8</ele></trkpt>
    <trkpt lat="48.82077" lon="2.90377"><ele>68.7</ele></trkpt>
    <trkpt lat="48.82129" lon="2.90116"><ele>83.3</ele></trkpt>
    <trkpt lat="48.8219" lon="2.89859"><ele>101.1</ele></trkpt>
    <trkpt lat="48.8221" lon="2.89754"><ele>108.6</ele></trkpt>
    <trkpt lat="48.82193" lon="2.89648"><ele>115.4</ele></trkpt>
    <trkpt lat="48.82093" lon="2.89152"><ele>127.9</ele></trkpt>
    <trkpt lat="48.82089" lon="2.89126"><ele>127.9</ele></trkpt>
    <trkpt lat="48.82092" lon="2.89099"><ele>127.9</ele></trkpt>
    <trkpt lat="48.82103" lon="2.89079"><ele>127.9</ele></trkpt>
    <trkpt lat="48.82119" lon="2.89068"><ele>127.9</ele></trkpt>
    <trkpt lat="48.82206" lon="2.89031"><ele>127.0</ele></trkpt>
    <trkpt lat="48.82221" lon="2.89016"><ele>126.7</ele></trkpt>
    <trkpt lat="48.82285" lon="2.88852"><ele>125.4</ele></trkpt>
    <trkpt lat="48.82304" lon="2.88776"><ele>125.0</ele></trkpt>
    <trkpt lat="48.82373" lon="2.88212"><ele>127.0</ele></trkpt>
    <trkpt lat="48.82367" lon="2.88131"><ele>127.7</ele></trkpt>
    <trkpt lat="48.82356" lon="2.88079"><ele>128.1</ele></trkpt>
    <trkpt lat="48.82258" lon="2.87788"><ele>129.3</ele></trkpt>
    <trkpt lat="48.82255" lon="2.87761"><ele>129.4</ele></trkpt>
    <trkpt lat="48.82266" lon="2.8771"><ele>129.4</ele></trkpt>
    <trkpt lat="48.82251" lon="2.87663"><ele>129.5</ele></trkpt>
    <trkpt lat="48.82248" lon="2.87636"><ele>129.6</ele></trkpt>
    <trkpt lat="48.82226" lon="2.87593"><ele>129.6</ele></trkpt>
    <trkpt lat="48.82182" lon="2.87548"><ele>129.8</ele></trkpt>
    <trkpt lat="48.8217" lon="2.87527"><ele>129.8</ele></trkpt>
    <trkpt lat="48.81864" lon="2.86629"><ele>130.9</ele></trkpt>
    <trkpt lat="48.81846" lon="2.86552"><ele>130.8</ele></trkpt>
    <trkpt lat="48.81571" lon="2.84827"><ele>126.5</ele></trkpt>
    <trkpt lat="48.81544" lon="2.84584"><ele>125.5</ele></trkpt>
    <trkpt lat="48.81521" lon="2.84313"><ele>124.9</ele></trkpt>
    <trkpt lat="48.81522" lon="2.84259"><ele>125.0</ele></trkpt>
    <trkpt lat="48.81538" lon="2.84212"><ele>125.1</ele></trkpt>
    <trkpt lat="48.8154" lon="2.84185"><ele>125.0</ele></trkpt>
    <trkpt lat="48.81532" lon="2.84161"><ele>124.9</ele></trkpt>
    <trkpt lat="48.81517" lon="2.84148"><ele>124.7</ele></trkpt>
    <trkpt lat="48.81506" lon="2.84127"><ele>124.5</ele></trkpt>
    <trkpt lat="48.81437" lon="2.83397"><ele>125.0</ele></trkpt>
    <trkpt lat="48.81411" lon="2.82989"><ele>125.9</ele></trkpt>
    <trkpt lat="48.81421" lon="2.82977"><ele>125.8</ele></trkpt>
    <trkpt lat="48.81438" lon="2.82983"><ele>125.8</ele></trkpt>
    <trkpt lat="48.81451" lon="2.82975"><ele>125.8</ele></trkpt>
    <trkpt lat="48.81489" lon="2.82851"><ele>126.2</ele></trkpt>
    <trkpt lat="48.81502" lon="2.82832"><ele>126.3</ele></trkpt>
    <trkpt lat="48.81566" lon="2.82783"><ele>126.6</ele></trkpt>
    <trkpt lat="48.81575" lon="2.8276"><ele>126.6</ele></trkpt>
    <trkpt lat="48.81714" lon="2.8211"><ele>125.9</ele></trkpt>
    <trkpt lat="48.81728" lon="2.8206"><ele>125.8</ele></trkpt>
    <trkpt lat="48.81749" lon="2.82016"><ele>125.6</ele></trkpt>
    <trkpt lat="48.81799" lon="2.81938"><ele>125.4</ele></trkpt>
    <trkpt lat="48.81842" lon="2.81889"><ele>125.6</ele></trkpt>
    <trkpt lat="48.81877" lon="2.81883"><ele>125.6</ele></trkpt>
    <trkpt lat="48.81891" lon="2.81866"><ele>125.6</ele></trkpt>
    <trkpt lat="48.81894" lon="2.8184"><ele>125.6</ele></trkpt>
    <trkpt lat="48.81889" lon="2.81815"><ele>125.5</ele></trkpt>
    <trkpt lat="48.81875" lon="2.81798"><ele>125.4</ele></trkpt>
    <trkpt lat="48.81858" lon="2.81793"><ele>125.3</ele></trkpt>
    <trkpt lat="48.81844" lon="2.81775"><ele>125.2</ele></trkpt>
    <trkpt lat="48.81834" lon="2.81753"><ele>125.1</ele></trkpt>
    <trkpt lat="48.81805" lon="2.81653"><ele>124.9</ele></trkpt>
    <trkpt lat="48.81795" lon="2.81601"><ele>124.7</ele></trkpt>
    <trkpt lat="48.81777" lon="2.81411"><ele>124.1</ele></trkpt>
    <trkpt lat="48.81761" lon="2.81305"><ele>123.7</ele></trkpt>
    <trkpt lat="48.81705" lon="2.81017"><ele>122.5</ele></trkpt>
    <trkpt lat="48.81655" lon="2.80783"><ele>121.5</ele></trkpt>
    <trkpt lat="48.81626" lon="2.80541"><ele>120.8</ele></trkpt>
    <trkpt lat="48.81602" lon="2.80382"><ele>121.2</ele></trkpt>
    <trkpt lat="48.81594" lon="2.80246"><ele>121.7</ele></trkpt>
    <trkpt lat="48.81598" lon="2.79973"><ele>122.2</ele></trkpt>
    <trkpt lat="48.81606" lon="2.79892"><ele>122.0</ele></trkpt>
    <trkpt lat="48.81648" lon="2.79627"><ele>121.2</ele></trkpt>
    <trkpt lat="48.81649" lon="2.796"><ele>121.2</ele></trkpt>
    <trkpt lat="48.81638" lon="2.79548"><ele>121.0</ele></trkpt>
    <trkpt lat="48.81552" lon="2.79247"><ele>120.5</ele></trkpt>
    <trkpt lat="48.81502" lon="2.79134"><ele>119.7</ele></trkpt>
    <trkpt lat="48.81477" lon="2.79096"><ele>119.5</ele></trkpt>
    <trkpt lat="48.81431" lon="2.79052"><ele>119.2</ele></trkpt>
    <trkpt lat="48.81396" lon="2.79042"><ele>119.0</ele></trkpt>
    <trkpt lat="48.8136" lon="2.79039"><ele>118.9</ele></trkpt>
    <trkpt lat="48.81252" lon="2.79049"><ele>118.9</ele></trkpt>
    <trkpt lat="48.81182" lon="2.79025"><ele>119.0</ele></trkpt>
    <trkpt lat="48.81151" lon="2.78998"><ele>119.2</ele></trkpt>
    <trkpt lat="48.811" lon="2.78922"><ele>119.8</ele></trkpt>
    <trkpt lat="48.81072" lon="2.78852"><ele>120.3</ele></trkpt>
    <trkpt lat="48.81056" lon="2.78774"><ele>120.9</ele></trkpt>
    <trkpt lat="48.81049" lon="2.78583"><ele>122.1</ele></trkpt>
    <trkpt lat="48.81032" lon="2.78449"><ele>123.1</ele></trkpt>
    <trkpt lat="48.81004" lon="2.78349"><ele>123.8</ele></trkpt>
    <trkpt lat="48.80959" lon="2.78231"><ele>124.1</ele></trkpt>
    <trkpt lat="48.80837" lon="2.77746"><ele>126.5</ele></trkpt>
    <trkpt lat="48.8066" lon="2.76801"><ele>128.6</ele></trkpt>
    <trkpt lat="48.80632" lon="2.75983"><ele>126.7</ele></trkpt>
    <trkpt lat="48.80627" lon="2.75901"><ele>126.0</ele></trkpt>
    <trkpt lat="48.80617" lon="2.75849"><ele>125.8</ele></trkpt>
    <trkpt lat="48.80352" lon="2.74952"><ele>121.5</ele></trkpt>
    <trkpt lat="48.8029" lon="2.74724"><ele>121.6</ele></trkpt>
    <trkpt lat="48.79954" lon="2.73371"><ele>120.6</ele></trkpt>
    <trkpt lat="48.79738" lon="2.72803"><ele>121.7</ele></trkpt>
    <trkpt lat="48.79596" lon="2.72392"><ele>118.8</ele></trkpt>
    <trkpt lat="48.79591" lon="2.72366"><ele>118.1</ele></trkpt>
    <trkpt lat="48.7959" lon="2.72311"><ele>118.1</ele></trkpt>
    <trkpt lat="48.79603" lon="2.71602"><ele>116.5</ele></trkpt>
    <trkpt lat="48.79617" lon="2.71439"><ele>116.2</ele></trkpt>
    <trkpt lat="48.79627" lon="2.71418"><ele>115.8</ele></trkpt>
    <trkpt lat="48.79629" lon="2.71393"><ele>115.8</ele></trkpt>
    <trkpt lat="48.7961" lon="2.71348"><ele>115.9</ele></trkpt>
    <trkpt lat="48.79608" lon="2.71321"><ele>116.2</ele></trkpt>
    <trkpt lat="48.79621" lon="2.70666"><ele>116.1</ele></trkpt>
    <trkpt lat="48.7962" lon="2.70639"><ele>116.1</ele></trkpt>
    <trkpt lat="48.79604" lon="2.70533"><ele>114.9</ele></trkpt>
    <trkpt lat="48.79589" lon="2.70522"><ele>114.7</ele></trkpt>
    <trkpt lat="48.79553" lon="2.70519"><ele>114.6</ele></trkpt>
    <trkpt lat="48.79539" lon="2.70504"><ele>114.6</ele></trkpt>
    <trkpt lat="48.79529" lon="2.70481"><ele>114.7</ele></trkpt>
    <trkpt lat="48.79134" lon="2.69194"><ele>116.6</ele></trkpt>
    <trkpt lat="48.78995" lon="2.68756"><ele>115.5</ele></trkpt>
    <trkpt lat="48.78981" lon="2.68766"><ele>116.4</ele></trkpt>
    <trkpt lat="48.78963" lon="2.68764"><ele>117.4</ele></trkpt>
    <trkpt lat="48.78667" lon="2.68565"><ele>118.4</ele></trkpt>
    <trkpt lat="48.78397" lon="2.68413"><ele>117.3</ele></trkpt>
    <trkpt lat="48.78284" lon="2.6833"><ele>117.0</ele></trkpt>
    <trkpt lat="48.78063" lon="2.68147"><ele>116.3</ele></trkpt>
    <trkpt lat="48.77899" lon="2.68034"><ele>115.3</ele></trkpt>
    <trkpt lat="48.77895" lon="2.68012"><ele>115.1</ele></trkpt>
    <trkpt lat="48.7788" lon="2.68002"><ele>114.9</ele></trkpt>
    <trkpt lat="48.77867" lon="2.68012"><ele>114.7</ele></trkpt>
    <trkpt lat="48.77604" lon="2.67832"><ele>112.3</ele></trkpt>
    <trkpt lat="48.77597" lon="2.67811"><ele>112.0</ele></trkpt>
    <trkpt lat="48.77584" lon="2.67796"><ele>111.6</ele></trkpt>
    <trkpt lat="48.77569" lon="2.67805"><ele>111.3</ele></trkpt>
    <trkpt lat="48.77552" lon="2.67796"><ele>111.0</ele></trkpt>
    <trkpt lat="48.77322" lon="2.67639"><ele>109.4</ele></trkpt>
    <trkpt lat="48.77299" lon="2.67609"><ele>109.1</ele></trkpt>
    <trkpt lat="48.77284" lon="2.67614"><ele>109.0</ele></trkpt>
    <trkpt lat="48.77202" lon="2.67557"><ele>108.6</ele></trkpt>
    <trkpt lat="48.77192" lon="2.67535"><ele>108.5</ele></trkpt>
    <trkpt lat="48.7693" lon="2.67122"><ele>108.0</ele></trkpt>
    <trkpt lat="48.76929" lon="2.67099"><ele>108.0</ele></trkpt>
    <trkpt lat="48.76918" lon="2.67081"><ele>107.9</ele></trkpt>
    <trkpt lat="48.76902" lon="2.6708"><ele>107.9</ele></trkpt>
    <trkpt lat="48.76777" lon="2.66885"><ele>107.6</ele></trkpt>
    <trkpt lat="48.76777" lon="2.66859"><ele>107.5</ele></trkpt>
    <trkpt lat="48.76763" lon="2.66844"><ele>107.5</ele></trkpt>
    <trkpt lat="48.76749" lon="2.66838"><ele>107.4</ele></trkpt>
    <trkpt lat="48.76739" lon="2.66816"><ele>107.3</ele></trkpt>
    <trkpt lat="48.76721" lon="2.66738"><ele>107.1</ele></trkpt>
    <trkpt lat="48.76691" lon="2.6664"><ele>106.8</ele></trkpt>
    <trkpt lat="48.76662" lon="2.66572"><ele>106.6</ele></trkpt>
    <trkpt lat="48.76637" lon="2.66533"><ele>106.4</ele></trkpt>
    <trkpt lat="48.76605" lon="2.66507"><ele>106.2</ele></trkpt>
    <trkpt lat="48.76588" lon="2.665"><ele>106.1</ele></trkpt>
    <trkpt lat="48.76552" lon="2.665"><ele>105.9</ele></trkpt>
    <trkpt lat="48.76464" lon="2.66524"><ele>105.4</ele></trkpt>
    <trkpt lat="48.7641" lon="2.66532"><ele>105.1</ele></trkpt>
    <trkpt lat="48.76356" lon="2.66525"><ele>104.9</ele></trkpt>
    <trkpt lat="48.76339" lon="2.6652"><ele>104.8</ele></trkpt>
    <trkpt lat="48.76328" lon="2.66502"><ele>104.8</ele></trkpt>
    <trkpt lat="48.76295" lon="2.66507"><ele>104.7</ele></trkpt>
    <trkpt lat="48.76261" lon="2.66492"><ele>104.7</ele></trkpt>
    <trkpt lat="48.76218" lon="2.66441"><ele>104.8</ele></trkpt>
    <trkpt lat="48.76113" lon="2.66293"><ele>105.8</ele></trkpt>
    <trkpt lat="48.76095" lon="2.66255"><ele>105.5</ele></trkpt>
    <trkpt lat="48.7608" lon="2.66252"><ele>104.4</ele></trkpt>
    <trkpt lat="48.75944" lon="2.66074"><ele>103.2</ele></trkpt>
    <trkpt lat="48.7588" lon="2.65978"><ele>102.7</ele></trkpt>
    <trkpt lat="48.75784" lon="2.65816"><ele>102.0</ele></trkpt>
    <trkpt lat="48.75652" lon="2.65557"><ele>101.7</ele></trkpt>
    <trkpt lat="48.75512" lon="2.65307"><ele>102.5</ele></trkpt>
    <trkpt lat="48.754" lon="2.64936"><ele>104.6</ele></trkpt>
    <trkpt lat="48.75353" lon="2.6473"><ele>105.4</ele></trkpt>
    <trkpt lat="48.75322" lon="2.64662"><ele>105.9</ele></trkpt>
    <trkpt lat="48.75283" lon="2.64607"><ele>106.5</ele></trkpt>
    <trkpt lat="48.75252" lon="2.6454"><ele>107.1</ele></trkpt>
    <trkpt lat="48.75236" lon="2.64491"><ele>107.5</ele></trkpt>
    <trkpt lat="48.75207" lon="2.64362"><ele>108.1</ele></trkpt>
    <trkpt lat="48.75142" lon="2.64168"><ele>108.6</ele></trkpt>
    <trkpt lat="48.75108" lon="2.64104"><ele>108.6</ele></trkpt>
    <trkpt lat="48.75046" lon="2.64051"><ele>108.0</ele></trkpt>
    <trkpt lat="48.75041" lon="2.64028"><ele>107.7</ele></trkpt>
    <trkpt lat="48.75026" lon="2.64027"><ele>107.4</ele></trkpt>
    <trkpt lat="48.74988" lon="2.6397"><ele>106.5</ele></trkpt>
    <trkpt lat="48.74873" lon="2.6384"><ele>104.3</ele></trkpt>
    <trkpt lat="48.74834" lon="2.63784"><ele>103.2</ele></trkpt>
    <trkpt lat="48.74775" lon="2.63681"><ele>101.3</ele></trkpt>
    <trkpt lat="48.74772" lon="2.63655"><ele>100.7</ele></trkpt>
    <trkpt lat="48.74774" lon="2.63628"><ele>100.0</ele></trkpt>
    <trkpt lat="48.74782" lon="2.63604"><ele>99.4</ele></trkpt>
    <trkpt lat="48.74795" lon="2.63584"><ele>98.7</ele></trkpt>
    <trkpt lat="48.74874" lon="2.63521"><ele>95.5</ele></trkpt>
    <trkpt lat="48.74958" lon="2.63484"><ele>94.4</ele></trkpt>
    <trkpt lat="48.74971" lon="2.63467"><ele>94.1</ele></trkpt>
    <trkpt lat="48.75007" lon="2.63373"><ele>93.0</ele></trkpt>
    <trkpt lat="48.75022" lon="2.63294"><ele>92.7</ele></trkpt>
    <trkpt lat="48.75019" lon="2.63241"><ele>92.5</ele></trkpt>
    <trkpt lat="48.7501" lon="2.63217"><ele>92.3</ele></trkpt>
    <trkpt lat="48.74964" lon="2.63134"><ele>91.7</ele></trkpt>
    <trkpt lat="48.74931" lon="2.63037"><ele>91.4</ele></trkpt>
    <trkpt lat="48.74916" lon="2.62958"><ele>91.3</ele></trkpt>
    <trkpt lat="48.74888" lon="2.62717"><ele>91.0</ele></trkpt>
    <trkpt lat="48.74874" lon="2.62667"><ele>90.9</ele></trkpt>
    <trkpt lat="48.74834" lon="2.62577"><ele>91.1</ele></trkpt>
    <trkpt lat="48.74829" lon="2.62551"><ele>91.3</ele></trkpt>
    <trkpt lat="48.74835" lon="2.62526"><ele>91.3</ele></trkpt>
    <trkpt lat="48.74823" lon="2.62512"><ele>91.6</ele></trkpt>
    <trkpt lat="48.74806" lon="2.62506"><ele>91.9</ele></trkpt>
    <trkpt lat="48.74797" lon="2.62483"><ele>92.2</ele></trkpt>
    <trkpt lat="48.74788" lon="2.62431"><ele>93.0</ele></trkpt>
    <trkpt lat="48.74788" lon="2.62376"><ele>93.7</ele></trkpt>
    <trkpt lat="48.74778" lon="2.62324"><ele>94.2</ele></trkpt>
    <trkpt lat="48.74697" lon="2.62178"><ele>95.7</ele></trkpt>
    <trkpt lat="48.74681" lon="2.62129"><ele>96.0</ele></trkpt>
    <trkpt lat="48.74678" lon="2.62103"><ele>96.2</ele></trkpt>
    <trkpt lat="48.74684" lon="2.62049"><ele>96.5</ele></trkpt>
    <trkpt lat="48.747" lon="2.62001"><ele>96.8</ele></trkpt>
    <trkpt lat="48.74757" lon="2.61896"><ele>97.6</ele></trkpt>
    <trkpt lat="48.74772" lon="2.61892"><ele>97.8</ele></trkpt>
    <trkpt lat="48.7478" lon="2.61848"><ele>98.1</ele></trkpt>
    <trkpt lat="48.7479" lon="2.61826"><ele>98.1</ele></trkpt>
    <trkpt lat="48.74843" lon="2.61716"><ele>98.2</ele></trkpt>
    <trkpt lat="48.74855" lon="2.61698"><ele>98.2</ele></trkpt>
    <trkpt lat="48.7487" lon="2.61688"><ele>98.2</ele></trkpt>
    <trkpt lat="48.74867" lon="2.61664"><ele>98.1</ele></trkpt>
    <trkpt lat="48.74836" lon="2.61654"><ele>98.0</ele></trkpt>
    <trkpt lat="48.74746" lon="2.61565"><ele>97.9</ele></trkpt>
    <trkpt lat="48.74701" lon="2.61539"><ele>97.6</ele></trkpt>
    <trkpt lat="48.74687" lon="2.61546"><ele>97.6</ele></trkpt>
    <trkpt lat="48.74669" lon="2.61541"><ele>97.5</ele></trkpt>
    <trkpt lat="48.74539" lon="2.61451"><ele>97.4</ele></trkpt>
    <trkpt lat="48.74528" lon="2.61429"><ele>97.4</ele></trkpt>
    <trkpt lat="48.74515" lon="2.61378"><ele>97.4</ele></trkpt>
    <trkpt lat="48.74468" lon="2.61344"><ele>97.5</ele></trkpt>
    <trkpt lat="48.74456" lon="2.61323"><ele>97.6</ele></trkpt>
    <trkpt lat="48.74457" lon="2.61301"><ele>97.6</ele></trkpt>
    <trkpt lat="48.74428" lon="2.61242"><ele>98.1</ele></trkpt>
    <trkpt lat="48.743" lon="2.61093"><ele>98.9</ele></trkpt>
    <trkpt lat="48.74135" lon="2.60882"><ele>98.4</ele></trkpt>
    <trkpt lat="48.74045" lon="2.60796"><ele>97.0</ele></trkpt>
    <trkpt lat="48.73961" lon="2.60746"><ele>95.8</ele></trkpt>
    <trkpt lat="48.73948" lon="2.6073"><ele>95.6</ele></trkpt>
    <trkpt lat="48.7373" lon="2.60604"><ele>92.7</ele></trkpt>
    <trkpt lat="48.73705" lon="2.6057"><ele>92.2</ele></trkpt>
    <trkpt lat="48.7369" lon="2.60581"><ele>92.0</ele></trkpt>
    <trkpt lat="48.73638" lon="2.60559"><ele>91.6</ele></trkpt>
    <trkpt lat="48.73453" lon="2.60452"><ele>90.8</ele></trkpt>
    <trkpt lat="48.73422" lon="2.60425"><ele>90.8</ele></trkpt>
    <trkpt lat="48.73355" lon="2.60385"><ele>90.9</ele></trkpt>
    <trkpt lat="48.73237" lon="2.60318"><ele>91.5</ele></trkpt>
    <trkpt lat="48.73202" lon="2.60313"><ele>91.6</ele></trkpt>
    <trkpt lat="48.73002" lon="2.6019"><ele>91.8</ele></trkpt>
    <trkpt lat="48.72978" lon="2.60152"><ele>91.7</ele></trkpt>
    <trkpt lat="48.72947" lon="2.60127"><ele>91.5</ele></trkpt>
    <trkpt lat="48.72802" lon="2.59923"><ele>89.9</ele></trkpt>
    <trkpt lat="48.72606" lon="2.59683"><ele>87.6</ele></trkpt>
    <trkpt lat="48.72499" lon="2.59499"><ele>85.9</ele></trkpt>
    <trkpt lat="48.72479" lon="2.59454"><ele>85.7</ele></trkpt>
    <trkpt lat="48.72334" lon="2.58955"><ele>85.7</ele></trkpt>
    <trkpt lat="48.72315" lon="2.58909"><ele>85.8</ele></trkpt>
    <trkpt lat="48.72316" lon="2.58885"><ele>85.8</ele></trkpt>
    <trkpt lat="48.72337" lon="2.58781"><ele>85.8</ele></trkpt>
    <trkpt lat="48.72351" lon="2.58673"><ele>85.4</ele></trkpt>
    <trkpt lat="48.72388" lon="2.58491"><ele>85.2</ele></trkpt>
    <trkpt lat="48.7246" lon="2.58303"><ele>84.6</ele></trkpt>
    <trkpt lat="48.72509" lon="2.58157"><ele>83.2</ele></trkpt>
    <trkpt lat="48.72521" lon="2.58106"><ele>82.9</ele></trkpt>
    <trkpt lat="48.72553" lon="2.57921"><ele>79.1</ele></trkpt>
    <trkpt lat="48.72573" lon="2.57845"><ele>80.7</ele></trkpt>
    <trkpt lat="48.72596" lon="2.57812"><ele>81.8</ele></trkpt>
    <trkpt lat="48.72647" lon="2.57782"><ele>82.8</ele></trkpt>
    <trkpt lat="48.72823" lon="2.57728"><ele>87.7</ele></trkpt>
    <trkpt lat="48.72841" lon="2.57727"><ele>88.9</ele></trkpt>
    <trkpt lat="48.72856" lon="2.57739"><ele>89.9</ele></trkpt>
    <trkpt lat="48.72874" lon="2.57737"><ele>90.4</ele></trkpt>
    <trkpt lat="48.72885" lon="2.57718"><ele>90.4</ele></trkpt>
    <trkpt lat="48.72949" lon="2.57669"><ele>89.7</ele></trkpt>
    <trkpt lat="48.72976" lon="2.57633"><ele>90.3</ele></trkpt>
    <trkpt lat="48.73004" lon="2.57563"><ele>91.0</ele></trkpt>
    <trkpt lat="48.73039" lon="2.5738"><ele>92.2</ele></trkpt>
    <trkpt lat="48.73085" lon="2.57088"><ele>93.1</ele></trkpt>
    <trkpt lat="48.73117" lon="2.56796"><ele>93.1</ele></trkpt>
    <trkpt lat="48.73125" lon="2.56775"><ele>92.9</ele></trkpt>
    <trkpt lat="48.73195" lon="2.5669"><ele>92.2</ele></trkpt>
    <trkpt lat="48.73402" lon="2.56525"><ele>90.6</ele></trkpt>
    <trkpt lat="48.73472" lon="2.56501"><ele>90.6</ele></trkpt>
    <trkpt lat="48.73505" lon="2.56479"><ele>90.7</ele></trkpt>
    <trkpt lat="48.73701" lon="2.56514"><ele>92.5</ele></trkpt>
    <trkpt lat="48.73791" lon="2.5652"><ele>94.3</ele></trkpt>
    <trkpt lat="48.73808" lon="2.56516"><ele>94.7</ele></trkpt>
    <trkpt lat="48.73822" lon="2.565"><ele>94.9</ele></trkpt>
    <trkpt lat="48.73838" lon="2.56499"><ele>95.1</ele></trkpt>
    <trkpt lat="48.73845" lon="2.56475"><ele>95.1</ele></trkpt>
    <trkpt lat="48.73834" lon="2.56456"><ele>95.2</ele></trkpt>
    <trkpt lat="48.73832" lon="2.56349"><ele>95.7</ele></trkpt>
    <trkpt lat="48.73848" lon="2.56271"><ele>96.3</ele></trkpt>
    <trkpt lat="48.73884" lon="2.56217"><ele>96.6</ele></trkpt>
    <trkpt lat="48.73931" lon="2.56179"><ele>96.9</ele></trkpt>
    <trkpt lat="48.73984" lon="2.56159"><ele>97.1</ele></trkpt>
    <trkpt lat="48.74073" lon="2.56144"><ele>97.3</ele></trkpt>
    <trkpt lat="48.74102" lon="2.5616"><ele>97.5</ele></trkpt>
    <trkpt lat="48.74114" lon="2.56143"><ele>97.5</ele></trkpt>
    <trkpt lat="48.74167" lon="2.56134"><ele>97.3</ele></trkpt>
    <trkpt lat="48.74199" lon="2.5611"><ele>97.2</ele></trkpt>
    <trkpt lat="48.74225" lon="2.56073"><ele>97.2</ele></trkpt>
    <trkpt lat="48.74246" lon="2.56029"><ele>97.2</ele></trkpt>
    <trkpt lat="48.74242" lon="2.55839"><ele>97.3</ele></trkpt>
    <trkpt lat="48.74257" lon="2.55761"><ele>97.5</ele></trkpt>
    <trkpt lat="48.74263" lon="2.5568"><ele>97.5</ele></trkpt>
    <trkpt lat="48.74273" lon="2.55658"><ele>97.5</ele></trkpt>
    <trkpt lat="48.74304" lon="2.55658"><ele>97.1</ele></trkpt>
    <trkpt lat="48.74316" lon="2.55645"><ele>96.9</ele></trkpt>
    <trkpt lat="48.74416" lon="2.55707"><ele>96.5</ele></trkpt>
    <trkpt lat="48.74452" lon="2.55715"><ele>96.5</ele></trkpt>
    <trkpt lat="48.74504" lon="2.55693"><ele>96.8</ele></trkpt>
    <trkpt lat="48.74539" lon="2.55691"><ele>97.2</ele></trkpt>
    <trkpt lat="48.74575" lon="2.557"><ele>97.6</ele></trkpt>
    <trkpt lat="48.74629" lon="2.55698"><ele>98.0</ele></trkpt>
    <trkpt lat="48.74642" lon="2.55712"><ele>98.1</ele></trkpt>
    <trkpt lat="48.74658" lon="2.557"><ele>98.2</ele></trkpt>
    <trkpt lat="48.74676" lon="2.55697"><ele>98.4</ele></trkpt>
    <trkpt lat="48.75521" lon="2.55733"><ele>103.0</ele></trkpt>
    <trkpt lat="48.75537" lon="2.55726"><ele>103.0</ele></trkpt>
    <trkpt lat="48.75847" lon="2.55357"><ele>101.5</ele></trkpt>
    <trkpt lat="48.7586" lon="2.55345"><ele>101.4</ele></trkpt>
    <trkpt lat="48.76045" lon="2.55239"><ele>101.1</ele></trkpt>
    <trkpt lat="48.76056" lon="2.55226"><ele>101.0</ele></trkpt>
    <trkpt lat="48.76096" lon="2.55073"><ele>101.0</ele></trkpt>
    <trkpt lat="48.76116" lon="2.54913"><ele>101.2</ele></trkpt>
    <trkpt lat="48.76123" lon="2.54894"><ele>101.4</ele></trkpt>
    <trkpt lat="48.76119" lon="2.5487"><ele>101.7</ele></trkpt>
    <trkpt lat="48.7615" lon="2.54546"><ele>102.0</ele></trkpt>
    <trkpt lat="48.76231" lon="2.53931"><ele>100.6</ele></trkpt>
    <trkpt lat="48.76324" lon="2.53676"><ele>97.8</ele></trkpt>
    <trkpt lat="48.76396" lon="2.53561"><ele>96.3</ele></trkpt>
    <trkpt lat="48.7656" lon="2.53395"><ele>96.2</ele></trkpt>
    <trkpt lat="48.76587" lon="2.53358"><ele>96.1</ele></trkpt>
    <trkpt lat="48.76658" lon="2.53235"><ele>97.5</ele></trkpt>
    <trkpt lat="48.76686" lon="2.53204"><ele>98.4</ele></trkpt>
    <trkpt lat="48.76694" lon="2.53153"><ele>98.7</ele></trkpt>
    <trkpt lat="48.76763" lon="2.52993"><ele>99.7</ele></trkpt>
    <trkpt lat="48.76799" lon="2.52899"><ele>100.1</ele></trkpt>
    <trkpt lat="48.76809" lon="2.52877"><ele>100.3</ele></trkpt>
    <trkpt lat="48.76824" lon="2.52861"><ele>100.4</ele></trkpt>
    <trkpt lat="48.76858" lon="2.52845"><ele>100.4</ele></trkpt>
    <trkpt lat="48.77014" lon="2.52424"><ele>98.6</ele></trkpt>
    <trkpt lat="48.77048" lon="2.52243"><ele>95.8</ele></trkpt>
    <trkpt lat="48.77083" lon="2.52233"><ele>95.1</ele></trkpt>
    <trkpt lat="48.77089" lon="2.52212"><ele>94.6</ele></trkpt>
    <trkpt lat="48.7709" lon="2.52158"><ele>93.4</ele></trkpt>
    <trkpt lat="48.77116" lon="2.52123"><ele>91.4</ele></trkpt>
    <trkpt lat="48.772" lon="2.51981"><ele>82.6</ele></trkpt>
    <trkpt lat="48.77382" lon="2.51716"><ele>63.3</ele></trkpt>
    <trkpt lat="48.77534" lon="2.51524"><ele>49.1</ele></trkpt>
    <trkpt lat="48.77654" lon="2.51404"><ele>39.4</ele></trkpt>
    <trkpt lat="48.77772" lon="2.51236"><ele>37.1</ele></trkpt>
    <trkpt lat="48.77805" lon="2.51171"><ele>37.4</ele></trkpt>
    <trkpt lat="48.77838" lon="2.51171"><ele>37.8</ele></trkpt>
    <trkpt lat="48.7807" lon="2.51218"><ele>39.3</ele></trkpt>
    <trkpt lat="48.78104" lon="2.51233"><ele>39.6</ele></trkpt>
    <trkpt lat="48.78134" lon="2.51264"><ele>39.7</ele></trkpt>
    <trkpt lat="48.78325" lon="2.51511"><ele>38.2</ele></trkpt>
    <trkpt lat="48.78377" lon="2.51534"><ele>38.2</ele></trkpt>
    <trkpt lat="48.78429" lon="2.51645"><ele>39.2</ele></trkpt>
    <trkpt lat="48.78745" lon="2.5205"><ele>38.3</ele></trkpt>
    <trkpt lat="48.79023" lon="2.52244"><ele>39.4</ele></trkpt>
    <trkpt lat="48.79097" lon="2.52091"><ele>36.9</ele></trkpt>
    <trkpt lat="48.7913" lon="2.521"><ele>36.2</ele></trkpt>
    <trkpt lat="48.79146" lon="2.52089"><ele>35.9</ele></trkpt>
    <trkpt lat="48.79167" lon="2.52046"><ele>35.6</ele></trkpt>
    <trkpt lat="48.79184" lon="2.52042"><ele>35.5</ele></trkpt>
    <trkpt lat="48.79198" lon="2.52057"><ele>35.4</ele></trkpt>
    <trkpt lat="48.79198" lon="2.52137"><ele>35.2</ele></trkpt>
    <trkpt lat="48.79212" lon="2.52152"><ele>35.2</ele></trkpt>
    <trkpt lat="48.79264" lon="2.52173"><ele>35.1</ele></trkpt>
    <trkpt lat="48.79282" lon="2.52173"><ele>35.1</ele></trkpt>
    <trkpt lat="48.79298" lon="2.52183"><ele>35.1</ele></trkpt>
    <trkpt lat="48.7937" lon="2.52189"><ele>35.1</ele></trkpt>
    <trkpt lat="48.79387" lon="2.52185"><ele>35.0</ele></trkpt>
    <trkpt lat="48.79512" lon="2.5221"><ele>35.0</ele></trkpt>
    <trkpt lat="48.79529" lon="2.52207"><ele>34.9</ele></trkpt>
    <trkpt lat="48.79545" lon="2.52218"><ele>34.9</ele></trkpt>
    <trkpt lat="48.79705" lon="2.52246"><ele>34.9</ele></trkpt>
    <trkpt lat="48.79883" lon="2.52208"><ele>35.1</ele></trkpt>
    <trkpt lat="48.79991" lon="2.52199"><ele>34.9</ele></trkpt>
    <trkpt lat="48.80186" lon="2.5223"><ele>34.8</ele></trkpt>
    <trkpt lat="48.80239" lon="2.52225"><ele>34.9</ele></trkpt>
    <trkpt lat="48.80449" lon="2.52168"><ele>35.0</ele></trkpt>
    <trkpt lat="48.8046" lon="2.52151"><ele>35.1</ele></trkpt>
    <trkpt lat="48.80645" lon="2.5199"><ele>35.4</ele></trkpt>
    <trkpt lat="48.80743" lon="2.51871"><ele>35.3</ele></trkpt>
    <trkpt lat="48.80804" lon="2.5177"><ele>35.5</ele></trkpt>
    <trkpt lat="48.80842" lon="2.51677"><ele>35.8</ele></trkpt>
    <trkpt lat="48.80903" lon="2.51451"><ele>36.0</ele></trkpt>
    <trkpt lat="48.80923" lon="2.5129"><ele>36.2</ele></trkpt>
    <trkpt lat="48.80948" lon="2.50993"><ele>40.6</ele></trkpt>
    <trkpt lat="48.80957" lon="2.50975"><ele>41.4</ele></trkpt>
    <trkpt lat="48.81027" lon="2.51001"><ele>42.9</ele></trkpt>
  </trkseg></trk>
</gpx>
