<?xml version="1.0" encoding="UTF-8"?>
<gpx version="1.1" creator="Club Cycliste USO" xmlns="http://www.topografix.com/GPX/1/1">
  <metadata><name>Lesches – 71 km</name><desc>71.1 km, D+ 404 m. Départ et arrivée : pont de Champigny.</desc></metadata>
  <trk><name>Lesches – 71 km</name><trkseg>
    <trkpt lat="48.83482" lon="2.47325"><ele>66.1</ele></trkpt>
    <trkpt lat="48.83485" lon="2.47338"><ele>66.1</ele></trkpt>
    <trkpt lat="48.83416" lon="2.47367"><ele>64.7</ele></trkpt>
    <trkpt lat="48.83373" lon="2.47415"><ele>61.3</ele></trkpt>
    <trkpt lat="48.83341" lon="2.47481"><ele>56.6</ele></trkpt>
    <trkpt lat="48.83332" lon="2.47533"><ele>52.8</ele></trkpt>
    <trkpt lat="48.83314" lon="2.47579"><ele>48.9</ele></trkpt>
    <trkpt lat="48.83312" lon="2.47661"><ele>44.1</ele></trkpt>
    <trkpt lat="48.83303" lon="2.47684"><ele>42.8</ele></trkpt>
    <trkpt lat="48.83286" lon="2.47692"><ele>41.6</ele></trkpt>
    <trkpt lat="48.8325" lon="2.47694"><ele>40.0</ele></trkpt>
    <trkpt lat="48.83243" lon="2.4771"><ele>39.5</ele></trkpt>
    <trkpt lat="48.833" lon="2.48332"><ele>38.4</ele></trkpt>
    <trkpt lat="48.83332" lon="2.48904"><ele>39.3</ele></trkpt>
    <trkpt lat="48.83338" lon="2.48957"><ele>39.3</ele></trkpt>
    <trkpt lat="48.83379" lon="2.49108"><ele>39.6</ele></trkpt>
    <trkpt lat="48.83383" lon="2.49217"><ele>40.1</ele></trkpt>
    <trkpt lat="48.83378" lon="2.49237"><ele>40.2</ele></trkpt>
    <trkpt lat="48.83344" lon="2.49252"><ele>40.5</ele></trkpt>
    <trkpt lat="48.8329" lon="2.49252"><ele>40.3</ele></trkpt>
    <trkpt lat="48.83237" lon="2.49269"><ele>39.3</ele></trkpt>
    <trkpt lat="48.83201" lon="2.49271"><ele>38.7</ele></trkpt>
    <trkpt lat="48.83194" lon="2.49293"><ele>38.5</ele></trkpt>
    <trkpt lat="48.83204" lon="2.49373"><ele>38.3</ele></trkpt>
    <trkpt lat="48.83234" lon="2.49472"><ele>38.1</ele></trkpt>
    <trkpt lat="48.83245" lon="2.49552"><ele>38.1</ele></trkpt>
    <trkpt lat="48.8324" lon="2.4966"><ele>37.9</ele></trkpt>
    <trkpt lat="48.83245" lon="2.49685"><ele>37.9</ele></trkpt>
    <trkpt lat="48.83245" lon="2.49712"><ele>37.8</ele></trkpt>
    <trkpt lat="48.83239" lon="2.49821"><ele>37.8</ele></trkpt>
    <trkpt lat="48.83226" lon="2.499"><ele>38.0</ele></trkpt>
    <trkpt lat="48.83171" lon="2.50132"><ele>38.0</ele></trkpt>
    <trkpt lat="48.83132" lon="2.50342"><ele>38.1</ele></trkpt>
    <trkpt lat="48.83075" lon="2.50481"><ele>38.2</ele></trkpt>
    <trkpt lat="48.83061" lon="2.50531"><ele>38.3</ele></trkpt>
    <trkpt lat="48.83045" lon="2.50692"><ele>38.4</ele></trkpt>
    <trkpt lat="48.83051" lon="2.50745"><ele>38.3</ele></trkpt>
    <trkpt lat="48.83042" lon="2.50853"><ele>38.3</ele></trkpt>
    <trkpt lat="48.83034" lon="2.50878"><ele>38.4</ele></trkpt>
    <trkpt lat="48.83021" lon="2.50896"><ele>38.4</ele></trkpt>
    <trkpt lat="48.83012" lon="2.5092"><ele>38.4</ele></trkpt>
    <trkpt lat="48.82979" lon="2.51046"><ele>38.7</ele></trkpt>
    <trkpt lat="48.82975" lon="2.51073"><ele>38.8</ele></trkpt>
    <trkpt lat="48.82979" lon="2.51127"><ele>38.7</ele></trkpt>
    <trkpt lat="48.82994" lon="2.51206"><ele>38.6</ele></trkpt>
    <trkpt lat="48.83027" lon="2.51303"><ele>38.4</ele></trkpt>
    <trkpt lat="48.83065" lon="2.51396"><ele>38.4</ele></trkpt>
    <trkpt lat="48.83112" lon="2.51478"><ele>38.4</ele></trkpt>
    <trkpt lat="48.83176" lon="2.51574"><ele>38.1</ele></trkpt>
    <trkpt lat="48.83206" lon="2.51603"><ele>38.1</ele></trkpt>
    <trkpt lat="48.8329" lon="2.51653"><ele>38.4</ele></trkpt>
    <trkpt lat="48.83379" lon="2.51659"><ele>39.8</ele></trkpt>
    <trkpt lat="48.83396" lon="2.51651"><ele>40.4</ele></trkpt>
    <trkpt lat="48.83406" lon="2.51667"><ele>41.0</ele></trkpt>
    <trkpt lat="48.8341" lon="2.51694"><ele>41.6</ele></trkpt>
    <trkpt lat="48.83405" lon="2.5183"><ele>42.2</ele></trkpt>
    <trkpt lat="48.83393" lon="2.51881"><ele>41.3</ele></trkpt>
    <trkpt lat="48.83394" lon="2.51906"><ele>40.8</ele></trkpt>
    <trkpt lat="48.83409" lon="2.51919"><ele>40.3</ele></trkpt>
    <trkpt lat="48.83423" lon="2.51904"><ele>39.8</ele></trkpt>
    <trkpt lat="48.83452" lon="2.51893"><ele>38.7</ele></trkpt>
    <trkpt lat="48.83494" lon="2.5184"><ele>37.7</ele></trkpt>
    <trkpt lat="48.83525" lon="2.51814"><ele>37.8</ele></trkpt>
    <trkpt lat="48.83542" lon="2.51807"><ele>37.8</ele></trkpt>
    <trkpt lat="48.83552" lon="2.51791"><ele>37.9</ele></trkpt>
    <trkpt lat="48.83638" lon="2.51761"><ele>38.0</ele></trkpt>
    <trkpt lat="48.83781" lon="2.51643"><ele>38.0</ele></trkpt>
    <trkpt lat="48.83818" lon="2.51584"><ele>37.9</ele></trkpt>
    <trkpt lat="48.83893" lon="2.51431"><ele>37.9</ele></trkpt>
    <trkpt lat="48.8392" lon="2.51394"><ele>37.9</ele></trkpt>
    <trkpt lat="48.83952" lon="2.51371"><ele>37.9</ele></trkpt>
    <trkpt lat="48.84003" lon="2.51344"><ele>38.1</ele></trkpt>
    <trkpt lat="48.84108" lon="2.51307"><ele>38.3</ele></trkpt>
    <trkpt lat="48.84161" lon="2.51296"><ele>38.2</ele></trkpt>
    <trkpt lat="48.84372" lon="2.51226"><ele>37.9</ele></trkpt>
    <trkpt lat="48.84407" lon="2.51226"><ele>37.9</ele></trkpt>
    <trkpt lat="48.84513" lon="2.5119"><ele>38.1</ele></trkpt>
    <trkpt lat="48.84548" lon="2.51185"><ele>38.1</ele></trkpt>
    <trkpt lat="48.84691" lon="2.51208"><ele>38.2</ele></trkpt>
    <trkpt lat="48.84762" lon="2.51231"><ele>38.2</ele></trkpt>
    <trkpt lat="48.84813" lon="2.51258"><ele>38.1</ele></trkpt>
    <trkpt lat="48.84907" lon="2.51336"><ele>38.0</ele></trkpt>
    <trkpt lat="48.8502" lon="2.51471"><ele>38.1</ele></trkpt>
    <trkpt lat="48.85046" lon="2.51509"><ele>38.2</ele></trkpt>
    <trkpt lat="48.85091" lon="2.51595"><ele>38.8</ele></trkpt>
    <trkpt lat="48.85129" lon="2.51748"><ele>39.3</ele></trkpt>
    <trkpt lat="48.85148" lon="2.51854"><ele>38.7</ele></trkpt>
    <trkpt lat="48.85204" lon="2.52307"><ele>38.5</ele></trkpt>
    <trkpt lat="48.85232" lon="2.52715"><ele>38.3</ele></trkpt>
    <trkpt lat="48.85254" lon="2.52903"><ele>38.2</ele></trkpt>
    <trkpt lat="48.85305" lon="2.53165"><ele>38.3</ele></trkpt>
    <trkpt lat="48.85326" lon="2.53298"><ele>38.2</ele></trkpt>
    <trkpt lat="48.85332" lon="2.53544"><ele>37.5</ele></trkpt>
    <trkpt lat="48.85324" lon="2.53597"><ele>37.4</ele></trkpt>
    <trkpt lat="48.85297" lon="2.53698"><ele>37.4</ele></trkpt>
    <trkpt lat="48.85283" lon="2.53777"><ele>37.4</ele></trkpt>
    <trkpt lat="48.85269" lon="2.53884"><ele>37.8</ele></trkpt>
    <trkpt lat="48.85256" lon="2.54074"><ele>38.3</ele></trkpt>
    <trkpt lat="48.85258" lon="2.54156"><ele>38.4</ele></trkpt>
    <trkpt lat="48.85269" lon="2.54236"><ele>38.3</ele></trkpt>
    <trkpt lat="48.85292" lon="2.5431"><ele>37.9</ele></trkpt>
    <trkpt lat="48.85365" lon="2.5443"><ele>37.6</ele></trkpt>
    <trkpt lat="48.85384" lon="2.54476"><ele>37.6</ele></trkpt>
    <trkpt lat="48.85402" lon="2.54554"><ele>37.3</ele></trkpt>
    <trkpt lat="48.85416" lon="2.54688"><ele>37.5</ele></trkpt>
    <trkpt lat="48.85412" lon="2.54852"><ele>37.8</ele></trkpt>
    <trkpt lat="48.85423" lon="2.55207"><ele>38.1</ele></trkpt>
    <trkpt lat="48.85405" lon="2.55479"><ele>38.1</ele></trkpt>
    <trkpt lat="48.85361" lon="2.55772"><ele>37.9</ele></trkpt>
    <trkpt lat="48.85351" lon="2.56017"><ele>38.1</ele></trkpt>
    <trkpt lat="48.85353" lon="2.56099"><ele>38.2</ele></trkpt>
    <trkpt lat="48.85367" lon="2.56262"><ele>38.2</ele></trkpt>
    <trkpt lat="48.85414" lon="2.56409"><ele>37.9</ele></trkpt>
    <trkpt lat="48.85444" lon="2.56478"><ele>38.0</ele></trkpt>
    <trkpt lat="48.85474" lon="2.56635"><ele>38.3</ele></trkpt>
    <trkpt lat="48.85487" lon="2.56685"><ele>38.4</ele></trkpt>
    <trkpt lat="48.85507" lon="2.56732"><ele>38.5</ele></trkpt>
    <trkpt lat="48.85533" lon="2.56768"><ele>38.4</ele></trkpt>
    <trkpt lat="48.85565" lon="2.56793"><ele>38.2</ele></trkpt>
    <trkpt lat="48.85598" lon="2.56815"><ele>38.1</ele></trkpt>
    <trkpt lat="48.85632" lon="2.56828"><ele>37.9</ele></trkpt>
    <trkpt lat="48.85722" lon="2.56813"><ele>38.3</ele></trkpt>
    <trkpt lat="48.85755" lon="2.56792"><ele>38.2</ele></trkpt>
    <trkpt lat="48.85816" lon="2.56736"><ele>37.9</ele></trkpt>
    <trkpt lat="48.85868" lon="2.56714"><ele>37.8</ele></trkpt>
    <trkpt lat="48.85884" lon="2.56701"><ele>37.8</ele></trkpt>
    <trkpt lat="48.86094" lon="2.56633"><ele>37.9</ele></trkpt>
    <trkpt lat="48.86127" lon="2.5661"><ele>37.3</ele></trkpt>
    <trkpt lat="48.86149" lon="2.56536"><ele>36.6</ele></trkpt>
    <trkpt lat="48.86204" lon="2.56468"><ele>36.5</ele></trkpt>
    <trkpt lat="48.86222" lon="2.56466"><ele>36.5</ele></trkpt>
    <trkpt lat="48.86256" lon="2.56483"><ele>36.6</ele></trkpt>
    <trkpt lat="48.86294" lon="2.5654"><ele>37.3</ele></trkpt>
    <trkpt lat="48.86365" lon="2.5673"><ele>38.6</ele></trkpt>
    <trkpt lat="48.86387" lon="2.56804"><ele>38.7</ele></trkpt>
    <trkpt lat="48.8648" lon="2.57275"><ele>38.3</ele></trkpt>
    <trkpt lat="48.86502" lon="2.57436"><ele>38.3</ele></trkpt>
    <trkpt lat="48.86505" lon="2.5749"><ele>38.3</ele></trkpt>
    <trkpt lat="48.86484" lon="2.57592"><ele>38.3</ele></trkpt>
    <trkpt lat="48.86481" lon="2.57728"><ele>37.8</ele></trkpt>
    <trkpt lat="48.8647" lon="2.57779"><ele>37.8</ele></trkpt>
    <trkpt lat="48.86475" lon="2.5786"><ele>37.8</ele></trkpt>
    <trkpt lat="48.86501" lon="2.58019"><ele>37.8</ele></trkpt>
    <trkpt lat="48.86506" lon="2.58074"><ele>37.8</ele></trkpt>
    <trkpt lat="48.86511" lon="2.5821"><ele>37.9</ele></trkpt>
    <trkpt lat="48.86508" lon="2.58292"><ele>37.9</ele></trkpt>
    <trkpt lat="48.86446" lon="2.58537"><ele>38.3</ele></trkpt>
    <trkpt lat="48.86436" lon="2.58645"><ele>38.5</ele></trkpt>
    <trkpt lat="48.86443" lon="2.58726"><ele>38.7</ele></trkpt>
    <trkpt lat="48.86476" lon="2.58939"><ele>38.9</ele></trkpt>
    <trkpt lat="48.86527" lon="2.59143"><ele>39.0</ele></trkpt>
    <trkpt lat="48.86545" lon="2.59273"><ele>39.2</ele></trkpt>
    <trkpt lat="48.86074" lon="2.59452"><ele>42.4</ele></trkpt>
    <trkpt lat="48.85863" lon="2.59383"><ele>43.9</ele></trkpt>
    <trkpt lat="48.85851" lon="2.59391"><ele>44.0</ele></trkpt>
    <trkpt lat="48.85814" lon="2.59574"><ele>46.5</ele></trkpt>
    <trkpt lat="48.85803" lon="2.59593"><ele>47.0</ele></trkpt>
    <trkpt lat="48.85736" lon="2.59555"><ele>48.8</ele></trkpt>
    <trkpt lat="48.85719" lon="2.59552"><ele>49.1</ele></trkpt>
    <trkpt lat="48.85475" lon="2.59584"><ele>52.3</ele></trkpt>
    <trkpt lat="48.85482" lon="2.59608"><ele>52.6</ele></trkpt>
    <trkpt lat="48.85482" lon="2.59635"><ele>53.0</ele></trkpt>
    <trkpt lat="48.85469" lon="2.59685"><ele>55.0</ele></trkpt>
    <trkpt lat="48.85329" lon="2.59935"><ele>67.6</ele></trkpt>
    <trkpt lat="48.85302" lon="2.59971"><ele>69.6</ele></trkpt>
    <trkpt lat="48.85271" lon="2.59998"><ele>71.0</ele></trkpt>
    <trkpt lat="48.85219" lon="2.60018"><ele>72.5</ele></trkpt>
    <trkpt lat="48.85231" lon="2.60149"><ele>75.4</ele></trkpt>
    <trkpt lat="48.8523" lon="2.60286"><ele>77.1</ele></trkpt>
    <trkpt lat="48.8526" lon="2.61159"><ele>81.4</ele></trkpt>
    <trkpt lat="48.85263" lon="2.61378"><ele>80.5</ele></trkpt>
    <trkpt lat="48.85253" lon="2.61395"><ele>80.4</ele></trkpt>
    <trkpt lat="48.85257" lon="2.6142"><ele>80.3</ele></trkpt>
    <trkpt lat="48.85254" lon="2.61446"><ele>80.2</ele></trkpt>
    <trkpt lat="48.85175" lon="2.61895"><ele>80.5</ele></trkpt>
    <trkpt lat="48.85167" lon="2.6192"><ele>80.6</ele></trkpt>
    <trkpt lat="48.85143" lon="2.62051"><ele>80.4</ele></trkpt>
    <trkpt lat="48.85134" lon="2.62074"><ele>80.3</ele></trkpt>
    <trkpt lat="48.85121" lon="2.62091"><ele>80.1</ele></trkpt>
    <trkpt lat="48.8512" lon="2.62118"><ele>79.7</ele></trkpt>
    <trkpt lat="48.85129" lon="2.6214"><ele>79.3</ele></trkpt>
    <trkpt lat="48.85146" lon="2.62147"><ele>78.8</ele></trkpt>
    <trkpt lat="48.85192" lon="2.62108"><ele>76.7</ele></trkpt>
    <trkpt lat="48.85245" lon="2.621"><ele>73.7</ele></trkpt>
    <trkpt lat="48.85263" lon="2.62106"><ele>72.6</ele></trkpt>
    <trkpt lat="48.85535" lon="2.62246"><ele>56.5</ele></trkpt>
    <trkpt lat="48.85551" lon="2.62259"><ele>55.4</ele></trkpt>
    <trkpt lat="48.85563" lon="2.62279"><ele>54.3</ele></trkpt>
    <trkpt lat="48.85578" lon="2.62328"><ele>52.4</ele></trkpt>
    <trkpt lat="48.85589" lon="2.62379"><ele>50.8</ele></trkpt>
    <trkpt lat="48.85605" lon="2.62427"><ele>48.9</ele></trkpt>
    <trkpt lat="48.85614" lon="2.62479"><ele>46.7</ele></trkpt>
    <trkpt lat="48.85623" lon="2.6267"><ele>42.7</ele></trkpt>
    <trkpt lat="48.8562" lon="2.62807"><ele>41.8</ele></trkpt>
    <trkpt lat="48.85608" lon="2.62914"><ele>41.8</ele></trkpt>
    <trkpt lat="48.85587" lon="2.63017"><ele>42.5</ele></trkpt>
    <trkpt lat="48.85592" lon="2.63042"><ele>42.5</ele></trkpt>
    <trkpt lat="48.85586" lon="2.63151"><ele>42.4</ele></trkpt>
    <trkpt lat="48.8559" lon="2.63198"><ele>42.2</ele></trkpt>
    <trkpt lat="48.85583" lon="2.63389"><ele>42.1</ele></trkpt>
    <trkpt lat="48.85587" lon="2.6347"><ele>42.4</ele></trkpt>
    <trkpt lat="48.85619" lon="2.63683"><ele>42.4</ele></trkpt>
    <trkpt lat="48.85704" lon="2.63985"><ele>41.7</ele></trkpt>
    <trkpt lat="48.85801" lon="2.64454"><ele>41.4</ele></trkpt>
    <trkpt lat="48.8583" lon="2.64554"><ele>41.9</ele></trkpt>
    <trkpt lat="48.85859" lon="2.64586"><ele>42.1</ele></trkpt>
    <trkpt lat="48.85929" lon="2.64612"><ele>42.2</ele></trkpt>
    <trkpt lat="48.85938" lon="2.6463"><ele>42.2</ele></trkpt>
    <trkpt lat="48.8595" lon="2.64638"><ele>42.1</ele></trkpt>
    <trkpt lat="48.85985" lon="2.64627"><ele>42.0</ele></trkpt>
    <trkpt lat="48.86035" lon="2.64595"><ele>41.9</ele></trkpt>
    <trkpt lat="48.86305" lon="2.64384"><ele>44.2</ele></trkpt>
    <trkpt lat="48.86423" lon="2.64319"><ele>42.6</ele></trkpt>
    <trkpt lat="48.86469" lon="2.64277"><ele>42.8</ele></trkpt>
    <trkpt lat="48.86503" lon="2.64261"><ele>43.0</ele></trkpt>
    <trkpt lat="48.86537" lon="2.64272"><ele>43.3</ele></trkpt>
    <trkpt lat="48.86589" lon="2.64253"><ele>43.3</ele></trkpt>
    <trkpt lat="48.86605" lon="2.64259"><ele>43.1</ele></trkpt>
    <trkpt lat="48.86702" lon="2.64333"><ele>42.1</ele></trkpt>
    <trkpt lat="48.86747" lon="2.64377"><ele>42.2</ele></trkpt>
    <trkpt lat="48.86787" lon="2.64431"><ele>42.3</ele></trkpt>
    <trkpt lat="48.86844" lon="2.64537"><ele>42.6</ele></trkpt>
    <trkpt lat="48.86872" lon="2.64571"><ele>42.6</ele></trkpt>
    <trkpt lat="48.87021" lon="2.64668"><ele>42.0</ele></trkpt>
    <trkpt lat="48.87037" lon="2.64671"><ele>42.0</ele></trkpt>
    <trkpt lat="48.8707" lon="2.64654"><ele>42.0</ele></trkpt>
    <trkpt lat="48.87118" lon="2.64691"><ele>42.0</ele></trkpt>
    <trkpt lat="48.87149" lon="2.6463"><ele>41.9</ele></trkpt>
    <trkpt lat="48.87166" lon="2.64625"><ele>41.8</ele></trkpt>
    <trkpt lat="48.87201" lon="2.6464"><ele>41.6</ele></trkpt>
    <trkpt lat="48.87235" lon="2.64634"><ele>41.5</ele></trkpt>
    <trkpt lat="48.87288" lon="2.64647"><ele>41.6</ele></trkpt>
    <trkpt lat="48.8739" lon="2.647"><ele>42.8</ele></trkpt>
    <trkpt lat="48.87405" lon="2.64714"><ele>43.0</ele></trkpt>
    <trkpt lat="48.87428" lon="2.64749"><ele>43.6</ele></trkpt>
    <trkpt lat="48.87463" lon="2.64762"><ele>44.6</ele></trkpt>
    <trkpt lat="48.87525" lon="2.64816"><ele>48.4</ele></trkpt>
    <trkpt lat="48.8764" lon="2.64894"><ele>48.6</ele></trkpt>
    <trkpt lat="48.87727" lon="2.6493"><ele>45.3</ele></trkpt>
    <trkpt lat="48.87887" lon="2.64964"><ele>44.7</ele></trkpt>
    <trkpt lat="48.88043" lon="2.65028"><ele>42.7</ele></trkpt>
    <trkpt lat="48.88266" lon="2.65132"><ele>43.8</ele></trkpt>
    <trkpt lat="48.88279" lon="2.65151"><ele>43.9</ele></trkpt>
    <trkpt lat="48.88283" lon="2.65177"><ele>44.0</ele></trkpt>
    <trkpt lat="48.88278" lon="2.65203"><ele>44.2</ele></trkpt>
    <trkpt lat="48.88226" lon="2.65347"><ele>44.6</ele></trkpt>
    <trkpt lat="48.88147" lon="2.65681"><ele>45.2</ele></trkpt>
    <trkpt lat="48.8814" lon="2.65735"><ele>45.0</ele></trkpt>
    <trkpt lat="48.88141" lon="2.66108"><ele>45.0</ele></trkpt>
    <trkpt lat="48.88053" lon="2.66495"><ele>44.0</ele></trkpt>
    <trkpt lat="48.88024" lon="2.66562"><ele>43.3</ele></trkpt>
    <trkpt lat="48.87998" lon="2.66599"><ele>42.8</ele></trkpt>
    <trkpt lat="48.87967" lon="2.66627"><ele>42.5</ele></trkpt>
    <trkpt lat="48.87882" lon="2.66674"><ele>42.4</ele></trkpt>
    <trkpt lat="48.87851" lon="2.66701"><ele>42.6</ele></trkpt>
    <trkpt lat="48.87827" lon="2.66741"><ele>42.7</ele></trkpt>
    <trkpt lat="48.87813" lon="2.66791"><ele>42.7</ele></trkpt>
    <trkpt lat="48.8781" lon="2.66818"><ele>42.7</ele></trkpt>
    <trkpt lat="48.87817" lon="2.66899"><ele>42.5</ele></trkpt>
    <trkpt lat="48.87826" lon="2.66922"><ele>42.4</ele></trkpt>
    <trkpt lat="48.87849" lon="2.66965"><ele>42.2</ele></trkpt>
    <trkpt lat="48.87918" lon="2.67052"><ele>42.0</ele></trkpt>
    <trkpt lat="48.87929" lon="2.67073"><ele>42.0</ele></trkpt>
    <trkpt lat="48.87946" lon="2.67122"><ele>42.1</ele></trkpt>
    <trkpt lat="48.88" lon="2.67856"><ele>45.3</ele></trkpt>
    <trkpt lat="48.88042" lon="2.68036"><ele>46.2</ele></trkpt>
    <trkpt lat="48.88102" lon="2.68265"><ele>45.4</ele></trkpt>
    <trkpt lat="48.88111" lon="2.68784"><ele>41.1</ele></trkpt>
    <trkpt lat="48.88215" lon="2.7006"><ele>45.6</ele></trkpt>
    <trkpt lat="48.88201" lon="2.70194"><ele>47.4</ele></trkpt>
    <trkpt lat="48.88212" lon="2.70214"><ele>46.9</ele></trkpt>
    <trkpt lat="48.88216" lon="2.70239"><ele>46.2</ele></trkpt>
    <trkpt lat="48.88221" lon="2.70348"><ele>44.6</ele></trkpt>
    <trkpt lat="48.88233" lon="2.70399"><ele>45.4</ele></trkpt>
    <trkpt lat="48.8829" lon="2.70466"><ele>49.1</ele></trkpt>
    <trkpt lat="48.88313" lon="2.70508"><ele>51.2</ele></trkpt>
    <trkpt lat="48.88399" lon="2.70809"><ele>63.5</ele></trkpt>
    <trkpt lat="48.88421" lon="2.7085"><ele>65.7</ele></trkpt>
    <trkpt lat="48.88439" lon="2.70851"><ele>66.8</ele></trkpt>
    <trkpt lat="48.88452" lon="2.70835"><ele>67.7</ele></trkpt>
    <trkpt lat="48.88456" lon="2.70808"><ele>68.6</ele></trkpt>
    <trkpt lat="48.88446" lon="2.70728"><ele>71.0</ele></trkpt>
    <trkpt lat="48.88451" lon="2.70702"><ele>71.9</ele></trkpt>
    <trkpt lat="48.88493" lon="2.70652"><ele>74.8</ele></trkpt>
    <trkpt lat="48.88556" lon="2.70339"><ele>86.6</ele></trkpt>
    <trkpt lat="48.88565" lon="2.70316"><ele>87.7</ele></trkpt>
    <trkpt lat="48.8858" lon="2.703"><ele>88.8</ele></trkpt>
    <trkpt lat="48.88631" lon="2.70277"><ele>92.3</ele></trkpt>
    <trkpt lat="48.88666" lon="2.70292"><ele>94.5</ele></trkpt>
    <trkpt lat="48.89014" lon="2.70578"><ele>103.3</ele></trkpt>
    <trkpt lat="48.89051" lon="2.70636"><ele>103.6</ele></trkpt>
    <trkpt lat="48.89085" lon="2.70638"><ele>103.5</ele></trkpt>
    <trkpt lat="48.89733" lon="2.71173"><ele>104.9</ele></trkpt>
    <trkpt lat="48.89874" lon="2.71295"><ele>105.5</ele></trkpt>
    <trkpt lat="48.89887" lon="2.71313"><ele>105.4</ele></trkpt>
    <trkpt lat="48.89894" lon="2.71337"><ele>105.0</ele></trkpt>
    <trkpt lat="48.89944" lon="2.71329"><ele>102.4</ele></trkpt>
    <trkpt lat="48.90051" lon="2.7134"><ele>95.6</ele></trkpt>
    <trkpt lat="48.90083" lon="2.71314"><ele>93.8</ele></trkpt>
    <trkpt lat="48.9016" lon="2.71199"><ele>89.5</ele></trkpt>
    <trkpt lat="48.90189" lon="2.71167"><ele>88.0</ele></trkpt>
    <trkpt lat="48.90468" lon="2.70979"><ele>74.7</ele></trkpt>
    <trkpt lat="48.90504" lon="2.70976"><ele>74.9</ele></trkpt>
    <trkpt lat="48.90935" lon="2.71025"><ele>77.2</ele></trkpt>
    <trkpt lat="48.91088" lon="2.71103"><ele>79.4</ele></trkpt>
    <trkpt lat="48.91106" lon="2.71105"><ele>80.1</ele></trkpt>
    <trkpt lat="48.91279" lon="2.71031"><ele>85.0</ele></trkpt>
    <trkpt lat="48.91349" lon="2.71008"><ele>81.9</ele></trkpt>
    <trkpt lat="48.91385" lon="2.71004"><ele>79.4</ele></trkpt>
    <trkpt lat="48.91438" lon="2.71012"><ele>75.5</ele></trkpt>
    <trkpt lat="48.91491" lon="2.71032"><ele>71.9</ele></trkpt>
    <trkpt lat="48.9154" lon="2.71066"><ele>68.9</ele></trkpt>
    <trkpt lat="48.91586" lon="2.71108"><ele>67.0</ele></trkpt>
    <trkpt lat="48.91603" lon="2.71155"><ele>66.0</ele></trkpt>
    <trkpt lat="48.91617" lon="2.7117"><ele>65.7</ele></trkpt>
    <trkpt lat="48.9165" lon="2.71159"><ele>65.0</ele></trkpt>
    <trkpt lat="48.91682" lon="2.71183"><ele>64.6</ele></trkpt>
    <trkpt lat="48.92051" lon="2.71573"><ele>70.9</ele></trkpt>
    <trkpt lat="48.92098" lon="2.71614"><ele>69.6</ele></trkpt>
    <trkpt lat="48.92125" lon="2.71649"><ele>67.6</ele></trkpt>
    <trkpt lat="48.92188" lon="2.717"><ele>62.7</ele></trkpt>
    <trkpt lat="48.92201" lon="2.71718"><ele>61.5</ele></trkpt>
    <trkpt lat="48.92309" lon="2.71818"><ele>53.7</ele></trkpt>
    <trkpt lat="48.92395" lon="2.71916"><ele>50.0</ele></trkpt>
    <trkpt lat="48.92412" lon="2.71923"><ele>49.8</ele></trkpt>
    <trkpt lat="48.92466" lon="2.71916"><ele>49.5</ele></trkpt>
    <trkpt lat="48.92516" lon="2.71945"><ele>49.3</ele></trkpt>
    <trkpt lat="48.92549" lon="2.71955"><ele>48.9</ele></trkpt>
    <trkpt lat="48.92545" lon="2.72008"><ele>48.3</ele></trkpt>
    <trkpt lat="48.92487" lon="2.72239"><ele>44.8</ele></trkpt>
    <trkpt lat="48.92474" lon="2.72255"><ele>44.4</ele></trkpt>
    <trkpt lat="48.92362" lon="2.7234"><ele>43.9</ele></trkpt>
    <trkpt lat="48.92333" lon="2.72335"><ele>44.0</ele></trkpt>
    <trkpt lat="48.92311" lon="2.72374"><ele>43.9</ele></trkpt>
    <trkpt lat="48.92179" lon="2.72458"><ele>45.6</ele></trkpt>
    <trkpt lat="48.92099" lon="2.7252"><ele>45.3</ele></trkpt>
    <trkpt lat="48.9207" lon="2.72552"><ele>45.0</ele></trkpt>
    <trkpt lat="48.92045" lon="2.72591"><ele>44.8</ele></trkpt>
    <trkpt lat="48.92016" lon="2.7266"><ele>44.7</ele></trkpt>
    <trkpt lat="48.92004" lon="2.72712"><ele>44.7</ele></trkpt>
    <trkpt lat="48.91996" lon="2.72765"><ele>44.6</ele></trkpt>
    <trkpt lat="48.91995" lon="2.7282"><ele>44.6</ele></trkpt>
    <trkpt lat="48.92016" lon="2.72952"><ele>44.6</ele></trkpt>
    <trkpt lat="48.92139" lon="2.73255"><ele>44.5</ele></trkpt>
    <trkpt lat="48.92238" lon="2.73516"><ele>44.6</ele></trkpt>
    <trkpt lat="48.92263" lon="2.73618"><ele>44.6</ele></trkpt>
    <trkpt lat="48.92269" lon="2.737"><ele>44.6</ele></trkpt>
    <trkpt lat="48.92271" lon="2.73782"><ele>44.6</ele></trkpt>
    <trkpt lat="48.92222" lon="2.74213"><ele>44.2</ele></trkpt>
    <trkpt lat="48.92198" lon="2.74286"><ele>44.2</ele></trkpt>
    <trkpt lat="48.92162" lon="2.74347"><ele>44.6</ele></trkpt>
    <trkpt lat="48.92118" lon="2.74394"><ele>45.5</ele></trkpt>
    <trkpt lat="48.92085" lon="2.74415"><ele>46.4</ele></trkpt>
    <trkpt lat="48.9205" lon="2.74427"><ele>47.5</ele></trkpt>
    <trkpt lat="48.91888" lon="2.74429"><ele>51.8</ele></trkpt>
    <trkpt lat="48.91853" lon="2.74416"><ele>52.1</ele></trkpt>
    <trkpt lat="48.91839" lon="2.74401"><ele>52.3</ele></trkpt>
    <trkpt lat="48.91822" lon="2.74404"><ele>52.5</ele></trkpt>
    <trkpt lat="48.91813" lon="2.74427"><ele>52.6</ele></trkpt>
    <trkpt lat="48.91816" lon="2.74453"><ele>52.9</ele></trkpt>
    <trkpt lat="48.9183" lon="2.74469"><ele>53.1</ele></trkpt>
    <trkpt lat="48.9185" lon="2.74514"><ele>53.5</ele></trkpt>
    <trkpt lat="48.91866" lon="2.74592"><ele>53.9</ele></trkpt>
    <trkpt lat="48.91899" lon="2.75055"><ele>58.0</ele></trkpt>
    <trkpt lat="48.91906" lon="2.75301"><ele>58.0</ele></trkpt>
    <trkpt lat="48.9194" lon="2.75653"><ele>57.6</ele></trkpt>
    <trkpt lat="48.91941" lon="2.7568"><ele>57.4</ele></trkpt>
    <trkpt lat="48.91932" lon="2.75761"><ele>56.4</ele></trkpt>
    <trkpt lat="48.91892" lon="2.75943"><ele>56.6</ele></trkpt>
    <trkpt lat="48.91873" lon="2.75989"><ele>57.2</ele></trkpt>
    <trkpt lat="48.91823" lon="2.76067"><ele>57.7</ele></trkpt>
    <trkpt lat="48.91788" lon="2.76162"><ele>55.1</ele></trkpt>
    <trkpt lat="48.9175" lon="2.76221"><ele>52.4</ele></trkpt>
    <trkpt lat="48.91725" lon="2.76292"><ele>51.6</ele></trkpt>
    <trkpt lat="48.91583" lon="2.76258"><ele>55.9</ele></trkpt>
    <trkpt lat="48.91567" lon="2.76267"><ele>56.6</ele></trkpt>
    <trkpt lat="48.91454" lon="2.76515"><ele>61.8</ele></trkpt>
    <trkpt lat="48.9133" lon="2.76712"><ele>63.4</ele></trkpt>
    <trkpt lat="48.91321" lon="2.76735"><ele>63.4</ele></trkpt>
    <trkpt lat="48.91153" lon="2.77458"><ele>43.8</ele></trkpt>
    <trkpt lat="48.90945" lon="2.78001"><ele>44.2</ele></trkpt>
    <trkpt lat="48.90914" lon="2.78069"><ele>45.0</ele></trkpt>
    <trkpt lat="48.90844" lon="2.77983"><ele>45.5</ele></trkpt>
    <trkpt lat="48.90769" lon="2.77908"><ele>45.8</ele></trkpt>
    <trkpt lat="48.90721" lon="2.77872"><ele>45.9</ele></trkpt>
    <trkpt lat="48.90618" lon="2.77822"><ele>45.9</ele></trkpt>
    <trkpt lat="48.9053" lon="2.77794"><ele>45.8</ele></trkpt>
    <trkpt lat="48.90476" lon="2.77793"><ele>45.8</ele></trkpt>
    <trkpt lat="48.90405" lon="2.77806"><ele>45.9</ele></trkpt>
    <trkpt lat="48.90337" lon="2.77839"><ele>45.6</ele></trkpt>
    <trkpt lat="48.90312" lon="2.77801"><ele>44.9</ele></trkpt>
    <trkpt lat="48.90301" lon="2.7775"><ele>44.2</ele></trkpt>
    <trkpt lat="48.90301" lon="2.77695"><ele>43.8</ele></trkpt>
    <trkpt lat="48.90321" lon="2.77562"><ele>45.1</ele></trkpt>
    <trkpt lat="48.90322" lon="2.77534"><ele>46.1</ele></trkpt>
    <trkpt lat="48.90314" lon="2.77481"><ele>48.4</ele></trkpt>
    <trkpt lat="48.90306" lon="2.77457"><ele>49.8</ele></trkpt>
    <trkpt lat="48.90281" lon="2.77417"><ele>52.5</ele></trkpt>
    <trkpt lat="48.90233" lon="2.77384"><ele>55.9</ele></trkpt>
    <trkpt lat="48.90179" lon="2.77387"><ele>57.8</ele></trkpt>
    <trkpt lat="48.89955" lon="2.77485"><ele>66.3</ele></trkpt>
    <trkpt lat="48.89865" lon="2.77499"><ele>75.7</ele></trkpt>
    <trkpt lat="48.89829" lon="2.77501"><ele>79.6</ele></trkpt>
    <trkpt lat="48.89812" lon="2.77496"><ele>81.4</ele></trkpt>
    <trkpt lat="48.89753" lon="2.77436"><ele>89.2</ele></trkpt>
    <trkpt lat="48.89683" lon="2.77462"><ele>97.3</ele></trkpt>
    <trkpt lat="48.89557" lon="2.7746"><ele>107.4</ele></trkpt>
    <trkpt lat="48.89458" lon="2.77577"><ele>110.0</ele></trkpt>
    <trkpt lat="48.89428" lon="2.77605"><ele>110.3</ele></trkpt>
    <trkpt lat="48.89307" lon="2.77659"><ele>112.3</ele></trkpt>
    <trkpt lat="48.89241" lon="2.77702"><ele>114.0</ele></trkpt>
    <trkpt lat="48.89206" lon="2.77714"><ele>115.1</ele></trkpt>
    <trkpt lat="48.89028" lon="2.77749"><ele>118.9</ele></trkpt>
    <trkpt lat="48.88831" lon="2.7773"><ele>120.5</ele></trkpt>
    <trkpt lat="48.88723" lon="2.77748"><ele>118.6</ele></trkpt>
    <trkpt lat="48.88689" lon="2.77742"><ele>118.4</ele></trkpt>
    <trkpt lat="48.88745" lon="2.77397"><ele>114.3</ele></trkpt>
    <trkpt lat="48.88765" lon="2.7721"><ele>107.3</ele></trkpt>
    <trkpt lat="48.88786" lon="2.77135"><ele>102.8</ele></trkpt>
    <trkpt lat="48.88787" lon="2.77111"><ele>101.6</ele></trkpt>
    <trkpt lat="48.88688" lon="2.76993"><ele>97.9</ele></trkpt>
    <trkpt lat="48.88554" lon="2.76809"><ele>95.2</ele></trkpt>
    <trkpt lat="48.88509" lon="2.76725"><ele>92.5</ele></trkpt>
    <trkpt lat="48.88469" lon="2.76669"><ele>91.1</ele></trkpt>
    <trkpt lat="48.88456" lon="2.76618"><ele>89.8</ele></trkpt>
    <trkpt lat="48.88437" lon="2.76572"><ele>88.4</ele></trkpt>
    <trkpt lat="48.88313" lon="2.7638"><ele>80.2</ele></trkpt>
    <trkpt lat="48.88327" lon="2.7633"><ele>75.4</ele></trkpt>
    <trkpt lat="48.88427" lon="2.76173"><ele>51.6</ele></trkpt>
    <trkpt lat="48.88444" lon="2.76127"><ele>47.7</ele></trkpt>
    <trkpt lat="48.8851" lon="2.76088"><ele>43.1</ele></trkpt>
    <trkpt lat="48.88545" lon="2.76025"><ele>41.6</ele></trkpt>
    <trkpt lat="48.88445" lon="2.7591"><ele>41.4</ele></trkpt>
    <trkpt lat="48.88399" lon="2.75826"><ele>41.4</ele></trkpt>
    <trkpt lat="48.88337" lon="2.75599"><ele>41.2</ele></trkpt>
    <trkpt lat="48.88309" lon="2.7544"><ele>41.1</ele></trkpt>
    <trkpt lat="48.88301" lon="2.75031"><ele>41.5</ele></trkpt>
    <trkpt lat="48.88292" lon="2.74895"><ele>41.6</ele></trkpt>
    <trkpt lat="48.88263" lon="2.74653"><ele>41.6</ele></trkpt>
    <trkpt lat="48.88233" lon="2.74467"><ele>41.7</ele></trkpt>
    <trkpt lat="48.88213" lon="2.74277"><ele>41.5</ele></trkpt>
    <trkpt lat="48.88175" lon="2.73982"><ele>41.4</ele></trkpt>
    <trkpt lat="48.88161" lon="2.7382"><ele>41.1</ele></trkpt>
    <trkpt lat="48.88173" lon="2.73657"><ele>41.2</ele></trkpt>
    <trkpt lat="48.88168" lon="2.73466"><ele>41.5</ele></trkpt>
    <trkpt lat="48.88188" lon="2.73249"><ele>41.5</ele></trkpt>
    <trkpt lat="48.88168" lon="2.7295"><ele>41.1</ele></trkpt>
    <trkpt lat="48.88169" lon="2.72595"><ele>41.4</ele></trkpt>
    <trkpt lat="48.88162" lon="2.72486"><ele>41.5</ele></trkpt>
    <trkpt lat="48.88153" lon="2.72405"><ele>41.5</ele></trkpt>
    <trkpt lat="48.88141" lon="2.72353"><ele>41.5</ele></trkpt>
    <trkpt lat="48.881" lon="2.7227"><ele>41.6</ele></trkpt>
    <trkpt lat="48.8805" lon="2.72094"><ele>42.6</ele></trkpt>
    <trkpt lat="48.88026" lon="2.71962"><ele>42.4</ele></trkpt>
    <trkpt lat="48.88008" lon="2.71773"><ele>42.5</ele></trkpt>
    <trkpt lat="48.87996" lon="2.71693"><ele>42.5</ele></trkpt>
    <trkpt lat="48.87997" lon="2.71639"><ele>42.5</ele></trkpt>
    <trkpt lat="48.88005" lon="2.71558"><ele>42.4</ele></trkpt>
    <trkpt lat="48.88003" lon="2.71531"><ele>42.4</ele></trkpt>
    <trkpt lat="48.87979" lon="2.71428"><ele>42.7</ele></trkpt>
    <trkpt lat="48.87964" lon="2.71321"><ele>43.5</ele></trkpt>
    <trkpt lat="48.87924" lon="2.71139"><ele>45.2</ele></trkpt>
    <trkpt lat="48.87928" lon="2.71085"><ele>44.4</ele></trkpt>
    <trkpt lat="48.87926" lon="2.71031"><ele>43.8</ele></trkpt>
    <trkpt lat="48.87898" lon="2.70816"><ele>43.7</ele></trkpt>
    <trkpt lat="48.87875" lon="2.70684"><ele>45.0</ele></trkpt>
    <trkpt lat="48.87863" lon="2.70675"><ele>45.7</ele></trkpt>
    <trkpt lat="48.87672" lon="2.7074"><ele>58.5</ele></trkpt>
    <trkpt lat="48.87618" lon="2.70741"><ele>61.9</ele></trkpt>
    <trkpt lat="48.87601" lon="2.70734"><ele>62.5</ele></trkpt>
    <trkpt lat="48.87561" lon="2.70582"><ele>62.8</ele></trkpt>
    <trkpt lat="48.87564" lon="2.70559"><ele>62.6</ele></trkpt>
    <trkpt lat="48.87532" lon="2.70402"><ele>60.6</ele></trkpt>
    <trkpt lat="48.87557" lon="2.7016"><ele>56.3</ele></trkpt>
    <trkpt lat="48.87543" lon="2.70159"><ele>56.8</ele></trkpt>
    <trkpt lat="48.87511" lon="2.70176"><ele>58.3</ele></trkpt>
    <trkpt lat="48.87399" lon="2.7004"><ele>62.3</ele></trkpt>
    <trkpt lat="48.87165" lon="2.70025"><ele>75.0</ele></trkpt>
    <trkpt lat="48.87076" lon="2.70042"><ele>80.7</ele></trkpt>
    <trkpt lat="48.86993" lon="2.70091"><ele>86.2</ele></trkpt>
    <trkpt lat="48.8694" lon="2.70078"><ele>89.6</ele></trkpt>
    <trkpt lat="48.86774" lon="2.69972"><ele>95.4</ele></trkpt>
    <trkpt lat="48.86683" lon="2.69884"><ele>97.6</ele></trkpt>
    <trkpt lat="48.86566" lon="2.69813"><ele>95.5</ele></trkpt>
    <trkpt lat="48.86458" lon="2.69716"><ele>87.2</ele></trkpt>
    <trkpt lat="48.86414" lon="2.69669"><ele>83.6</ele></trkpt>
    <trkpt lat="48.86331" lon="2.69563"><ele>75.9</ele></trkpt>
    <trkpt lat="48.86293" lon="2.69505"><ele>73.6</ele></trkpt>
    <trkpt lat="48.86259" lon="2.6941"><ele>74.4</ele></trkpt>
    <trkpt lat="48.86256" lon="2.69383"><ele>75.0</ele></trkpt>
    <trkpt lat="48.86263" lon="2.69247"><ele>76.1</ele></trkpt>
    <trkpt lat="48.86244" lon="2.69204"><ele>73.9</ele></trkpt>
    <trkpt lat="48.86227" lon="2.69127"><ele>69.1</ele></trkpt>
    <trkpt lat="48.86214" lon="2.69109"><ele>67.4</ele></trkpt>
    <trkpt lat="48.86162" lon="2.69095"><ele>62.3</ele></trkpt>
    <trkpt lat="48.86119" lon="2.69046"><ele>57.3</ele></trkpt>
    <trkpt lat="48.86103" lon="2.69035"><ele>55.8</ele></trkpt>
    <trkpt lat="48.8605" lon="2.6902"><ele>52.7</ele></trkpt>
    <trkpt lat="48.86064" lon="2.68859"><ele>51.7</ele></trkpt>
    <trkpt lat="48.86019" lon="2.68594"><ele>50.7</ele></trkpt>
    <trkpt lat="48.8601" lon="2.68513"><ele>50.0</ele></trkpt>
    <trkpt lat="48.86013" lon="2.68459"><ele>49.7</ele></trkpt>
    <trkpt lat="48.86037" lon="2.68271"><ele>48.3</ele></trkpt>
    <trkpt lat="48.86032" lon="2.68135"><ele>47.2</ele></trkpt>
    <trkpt lat="48.86037" lon="2.68026"><ele>46.7</ele></trkpt>
    <trkpt lat="48.86032" lon="2.67889"><ele>46.4</ele></trkpt>
    <trkpt lat="48.86038" lon="2.67835"><ele>46.0</ele></trkpt>
    <trkpt lat="48.86062" lon="2.67762"><ele>45.7</ele></trkpt>
    <trkpt lat="48.86075" lon="2.67745"><ele>45.6</ele></trkpt>
    <trkpt lat="48.8622" lon="2.67636"><ele>45.3</ele></trkpt>
    <trkpt lat="48.86277" lon="2.6757"><ele>44.8</ele></trkpt>
    <trkpt lat="48.86308" lon="2.67505"><ele>44.7</ele></trkpt>
    <trkpt lat="48.86303" lon="2.67484"><ele>44.6</ele></trkpt>
    <trkpt lat="48.86107" lon="2.67293"><ele>45.5</ele></trkpt>
    <trkpt lat="48.8609" lon="2.67216"><ele>45.8</ele></trkpt>
    <trkpt lat="48.86115" lon="2.67085"><ele>47.7</ele></trkpt>
    <trkpt lat="48.86121" lon="2.66894"><ele>51.2</ele></trkpt>
    <trkpt lat="48.86136" lon="2.66848"><ele>51.9</ele></trkpt>
    <trkpt lat="48.86121" lon="2.66802"><ele>52.3</ele></trkpt>
    <trkpt lat="48.86119" lon="2.66775"><ele>52.4</ele></trkpt>
    <trkpt lat="48.86118" lon="2.66665"><ele>51.7</ele></trkpt>
    <trkpt lat="48.8613" lon="2.6653"><ele>49.7</ele></trkpt>
    <trkpt lat="48.86116" lon="2.66313"><ele>44.1</ele></trkpt>
    <trkpt lat="48.86104" lon="2.66205"><ele>42.1</ele></trkpt>
    <trkpt lat="48.86077" lon="2.66074"><ele>41.3</ele></trkpt>
    <trkpt lat="48.85957" lon="2.65559"><ele>42.5</ele></trkpt>
    <trkpt lat="48.85973" lon="2.65547"><ele>42.6</ele></trkpt>
    <trkpt lat="48.85982" lon="2.65525"><ele>42.5</ele></trkpt>
    <trkpt lat="48.85952" lon="2.65256"><ele>42.2</ele></trkpt>
    <trkpt lat="48.85954" lon="2.64928"><ele>41.6</ele></trkpt>
    <trkpt lat="48.85941" lon="2.64766"><ele>41.8</ele></trkpt>
    <trkpt lat="48.85927" lon="2.64751"><ele>41.9</ele></trkpt>
    <trkpt lat="48.85909" lon="2.64749"><ele>42.0</ele></trkpt>
    <trkpt lat="48.85941" lon="2.64655"><ele>42.2</ele></trkpt>
    <trkpt lat="48.85939" lon="2.64632"><ele>42.1</ele></trkpt>
    <trkpt lat="48.8593" lon="2.64612"><ele>42.1</ele></trkpt>
    <trkpt lat="48.85861" lon="2.64587"><ele>42.0</ele></trkpt>
    <trkpt lat="48.85831" lon="2.64557"><ele>41.7</ele></trkpt>
    <trkpt lat="48.85823" lon="2.64532"><ele>41.5</ele></trkpt>
    <trkpt lat="48.85796" lon="2.64431"><ele>41.2</ele></trkpt>
    <trkpt lat="48.85697" lon="2.63962"><ele>41.8</ele></trkpt>
    <trkpt lat="48.8562" lon="2.63686"><ele>42.4</ele></trkpt>
    <trkpt lat="48.85597" lon="2.63553"><ele>42.5</ele></trkpt>
    <trkpt lat="48.85585" lon="2.63446"><ele>42.2</ele></trkpt>
    <trkpt lat="48.85585" lon="2.63309"><ele>42.0</ele></trkpt>
    <trkpt lat="48.85598" lon="2.63091"><ele>42.6</ele></trkpt>
    <trkpt lat="48.85602" lon="2.63065"><ele>42.6</ele></trkpt>
    <trkpt lat="48.85622" lon="2.6302"><ele>42.5</ele></trkpt>
    <trkpt lat="48.85624" lon="2.62997"><ele>42.4</ele></trkpt>
    <trkpt lat="48.85607" lon="2.62955"><ele>42.0</ele></trkpt>
    <trkpt lat="48.85624" lon="2.62738"><ele>42.4</ele></trkpt>
    <trkpt lat="48.85609" lon="2.62361"><ele>50.2</ele></trkpt>
    <trkpt lat="48.85594" lon="2.62346"><ele>51.1</ele></trkpt>
    <trkpt lat="48.85568" lon="2.62274"><ele>54.1</ele></trkpt>
    <trkpt lat="48.85541" lon="2.6224"><ele>56.0</ele></trkpt>
    <trkpt lat="48.8525" lon="2.621"><ele>75.0</ele></trkpt>
    <trkpt lat="48.85178" lon="2.621"><ele>78.3</ele></trkpt>
    <trkpt lat="48.85163" lon="2.62086"><ele>78.9</ele></trkpt>
    <trkpt lat="48.85154" lon="2.62062"><ele>79.4</ele></trkpt>
    <trkpt lat="48.85157" lon="2.62009"><ele>80.1</ele></trkpt>
    <trkpt lat="48.85265" lon="2.61431"><ele>79.8</ele></trkpt>
    <trkpt lat="48.8526" lon="2.61164"><ele>81.1</ele></trkpt>
    <trkpt lat="48.8523" lon="2.60291"><ele>76.6</ele></trkpt>
    <trkpt lat="48.85231" lon="2.60154"><ele>74.4</ele></trkpt>
    <trkpt lat="48.85216" lon="2.60019"><ele>71.7</ele></trkpt>
    <trkpt lat="48.85268" lon="2.6"><ele>69.9</ele></trkpt>
    <trkpt lat="48.85314" lon="2.59957"><ele>67.1</ele></trkpt>
    <trkpt lat="48.85471" lon="2.59694"><ele>55.2</ele></trkpt>
    <trkpt lat="48.85484" lon="2.59644"><ele>53.4</ele></trkpt>
    <trkpt lat="48.8549" lon="2.5959"><ele>51.5</ele></trkpt>
    <trkpt lat="48.85489" lon="2.59564"><ele>50.7</ele></trkpt>
    <trkpt lat="48.85498" lon="2.59541"><ele>50.0</ele></trkpt>
    <trkpt lat="48.85549" lon="2.59222"><ele>51.8</ele></trkpt>
    <trkpt lat="48.85597" lon="2.59045"><ele>53.2</ele></trkpt>
    <trkpt lat="48.85619" lon="2.59012"><ele>52.8</ele></trkpt>
    <trkpt lat="48.85931" lon="2.5889"><ele>45.9</ele></trkpt>
    <trkpt lat="48.85945" lon="2.58899"><ele>45.4</ele></trkpt>
    <trkpt lat="48.85961" lon="2.58897"><ele>44.8</ele></trkpt>
    <trkpt lat="48.85968" lon="2.58875"><ele>44.1</ele></trkpt>
    <trkpt lat="48.86247" lon="2.58769"><ele>39.2</ele></trkpt>
    <trkpt lat="48.86261" lon="2.58778"><ele>39.2</ele></trkpt>
    <trkpt lat="48.86277" lon="2.58772"><ele>39.1</ele></trkpt>
    <trkpt lat="48.86287" lon="2.58753"><ele>39.1</ele></trkpt>
    <trkpt lat="48.86427" lon="2.587"><ele>38.4</ele></trkpt>
    <trkpt lat="48.8644" lon="2.58701"><ele>38.4</ele></trkpt>
    <trkpt lat="48.86443" lon="2.58728"><ele>38.3</ele></trkpt>
    <trkpt lat="48.86451" lon="2.58744"><ele>38.2</ele></trkpt>
    <trkpt lat="48.86443" lon="2.58636"><ele>37.9</ele></trkpt>
    <trkpt lat="48.86447" lon="2.58582"><ele>37.8</ele></trkpt>
    <trkpt lat="48.86455" lon="2.58528"><ele>37.7</ele></trkpt>
    <trkpt lat="48.86502" lon="2.58351"><ele>37.5</ele></trkpt>
    <trkpt lat="48.86508" lon="2.58297"><ele>37.4</ele></trkpt>
    <trkpt lat="48.86511" lon="2.58215"><ele>37.4</ele></trkpt>
    <trkpt lat="48.86502" lon="2.58024"><ele>37.3</ele></trkpt>
    <trkpt lat="48.86476" lon="2.57865"><ele>37.4</ele></trkpt>
    <trkpt lat="48.8647" lon="2.57784"><ele>37.3</ele></trkpt>
    <trkpt lat="48.86483" lon="2.57707"><ele>37.4</ele></trkpt>
    <trkpt lat="48.86486" lon="2.57571"><ele>37.8</ele></trkpt>
    <trkpt lat="48.86502" lon="2.57522"><ele>37.7</ele></trkpt>
    <trkpt lat="48.86505" lon="2.57467"><ele>37.7</ele></trkpt>
    <trkpt lat="48.8648" lon="2.5728"><ele>37.6</ele></trkpt>
    <trkpt lat="48.86442" lon="2.57098"><ele>37.5</ele></trkpt>
    <trkpt lat="48.8641" lon="2.56913"><ele>37.9</ele></trkpt>
    <trkpt lat="48.86382" lon="2.56784"><ele>37.9</ele></trkpt>
    <trkpt lat="48.86296" lon="2.56545"><ele>36.5</ele></trkpt>
    <trkpt lat="48.86259" lon="2.56486"><ele>36.0</ele></trkpt>
    <trkpt lat="48.86226" lon="2.56467"><ele>36.0</ele></trkpt>
    <trkpt lat="48.86208" lon="2.56467"><ele>35.9</ele></trkpt>
    <trkpt lat="48.86192" lon="2.5648"><ele>36.0</ele></trkpt>
    <trkpt lat="48.86151" lon="2.56532"><ele>36.3</ele></trkpt>
    <trkpt lat="48.86141" lon="2.56555"><ele>36.5</ele></trkpt>
    <trkpt lat="48.86129" lon="2.56606"><ele>37.1</ele></trkpt>
    <trkpt lat="48.86097" lon="2.56631"><ele>37.4</ele></trkpt>
    <trkpt lat="48.85887" lon="2.56699"><ele>37.1</ele></trkpt>
    <trkpt lat="48.8582" lon="2.56734"><ele>37.2</ele></trkpt>
    <trkpt lat="48.85725" lon="2.56812"><ele>37.5</ele></trkpt>
    <trkpt lat="48.85636" lon="2.56828"><ele>37.4</ele></trkpt>
    <trkpt lat="48.85584" lon="2.56807"><ele>37.6</ele></trkpt>
    <trkpt lat="48.85536" lon="2.56771"><ele>37.7</ele></trkpt>
    <trkpt lat="48.85521" lon="2.56756"><ele>37.8</ele></trkpt>
    <trkpt lat="48.85498" lon="2.56713"><ele>37.6</ele></trkpt>
    <trkpt lat="48.85469" lon="2.56614"><ele>37.4</ele></trkpt>
    <trkpt lat="48.85445" lon="2.56483"><ele>37.3</ele></trkpt>
    <trkpt lat="48.85416" lon="2.56414"><ele>37.3</ele></trkpt>
    <trkpt lat="48.85368" lon="2.56266"><ele>37.5</ele></trkpt>
    <trkpt lat="48.85353" lon="2.56104"><ele>37.5</ele></trkpt>
    <trkpt lat="48.8535" lon="2.56023"><ele>37.3</ele></trkpt>
    <trkpt lat="48.85362" lon="2.5575"><ele>37.2</ele></trkpt>
    <trkpt lat="48.85404" lon="2.55484"><ele>37.4</ele></trkpt>
    <trkpt lat="48.85423" lon="2.55212"><ele>37.4</ele></trkpt>
    <trkpt lat="48.85412" lon="2.54857"><ele>37.0</ele></trkpt>
    <trkpt lat="48.85416" lon="2.54694"><ele>36.7</ele></trkpt>
    <trkpt lat="48.85403" lon="2.54558"><ele>36.8</ele></trkpt>
    <trkpt lat="48.85386" lon="2.54481"><ele>37.0</ele></trkpt>
    <trkpt lat="48.85367" lon="2.54434"><ele>36.9</ele></trkpt>
    <trkpt lat="48.85305" lon="2.54336"><ele>37.1</ele></trkpt>
    <trkpt lat="48.85284" lon="2.54292"><ele>37.4</ele></trkpt>
    <trkpt lat="48.85261" lon="2.54188"><ele>37.6</ele></trkpt>
    <trkpt lat="48.85256" lon="2.54079"><ele>37.6</ele></trkpt>
    <trkpt lat="48.85269" lon="2.53889"><ele>36.9</ele></trkpt>
    <trkpt lat="48.85282" lon="2.53782"><ele>36.7</ele></trkpt>
    <trkpt lat="48.85296" lon="2.53703"><ele>36.7</ele></trkpt>
    <trkpt lat="48.85323" lon="2.53602"><ele>36.8</ele></trkpt>
    <trkpt lat="48.85332" lon="2.53549"><ele>37.0</ele></trkpt>
    <trkpt lat="48.85326" lon="2.53303"><ele>37.5</ele></trkpt>
    <trkpt lat="48.85306" lon="2.5317"><ele>37.6</ele></trkpt>
    <trkpt lat="48.85255" lon="2.52908"><ele>37.5</ele></trkpt>
    <trkpt lat="48.8523" lon="2.52693"><ele>37.6</ele></trkpt>
    <trkpt lat="48.85204" lon="2.52312"><ele>37.8</ele></trkpt>
    <trkpt lat="48.85149" lon="2.51858"><ele>38.1</ele></trkpt>
    <trkpt lat="48.8513" lon="2.51753"><ele>38.6</ele></trkpt>
    <trkpt lat="48.85092" lon="2.51599"><ele>37.9</ele></trkpt>
    <trkpt lat="48.85048" lon="2.51513"><ele>37.5</ele></trkpt>
    <trkpt lat="48.85023" lon="2.51474"><ele>37.4</ele></trkpt>
    <trkpt lat="48.8491" lon="2.51339"><ele>37.5</ele></trkpt>
    <trkpt lat="48.84815" lon="2.5126"><ele>37.5</ele></trkpt>
    <trkpt lat="48.84765" lon="2.51233"><ele>37.6</ele></trkpt>
    <trkpt lat="48.84694" lon="2.51209"><ele>37.6</ele></trkpt>
    <trkpt lat="48.84551" lon="2.51185"><ele>37.6</ele></trkpt>
    <trkpt lat="48.84516" lon="2.5119"><ele>37.5</ele></trkpt>
    <trkpt lat="48.84393" lon="2.51229"><ele>37.3</ele></trkpt>
    <trkpt lat="48.84375" lon="2.51225"><ele>37.3</ele></trkpt>
    <trkpt lat="48.84147" lon="2.513"><ele>37.5</ele></trkpt>
    <trkpt lat="48.84111" lon="2.51307"><ele>37.6</ele></trkpt>
    <trkpt lat="48.83989" lon="2.51349"><ele>37.3</ele></trkpt>
    <trkpt lat="48.83955" lon="2.51369"><ele>37.2</ele></trkpt>
    <trkpt lat="48.83922" lon="2.51392"><ele>37.2</ele></trkpt>
    <trkpt lat="48.83895" lon="2.51427"><ele>37.2</ele></trkpt>
    <trkpt lat="48.83842" lon="2.51538"><ele>37.2</ele></trkpt>
    <trkpt lat="48.83783" lon="2.5164"><ele>37.3</ele></trkpt>
    <trkpt lat="48.8369" lon="2.51723"><ele>37.2</ele></trkpt>
    <trkpt lat="48.83641" lon="2.51758"><ele>37.2</ele></trkpt>
    <trkpt lat="48.8352" lon="2.51805"><ele>37.1</ele></trkpt>
    <trkpt lat="48.83519" lon="2.51816"><ele>37.1</ele></trkpt>
    <trkpt lat="48.8349" lon="2.51843"><ele>37.5</ele></trkpt>
    <trkpt lat="48.8345" lon="2.51897"><ele>39.3</ele></trkpt>
    <trkpt lat="48.83433" lon="2.519"><ele>40.2</ele></trkpt>
    <trkpt lat="48.83416" lon="2.51858"><ele>41.5</ele></trkpt>
    <trkpt lat="48.83412" lon="2.51831"><ele>42.0</ele></trkpt>
    <trkpt lat="48.83417" lon="2.51668"><ele>40.3</ele></trkpt>
    <trkpt lat="48.83412" lon="2.51649"><ele>39.6</ele></trkpt>
    <trkpt lat="48.83378" lon="2.51659"><ele>38.3</ele></trkpt>
    <trkpt lat="48.83289" lon="2.51653"><ele>37.7</ele></trkpt>
    <trkpt lat="48.8319" lon="2.51589"><ele>37.4</ele></trkpt>
    <trkpt lat="48.83161" lon="2.51555"><ele>37.5</ele></trkpt>
    <trkpt lat="48.83075" lon="2.51416"><ele>37.8</ele></trkpt>
    <trkpt lat="48.83026" lon="2.51302"><ele>37.9</ele></trkpt>
    <trkpt lat="48.82993" lon="2.51204"><ele>38.1</ele></trkpt>
    <trkpt lat="48.82979" lon="2.51126"><ele>38.0</ele></trkpt>
    <trkpt lat="48.82976" lon="2.51071"><ele>37.8</ele></trkpt>
    <trkpt lat="48.83006" lon="2.50944"><ele>37.6</ele></trkpt>
    <trkpt lat="48.83045" lon="2.50854"><ele>37.7</ele></trkpt>
    <trkpt lat="48.83055" lon="2.50746"><ele>37.8</ele></trkpt>
    <trkpt lat="48.83046" lon="2.50693"><ele>37.8</ele></trkpt>
    <trkpt lat="48.83046" lon="2.50666"><ele>37.8</ele></trkpt>
    <trkpt lat="48.83061" lon="2.50531"><ele>37.7</ele></trkpt>
    <trkpt lat="48.83075" lon="2.50481"><ele>37.9</ele></trkpt>
    <trkpt lat="48.83131" lon="2.50342"><ele>38.1</ele></trkpt>
    <trkpt lat="48.83171" lon="2.50132"><ele>38.0</ele></trkpt>
    <trkpt lat="48.83226" lon="2.49901"><ele>37.9</ele></trkpt>
    <trkpt lat="48.83238" lon="2.49821"><ele>37.8</ele></trkpt>
    <trkpt lat="48.83245" lon="2.49713"><ele>37.9</ele></trkpt>
    <trkpt lat="48.83245" lon="2.49685"><ele>37.9</ele></trkpt>
    <trkpt lat="48.8324" lon="2.49661"><ele>38.0</ele></trkpt>
    <trkpt lat="48.83245" lon="2.49553"><ele>38.1</ele></trkpt>
    <trkpt lat="48.83234" lon="2.49473"><ele>38.1</ele></trkpt>
    <trkpt lat="48.83204" lon="2.49374"><ele>38.3</ele></trkpt>
    <trkpt lat="48.83194" lon="2.49294"><ele>38.8</ele></trkpt>
    <trkpt lat="48.832" lon="2.49271"><ele>39.1</ele></trkpt>
    <trkpt lat="48.83236" lon="2.49269"><ele>39.9</ele></trkpt>
    <trkpt lat="48.83289" lon="2.49252"><ele>40.5</ele></trkpt>
    <trkpt lat="48.83343" lon="2.49252"><ele>40.3</ele></trkpt>
    <trkpt lat="48.83377" lon="2.49237"><ele>40.0</ele></trkpt>
    <trkpt lat="48.83383" lon="2.49218"><ele>39.8</ele></trkpt>
    <trkpt lat="48.83379" lon="2.49109"><ele>39.4</ele></trkpt>
    <trkpt lat="48.83338" lon="2.48957"><ele>39.3</ele></trkpt>
    <trkpt lat="48.83332" lon="2.48905"><ele>39.3</ele></trkpt>
    <trkpt lat="48.833" lon="2.48333"><ele>38.5</ele></trkpt>
    <trkpt lat="48.83243" lon="2.47711"><ele>40.3</ele></trkpt>
    <trkpt lat="48.83249" lon="2.47694"><ele>41.1</ele></trkpt>
    <trkpt lat="48.83285" lon="2.47692"><ele>43.4</ele></trkpt>
    <trkpt lat="48.83302" lon="2.47684"><ele>44.8</ele></trkpt>
    <trkpt lat="48.83312" lon="2.47662"><ele>46.3</ele></trkpt>
    <trkpt lat="48.83314" lon="2.4758"><ele>51.8</ele></trkpt>
    <trkpt lat="48.83332" lon="2.47534"><ele>55.7</ele></trkpt>
    <trkpt lat="48.83341" lon="2.47482"><ele>59.1</ele></trkpt>
    <trkpt lat="48.83372" lon="2.47416"><ele>63.2</ele></trkpt>
    <trkpt lat="48.83415" lon="2.47367"><ele>65.6</ele></trkpt>
    <trkpt lat="48.83432" lon="2.47356"><ele>65.9</ele></trkpt>
    <trkpt lat="48.83484" lon="2.47338"><ele>66.3</ele></trkpt>
  </trkseg></trk>
</gpx>
