<?xml version="1.0" encoding="UTF-8"?>
<gpx version="1.1" creator="Club Cycliste USO" xmlns="http://www.topografix.com/GPX/1/1">
  <metadata><name>Marles-en-Brie – 105 km</name><desc>105.0 km, D+ 368 m. Départ et arrivée : pont de Champigny.</desc></metadata>
  <trk><name>Marles-en-Brie – 105 km</name><trkseg>
    <trkpt lat="48.81032" lon="2.51002"><ele>42.8</ele></trkpt>
    <trkpt lat="48.80962" lon="2.50978"><ele>41.5</ele></trkpt>
    <trkpt lat="48.80948" lon="2.50985"><ele>40.6</ele></trkpt>
    <trkpt lat="48.80909" lon="2.51417"><ele>36.0</ele></trkpt>
    <trkpt lat="48.80853" lon="2.51646"><ele>35.8</ele></trkpt>
    <trkpt lat="48.80807" lon="2.51764"><ele>35.5</ele></trkpt>
    <trkpt lat="48.80747" lon="2.51865"><ele>35.3</ele></trkpt>
    <trkpt lat="48.80664" lon="2.51971"><ele>35.4</ele></trkpt>
    <trkpt lat="48.80464" lon="2.52147"><ele>35.1</ele></trkpt>
    <trkpt lat="48.80439" lon="2.52176"><ele>35.0</ele></trkpt>
    <trkpt lat="48.80421" lon="2.52175"><ele>35.0</ele></trkpt>
    <trkpt lat="48.80369" lon="2.52194"><ele>34.9</ele></trkpt>
    <trkpt lat="48.80227" lon="2.52227"><ele>34.9</ele></trkpt>
    <trkpt lat="48.80156" lon="2.52229"><ele>34.7</ele></trkpt>
    <trkpt lat="48.79995" lon="2.52199"><ele>34.9</ele></trkpt>
    <trkpt lat="48.79888" lon="2.52207"><ele>35.1</ele></trkpt>
    <trkpt lat="48.79693" lon="2.52244"><ele>35.0</ele></trkpt>
    <trkpt lat="48.79392" lon="2.52185"><ele>35.0</ele></trkpt>
    <trkpt lat="48.79375" lon="2.5219"><ele>35.1</ele></trkpt>
    <trkpt lat="48.79303" lon="2.52184"><ele>35.1</ele></trkpt>
    <trkpt lat="48.79216" lon="2.52154"><ele>35.2</ele></trkpt>
    <trkpt lat="48.792" lon="2.52143"><ele>35.2</ele></trkpt>
    <trkpt lat="48.79195" lon="2.52118"><ele>35.3</ele></trkpt>
    <trkpt lat="48.792" lon="2.52064"><ele>35.4</ele></trkpt>
    <trkpt lat="48.79189" lon="2.52044"><ele>35.4</ele></trkpt>
    <trkpt lat="48.79172" lon="2.52043"><ele>35.5</ele></trkpt>
    <trkpt lat="48.79149" lon="2.52084"><ele>35.8</ele></trkpt>
    <trkpt lat="48.79135" lon="2.52099"><ele>36.1</ele></trkpt>
    <trkpt lat="48.79101" lon="2.52086"><ele>36.7</ele></trkpt>
    <trkpt lat="48.79085" lon="2.52092"><ele>37.5</ele></trkpt>
    <trkpt lat="48.79028" lon="2.5223"><ele>39.5</ele></trkpt>
    <trkpt lat="48.79013" lon="2.52231"><ele>39.0</ele></trkpt>
    <trkpt lat="48.7875" lon="2.52056"><ele>38.3</ele></trkpt>
    <trkpt lat="48.78433" lon="2.51652"><ele>39.2</ele></trkpt>
    <trkpt lat="48.78382" lon="2.51541"><ele>38.4</ele></trkpt>
    <trkpt lat="48.78367" lon="2.51527"><ele>38.2</ele></trkpt>
    <trkpt lat="48.78332" lon="2.51517"><ele>38.1</ele></trkpt>
    <trkpt lat="48.78317" lon="2.51501"><ele>38.0</ele></trkpt>
    <trkpt lat="48.7814" lon="2.51271"><ele>39.7</ele></trkpt>
    <trkpt lat="48.78095" lon="2.51226"><ele>39.5</ele></trkpt>
    <trkpt lat="48.77543" lon="2.51111"><ele>38.9</ele></trkpt>
    <trkpt lat="48.77471" lon="2.51105"><ele>39.2</ele></trkpt>
    <trkpt lat="48.77456" lon="2.51096"><ele>39.2</ele></trkpt>
    <trkpt lat="48.77314" lon="2.51066"><ele>39.4</ele></trkpt>
    <trkpt lat="48.77163" lon="2.50919"><ele>38.8</ele></trkpt>
    <trkpt lat="48.77049" lon="2.50838"><ele>38.5</ele></trkpt>
    <trkpt lat="48.77014" lon="2.50834"><ele>38.4</ele></trkpt>
    <trkpt lat="48.76998" lon="2.50846"><ele>38.5</ele></trkpt>
    <trkpt lat="48.76705" lon="2.51163"><ele>44.6</ele></trkpt>
    <trkpt lat="48.76677" lon="2.51232"><ele>47.2</ele></trkpt>
    <trkpt lat="48.76669" lon="2.51286"><ele>49.2</ele></trkpt>
    <trkpt lat="48.76673" lon="2.51394"><ele>53.3</ele></trkpt>
    <trkpt lat="48.76748" lon="2.517"><ele>64.8</ele></trkpt>
    <trkpt lat="48.76819" lon="2.51705"><ele>71.2</ele></trkpt>
    <trkpt lat="48.76845" lon="2.51743"><ele>74.7</ele></trkpt>
    <trkpt lat="48.76871" lon="2.51814"><ele>79.7</ele></trkpt>
    <trkpt lat="48.76906" lon="2.51998"><ele>88.3</ele></trkpt>
    <trkpt lat="48.76915" lon="2.5202"><ele>89.7</ele></trkpt>
    <trkpt lat="48.76942" lon="2.52055"><ele>92.4</ele></trkpt>
    <trkpt lat="48.76933" lon="2.52073"><ele>93.5</ele></trkpt>
    <trkpt lat="48.76905" lon="2.52106"><ele>95.2</ele></trkpt>
    <trkpt lat="48.76908" lon="2.52132"><ele>95.9</ele></trkpt>
    <trkpt lat="48.76897" lon="2.52148"><ele>96.5</ele></trkpt>
    <trkpt lat="48.76831" lon="2.52191"><ele>98.4</ele></trkpt>
    <trkpt lat="48.768" lon="2.52219"><ele>99.3</ele></trkpt>
    <trkpt lat="48.76793" lon="2.52239"><ele>99.8</ele></trkpt>
    <trkpt lat="48.76801" lon="2.52292"><ele>100.7</ele></trkpt>
    <trkpt lat="48.76825" lon="2.52333"><ele>101.5</ele></trkpt>
    <trkpt lat="48.76832" lon="2.52358"><ele>101.8</ele></trkpt>
    <trkpt lat="48.76838" lon="2.52411"><ele>102.3</ele></trkpt>
    <trkpt lat="48.76847" lon="2.52431"><ele>102.4</ele></trkpt>
    <trkpt lat="48.76857" lon="2.52483"><ele>102.5</ele></trkpt>
    <trkpt lat="48.76857" lon="2.52811"><ele>100.8</ele></trkpt>
    <trkpt lat="48.76852" lon="2.52835"><ele>100.6</ele></trkpt>
    <trkpt lat="48.76818" lon="2.52853"><ele>100.3</ele></trkpt>
    <trkpt lat="48.76805" lon="2.5287"><ele>100.3</ele></trkpt>
    <trkpt lat="48.76769" lon="2.52965"><ele>99.8</ele></trkpt>
    <trkpt lat="48.76688" lon="2.53146"><ele>98.8</ele></trkpt>
    <trkpt lat="48.76671" lon="2.53194"><ele>98.1</ele></trkpt>
    <trkpt lat="48.76577" lon="2.53359"><ele>96.1</ele></trkpt>
    <trkpt lat="48.76551" lon="2.53396"><ele>96.1</ele></trkpt>
    <trkpt lat="48.76415" lon="2.53528"><ele>96.3</ele></trkpt>
    <trkpt lat="48.76344" lon="2.5361"><ele>97.2</ele></trkpt>
    <trkpt lat="48.76331" lon="2.53659"><ele>97.8</ele></trkpt>
    <trkpt lat="48.763" lon="2.53725"><ele>98.4</ele></trkpt>
    <trkpt lat="48.76233" lon="2.53917"><ele>100.6</ele></trkpt>
    <trkpt lat="48.76147" lon="2.54559"><ele>101.6</ele></trkpt>
    <trkpt lat="48.76119" lon="2.54884"><ele>101.7</ele></trkpt>
    <trkpt lat="48.76108" lon="2.54901"><ele>101.5</ele></trkpt>
    <trkpt lat="48.75811" lon="2.55012"><ele>100.3</ele></trkpt>
    <trkpt lat="48.75804" lon="2.55029"><ele>100.2</ele></trkpt>
    <trkpt lat="48.75834" lon="2.55242"><ele>100.6</ele></trkpt>
    <trkpt lat="48.75844" lon="2.55351"><ele>101.3</ele></trkpt>
    <trkpt lat="48.75835" lon="2.55374"><ele>101.4</ele></trkpt>
    <trkpt lat="48.75579" lon="2.55675"><ele>102.9</ele></trkpt>
    <trkpt lat="48.75536" lon="2.55724"><ele>103.0</ele></trkpt>
    <trkpt lat="48.7552" lon="2.5573"><ele>103.0</ele></trkpt>
    <trkpt lat="48.74711" lon="2.557"><ele>98.7</ele></trkpt>
    <trkpt lat="48.74657" lon="2.55695"><ele>98.3</ele></trkpt>
    <trkpt lat="48.7464" lon="2.55688"><ele>98.1</ele></trkpt>
    <trkpt lat="48.74624" lon="2.55696"><ele>98.1</ele></trkpt>
    <trkpt lat="48.74516" lon="2.55695"><ele>96.9</ele></trkpt>
    <trkpt lat="48.74463" lon="2.5571"><ele>96.6</ele></trkpt>
    <trkpt lat="48.74427" lon="2.55711"><ele>96.6</ele></trkpt>
    <trkpt lat="48.74327" lon="2.55651"><ele>96.4</ele></trkpt>
    <trkpt lat="48.74313" lon="2.55638"><ele>96.3</ele></trkpt>
    <trkpt lat="48.74309" lon="2.55613"><ele>96.2</ele></trkpt>
    <trkpt lat="48.74292" lon="2.55605"><ele>96.1</ele></trkpt>
    <trkpt lat="48.74277" lon="2.55616"><ele>96.4</ele></trkpt>
    <trkpt lat="48.74274" lon="2.55642"><ele>96.7</ele></trkpt>
    <trkpt lat="48.7426" lon="2.55691"><ele>97.2</ele></trkpt>
    <trkpt lat="48.74255" lon="2.55773"><ele>97.4</ele></trkpt>
    <trkpt lat="48.74242" lon="2.55852"><ele>97.2</ele></trkpt>
    <trkpt lat="48.74239" lon="2.56015"><ele>97.2</ele></trkpt>
    <trkpt lat="48.74229" lon="2.56068"><ele>97.2</ele></trkpt>
    <trkpt lat="48.74219" lon="2.56089"><ele>97.2</ele></trkpt>
    <trkpt lat="48.74205" lon="2.56107"><ele>97.2</ele></trkpt>
    <trkpt lat="48.74173" lon="2.56131"><ele>97.3</ele></trkpt>
    <trkpt lat="48.74119" lon="2.56137"><ele>97.4</ele></trkpt>
    <trkpt lat="48.74103" lon="2.56129"><ele>97.4</ele></trkpt>
    <trkpt lat="48.74074" lon="2.56144"><ele>97.3</ele></trkpt>
    <trkpt lat="48.74002" lon="2.56154"><ele>97.1</ele></trkpt>
    <trkpt lat="48.73949" lon="2.56169"><ele>97.0</ele></trkpt>
    <trkpt lat="48.73915" lon="2.56187"><ele>96.9</ele></trkpt>
    <trkpt lat="48.73854" lon="2.56243"><ele>96.5</ele></trkpt>
    <trkpt lat="48.73837" lon="2.56321"><ele>95.8</ele></trkpt>
    <trkpt lat="48.73832" lon="2.56456"><ele>95.1</ele></trkpt>
    <trkpt lat="48.73822" lon="2.56478"><ele>94.9</ele></trkpt>
    <trkpt lat="48.73819" lon="2.56504"><ele>94.8</ele></trkpt>
    <trkpt lat="48.73804" lon="2.56518"><ele>94.5</ele></trkpt>
    <trkpt lat="48.73697" lon="2.56517"><ele>92.6</ele></trkpt>
    <trkpt lat="48.73554" lon="2.56489"><ele>90.9</ele></trkpt>
    <trkpt lat="48.7354" lon="2.56473"><ele>90.7</ele></trkpt>
    <trkpt lat="48.73535" lon="2.56447"><ele>90.6</ele></trkpt>
    <trkpt lat="48.73519" lon="2.56438"><ele>90.5</ele></trkpt>
    <trkpt lat="48.73506" lon="2.56453"><ele>90.4</ele></trkpt>
    <trkpt lat="48.73485" lon="2.56497"><ele>90.5</ele></trkpt>
    <trkpt lat="48.73397" lon="2.56527"><ele>90.6</ele></trkpt>
    <trkpt lat="48.73192" lon="2.56695"><ele>92.2</ele></trkpt>
    <trkpt lat="48.73123" lon="2.5678"><ele>92.9</ele></trkpt>
    <trkpt lat="48.73115" lon="2.56802"><ele>93.1</ele></trkpt>
    <trkpt lat="48.73113" lon="2.56856"><ele>93.0</ele></trkpt>
    <trkpt lat="48.73087" lon="2.57071"><ele>93.1</ele></trkpt>
    <trkpt lat="48.73037" lon="2.57389"><ele>92.1</ele></trkpt>
    <trkpt lat="48.73002" lon="2.57572"><ele>90.9</ele></trkpt>
    <trkpt lat="48.72983" lon="2.57619"><ele>90.5</ele></trkpt>
    <trkpt lat="48.72959" lon="2.57659"><ele>89.9</ele></trkpt>
    <trkpt lat="48.72928" lon="2.57684"><ele>89.2</ele></trkpt>
    <trkpt lat="48.72892" lon="2.5769"><ele>88.2</ele></trkpt>
    <trkpt lat="48.72861" lon="2.57673"><ele>87.1</ele></trkpt>
    <trkpt lat="48.72834" lon="2.57701"><ele>86.1</ele></trkpt>
    <trkpt lat="48.72783" lon="2.57731"><ele>85.2</ele></trkpt>
    <trkpt lat="48.72644" lon="2.57783"><ele>82.8</ele></trkpt>
    <trkpt lat="48.72577" lon="2.57819"><ele>81.8</ele></trkpt>
    <trkpt lat="48.72543" lon="2.57973"><ele>80.3</ele></trkpt>
    <trkpt lat="48.72516" lon="2.58132"><ele>83.0</ele></trkpt>
    <trkpt lat="48.72461" lon="2.58303"><ele>84.6</ele></trkpt>
    <trkpt lat="48.72388" lon="2.58491"><ele>85.2</ele></trkpt>
    <trkpt lat="48.72351" lon="2.58673"><ele>85.4</ele></trkpt>
    <trkpt lat="48.72321" lon="2.58912"><ele>85.5</ele></trkpt>
    <trkpt lat="48.7249" lon="2.59484"><ele>85.8</ele></trkpt>
    <trkpt lat="48.72609" lon="2.59688"><ele>87.6</ele></trkpt>
    <trkpt lat="48.72806" lon="2.59927"><ele>90.0</ele></trkpt>
    <trkpt lat="48.72946" lon="2.60137"><ele>91.5</ele></trkpt>
    <trkpt lat="48.7298" lon="2.60152"><ele>91.7</ele></trkpt>
    <trkpt lat="48.72988" lon="2.60174"><ele>91.8</ele></trkpt>
    <trkpt lat="48.73018" lon="2.60203"><ele>91.9</ele></trkpt>
    <trkpt lat="48.73134" lon="2.60275"><ele>91.9</ele></trkpt>
    <trkpt lat="48.73202" lon="2.60312"><ele>91.6</ele></trkpt>
    <trkpt lat="48.73237" lon="2.60321"><ele>91.5</ele></trkpt>
    <trkpt lat="48.73305" lon="2.60357"><ele>91.1</ele></trkpt>
    <trkpt lat="48.73638" lon="2.6056"><ele>91.6</ele></trkpt>
    <trkpt lat="48.7369" lon="2.60578"><ele>92.0</ele></trkpt>
    <trkpt lat="48.73708" lon="2.60575"><ele>92.3</ele></trkpt>
    <trkpt lat="48.73735" lon="2.60607"><ele>92.8</ele></trkpt>
    <trkpt lat="48.73785" lon="2.60638"><ele>93.7</ele></trkpt>
    <trkpt lat="48.73953" lon="2.60734"><ele>95.7</ele></trkpt>
    <trkpt lat="48.74055" lon="2.60786"><ele>97.1</ele></trkpt>
    <trkpt lat="48.74115" lon="2.60846"><ele>98.0</ele></trkpt>
    <trkpt lat="48.74132" lon="2.60851"><ele>98.3</ele></trkpt>
    <trkpt lat="48.74136" lon="2.60877"><ele>98.5</ele></trkpt>
    <trkpt lat="48.74417" lon="2.61216"><ele>98.3</ele></trkpt>
    <trkpt lat="48.74434" lon="2.61259"><ele>97.9</ele></trkpt>
    <trkpt lat="48.74435" lon="2.61311"><ele>97.6</ele></trkpt>
    <trkpt lat="48.74452" lon="2.61318"><ele>97.5</ele></trkpt>
    <trkpt lat="48.74479" lon="2.61354"><ele>97.5</ele></trkpt>
    <trkpt lat="48.74512" lon="2.61371"><ele>97.4</ele></trkpt>
    <trkpt lat="48.74534" lon="2.61445"><ele>97.4</ele></trkpt>
    <trkpt lat="48.74548" lon="2.61461"><ele>97.3</ele></trkpt>
    <trkpt lat="48.74663" lon="2.61538"><ele>97.5</ele></trkpt>
    <trkpt lat="48.74749" lon="2.61565"><ele>97.9</ele></trkpt>
    <trkpt lat="48.74838" lon="2.61658"><ele>98.0</ele></trkpt>
    <trkpt lat="48.74845" lon="2.61678"><ele>98.1</ele></trkpt>
    <trkpt lat="48.74845" lon="2.61703"><ele>98.1</ele></trkpt>
    <trkpt lat="48.74817" lon="2.61773"><ele>98.1</ele></trkpt>
    <trkpt lat="48.74763" lon="2.61876"><ele>98.0</ele></trkpt>
    <trkpt lat="48.74773" lon="2.61892"><ele>97.9</ele></trkpt>
    <trkpt lat="48.7479" lon="2.61898"><ele>97.7</ele></trkpt>
    <trkpt lat="48.74865" lon="2.61971"><ele>96.7</ele></trkpt>
    <trkpt lat="48.7493" lon="2.62102"><ele>95.7</ele></trkpt>
    <trkpt lat="48.74944" lon="2.62119"><ele>95.6</ele></trkpt>
    <trkpt lat="48.74992" lon="2.62156"><ele>95.4</ele></trkpt>
    <trkpt lat="48.751" lon="2.62299"><ele>95.4</ele></trkpt>
    <trkpt lat="48.75156" lon="2.62406"><ele>94.4</ele></trkpt>
    <trkpt lat="48.7526" lon="2.62629"><ele>95.4</ele></trkpt>
    <trkpt lat="48.75716" lon="2.63286"><ele>100.8</ele></trkpt>
    <trkpt lat="48.75727" lon="2.63307"><ele>100.8</ele></trkpt>
    <trkpt lat="48.75729" lon="2.63361"><ele>100.8</ele></trkpt>
    <trkpt lat="48.75724" lon="2.63387"><ele>100.7</ele></trkpt>
    <trkpt lat="48.75701" lon="2.63428"><ele>100.6</ele></trkpt>
    <trkpt lat="48.75647" lon="2.63433"><ele>100.5</ele></trkpt>
    <trkpt lat="48.7563" lon="2.63429"><ele>100.4</ele></trkpt>
    <trkpt lat="48.75614" lon="2.63416"><ele>100.3</ele></trkpt>
    <trkpt lat="48.75544" lon="2.63293"><ele>99.1</ele></trkpt>
    <trkpt lat="48.75529" lon="2.63277"><ele>98.9</ele></trkpt>
    <trkpt lat="48.75512" lon="2.63269"><ele>98.7</ele></trkpt>
    <trkpt lat="48.75261" lon="2.63266"><ele>95.7</ele></trkpt>
    <trkpt lat="48.75244" lon="2.63273"><ele>95.4</ele></trkpt>
    <trkpt lat="48.75214" lon="2.63303"><ele>95.0</ele></trkpt>
    <trkpt lat="48.75191" lon="2.63345"><ele>94.5</ele></trkpt>
    <trkpt lat="48.75146" lon="2.63463"><ele>93.4</ele></trkpt>
    <trkpt lat="48.75134" lon="2.63482"><ele>93.3</ele></trkpt>
    <trkpt lat="48.75099" lon="2.63491"><ele>93.2</ele></trkpt>
    <trkpt lat="48.75064" lon="2.6348"><ele>93.1</ele></trkpt>
    <trkpt lat="48.7505" lon="2.63464"><ele>93.2</ele></trkpt>
    <trkpt lat="48.75004" lon="2.6338"><ele>93.3</ele></trkpt>
    <trkpt lat="48.74968" lon="2.63469"><ele>94.1</ele></trkpt>
    <trkpt lat="48.74867" lon="2.63524"><ele>95.7</ele></trkpt>
    <trkpt lat="48.74789" lon="2.63589"><ele>99.0</ele></trkpt>
    <trkpt lat="48.7478" lon="2.63613"><ele>99.6</ele></trkpt>
    <trkpt lat="48.74775" lon="2.63667"><ele>100.9</ele></trkpt>
    <trkpt lat="48.74779" lon="2.63693"><ele>101.5</ele></trkpt>
    <trkpt lat="48.74866" lon="2.63832"><ele>104.1</ele></trkpt>
    <trkpt lat="48.74996" lon="2.63977"><ele>106.6</ele></trkpt>
    <trkpt lat="48.7504" lon="2.64055"><ele>107.9</ele></trkpt>
    <trkpt lat="48.7509" lon="2.64082"><ele>108.5</ele></trkpt>
    <trkpt lat="48.75105" lon="2.64098"><ele>108.6</ele></trkpt>
    <trkpt lat="48.75139" lon="2.64161"><ele>108.6</ele></trkpt>
    <trkpt lat="48.75205" lon="2.64355"><ele>108.1</ele></trkpt>
    <trkpt lat="48.75234" lon="2.64484"><ele>107.5</ele></trkpt>
    <trkpt lat="48.75249" lon="2.64533"><ele>107.2</ele></trkpt>
    <trkpt lat="48.75279" lon="2.64601"><ele>106.6</ele></trkpt>
    <trkpt lat="48.75319" lon="2.64656"><ele>106.0</ele></trkpt>
    <trkpt lat="48.7535" lon="2.64721"><ele>105.4</ele></trkpt>
    <trkpt lat="48.75398" lon="2.64928"><ele>104.6</ele></trkpt>
    <trkpt lat="48.75509" lon="2.653"><ele>102.5</ele></trkpt>
    <trkpt lat="48.75529" lon="2.65345"><ele>102.3</ele></trkpt>
    <trkpt lat="48.75648" lon="2.6555"><ele>101.7</ele></trkpt>
    <trkpt lat="48.75791" lon="2.6583"><ele>102.0</ele></trkpt>
    <trkpt lat="48.7594" lon="2.66068"><ele>103.2</ele></trkpt>
    <trkpt lat="48.76075" lon="2.66247"><ele>104.4</ele></trkpt>
    <trkpt lat="48.76096" lon="2.66287"><ele>105.7</ele></trkpt>
    <trkpt lat="48.76111" lon="2.66296"><ele>105.8</ele></trkpt>
    <trkpt lat="48.76139" lon="2.6633"><ele>105.9</ele></trkpt>
    <trkpt lat="48.7626" lon="2.66493"><ele>104.7</ele></trkpt>
    <trkpt lat="48.76327" lon="2.66524"><ele>104.8</ele></trkpt>
    <trkpt lat="48.76363" lon="2.66527"><ele>105.0</ele></trkpt>
    <trkpt lat="48.76453" lon="2.66525"><ele>105.3</ele></trkpt>
    <trkpt lat="48.76578" lon="2.66502"><ele>106.1</ele></trkpt>
    <trkpt lat="48.76613" lon="2.66512"><ele>106.3</ele></trkpt>
    <trkpt lat="48.76629" lon="2.66524"><ele>106.4</ele></trkpt>
    <trkpt lat="48.76656" lon="2.66559"><ele>106.5</ele></trkpt>
    <trkpt lat="48.76696" lon="2.6665"><ele>106.9</ele></trkpt>
    <trkpt lat="48.76725" lon="2.6675"><ele>107.1</ele></trkpt>
    <trkpt lat="48.76748" lon="2.66853"><ele>107.5</ele></trkpt>
    <trkpt lat="48.76749" lon="2.66879"><ele>107.6</ele></trkpt>
    <trkpt lat="48.76761" lon="2.66895"><ele>107.7</ele></trkpt>
    <trkpt lat="48.76802" lon="2.673"><ele>107.5</ele></trkpt>
    <trkpt lat="48.76824" lon="2.67337"><ele>107.5</ele></trkpt>
    <trkpt lat="48.76839" lon="2.67345"><ele>107.5</ele></trkpt>
    <trkpt lat="48.7691" lon="2.6736"><ele>107.8</ele></trkpt>
    <trkpt lat="48.76943" lon="2.67381"><ele>107.8</ele></trkpt>
    <trkpt lat="48.77287" lon="2.67619"><ele>109.0</ele></trkpt>
    <trkpt lat="48.77298" lon="2.67636"><ele>109.2</ele></trkpt>
    <trkpt lat="48.77383" lon="2.67679"><ele>109.7</ele></trkpt>
    <trkpt lat="48.77563" lon="2.67803"><ele>111.2</ele></trkpt>
    <trkpt lat="48.77575" lon="2.6782"><ele>111.5</ele></trkpt>
    <trkpt lat="48.77608" lon="2.67835"><ele>112.3</ele></trkpt>
    <trkpt lat="48.77805" lon="2.67969"><ele>114.4</ele></trkpt>
    <trkpt lat="48.7787" lon="2.68015"><ele>114.8</ele></trkpt>
    <trkpt lat="48.7788" lon="2.68035"><ele>115.0</ele></trkpt>
    <trkpt lat="48.77897" lon="2.68038"><ele>115.2</ele></trkpt>
    <trkpt lat="48.77948" lon="2.68066"><ele>115.8</ele></trkpt>
    <trkpt lat="48.78062" lon="2.68146"><ele>116.3</ele></trkpt>
    <trkpt lat="48.78283" lon="2.68329"><ele>117.0</ele></trkpt>
    <trkpt lat="48.78396" lon="2.68413"><ele>117.3</ele></trkpt>
    <trkpt lat="48.78666" lon="2.68564"><ele>118.4</ele></trkpt>
    <trkpt lat="48.78962" lon="2.68763"><ele>117.4</ele></trkpt>
    <trkpt lat="48.7898" lon="2.68767"><ele>116.4</ele></trkpt>
    <trkpt lat="48.79005" lon="2.68793"><ele>114.5</ele></trkpt>
    <trkpt lat="48.79139" lon="2.6921"><ele>116.2</ele></trkpt>
    <trkpt lat="48.79535" lon="2.70496"><ele>114.6</ele></trkpt>
    <trkpt lat="48.79547" lon="2.70516"><ele>114.6</ele></trkpt>
    <trkpt lat="48.796" lon="2.70524"><ele>114.8</ele></trkpt>
    <trkpt lat="48.79607" lon="2.70546"><ele>115.1</ele></trkpt>
    <trkpt lat="48.79616" lon="2.70654"><ele>116.1</ele></trkpt>
    <trkpt lat="48.79611" lon="2.71173"><ele>116.2</ele></trkpt>
    <trkpt lat="48.79599" lon="2.71336"><ele>116.7</ele></trkpt>
    <trkpt lat="48.79588" lon="2.71385"><ele>116.9</ele></trkpt>
    <trkpt lat="48.79588" lon="2.71413"><ele>117.0</ele></trkpt>
    <trkpt lat="48.79597" lon="2.71433"><ele>116.9</ele></trkpt>
    <trkpt lat="48.79602" lon="2.71459"><ele>116.9</ele></trkpt>
    <trkpt lat="48.79593" lon="2.72333"><ele>118.1</ele></trkpt>
    <trkpt lat="48.796" lon="2.72413"><ele>118.1</ele></trkpt>
    <trkpt lat="48.79736" lon="2.72799"><ele>122.8</ele></trkpt>
    <trkpt lat="48.79961" lon="2.73389"><ele>121.1</ele></trkpt>
    <trkpt lat="48.80289" lon="2.74719"><ele>122.4</ele></trkpt>
    <trkpt lat="48.8035" lon="2.74946"><ele>122.0</ele></trkpt>
    <trkpt lat="48.80622" lon="2.75868"><ele>125.8</ele></trkpt>
    <trkpt lat="48.8063" lon="2.75922"><ele>126.2</ele></trkpt>
    <trkpt lat="48.80662" lon="2.76794"><ele>128.6</ele></trkpt>
    <trkpt lat="48.80667" lon="2.76848"><ele>128.5</ele></trkpt>
    <trkpt lat="48.80835" lon="2.77741"><ele>126.5</ele></trkpt>
    <trkpt lat="48.80957" lon="2.78226"><ele>124.5</ele></trkpt>
    <trkpt lat="48.81003" lon="2.78342"><ele>123.8</ele></trkpt>
    <trkpt lat="48.81032" lon="2.78442"><ele>123.1</ele></trkpt>
    <trkpt lat="48.81041" lon="2.78495"><ele>122.8</ele></trkpt>
    <trkpt lat="48.81044" lon="2.78549"><ele>122.4</ele></trkpt>
    <trkpt lat="48.81049" lon="2.78768"><ele>120.9</ele></trkpt>
    <trkpt lat="48.81062" lon="2.78847"><ele>120.3</ele></trkpt>
    <trkpt lat="48.81087" lon="2.78919"><ele>119.8</ele></trkpt>
    <trkpt lat="48.81111" lon="2.7896"><ele>119.5</ele></trkpt>
    <trkpt lat="48.8114" lon="2.78992"><ele>119.3</ele></trkpt>
    <trkpt lat="48.81188" lon="2.7903"><ele>119.0</ele></trkpt>
    <trkpt lat="48.8124" lon="2.79047"><ele>118.9</ele></trkpt>
    <trkpt lat="48.81366" lon="2.79042"><ele>118.9</ele></trkpt>
    <trkpt lat="48.8142" lon="2.79047"><ele>119.1</ele></trkpt>
    <trkpt lat="48.81437" lon="2.79055"><ele>119.2</ele></trkpt>
    <trkpt lat="48.81482" lon="2.79101"><ele>119.5</ele></trkpt>
    <trkpt lat="48.81505" lon="2.79142"><ele>119.7</ele></trkpt>
    <trkpt lat="48.81556" lon="2.79254"><ele>120.6</ele></trkpt>
    <trkpt lat="48.81635" lon="2.79529"><ele>121.0</ele></trkpt>
    <trkpt lat="48.81645" lon="2.7961"><ele>121.2</ele></trkpt>
    <trkpt lat="48.81642" lon="2.79664"><ele>121.3</ele></trkpt>
    <trkpt lat="48.81603" lon="2.79903"><ele>122.1</ele></trkpt>
    <trkpt lat="48.81599" lon="2.79957"><ele>122.2</ele></trkpt>
    <trkpt lat="48.81597" lon="2.80285"><ele>121.6</ele></trkpt>
    <trkpt lat="48.81601" lon="2.80366"><ele>121.2</ele></trkpt>
    <trkpt lat="48.81651" lon="2.80769"><ele>121.5</ele></trkpt>
    <trkpt lat="48.81702" lon="2.81002"><ele>122.4</ele></trkpt>
    <trkpt lat="48.81764" lon="2.81316"><ele>123.7</ele></trkpt>
    <trkpt lat="48.81796" lon="2.81612"><ele>124.8</ele></trkpt>
    <trkpt lat="48.81835" lon="2.81822"><ele>125.2</ele></trkpt>
    <trkpt lat="48.81832" lon="2.81876"><ele>125.3</ele></trkpt>
    <trkpt lat="48.81811" lon="2.8192"><ele>125.5</ele></trkpt>
    <trkpt lat="48.81747" lon="2.82016"><ele>125.6</ele></trkpt>
    <trkpt lat="48.81727" lon="2.82061"><ele>125.8</ele></trkpt>
    <trkpt lat="48.81574" lon="2.8276"><ele>126.6</ele></trkpt>
    <trkpt lat="48.81566" lon="2.82784"><ele>126.6</ele></trkpt>
    <trkpt lat="48.81551" lon="2.82798"><ele>126.5</ele></trkpt>
    <trkpt lat="48.81501" lon="2.82831"><ele>126.3</ele></trkpt>
    <trkpt lat="48.8149" lon="2.82851"><ele>126.2</ele></trkpt>
    <trkpt lat="48.81452" lon="2.82975"><ele>125.9</ele></trkpt>
    <trkpt lat="48.81436" lon="2.82976"><ele>125.8</ele></trkpt>
    <trkpt lat="48.81348" lon="2.8295"><ele>126.7</ele></trkpt>
    <trkpt lat="48.81222" lon="2.82938"><ele>129.3</ele></trkpt>
    <trkpt lat="48.81206" lon="2.82929"><ele>129.7</ele></trkpt>
    <trkpt lat="48.80201" lon="2.82636"><ele>138.7</ele></trkpt>
    <trkpt lat="48.79423" lon="2.82294"><ele>132.7</ele></trkpt>
    <trkpt lat="48.79354" lon="2.82266"><ele>131.8</ele></trkpt>
    <trkpt lat="48.79318" lon="2.82261"><ele>131.2</ele></trkpt>
    <trkpt lat="48.79211" lon="2.82284"><ele>128.6</ele></trkpt>
    <trkpt lat="48.78579" lon="2.82494"><ele>119.4</ele></trkpt>
    <trkpt lat="48.7813" lon="2.82534"><ele>113.3</ele></trkpt>
    <trkpt lat="48.77359" lon="2.82618"><ele>119.7</ele></trkpt>
    <trkpt lat="48.77341" lon="2.82625"><ele>119.7</ele></trkpt>
    <trkpt lat="48.77294" lon="2.82662"><ele>119.5</ele></trkpt>
    <trkpt lat="48.77203" lon="2.82796"><ele>118.5</ele></trkpt>
    <trkpt lat="48.77175" lon="2.82824"><ele>118.5</ele></trkpt>
    <trkpt lat="48.77169" lon="2.8285"><ele>118.5</ele></trkpt>
    <trkpt lat="48.77102" lon="2.8294"><ele>118.0</ele></trkpt>
    <trkpt lat="48.76869" lon="2.83084"><ele>119.4</ele></trkpt>
    <trkpt lat="48.76784" lon="2.83125"><ele>120.9</ele></trkpt>
    <trkpt lat="48.76711" lon="2.83046"><ele>122.6</ele></trkpt>
    <trkpt lat="48.76569" lon="2.82877"><ele>127.3</ele></trkpt>
    <trkpt lat="48.76188" lon="2.82187"><ele>127.2</ele></trkpt>
    <trkpt lat="48.76161" lon="2.82153"><ele>126.8</ele></trkpt>
    <trkpt lat="48.75025" lon="2.81632"><ele>121.0</ele></trkpt>
    <trkpt lat="48.74971" lon="2.8163"><ele>119.3</ele></trkpt>
    <trkpt lat="48.74543" lon="2.81711"><ele>112.5</ele></trkpt>
    <trkpt lat="48.74453" lon="2.81721"><ele>112.3</ele></trkpt>
    <trkpt lat="48.74419" lon="2.81707"><ele>112.5</ele></trkpt>
    <trkpt lat="48.74355" lon="2.81657"><ele>112.9</ele></trkpt>
    <trkpt lat="48.74338" lon="2.81649"><ele>112.9</ele></trkpt>
    <trkpt lat="48.74325" lon="2.81656"><ele>112.9</ele></trkpt>
    <trkpt lat="48.743" lon="2.81758"><ele>112.9</ele></trkpt>
    <trkpt lat="48.74255" lon="2.81843"><ele>113.2</ele></trkpt>
    <trkpt lat="48.74235" lon="2.81919"><ele>113.5</ele></trkpt>
    <trkpt lat="48.74237" lon="2.82492"><ele>113.9</ele></trkpt>
    <trkpt lat="48.74245" lon="2.83064"><ele>114.1</ele></trkpt>
    <trkpt lat="48.74266" lon="2.8314"><ele>114.2</ele></trkpt>
    <trkpt lat="48.74496" lon="2.83849"><ele>115.0</ele></trkpt>
    <trkpt lat="48.74751" lon="2.85242"><ele>113.2</ele></trkpt>
    <trkpt lat="48.74991" lon="2.86241"><ele>112.4</ele></trkpt>
    <trkpt lat="48.75083" lon="2.86507"><ele>113.2</ele></trkpt>
    <trkpt lat="48.75096" lon="2.86558"><ele>113.6</ele></trkpt>
    <trkpt lat="48.75112" lon="2.86562"><ele>113.6</ele></trkpt>
    <trkpt lat="48.75379" lon="2.8655"><ele>114.8</ele></trkpt>
    <trkpt lat="48.75571" lon="2.87137"><ele>114.3</ele></trkpt>
    <trkpt lat="48.7564" lon="2.87385"><ele>115.0</ele></trkpt>
    <trkpt lat="48.75576" lon="2.87434"><ele>115.1</ele></trkpt>
    <trkpt lat="48.75416" lon="2.87473"><ele>114.8</ele></trkpt>
    <trkpt lat="48.75236" lon="2.87471"><ele>116.6</ele></trkpt>
    <trkpt lat="48.75147" lon="2.87454"><ele>118.9</ele></trkpt>
    <trkpt lat="48.75076" lon="2.87466"><ele>118.9</ele></trkpt>
    <trkpt lat="48.74931" lon="2.87575"><ele>117.5</ele></trkpt>
    <trkpt lat="48.74854" lon="2.87615"><ele>116.8</ele></trkpt>
    <trkpt lat="48.74804" lon="2.87693"><ele>116.3</ele></trkpt>
    <trkpt lat="48.74729" lon="2.87768"><ele>115.0</ele></trkpt>
    <trkpt lat="48.74589" lon="2.87891"><ele>112.4</ele></trkpt>
    <trkpt lat="48.74555" lon="2.87911"><ele>111.8</ele></trkpt>
    <trkpt lat="48.74393" lon="2.8791"><ele>108.7</ele></trkpt>
    <trkpt lat="48.74235" lon="2.87862"><ele>106.7</ele></trkpt>
    <trkpt lat="48.73876" lon="2.87828"><ele>102.8</ele></trkpt>
    <trkpt lat="48.73822" lon="2.87828"><ele>103.4</ele></trkpt>
    <trkpt lat="48.73733" lon="2.87842"><ele>103.6</ele></trkpt>
    <trkpt lat="48.73409" lon="2.87843"><ele>109.4</ele></trkpt>
    <trkpt lat="48.73338" lon="2.87859"><ele>109.6</ele></trkpt>
    <trkpt lat="48.73222" lon="2.87932"><ele>110.2</ele></trkpt>
    <trkpt lat="48.73116" lon="2.88034"><ele>111.7</ele></trkpt>
    <trkpt lat="48.73098" lon="2.88042"><ele>111.9</ele></trkpt>
    <trkpt lat="48.73082" lon="2.88033"><ele>112.0</ele></trkpt>
    <trkpt lat="48.73043" lon="2.87977"><ele>112.1</ele></trkpt>
    <trkpt lat="48.72999" lon="2.8793"><ele>112.1</ele></trkpt>
    <trkpt lat="48.72928" lon="2.87935"><ele>111.7</ele></trkpt>
    <trkpt lat="48.72895" lon="2.87915"><ele>111.5</ele></trkpt>
    <trkpt lat="48.72842" lon="2.87907"><ele>111.2</ele></trkpt>
    <trkpt lat="48.72826" lon="2.87894"><ele>111.2</ele></trkpt>
    <trkpt lat="48.72818" lon="2.87872"><ele>111.3</ele></trkpt>
    <trkpt lat="48.72845" lon="2.87686"><ele>111.9</ele></trkpt>
    <trkpt lat="48.72842" lon="2.87631"><ele>112.0</ele></trkpt>
    <trkpt lat="48.72826" lon="2.87525"><ele>111.2</ele></trkpt>
    <trkpt lat="48.72826" lon="2.87062"><ele>110.8</ele></trkpt>
    <trkpt lat="48.7283" lon="2.86817"><ele>109.9</ele></trkpt>
    <trkpt lat="48.72836" lon="2.86764"><ele>109.7</ele></trkpt>
    <trkpt lat="48.7287" lon="2.86668"><ele>109.4</ele></trkpt>
    <trkpt lat="48.72876" lon="2.86614"><ele>109.5</ele></trkpt>
    <trkpt lat="48.72873" lon="2.8645"><ele>109.8</ele></trkpt>
    <trkpt lat="48.72859" lon="2.86151"><ele>110.0</ele></trkpt>
    <trkpt lat="48.72833" lon="2.85993"><ele>110.2</ele></trkpt>
    <trkpt lat="48.72833" lon="2.85911"><ele>110.2</ele></trkpt>
    <trkpt lat="48.72851" lon="2.85778"><ele>110.2</ele></trkpt>
    <trkpt lat="48.72862" lon="2.85727"><ele>110.0</ele></trkpt>
    <trkpt lat="48.72882" lon="2.85681"><ele>109.8</ele></trkpt>
    <trkpt lat="48.72948" lon="2.85589"><ele>110.0</ele></trkpt>
    <trkpt lat="48.72963" lon="2.8554"><ele>110.2</ele></trkpt>
    <trkpt lat="48.72963" lon="2.85404"><ele>110.4</ele></trkpt>
    <trkpt lat="48.72948" lon="2.85215"><ele>109.9</ele></trkpt>
    <trkpt lat="48.72942" lon="2.85079"><ele>109.4</ele></trkpt>
    <trkpt lat="48.72937" lon="2.84779"><ele>110.3</ele></trkpt>
    <trkpt lat="48.72943" lon="2.84757"><ele>110.0</ele></trkpt>
    <trkpt lat="48.73015" lon="2.84755"><ele>108.7</ele></trkpt>
    <trkpt lat="48.7305" lon="2.84747"><ele>108.8</ele></trkpt>
    <trkpt lat="48.73197" lon="2.84645"><ele>109.1</ele></trkpt>
    <trkpt lat="48.73267" lon="2.84618"><ele>109.3</ele></trkpt>
    <trkpt lat="48.73503" lon="2.84421"><ele>110.7</ele></trkpt>
    <trkpt lat="48.73554" lon="2.84393"><ele>110.9</ele></trkpt>
    <trkpt lat="48.73567" lon="2.84377"><ele>111.0</ele></trkpt>
    <trkpt lat="48.73604" lon="2.84252"><ele>111.3</ele></trkpt>
    <trkpt lat="48.7363" lon="2.8418"><ele>111.7</ele></trkpt>
    <trkpt lat="48.73652" lon="2.84138"><ele>112.1</ele></trkpt>
    <trkpt lat="48.73727" lon="2.84063"><ele>112.4</ele></trkpt>
    <trkpt lat="48.73799" lon="2.83981"><ele>112.5</ele></trkpt>
    <trkpt lat="48.73961" lon="2.83865"><ele>112.2</ele></trkpt>
    <trkpt lat="48.73978" lon="2.83855"><ele>112.3</ele></trkpt>
    <trkpt lat="48.73995" lon="2.83859"><ele>112.3</ele></trkpt>
    <trkpt lat="48.74023" lon="2.83892"><ele>112.2</ele></trkpt>
    <trkpt lat="48.74089" lon="2.83985"><ele>111.7</ele></trkpt>
    <trkpt lat="48.74113" lon="2.84057"><ele>112.3</ele></trkpt>
    <trkpt lat="48.74128" lon="2.84072"><ele>112.6</ele></trkpt>
    <trkpt lat="48.74162" lon="2.83695"><ele>113.6</ele></trkpt>
    <trkpt lat="48.74246" lon="2.83082"><ele>114.4</ele></trkpt>
    <trkpt lat="48.74237" lon="2.82482"><ele>113.9</ele></trkpt>
    <trkpt lat="48.74236" lon="2.81909"><ele>113.4</ele></trkpt>
    <trkpt lat="48.74249" lon="2.81859"><ele>113.2</ele></trkpt>
    <trkpt lat="48.74301" lon="2.81749"><ele>112.9</ele></trkpt>
    <trkpt lat="48.7432" lon="2.81643"><ele>113.0</ele></trkpt>
    <trkpt lat="48.7405" lon="2.81646"><ele>112.8</ele></trkpt>
    <trkpt lat="48.73694" lon="2.81715"><ele>113.2</ele></trkpt>
    <trkpt lat="48.73533" lon="2.81738"><ele>112.6</ele></trkpt>
    <trkpt lat="48.73515" lon="2.81736"><ele>112.6</ele></trkpt>
    <trkpt lat="48.73373" lon="2.81698"><ele>113.1</ele></trkpt>
    <trkpt lat="48.73127" lon="2.81619"><ele>117.1</ele></trkpt>
    <trkpt lat="48.73092" lon="2.81602"><ele>117.4</ele></trkpt>
    <trkpt lat="48.729" lon="2.81453"><ele>117.8</ele></trkpt>
    <trkpt lat="48.72866" lon="2.81436"><ele>117.3</ele></trkpt>
    <trkpt lat="48.72853" lon="2.8142"><ele>116.9</ele></trkpt>
    <trkpt lat="48.72819" lon="2.81404"><ele>115.8</ele></trkpt>
    <trkpt lat="48.72753" lon="2.81361"><ele>112.9</ele></trkpt>
    <trkpt lat="48.72726" lon="2.81327"><ele>111.9</ele></trkpt>
    <trkpt lat="48.72711" lon="2.81318"><ele>111.5</ele></trkpt>
    <trkpt lat="48.72568" lon="2.81297"><ele>108.5</ele></trkpt>
    <trkpt lat="48.72461" lon="2.81302"><ele>107.7</ele></trkpt>
    <trkpt lat="48.72372" lon="2.81324"><ele>108.3</ele></trkpt>
    <trkpt lat="48.7227" lon="2.81376"><ele>109.7</ele></trkpt>
    <trkpt lat="48.72234" lon="2.81377"><ele>110.9</ele></trkpt>
    <trkpt lat="48.71971" lon="2.81285"><ele>116.7</ele></trkpt>
    <trkpt lat="48.71577" lon="2.81231"><ele>114.0</ele></trkpt>
    <trkpt lat="48.71162" lon="2.81055"><ele>115.2</ele></trkpt>
    <trkpt lat="48.71129" lon="2.81033"><ele>115.7</ele></trkpt>
    <trkpt lat="48.71119" lon="2.81012"><ele>115.9</ele></trkpt>
    <trkpt lat="48.71119" lon="2.80985"><ele>115.9</ele></trkpt>
    <trkpt lat="48.71146" lon="2.80856"><ele>115.2</ele></trkpt>
    <trkpt lat="48.71141" lon="2.8083"><ele>114.9</ele></trkpt>
    <trkpt lat="48.71081" lon="2.8073"><ele>113.3</ele></trkpt>
    <trkpt lat="48.71089" lon="2.80679"><ele>112.5</ele></trkpt>
    <trkpt lat="48.7109" lon="2.8057"><ele>111.1</ele></trkpt>
    <trkpt lat="48.71069" lon="2.80383"><ele>109.2</ele></trkpt>
    <trkpt lat="48.71008" lon="2.80155"><ele>106.9</ele></trkpt>
    <trkpt lat="48.70777" lon="2.79152"><ele>104.3</ele></trkpt>
    <trkpt lat="48.7064" lon="2.78768"><ele>103.8</ele></trkpt>
    <trkpt lat="48.70242" lon="2.7786"><ele>104.8</ele></trkpt>
    <trkpt lat="48.70231" lon="2.77839"><ele>104.9</ele></trkpt>
    <trkpt lat="48.70153" lon="2.77771"><ele>105.7</ele></trkpt>
    <trkpt lat="48.70096" lon="2.77705"><ele>106.2</ele></trkpt>
    <trkpt lat="48.70061" lon="2.77643"><ele>106.5</ele></trkpt>
    <trkpt lat="48.70031" lon="2.77575"><ele>106.7</ele></trkpt>
    <trkpt lat="48.70005" lon="2.77537"><ele>106.8</ele></trkpt>
    <trkpt lat="48.69999" lon="2.77517"><ele>106.8</ele></trkpt>
    <trkpt lat="48.70086" lon="2.77311"><ele>106.5</ele></trkpt>
    <trkpt lat="48.7039" lon="2.76668"><ele>101.0</ele></trkpt>
    <trkpt lat="48.70482" lon="2.76584"><ele>99.7</ele></trkpt>
    <trkpt lat="48.70716" lon="2.76331"><ele>100.6</ele></trkpt>
    <trkpt lat="48.70766" lon="2.763"><ele>101.1</ele></trkpt>
    <trkpt lat="48.70835" lon="2.7627"><ele>101.9</ele></trkpt>
    <trkpt lat="48.70847" lon="2.76255"><ele>102.1</ele></trkpt>
    <trkpt lat="48.70967" lon="2.75626"><ele>104.9</ele></trkpt>
    <trkpt lat="48.7097" lon="2.75572"><ele>104.9</ele></trkpt>
    <trkpt lat="48.70963" lon="2.75464"><ele>104.6</ele></trkpt>
    <trkpt lat="48.70968" lon="2.75439"><ele>104.4</ele></trkpt>
    <trkpt lat="48.70993" lon="2.75401"><ele>104.7</ele></trkpt>
    <trkpt lat="48.71022" lon="2.75369"><ele>105.0</ele></trkpt>
    <trkpt lat="48.71055" lon="2.75348"><ele>104.3</ele></trkpt>
    <trkpt lat="48.71067" lon="2.75332"><ele>103.2</ele></trkpt>
    <trkpt lat="48.71087" lon="2.75257"><ele>98.8</ele></trkpt>
    <trkpt lat="48.71283" lon="2.74937"><ele>84.6</ele></trkpt>
    <trkpt lat="48.71376" lon="2.7481"><ele>82.1</ele></trkpt>
    <trkpt lat="48.71503" lon="2.7458"><ele>85.7</ele></trkpt>
    <trkpt lat="48.71544" lon="2.7449"><ele>88.3</ele></trkpt>
    <trkpt lat="48.71558" lon="2.7444"><ele>89.5</ele></trkpt>
    <trkpt lat="48.71575" lon="2.74334"><ele>91.7</ele></trkpt>
    <trkpt lat="48.71588" lon="2.74227"><ele>94.1</ele></trkpt>
    <trkpt lat="48.71587" lon="2.74147"><ele>96.1</ele></trkpt>
    <trkpt lat="48.7161" lon="2.74016"><ele>96.7</ele></trkpt>
    <trkpt lat="48.71625" lon="2.73854"><ele>97.0</ele></trkpt>
    <trkpt lat="48.71641" lon="2.73852"><ele>96.9</ele></trkpt>
    <trkpt lat="48.71766" lon="2.73875"><ele>95.7</ele></trkpt>
    <trkpt lat="48.71855" lon="2.73856"><ele>94.2</ele></trkpt>
    <trkpt lat="48.71891" lon="2.73854"><ele>94.3</ele></trkpt>
    <trkpt lat="48.72035" lon="2.73866"><ele>95.1</ele></trkpt>
    <trkpt lat="48.72178" lon="2.73867"><ele>95.0</ele></trkpt>
    <trkpt lat="48.72268" lon="2.73881"><ele>95.0</ele></trkpt>
    <trkpt lat="48.72843" lon="2.73896"><ele>102.5</ele></trkpt>
    <trkpt lat="48.72951" lon="2.73906"><ele>103.9</ele></trkpt>
    <trkpt lat="48.73112" lon="2.73932"><ele>105.5</ele></trkpt>
    <trkpt lat="48.73128" lon="2.73942"><ele>105.4</ele></trkpt>
    <trkpt lat="48.73198" lon="2.73941"><ele>103.7</ele></trkpt>
    <trkpt lat="48.73234" lon="2.73937"><ele>104.3</ele></trkpt>
    <trkpt lat="48.73251" lon="2.73928"><ele>104.8</ele></trkpt>
    <trkpt lat="48.73403" lon="2.73783"><ele>105.6</ele></trkpt>
    <trkpt lat="48.73437" lon="2.73766"><ele>106.0</ele></trkpt>
    <trkpt lat="48.73562" lon="2.73744"><ele>106.4</ele></trkpt>
    <trkpt lat="48.73652" lon="2.73739"><ele>105.6</ele></trkpt>
    <trkpt lat="48.73688" lon="2.73745"><ele>105.2</ele></trkpt>
    <trkpt lat="48.7377" lon="2.73801"><ele>105.1</ele></trkpt>
    <trkpt lat="48.73785" lon="2.73801"><ele>105.0</ele></trkpt>
    <trkpt lat="48.7385" lon="2.73708"><ele>105.5</ele></trkpt>
    <trkpt lat="48.73864" lon="2.73692"><ele>105.4</ele></trkpt>
    <trkpt lat="48.73881" lon="2.73692"><ele>105.3</ele></trkpt>
    <trkpt lat="48.7392" lon="2.73784"><ele>104.7</ele></trkpt>
    <trkpt lat="48.73966" lon="2.73868"><ele>103.6</ele></trkpt>
    <trkpt lat="48.73979" lon="2.73883"><ele>103.9</ele></trkpt>
    <trkpt lat="48.73993" lon="2.73871"><ele>103.8</ele></trkpt>
    <trkpt lat="48.74027" lon="2.73807"><ele>104.5</ele></trkpt>
    <trkpt lat="48.74106" lon="2.73625"><ele>105.1</ele></trkpt>
    <trkpt lat="48.74227" lon="2.73509"><ele>106.0</ele></trkpt>
    <trkpt lat="48.74234" lon="2.73491"><ele>106.1</ele></trkpt>
    <trkpt lat="48.74221" lon="2.73476"><ele>106.2</ele></trkpt>
    <trkpt lat="48.74214" lon="2.73451"><ele>106.3</ele></trkpt>
    <trkpt lat="48.73589" lon="2.70605"><ele>107.3</ele></trkpt>
    <trkpt lat="48.7359" lon="2.70524"><ele>107.1</ele></trkpt>
    <trkpt lat="48.73602" lon="2.70472"><ele>107.0</ele></trkpt>
    <trkpt lat="48.7364" lon="2.7038"><ele>106.8</ele></trkpt>
    <trkpt lat="48.7372" lon="2.70233"><ele>106.8</ele></trkpt>
    <trkpt lat="48.73728" lon="2.70209"><ele>106.8</ele></trkpt>
    <trkpt lat="48.73735" lon="2.70156"><ele>106.9</ele></trkpt>
    <trkpt lat="48.73729" lon="2.70139"><ele>106.9</ele></trkpt>
    <trkpt lat="48.7348" lon="2.70089"><ele>107.9</ele></trkpt>
    <trkpt lat="48.7347" lon="2.70072"><ele>108.0</ele></trkpt>
    <trkpt lat="48.73335" lon="2.69479"><ele>110.1</ele></trkpt>
    <trkpt lat="48.72913" lon="2.67565"><ele>101.0</ele></trkpt>
    <trkpt lat="48.72647" lon="2.66731"><ele>98.8</ele></trkpt>
    <trkpt lat="48.72617" lon="2.66603"><ele>100.1</ele></trkpt>
    <trkpt lat="48.72597" lon="2.66566"><ele>100.5</ele></trkpt>
    <trkpt lat="48.72549" lon="2.6642"><ele>100.8</ele></trkpt>
    <trkpt lat="48.72497" lon="2.65935"><ele>100.8</ele></trkpt>
    <trkpt lat="48.72452" lon="2.65671"><ele>100.3</ele></trkpt>
    <trkpt lat="48.7244" lon="2.65564"><ele>100.6</ele></trkpt>
    <trkpt lat="48.72434" lon="2.65541"><ele>100.7</ele></trkpt>
    <trkpt lat="48.72398" lon="2.65541"><ele>100.9</ele></trkpt>
    <trkpt lat="48.72383" lon="2.6553"><ele>101.0</ele></trkpt>
    <trkpt lat="48.7221" lon="2.65292"><ele>101.6</ele></trkpt>
    <trkpt lat="48.72171" lon="2.65234"><ele>101.9</ele></trkpt>
    <trkpt lat="48.72169" lon="2.65214"><ele>101.9</ele></trkpt>
    <trkpt lat="48.72266" lon="2.65018"><ele>100.4</ele></trkpt>
    <trkpt lat="48.72637" lon="2.64316"><ele>98.2</ele></trkpt>
    <trkpt lat="48.72697" lon="2.6418"><ele>97.7</ele></trkpt>
    <trkpt lat="48.72763" lon="2.64088"><ele>97.5</ele></trkpt>
    <trkpt lat="48.72827" lon="2.63956"><ele>97.2</ele></trkpt>
    <trkpt lat="48.72956" lon="2.63629"><ele>97.4</ele></trkpt>
    <trkpt lat="48.73001" lon="2.63451"><ele>97.5</ele></trkpt>
    <trkpt lat="48.73024" lon="2.63319"><ele>97.7</ele></trkpt>
    <trkpt lat="48.73089" lon="2.63008"><ele>96.5</ele></trkpt>
    <trkpt lat="48.73112" lon="2.6271"><ele>95.7</ele></trkpt>
    <trkpt lat="48.73099" lon="2.627"><ele>95.8</ele></trkpt>
    <trkpt lat="48.72759" lon="2.62647"><ele>99.0</ele></trkpt>
    <trkpt lat="48.72616" lon="2.62658"><ele>100.3</ele></trkpt>
    <trkpt lat="48.7261" lon="2.62635"><ele>100.4</ele></trkpt>
    <trkpt lat="48.726" lon="2.62363"><ele>100.9</ele></trkpt>
    <trkpt lat="48.72588" lon="2.62283"><ele>100.9</ele></trkpt>
    <trkpt lat="48.72574" lon="2.62233"><ele>100.9</ele></trkpt>
    <trkpt lat="48.72203" lon="2.61496"><ele>97.8</ele></trkpt>
    <trkpt lat="48.72029" lon="2.61083"><ele>94.6</ele></trkpt>
    <trkpt lat="48.72005" lon="2.61042"><ele>94.2</ele></trkpt>
    <trkpt lat="48.71914" lon="2.60953"><ele>93.0</ele></trkpt>
    <trkpt lat="48.71903" lon="2.60933"><ele>92.9</ele></trkpt>
    <trkpt lat="48.71851" lon="2.60759"><ele>92.0</ele></trkpt>
    <trkpt lat="48.71805" lon="2.60553"><ele>90.9</ele></trkpt>
    <trkpt lat="48.71793" lon="2.60418"><ele>90.4</ele></trkpt>
    <trkpt lat="48.71776" lon="2.60284"><ele>90.0</ele></trkpt>
    <trkpt lat="48.71735" lon="2.60104"><ele>90.1</ele></trkpt>
    <trkpt lat="48.71729" lon="2.59832"><ele>89.8</ele></trkpt>
    <trkpt lat="48.71707" lon="2.59758"><ele>89.9</ele></trkpt>
    <trkpt lat="48.71699" lon="2.59707"><ele>89.4</ele></trkpt>
    <trkpt lat="48.71688" lon="2.59686"><ele>89.1</ele></trkpt>
    <trkpt lat="48.71673" lon="2.59579"><ele>88.1</ele></trkpt>
    <trkpt lat="48.71669" lon="2.59389"><ele>87.0</ele></trkpt>
    <trkpt lat="48.71674" lon="2.59253"><ele>86.1</ele></trkpt>
    <trkpt lat="48.71669" lon="2.59144"><ele>86.5</ele></trkpt>
    <trkpt lat="48.7166" lon="2.59091"><ele>86.9</ele></trkpt>
    <trkpt lat="48.7164" lon="2.59017"><ele>86.6</ele></trkpt>
    <trkpt lat="48.71629" lon="2.59"><ele>86.0</ele></trkpt>
    <trkpt lat="48.71558" lon="2.59009"><ele>84.4</ele></trkpt>
    <trkpt lat="48.71544" lon="2.59025"><ele>84.7</ele></trkpt>
    <trkpt lat="48.71536" lon="2.5905"><ele>85.1</ele></trkpt>
    <trkpt lat="48.71528" lon="2.59103"><ele>85.9</ele></trkpt>
    <trkpt lat="48.71521" lon="2.59127"><ele>86.4</ele></trkpt>
    <trkpt lat="48.71507" lon="2.59144"><ele>86.8</ele></trkpt>
    <trkpt lat="48.71402" lon="2.5925"><ele>89.6</ele></trkpt>
    <trkpt lat="48.71385" lon="2.59258"><ele>90.0</ele></trkpt>
    <trkpt lat="48.71332" lon="2.59257"><ele>91.0</ele></trkpt>
    <trkpt lat="48.71319" lon="2.59242"><ele>91.3</ele></trkpt>
    <trkpt lat="48.71279" lon="2.59151"><ele>92.1</ele></trkpt>
    <trkpt lat="48.71282" lon="2.58879"><ele>94.0</ele></trkpt>
    <trkpt lat="48.71437" lon="2.58512"><ele>95.6</ele></trkpt>
    <trkpt lat="48.71471" lon="2.58386"><ele>96.4</ele></trkpt>
    <trkpt lat="48.7161" lon="2.58173"><ele>97.3</ele></trkpt>
    <trkpt lat="48.71654" lon="2.58128"><ele>97.4</ele></trkpt>
    <trkpt lat="48.7175" lon="2.58051"><ele>97.2</ele></trkpt>
    <trkpt lat="48.71774" lon="2.57979"><ele>97.0</ele></trkpt>
    <trkpt lat="48.71835" lon="2.57843"><ele>96.2</ele></trkpt>
    <trkpt lat="48.71845" lon="2.57736"><ele>95.4</ele></trkpt>
    <trkpt lat="48.71835" lon="2.57722"><ele>95.1</ele></trkpt>
    <trkpt lat="48.71799" lon="2.57712"><ele>94.6</ele></trkpt>
    <trkpt lat="48.71797" lon="2.57692"><ele>94.3</ele></trkpt>
    <trkpt lat="48.71825" lon="2.57507"><ele>91.7</ele></trkpt>
    <trkpt lat="48.71869" lon="2.5746"><ele>90.2</ele></trkpt>
    <trkpt lat="48.7188" lon="2.57441"><ele>89.6</ele></trkpt>
    <trkpt lat="48.71899" lon="2.57252"><ele>85.9</ele></trkpt>
    <trkpt lat="48.72149" lon="2.57285"><ele>76.8</ele></trkpt>
    <trkpt lat="48.7218" lon="2.57299"><ele>74.4</ele></trkpt>
    <trkpt lat="48.72269" lon="2.57302"><ele>70.6</ele></trkpt>
    <trkpt lat="48.72394" lon="2.57322"><ele>68.0</ele></trkpt>
    <trkpt lat="48.72447" lon="2.57338"><ele>67.0</ele></trkpt>
    <trkpt lat="48.72462" lon="2.57336"><ele>66.7</ele></trkpt>
    <trkpt lat="48.72496" lon="2.5724"><ele>65.5</ele></trkpt>
    <trkpt lat="48.72491" lon="2.57131"><ele>64.5</ele></trkpt>
    <trkpt lat="48.72501" lon="2.57023"><ele>63.9</ele></trkpt>
    <trkpt lat="48.72513" lon="2.5702"><ele>63.7</ele></trkpt>
    <trkpt lat="48.72525" lon="2.57007"><ele>63.5</ele></trkpt>
    <trkpt lat="48.72674" lon="2.56665"><ele>61.4</ele></trkpt>
    <trkpt lat="48.72739" lon="2.56535"><ele>61.9</ele></trkpt>
    <trkpt lat="48.72806" lon="2.56373"><ele>63.9</ele></trkpt>
    <trkpt lat="48.72892" lon="2.56199"><ele>67.5</ele></trkpt>
    <trkpt lat="48.72918" lon="2.56161"><ele>68.9</ele></trkpt>
    <trkpt lat="48.72962" lon="2.56115"><ele>71.3</ele></trkpt>
    <trkpt lat="48.72994" lon="2.55988"><ele>74.8</ele></trkpt>
    <trkpt lat="48.73059" lon="2.55824"><ele>79.2</ele></trkpt>
    <trkpt lat="48.73072" lon="2.55773"><ele>80.7</ele></trkpt>
    <trkpt lat="48.73113" lon="2.55653"><ele>84.4</ele></trkpt>
    <trkpt lat="48.73126" lon="2.55668"><ele>85.2</ele></trkpt>
    <trkpt lat="48.73249" lon="2.55709"><ele>89.6</ele></trkpt>
    <trkpt lat="48.7341" lon="2.55727"><ele>93.6</ele></trkpt>
    <trkpt lat="48.73529" lon="2.55789"><ele>95.0</ele></trkpt>
    <trkpt lat="48.73542" lon="2.55785"><ele>95.1</ele></trkpt>
    <trkpt lat="48.73584" lon="2.55576"><ele>95.4</ele></trkpt>
    <trkpt lat="48.73597" lon="2.55442"><ele>95.2</ele></trkpt>
    <trkpt lat="48.73614" lon="2.55437"><ele>95.1</ele></trkpt>
    <trkpt lat="48.73702" lon="2.55456"><ele>94.4</ele></trkpt>
    <trkpt lat="48.7372" lon="2.55452"><ele>94.3</ele></trkpt>
    <trkpt lat="48.73733" lon="2.55435"><ele>94.1</ele></trkpt>
    <trkpt lat="48.73741" lon="2.55411"><ele>93.9</ele></trkpt>
    <trkpt lat="48.73749" lon="2.5533"><ele>93.6</ele></trkpt>
    <trkpt lat="48.73759" lon="2.5531"><ele>93.5</ele></trkpt>
    <trkpt lat="48.73776" lon="2.55312"><ele>93.4</ele></trkpt>
    <trkpt lat="48.73857" lon="2.55372"><ele>93.1</ele></trkpt>
    <trkpt lat="48.73892" lon="2.55383"><ele>93.0</ele></trkpt>
    <trkpt lat="48.74107" lon="2.5537"><ele>93.6</ele></trkpt>
    <trkpt lat="48.74177" lon="2.55387"><ele>94.0</ele></trkpt>
    <trkpt lat="48.74225" lon="2.55424"><ele>94.4</ele></trkpt>
    <trkpt lat="48.74262" lon="2.55483"><ele>94.8</ele></trkpt>
    <trkpt lat="48.7428" lon="2.5556"><ele>95.4</ele></trkpt>
    <trkpt lat="48.74282" lon="2.55588"><ele>95.7</ele></trkpt>
    <trkpt lat="48.74277" lon="2.55639"><ele>96.7</ele></trkpt>
    <trkpt lat="48.74286" lon="2.55659"><ele>96.7</ele></trkpt>
    <trkpt lat="48.7432" lon="2.55654"><ele>96.9</ele></trkpt>
    <trkpt lat="48.74372" lon="2.55678"><ele>96.6</ele></trkpt>
    <trkpt lat="48.74422" lon="2.55709"><ele>96.5</ele></trkpt>
    <trkpt lat="48.74457" lon="2.55711"><ele>96.6</ele></trkpt>
    <trkpt lat="48.74528" lon="2.55694"><ele>97.0</ele></trkpt>
    <trkpt lat="48.74618" lon="2.557"><ele>97.9</ele></trkpt>
    <trkpt lat="48.74634" lon="2.55706"><ele>98.1</ele></trkpt>
    <trkpt lat="48.74669" lon="2.55701"><ele>98.3</ele></trkpt>
    <trkpt lat="48.74831" lon="2.55704"><ele>99.7</ele></trkpt>
    <trkpt lat="48.75532" lon="2.55729"><ele>103.0</ele></trkpt>
    <trkpt lat="48.75844" lon="2.55361"><ele>101.5</ele></trkpt>
    <trkpt lat="48.76056" lon="2.5523"><ele>101.0</ele></trkpt>
    <trkpt lat="48.76102" lon="2.55052"><ele>101.0</ele></trkpt>
    <trkpt lat="48.7612" lon="2.54893"><ele>101.1</ele></trkpt>
    <trkpt lat="48.76106" lon="2.54904"><ele>101.2</ele></trkpt>
    <trkpt lat="48.76036" lon="2.54927"><ele>101.2</ele></trkpt>
    <trkpt lat="48.7612" lon="2.54905"><ele>101.5</ele></trkpt>
    <trkpt lat="48.76148" lon="2.54553"><ele>102.3</ele></trkpt>
    <trkpt lat="48.7623" lon="2.53938"><ele>100.7</ele></trkpt>
    <trkpt lat="48.76243" lon="2.53888"><ele>100.3</ele></trkpt>
    <trkpt lat="48.76333" lon="2.53655"><ele>97.6</ele></trkpt>
    <trkpt lat="48.76394" lon="2.53561"><ele>96.3</ele></trkpt>
    <trkpt lat="48.76559" lon="2.53396"><ele>96.1</ele></trkpt>
    <trkpt lat="48.76586" lon="2.53359"><ele>96.1</ele></trkpt>
    <trkpt lat="48.76658" lon="2.53237"><ele>97.0</ele></trkpt>
    <trkpt lat="48.76685" lon="2.53204"><ele>97.9</ele></trkpt>
    <trkpt lat="48.76694" lon="2.53152"><ele>98.7</ele></trkpt>
    <trkpt lat="48.76702" lon="2.53128"><ele>98.6</ele></trkpt>
    <trkpt lat="48.76764" lon="2.52993"><ele>99.6</ele></trkpt>
    <trkpt lat="48.76809" lon="2.52876"><ele>100.3</ele></trkpt>
    <trkpt lat="48.76824" lon="2.52861"><ele>100.4</ele></trkpt>
    <trkpt lat="48.76858" lon="2.52845"><ele>100.4</ele></trkpt>
    <trkpt lat="48.77008" lon="2.52444"><ele>98.8</ele></trkpt>
    <trkpt lat="48.77033" lon="2.52341"><ele>97.8</ele></trkpt>
    <trkpt lat="48.77044" lon="2.52262"><ele>96.3</ele></trkpt>
    <trkpt lat="48.77053" lon="2.5224"><ele>95.8</ele></trkpt>
    <trkpt lat="48.77087" lon="2.52231"><ele>94.9</ele></trkpt>
    <trkpt lat="48.77088" lon="2.52176"><ele>93.9</ele></trkpt>
    <trkpt lat="48.77093" lon="2.52152"><ele>93.1</ele></trkpt>
    <trkpt lat="48.77133" lon="2.52096"><ele>89.8</ele></trkpt>
    <trkpt lat="48.77204" lon="2.51974"><ele>82.2</ele></trkpt>
    <trkpt lat="48.77373" lon="2.51728"><ele>63.7</ele></trkpt>
    <trkpt lat="48.77539" lon="2.51518"><ele>48.7</ele></trkpt>
    <trkpt lat="48.77659" lon="2.51398"><ele>39.0</ele></trkpt>
    <trkpt lat="48.77764" lon="2.51249"><ele>37.0</ele></trkpt>
    <trkpt lat="48.77811" lon="2.51174"><ele>37.4</ele></trkpt>
    <trkpt lat="48.77936" lon="2.5119"><ele>38.4</ele></trkpt>
    <trkpt lat="48.78096" lon="2.51226"><ele>39.5</ele></trkpt>
    <trkpt lat="48.78141" lon="2.51272"><ele>39.7</ele></trkpt>
    <trkpt lat="48.78318" lon="2.51503"><ele>38.2</ele></trkpt>
    <trkpt lat="48.78333" lon="2.51517"><ele>38.3</ele></trkpt>
    <trkpt lat="48.78369" lon="2.51527"><ele>38.5</ele></trkpt>
    <trkpt lat="48.78383" lon="2.51543"><ele>38.7</ele></trkpt>
    <trkpt lat="48.78422" lon="2.51634"><ele>39.2</ele></trkpt>
    <trkpt lat="48.78434" lon="2.51653"><ele>39.2</ele></trkpt>
    <trkpt lat="48.78751" lon="2.52057"><ele>38.3</ele></trkpt>
    <trkpt lat="48.79015" lon="2.52232"><ele>38.9</ele></trkpt>
    <trkpt lat="48.7903" lon="2.52231"><ele>39.4</ele></trkpt>
    <trkpt lat="48.79043" lon="2.52212"><ele>40.1</ele></trkpt>
    <trkpt lat="48.79092" lon="2.52098"><ele>37.4</ele></trkpt>
    <trkpt lat="48.79102" lon="2.52087"><ele>36.6</ele></trkpt>
    <trkpt lat="48.79118" lon="2.52097"><ele>36.3</ele></trkpt>
    <trkpt lat="48.79136" lon="2.52098"><ele>36.0</ele></trkpt>
    <trkpt lat="48.79173" lon="2.52042"><ele>35.5</ele></trkpt>
    <trkpt lat="48.7919" lon="2.52045"><ele>35.4</ele></trkpt>
    <trkpt lat="48.792" lon="2.52065"><ele>35.4</ele></trkpt>
    <trkpt lat="48.79195" lon="2.52119"><ele>35.3</ele></trkpt>
    <trkpt lat="48.79201" lon="2.52144"><ele>35.2</ele></trkpt>
    <trkpt lat="48.79217" lon="2.52155"><ele>35.2</ele></trkpt>
    <trkpt lat="48.79304" lon="2.52184"><ele>35.1</ele></trkpt>
    <trkpt lat="48.79376" lon="2.5219"><ele>35.0</ele></trkpt>
    <trkpt lat="48.79393" lon="2.52185"><ele>35.0</ele></trkpt>
    <trkpt lat="48.79694" lon="2.52244"><ele>35.0</ele></trkpt>
    <trkpt lat="48.79889" lon="2.52207"><ele>35.1</ele></trkpt>
    <trkpt lat="48.79996" lon="2.52199"><ele>34.9</ele></trkpt>
    <trkpt lat="48.80157" lon="2.5223"><ele>34.7</ele></trkpt>
    <trkpt lat="48.80192" lon="2.52229"><ele>34.8</ele></trkpt>
    <trkpt lat="48.80245" lon="2.52224"><ele>34.9</ele></trkpt>
    <trkpt lat="48.8037" lon="2.52194"><ele>34.9</ele></trkpt>
    <trkpt lat="48.80422" lon="2.52175"><ele>35.0</ele></trkpt>
    <trkpt lat="48.8044" lon="2.52176"><ele>35.0</ele></trkpt>
    <trkpt lat="48.80465" lon="2.52146"><ele>35.1</ele></trkpt>
    <trkpt lat="48.8065" lon="2.51985"><ele>35.4</ele></trkpt>
    <trkpt lat="48.80748" lon="2.51864"><ele>35.3</ele></trkpt>
    <trkpt lat="48.80808" lon="2.51763"><ele>35.5</ele></trkpt>
    <trkpt lat="48.80845" lon="2.51669"><ele>35.8</ele></trkpt>
    <trkpt lat="48.80904" lon="2.51442"><ele>36.0</ele></trkpt>
    <trkpt lat="48.80921" lon="2.51308"><ele>36.1</ele></trkpt>
    <trkpt lat="48.80948" lon="2.50983"><ele>40.6</ele></trkpt>
    <trkpt lat="48.80963" lon="2.50978"><ele>41.5</ele></trkpt>
    <trkpt lat="48.81015" lon="2.50997"><ele>43.0</ele></trkpt>
  </trkseg></trk>
</gpx>
