<?xml version="1.0" encoding="UTF-8"?>
<gpx version="1.1" creator="Club Cycliste USO" xmlns="http://www.topografix.com/GPX/1/1">
  <metadata><name>Pommeuse – 116 km</name><desc>116.5 km, D+ 967 m. Départ et arrivée : pont de Champigny.</desc></metadata>
  <trk><name>Pommeuse – 116 km</name><trkseg>
    <trkpt lat="48.81032" lon="2.51002"><ele>41.0</ele></trkpt>
    <trkpt lat="48.81188" lon="2.51068"><ele>37.2</ele></trkpt>
    <trkpt lat="48.81241" lon="2.51083"><ele>37.2</ele></trkpt>
    <trkpt lat="48.8131" lon="2.51113"><ele>39.2</ele></trkpt>
    <trkpt lat="48.81344" lon="2.51119"><ele>40.7</ele></trkpt>
    <trkpt lat="48.81396" lon="2.50945"><ele>41.7</ele></trkpt>
    <trkpt lat="48.81463" lon="2.50784"><ele>41.9</ele></trkpt>
    <trkpt lat="48.81584" lon="2.50358"><ele>41.4</ele></trkpt>
    <trkpt lat="48.81827" lon="2.49215"><ele>43.5</ele></trkpt>
    <trkpt lat="48.81841" lon="2.49108"><ele>43.9</ele></trkpt>
    <trkpt lat="48.81896" lon="2.48848"><ele>43.1</ele></trkpt>
    <trkpt lat="48.81913" lon="2.48801"><ele>43.0</ele></trkpt>
    <trkpt lat="48.8198" lon="2.48489"><ele>43.2</ele></trkpt>
    <trkpt lat="48.81994" lon="2.48439"><ele>43.1</ele></trkpt>
    <trkpt lat="48.82005" lon="2.48422"><ele>43.0</ele></trkpt>
    <trkpt lat="48.82021" lon="2.485"><ele>42.8</ele></trkpt>
    <trkpt lat="48.82056" lon="2.48595"><ele>42.9</ele></trkpt>
    <trkpt lat="48.82705" lon="2.50817"><ele>62.7</ele></trkpt>
    <trkpt lat="48.8271" lon="2.50842"><ele>62.7</ele></trkpt>
    <trkpt lat="48.82686" lon="2.50974"><ele>62.2</ele></trkpt>
    <trkpt lat="48.82688" lon="2.51"><ele>62.4</ele></trkpt>
    <trkpt lat="48.82725" lon="2.51093"><ele>64.2</ele></trkpt>
    <trkpt lat="48.82731" lon="2.51174"><ele>66.2</ele></trkpt>
    <trkpt lat="48.82718" lon="2.51474"><ele>69.7</ele></trkpt>
    <trkpt lat="48.82721" lon="2.51665"><ele>73.1</ele></trkpt>
    <trkpt lat="48.82708" lon="2.518"><ele>77.0</ele></trkpt>
    <trkpt lat="48.82707" lon="2.51882"><ele>79.7</ele></trkpt>
    <trkpt lat="48.82742" lon="2.52233"><ele>86.4</ele></trkpt>
    <trkpt lat="48.8276" lon="2.52339"><ele>86.8</ele></trkpt>
    <trkpt lat="48.82786" lon="2.5241"><ele>87.6</ele></trkpt>
    <trkpt lat="48.82821" lon="2.52473"><ele>88.8</ele></trkpt>
    <trkpt lat="48.83055" lon="2.52813"><ele>98.1</ele></trkpt>
    <trkpt lat="48.8319" lon="2.53032"><ele>97.0</ele></trkpt>
    <trkpt lat="48.83235" lon="2.53118"><ele>96.7</ele></trkpt>
    <trkpt lat="48.83242" lon="2.53141"><ele>96.6</ele></trkpt>
    <trkpt lat="48.83223" lon="2.53217"><ele>96.0</ele></trkpt>
    <trkpt lat="48.83197" lon="2.5329"><ele>95.3</ele></trkpt>
    <trkpt lat="48.83169" lon="2.53317"><ele>95.1</ele></trkpt>
    <trkpt lat="48.8317" lon="2.53343"><ele>95.1</ele></trkpt>
    <trkpt lat="48.83185" lon="2.53357"><ele>95.1</ele></trkpt>
    <trkpt lat="48.83202" lon="2.53359"><ele>95.2</ele></trkpt>
    <trkpt lat="48.83216" lon="2.53375"><ele>95.3</ele></trkpt>
    <trkpt lat="48.83313" lon="2.53536"><ele>97.8</ele></trkpt>
    <trkpt lat="48.83356" lon="2.53623"><ele>98.2</ele></trkpt>
    <trkpt lat="48.83496" lon="2.53942"><ele>97.2</ele></trkpt>
    <trkpt lat="48.83512" lon="2.53991"><ele>97.0</ele></trkpt>
    <trkpt lat="48.83528" lon="2.54069"><ele>97.2</ele></trkpt>
    <trkpt lat="48.83534" lon="2.54232"><ele>98.3</ele></trkpt>
    <trkpt lat="48.83528" lon="2.54257"><ele>98.4</ele></trkpt>
    <trkpt lat="48.83516" lon="2.54276"><ele>98.6</ele></trkpt>
    <trkpt lat="48.83516" lon="2.54302"><ele>98.6</ele></trkpt>
    <trkpt lat="48.83527" lon="2.54322"><ele>98.6</ele></trkpt>
    <trkpt lat="48.83532" lon="2.54348"><ele>98.6</ele></trkpt>
    <trkpt lat="48.83534" lon="2.5443"><ele>98.4</ele></trkpt>
    <trkpt lat="48.83529" lon="2.54484"><ele>98.1</ele></trkpt>
    <trkpt lat="48.83494" lon="2.54609"><ele>96.9</ele></trkpt>
    <trkpt lat="48.8349" lon="2.54691"><ele>96.2</ele></trkpt>
    <trkpt lat="48.83495" lon="2.54827"><ele>96.1</ele></trkpt>
    <trkpt lat="48.83493" lon="2.54881"><ele>96.3</ele></trkpt>
    <trkpt lat="48.83476" lon="2.54927"><ele>96.5</ele></trkpt>
    <trkpt lat="48.83325" lon="2.55121"><ele>98.4</ele></trkpt>
    <trkpt lat="48.83301" lon="2.55161"><ele>98.9</ele></trkpt>
    <trkpt lat="48.83272" lon="2.55194"><ele>99.3</ele></trkpt>
    <trkpt lat="48.83238" lon="2.552"><ele>99.6</ele></trkpt>
    <trkpt lat="48.83229" lon="2.55222"><ele>99.8</ele></trkpt>
    <trkpt lat="48.83244" lon="2.55264"><ele>100.0</ele></trkpt>
    <trkpt lat="48.83239" lon="2.55318"><ele>99.9</ele></trkpt>
    <trkpt lat="48.83197" lon="2.55722"><ele>97.3</ele></trkpt>
    <trkpt lat="48.83183" lon="2.55735"><ele>97.1</ele></trkpt>
    <trkpt lat="48.83185" lon="2.5576"><ele>97.0</ele></trkpt>
    <trkpt lat="48.83202" lon="2.55765"><ele>96.9</ele></trkpt>
    <trkpt lat="48.83214" lon="2.5578"><ele>96.9</ele></trkpt>
    <trkpt lat="48.83437" lon="2.56173"><ele>99.1</ele></trkpt>
    <trkpt lat="48.83513" lon="2.56289"><ele>102.0</ele></trkpt>
    <trkpt lat="48.83518" lon="2.56311"><ele>102.0</ele></trkpt>
    <trkpt lat="48.83526" lon="2.56446"><ele>100.0</ele></trkpt>
    <trkpt lat="48.83519" lon="2.56499"><ele>98.9</ele></trkpt>
    <trkpt lat="48.8351" lon="2.56523"><ele>98.4</ele></trkpt>
    <trkpt lat="48.83475" lon="2.56581"><ele>97.6</ele></trkpt>
    <trkpt lat="48.83475" lon="2.56608"><ele>97.6</ele></trkpt>
    <trkpt lat="48.83486" lon="2.56688"><ele>97.9</ele></trkpt>
    <trkpt lat="48.83474" lon="2.5696"><ele>99.3</ele></trkpt>
    <trkpt lat="48.83458" lon="2.56968"><ele>99.4</ele></trkpt>
    <trkpt lat="48.83387" lon="2.56963"><ele>100.1</ele></trkpt>
    <trkpt lat="48.83374" lon="2.5698"><ele>100.3</ele></trkpt>
    <trkpt lat="48.83368" lon="2.57006"><ele>100.5</ele></trkpt>
    <trkpt lat="48.83332" lon="2.57714"><ele>99.1</ele></trkpt>
    <trkpt lat="48.83321" lon="2.57757"><ele>99.1</ele></trkpt>
    <trkpt lat="48.83328" lon="2.57778"><ele>99.1</ele></trkpt>
    <trkpt lat="48.8332" lon="2.57968"><ele>99.0</ele></trkpt>
    <trkpt lat="48.83311" lon="2.58104"><ele>99.2</ele></trkpt>
    <trkpt lat="48.83302" lon="2.58128"><ele>99.2</ele></trkpt>
    <trkpt lat="48.83274" lon="2.58161"><ele>99.3</ele></trkpt>
    <trkpt lat="48.83257" lon="2.58166"><ele>99.4</ele></trkpt>
    <trkpt lat="48.83024" lon="2.58131"><ele>98.7</ele></trkpt>
    <trkpt lat="48.83006" lon="2.5813"><ele>98.8</ele></trkpt>
    <trkpt lat="48.82998" lon="2.58144"><ele>98.8</ele></trkpt>
    <trkpt lat="48.8303" lon="2.58523"><ele>99.2</ele></trkpt>
    <trkpt lat="48.83036" lon="2.58548"><ele>99.1</ele></trkpt>
    <trkpt lat="48.83067" lon="2.58616"><ele>99.1</ele></trkpt>
    <trkpt lat="48.83073" lon="2.58642"><ele>99.1</ele></trkpt>
    <trkpt lat="48.83077" lon="2.58751"><ele>98.7</ele></trkpt>
    <trkpt lat="48.83103" lon="2.5888"><ele>97.9</ele></trkpt>
    <trkpt lat="48.83095" lon="2.58904"><ele>97.6</ele></trkpt>
    <trkpt lat="48.83102" lon="2.58928"><ele>97.3</ele></trkpt>
    <trkpt lat="48.83118" lon="2.58938"><ele>97.0</ele></trkpt>
    <trkpt lat="48.83133" lon="2.58937"><ele>96.4</ele></trkpt>
    <trkpt lat="48.83215" lon="2.59082"><ele>91.7</ele></trkpt>
    <trkpt lat="48.83243" lon="2.59152"><ele>90.2</ele></trkpt>
    <trkpt lat="48.8326" lon="2.59229"><ele>89.4</ele></trkpt>
    <trkpt lat="48.83266" lon="2.59283"><ele>89.2</ele></trkpt>
    <trkpt lat="48.83265" lon="2.59365"><ele>89.1</ele></trkpt>
    <trkpt lat="48.8326" lon="2.59419"><ele>89.3</ele></trkpt>
    <trkpt lat="48.83233" lon="2.5952"><ele>90.2</ele></trkpt>
    <trkpt lat="48.83149" lon="2.59697"><ele>95.2</ele></trkpt>
    <trkpt lat="48.83126" lon="2.59771"><ele>98.1</ele></trkpt>
    <trkpt lat="48.8298" lon="2.60673"><ele>102.4</ele></trkpt>
    <trkpt lat="48.8296" lon="2.60749"><ele>103.0</ele></trkpt>
    <trkpt lat="48.82928" lon="2.60815"><ele>103.6</ele></trkpt>
    <trkpt lat="48.82875" lon="2.60887"><ele>104.6</ele></trkpt>
    <trkpt lat="48.8242" lon="2.61275"><ele>108.2</ele></trkpt>
    <trkpt lat="48.82385" lon="2.61291"><ele>108.0</ele></trkpt>
    <trkpt lat="48.8226" lon="2.6131"><ele>107.5</ele></trkpt>
    <trkpt lat="48.82154" lon="2.61341"><ele>107.3</ele></trkpt>
    <trkpt lat="48.82084" lon="2.61331"><ele>107.5</ele></trkpt>
    <trkpt lat="48.82071" lon="2.61348"><ele>107.5</ele></trkpt>
    <trkpt lat="48.82067" lon="2.614"><ele>107.7</ele></trkpt>
    <trkpt lat="48.82061" lon="2.61425"><ele>107.8</ele></trkpt>
    <trkpt lat="48.82068" lon="2.61448"><ele>107.7</ele></trkpt>
    <trkpt lat="48.82085" lon="2.61446"><ele>107.7</ele></trkpt>
    <trkpt lat="48.8209" lon="2.61422"><ele>107.7</ele></trkpt>
    <trkpt lat="48.82078" lon="2.61405"><ele>107.7</ele></trkpt>
    <trkpt lat="48.82063" lon="2.61417"><ele>107.7</ele></trkpt>
    <trkpt lat="48.82064" lon="2.61442"><ele>107.7</ele></trkpt>
    <trkpt lat="48.8208" lon="2.61449"><ele>107.7</ele></trkpt>
    <trkpt lat="48.82093" lon="2.61433"><ele>107.5</ele></trkpt>
    <trkpt lat="48.8211" lon="2.61425"><ele>107.3</ele></trkpt>
    <trkpt lat="48.82163" lon="2.61413"><ele>106.6</ele></trkpt>
    <trkpt lat="48.82199" lon="2.61412"><ele>106.1</ele></trkpt>
    <trkpt lat="48.8225" lon="2.61438"><ele>105.6</ele></trkpt>
    <trkpt lat="48.82278" lon="2.61472"><ele>105.4</ele></trkpt>
    <trkpt lat="48.823" lon="2.61515"><ele>105.5</ele></trkpt>
    <trkpt lat="48.82323" lon="2.61589"><ele>106.0</ele></trkpt>
    <trkpt lat="48.82323" lon="2.61643"><ele>106.6</ele></trkpt>
    <trkpt lat="48.82349" lon="2.61678"><ele>106.9</ele></trkpt>
    <trkpt lat="48.82396" lon="2.61826"><ele>107.6</ele></trkpt>
    <trkpt lat="48.82412" lon="2.61904"><ele>107.9</ele></trkpt>
    <trkpt lat="48.82417" lon="2.61958"><ele>108.1</ele></trkpt>
    <trkpt lat="48.82479" lon="2.62745"><ele>107.8</ele></trkpt>
    <trkpt lat="48.82495" lon="2.62907"><ele>107.1</ele></trkpt>
    <trkpt lat="48.82496" lon="2.62988"><ele>106.9</ele></trkpt>
    <trkpt lat="48.82474" lon="2.63147"><ele>106.4</ele></trkpt>
    <trkpt lat="48.82387" lon="2.63564"><ele>105.3</ele></trkpt>
    <trkpt lat="48.82366" lon="2.6364"><ele>105.4</ele></trkpt>
    <trkpt lat="48.8229" lon="2.64004"><ele>105.6</ele></trkpt>
    <trkpt lat="48.8228" lon="2.64057"><ele>105.5</ele></trkpt>
    <trkpt lat="48.82281" lon="2.64084"><ele>105.5</ele></trkpt>
    <trkpt lat="48.8229" lon="2.64106"><ele>105.3</ele></trkpt>
    <trkpt lat="48.82305" lon="2.64122"><ele>105.2</ele></trkpt>
    <trkpt lat="48.82322" lon="2.64125"><ele>105.0</ele></trkpt>
    <trkpt lat="48.82354" lon="2.64101"><ele>104.9</ele></trkpt>
    <trkpt lat="48.82371" lon="2.64096"><ele>104.9</ele></trkpt>
    <trkpt lat="48.82825" lon="2.64268"><ele>103.2</ele></trkpt>
    <trkpt lat="48.82837" lon="2.64286"><ele>103.2</ele></trkpt>
    <trkpt lat="48.82834" lon="2.64309"><ele>103.1</ele></trkpt>
    <trkpt lat="48.82805" lon="2.64378"><ele>102.9</ele></trkpt>
    <trkpt lat="48.8278" lon="2.64406"><ele>103.0</ele></trkpt>
    <trkpt lat="48.82783" lon="2.64431"><ele>103.0</ele></trkpt>
    <trkpt lat="48.82799" lon="2.64441"><ele>103.0</ele></trkpt>
    <trkpt lat="48.82811" lon="2.64424"><ele>102.9</ele></trkpt>
    <trkpt lat="48.82809" lon="2.64399"><ele>102.9</ele></trkpt>
    <trkpt lat="48.82794" lon="2.64389"><ele>103.0</ele></trkpt>
    <trkpt lat="48.82781" lon="2.64405"><ele>103.0</ele></trkpt>
    <trkpt lat="48.82782" lon="2.64431"><ele>103.0</ele></trkpt>
    <trkpt lat="48.82798" lon="2.64441"><ele>102.9</ele></trkpt>
    <trkpt lat="48.82823" lon="2.6451"><ele>102.5</ele></trkpt>
    <trkpt lat="48.83034" lon="2.64918"><ele>100.3</ele></trkpt>
    <trkpt lat="48.8306" lon="2.6499"><ele>100.0</ele></trkpt>
    <trkpt lat="48.8307" lon="2.65042"><ele>99.7</ele></trkpt>
    <trkpt lat="48.83073" lon="2.65397"><ele>95.7</ele></trkpt>
    <trkpt lat="48.83089" lon="2.65531"><ele>94.4</ele></trkpt>
    <trkpt lat="48.83084" lon="2.65557"><ele>94.2</ele></trkpt>
    <trkpt lat="48.82986" lon="2.65879"><ele>95.8</ele></trkpt>
    <trkpt lat="48.82973" lon="2.65898"><ele>96.3</ele></trkpt>
    <trkpt lat="48.82957" lon="2.65907"><ele>96.8</ele></trkpt>
    <trkpt lat="48.82885" lon="2.65909"><ele>98.4</ele></trkpt>
    <trkpt lat="48.82785" lon="2.6597"><ele>99.8</ele></trkpt>
    <trkpt lat="48.82678" lon="2.65978"><ele>100.4</ele></trkpt>
    <trkpt lat="48.82672" lon="2.66002"><ele>100.6</ele></trkpt>
    <trkpt lat="48.82675" lon="2.66056"><ele>101.2</ele></trkpt>
    <trkpt lat="48.82771" lon="2.6635"><ele>104.6</ele></trkpt>
    <trkpt lat="48.82775" lon="2.66376"><ele>104.7</ele></trkpt>
    <trkpt lat="48.82772" lon="2.66403"><ele>104.8</ele></trkpt>
    <trkpt lat="48.82762" lon="2.66424"><ele>104.9</ele></trkpt>
    <trkpt lat="48.82677" lon="2.66465"><ele>105.5</ele></trkpt>
    <trkpt lat="48.82668" lon="2.66488"><ele>105.7</ele></trkpt>
    <trkpt lat="48.82677" lon="2.66596"><ele>106.1</ele></trkpt>
    <trkpt lat="48.82688" lon="2.66648"><ele>106.5</ele></trkpt>
    <trkpt lat="48.8272" lon="2.66746"><ele>107.1</ele></trkpt>
    <trkpt lat="48.82714" lon="2.66768"><ele>107.3</ele></trkpt>
    <trkpt lat="48.82713" lon="2.66794"><ele>107.3</ele></trkpt>
    <trkpt lat="48.82724" lon="2.66815"><ele>107.3</ele></trkpt>
    <trkpt lat="48.82728" lon="2.66841"><ele>107.2</ele></trkpt>
    <trkpt lat="48.8272" lon="2.67059"><ele>107.6</ele></trkpt>
    <trkpt lat="48.82727" lon="2.67824"><ele>108.0</ele></trkpt>
    <trkpt lat="48.82724" lon="2.67906"><ele>107.8</ele></trkpt>
    <trkpt lat="48.82714" lon="2.67958"><ele>107.8</ele></trkpt>
    <trkpt lat="48.82705" lon="2.67981"><ele>107.7</ele></trkpt>
    <trkpt lat="48.82674" lon="2.68004"><ele>107.7</ele></trkpt>
    <trkpt lat="48.82662" lon="2.68024"><ele>107.7</ele></trkpt>
    <trkpt lat="48.82657" lon="2.68049"><ele>107.7</ele></trkpt>
    <trkpt lat="48.8266" lon="2.68076"><ele>107.7</ele></trkpt>
    <trkpt lat="48.82671" lon="2.68098"><ele>107.8</ele></trkpt>
    <trkpt lat="48.82687" lon="2.6811"><ele>107.8</ele></trkpt>
    <trkpt lat="48.82704" lon="2.6811"><ele>107.8</ele></trkpt>
    <trkpt lat="48.8272" lon="2.68098"><ele>107.8</ele></trkpt>
    <trkpt lat="48.82731" lon="2.68077"><ele>107.7</ele></trkpt>
    <trkpt lat="48.8276" lon="2.68045"><ele>107.7</ele></trkpt>
    <trkpt lat="48.82822" lon="2.67989"><ele>107.7</ele></trkpt>
    <trkpt lat="48.82838" lon="2.67977"><ele>107.8</ele></trkpt>
    <trkpt lat="48.82855" lon="2.67983"><ele>107.8</ele></trkpt>
    <trkpt lat="48.82887" lon="2.68049"><ele>107.7</ele></trkpt>
    <trkpt lat="48.82972" lon="2.68289"><ele>104.5</ele></trkpt>
    <trkpt lat="48.83025" lon="2.68635"><ele>91.8</ele></trkpt>
    <trkpt lat="48.8315" lon="2.68868"><ele>87.4</ele></trkpt>
    <trkpt lat="48.83175" lon="2.6894"><ele>87.7</ele></trkpt>
    <trkpt lat="48.83184" lon="2.68992"><ele>88.8</ele></trkpt>
    <trkpt lat="48.83186" lon="2.69047"><ele>90.3</ele></trkpt>
    <trkpt lat="48.83149" lon="2.6937"><ele>102.8</ele></trkpt>
    <trkpt lat="48.83146" lon="2.69479"><ele>105.8</ele></trkpt>
    <trkpt lat="48.83155" lon="2.69587"><ele>107.3</ele></trkpt>
    <trkpt lat="48.8325" lon="2.70283"><ele>108.9</ele></trkpt>
    <trkpt lat="48.83281" lon="2.70552"><ele>113.4</ele></trkpt>
    <trkpt lat="48.83276" lon="2.70577"><ele>113.8</ele></trkpt>
    <trkpt lat="48.83261" lon="2.70592"><ele>114.0</ele></trkpt>
    <trkpt lat="48.83244" lon="2.70596"><ele>114.1</ele></trkpt>
    <trkpt lat="48.83154" lon="2.70603"><ele>115.2</ele></trkpt>
    <trkpt lat="48.83136" lon="2.70599"><ele>115.6</ele></trkpt>
    <trkpt lat="48.83108" lon="2.70568"><ele>116.4</ele></trkpt>
    <trkpt lat="48.8309" lon="2.70566"><ele>116.9</ele></trkpt>
    <trkpt lat="48.83076" lon="2.70581"><ele>117.5</ele></trkpt>
    <trkpt lat="48.83069" lon="2.70605"><ele>118.0</ele></trkpt>
    <trkpt lat="48.83072" lon="2.70632"><ele>118.3</ele></trkpt>
    <trkpt lat="48.83084" lon="2.7065"><ele>118.4</ele></trkpt>
    <trkpt lat="48.83101" lon="2.70656"><ele>118.2</ele></trkpt>
    <trkpt lat="48.83118" lon="2.70646"><ele>117.6</ele></trkpt>
    <trkpt lat="48.83127" lon="2.70624"><ele>117.1</ele></trkpt>
    <trkpt lat="48.83128" lon="2.70597"><ele>116.7</ele></trkpt>
    <trkpt lat="48.83118" lon="2.70574"><ele>116.6</ele></trkpt>
    <trkpt lat="48.83101" lon="2.70564"><ele>116.7</ele></trkpt>
    <trkpt lat="48.83084" lon="2.7057"><ele>117.1</ele></trkpt>
    <trkpt lat="48.83073" lon="2.7059"><ele>117.7</ele></trkpt>
    <trkpt lat="48.83068" lon="2.70616"><ele>118.1</ele></trkpt>
    <trkpt lat="48.83076" lon="2.7064"><ele>118.2</ele></trkpt>
    <trkpt lat="48.83107" lon="2.70665"><ele>118.0</ele></trkpt>
    <trkpt lat="48.83117" lon="2.70688"><ele>117.6</ele></trkpt>
    <trkpt lat="48.83132" lon="2.70737"><ele>117.1</ele></trkpt>
    <trkpt lat="48.83132" lon="2.70764"><ele>116.9</ele></trkpt>
    <trkpt lat="48.83108" lon="2.70895"><ele>116.6</ele></trkpt>
    <trkpt lat="48.8308" lon="2.70962"><ele>116.7</ele></trkpt>
    <trkpt lat="48.83086" lon="2.70986"><ele>116.8</ele></trkpt>
    <trkpt lat="48.83099" lon="2.71003"><ele>116.9</ele></trkpt>
    <trkpt lat="48.83108" lon="2.71027"><ele>117.0</ele></trkpt>
    <trkpt lat="48.83112" lon="2.71053"><ele>117.2</ele></trkpt>
    <trkpt lat="48.83253" lon="2.72236"><ele>121.6</ele></trkpt>
    <trkpt lat="48.83253" lon="2.72263"><ele>121.7</ele></trkpt>
    <trkpt lat="48.83234" lon="2.72306"><ele>121.9</ele></trkpt>
    <trkpt lat="48.83234" lon="2.72333"><ele>122.0</ele></trkpt>
    <trkpt lat="48.83271" lon="2.7239"><ele>122.3</ele></trkpt>
    <trkpt lat="48.83275" lon="2.72416"><ele>122.4</ele></trkpt>
    <trkpt lat="48.83464" lon="2.74003"><ele>124.9</ele></trkpt>
    <trkpt lat="48.83479" lon="2.74005"><ele>124.8</ele></trkpt>
    <trkpt lat="48.83709" lon="2.73942"><ele>124.5</ele></trkpt>
    <trkpt lat="48.83715" lon="2.73961"><ele>124.7</ele></trkpt>
    <trkpt lat="48.83796" lon="2.75048"><ele>125.7</ele></trkpt>
    <trkpt lat="48.83804" lon="2.75293"><ele>127.6</ele></trkpt>
    <trkpt lat="48.83794" lon="2.7531"><ele>127.8</ele></trkpt>
    <trkpt lat="48.83791" lon="2.75337"><ele>127.8</ele></trkpt>
    <trkpt lat="48.83785" lon="2.75802"><ele>130.2</ele></trkpt>
    <trkpt lat="48.83781" lon="2.77113"><ele>130.6</ele></trkpt>
    <trkpt lat="48.83784" lon="2.77222"><ele>130.9</ele></trkpt>
    <trkpt lat="48.83857" lon="2.78172"><ele>131.6</ele></trkpt>
    <trkpt lat="48.83864" lon="2.78226"><ele>131.7</ele></trkpt>
    <trkpt lat="48.83914" lon="2.78459"><ele>131.6</ele></trkpt>
    <trkpt lat="48.83904" lon="2.78538"><ele>131.6</ele></trkpt>
    <trkpt lat="48.83912" lon="2.78562"><ele>131.5</ele></trkpt>
    <trkpt lat="48.83926" lon="2.78579"><ele>131.5</ele></trkpt>
    <trkpt lat="48.83943" lon="2.78585"><ele>131.5</ele></trkpt>
    <trkpt lat="48.83958" lon="2.786"><ele>131.5</ele></trkpt>
    <trkpt lat="48.83967" lon="2.78624"><ele>131.6</ele></trkpt>
    <trkpt lat="48.84141" lon="2.79194"><ele>131.4</ele></trkpt>
    <trkpt lat="48.84238" lon="2.79487"><ele>131.0</ele></trkpt>
    <trkpt lat="48.84284" lon="2.79604"><ele>130.7</ele></trkpt>
    <trkpt lat="48.84296" lon="2.79624"><ele>130.8</ele></trkpt>
    <trkpt lat="48.84301" lon="2.7965"><ele>130.8</ele></trkpt>
    <trkpt lat="48.84351" lon="2.79795"><ele>130.7</ele></trkpt>
    <trkpt lat="48.8443" lon="2.80009"><ele>130.3</ele></trkpt>
    <trkpt lat="48.84468" lon="2.80101"><ele>130.2</ele></trkpt>
    <trkpt lat="48.84553" lon="2.80342"><ele>130.1</ele></trkpt>
    <trkpt lat="48.85024" lon="2.81601"><ele>136.4</ele></trkpt>
    <trkpt lat="48.85081" lon="2.81802"><ele>136.0</ele></trkpt>
    <trkpt lat="48.85097" lon="2.8188"><ele>136.0</ele></trkpt>
    <trkpt lat="48.851" lon="2.8193"><ele>136.0</ele></trkpt>
    <trkpt lat="48.85115" lon="2.81924"><ele>136.0</ele></trkpt>
    <trkpt lat="48.85139" lon="2.81883"><ele>136.0</ele></trkpt>
    <trkpt lat="48.85455" lon="2.81568"><ele>133.6</ele></trkpt>
    <trkpt lat="48.85487" lon="2.81544"><ele>133.5</ele></trkpt>
    <trkpt lat="48.85521" lon="2.81527"><ele>133.5</ele></trkpt>
    <trkpt lat="48.8575" lon="2.81456"><ele>131.7</ele></trkpt>
    <trkpt lat="48.85871" lon="2.81401"><ele>130.4</ele></trkpt>
    <trkpt lat="48.85888" lon="2.81403"><ele>130.2</ele></trkpt>
    <trkpt lat="48.85915" lon="2.81438"><ele>129.8</ele></trkpt>
    <trkpt lat="48.85946" lon="2.81536"><ele>129.2</ele></trkpt>
    <trkpt lat="48.85972" lon="2.81573"><ele>129.2</ele></trkpt>
    <trkpt lat="48.86071" lon="2.81641"><ele>129.7</ele></trkpt>
    <trkpt lat="48.86155" lon="2.81744"><ele>129.8</ele></trkpt>
    <trkpt lat="48.86186" lon="2.81771"><ele>129.5</ele></trkpt>
    <trkpt lat="48.86352" lon="2.81874"><ele>124.5</ele></trkpt>
    <trkpt lat="48.86369" lon="2.81875"><ele>123.9</ele></trkpt>
    <trkpt lat="48.86447" lon="2.81691"><ele>113.1</ele></trkpt>
    <trkpt lat="48.865" lon="2.81581"><ele>109.7</ele></trkpt>
    <trkpt lat="48.8651" lon="2.81559"><ele>109.5</ele></trkpt>
    <trkpt lat="48.86527" lon="2.8155"><ele>109.3</ele></trkpt>
    <trkpt lat="48.87236" lon="2.82196"><ele>89.0</ele></trkpt>
    <trkpt lat="48.87302" lon="2.82241"><ele>86.7</ele></trkpt>
    <trkpt lat="48.87537" lon="2.82378"><ele>77.0</ele></trkpt>
    <trkpt lat="48.87613" lon="2.82452"><ele>75.4</ele></trkpt>
    <trkpt lat="48.87618" lon="2.82473"><ele>75.0</ele></trkpt>
    <trkpt lat="48.87612" lon="2.82527"><ele>74.7</ele></trkpt>
    <trkpt lat="48.87617" lon="2.82479"><ele>75.8</ele></trkpt>
    <trkpt lat="48.87624" lon="2.82463"><ele>76.6</ele></trkpt>
    <trkpt lat="48.8795" lon="2.82802"><ele>69.8</ele></trkpt>
    <trkpt lat="48.88001" lon="2.8283"><ele>68.1</ele></trkpt>
    <trkpt lat="48.88071" lon="2.82854"><ele>66.4</ele></trkpt>
    <trkpt lat="48.88143" lon="2.82846"><ele>64.5</ele></trkpt>
    <trkpt lat="48.88268" lon="2.82862"><ele>62.1</ele></trkpt>
    <trkpt lat="48.88412" lon="2.82856"><ele>60.9</ele></trkpt>
    <trkpt lat="48.88424" lon="2.82867"><ele>60.5</ele></trkpt>
    <trkpt lat="48.88495" lon="2.83348"><ele>54.4</ele></trkpt>
    <trkpt lat="48.88515" lon="2.83509"><ele>53.2</ele></trkpt>
    <trkpt lat="48.88442" lon="2.84017"><ele>50.9</ele></trkpt>
    <trkpt lat="48.88307" lon="2.84839"><ele>49.5</ele></trkpt>
    <trkpt lat="48.88266" lon="2.84961"><ele>48.7</ele></trkpt>
    <trkpt lat="48.88262" lon="2.85043"><ele>48.4</ele></trkpt>
    <trkpt lat="48.88269" lon="2.85096"><ele>48.3</ele></trkpt>
    <trkpt lat="48.88265" lon="2.85113"><ele>48.3</ele></trkpt>
    <trkpt lat="48.87959" lon="2.85097"><ele>50.1</ele></trkpt>
    <trkpt lat="48.87924" lon="2.85103"><ele>50.6</ele></trkpt>
    <trkpt lat="48.872" lon="2.85314"><ele>99.6</ele></trkpt>
    <trkpt lat="48.8704" lon="2.85353"><ele>105.6</ele></trkpt>
    <trkpt lat="48.85944" lon="2.85666"><ele>134.1</ele></trkpt>
    <trkpt lat="48.85911" lon="2.85687"><ele>133.8</ele></trkpt>
    <trkpt lat="48.85676" lon="2.85888"><ele>129.5</ele></trkpt>
    <trkpt lat="48.85661" lon="2.85887"><ele>129.4</ele></trkpt>
    <trkpt lat="48.85647" lon="2.85873"><ele>129.4</ele></trkpt>
    <trkpt lat="48.85632" lon="2.85887"><ele>129.2</ele></trkpt>
    <trkpt lat="48.85635" lon="2.85913"><ele>128.8</ele></trkpt>
    <trkpt lat="48.8565" lon="2.85922"><ele>128.1</ele></trkpt>
    <trkpt lat="48.85661" lon="2.8594"><ele>127.3</ele></trkpt>
    <trkpt lat="48.85728" lon="2.86101"><ele>122.4</ele></trkpt>
    <trkpt lat="48.85751" lon="2.86143"><ele>121.3</ele></trkpt>
    <trkpt lat="48.8584" lon="2.86237"><ele>117.8</ele></trkpt>
    <trkpt lat="48.85936" lon="2.86309"><ele>112.6</ele></trkpt>
    <trkpt lat="48.86002" lon="2.86403"><ele>108.4</ele></trkpt>
    <trkpt lat="48.86085" lon="2.86507"><ele>104.4</ele></trkpt>
    <trkpt lat="48.86162" lon="2.86578"><ele>100.8</ele></trkpt>
    <trkpt lat="48.86171" lon="2.86599"><ele>100.0</ele></trkpt>
    <trkpt lat="48.8614" lon="2.86697"><ele>96.4</ele></trkpt>
    <trkpt lat="48.86139" lon="2.86724"><ele>95.5</ele></trkpt>
    <trkpt lat="48.8615" lon="2.86744"><ele>94.5</ele></trkpt>
    <trkpt lat="48.86254" lon="2.86854"><ele>87.0</ele></trkpt>
    <trkpt lat="48.86276" lon="2.86896"><ele>84.9</ele></trkpt>
    <trkpt lat="48.8627" lon="2.86948"><ele>82.8</ele></trkpt>
    <trkpt lat="48.86193" lon="2.87165"><ele>73.6</ele></trkpt>
    <trkpt lat="48.86174" lon="2.87242"><ele>70.9</ele></trkpt>
    <trkpt lat="48.86109" lon="2.87526"><ele>59.5</ele></trkpt>
    <trkpt lat="48.86083" lon="2.87713"><ele>53.5</ele></trkpt>
    <trkpt lat="48.86009" lon="2.87868"><ele>53.1</ele></trkpt>
    <trkpt lat="48.85952" lon="2.87973"><ele>52.6</ele></trkpt>
    <trkpt lat="48.85934" lon="2.88021"><ele>52.2</ele></trkpt>
    <trkpt lat="48.85934" lon="2.88047"><ele>52.0</ele></trkpt>
    <trkpt lat="48.85962" lon="2.8808"><ele>51.4</ele></trkpt>
    <trkpt lat="48.85979" lon="2.88088"><ele>51.0</ele></trkpt>
    <trkpt lat="48.85996" lon="2.88082"><ele>50.7</ele></trkpt>
    <trkpt lat="48.86028" lon="2.88056"><ele>50.1</ele></trkpt>
    <trkpt lat="48.86045" lon="2.88059"><ele>49.9</ele></trkpt>
    <trkpt lat="48.86145" lon="2.88175"><ele>49.4</ele></trkpt>
    <trkpt lat="48.86324" lon="2.88356"><ele>51.0</ele></trkpt>
    <trkpt lat="48.86303" lon="2.88427"><ele>50.9</ele></trkpt>
    <trkpt lat="48.86287" lon="2.88505"><ele>51.0</ele></trkpt>
    <trkpt lat="48.86264" lon="2.88637"><ele>51.5</ele></trkpt>
    <trkpt lat="48.86039" lon="2.89704"><ele>51.9</ele></trkpt>
    <trkpt lat="48.85967" lon="2.90682"><ele>52.5</ele></trkpt>
    <trkpt lat="48.85961" lon="2.90702"><ele>52.4</ele></trkpt>
    <trkpt lat="48.85819" lon="2.90727"><ele>50.8</ele></trkpt>
    <trkpt lat="48.85805" lon="2.90744"><ele>50.7</ele></trkpt>
    <trkpt lat="48.85727" lon="2.90894"><ele>50.4</ele></trkpt>
    <trkpt lat="48.85667" lon="2.90995"><ele>50.5</ele></trkpt>
    <trkpt lat="48.8563" lon="2.91088"><ele>50.3</ele></trkpt>
    <trkpt lat="48.85627" lon="2.91114"><ele>50.3</ele></trkpt>
    <trkpt lat="48.85665" lon="2.91267"><ele>50.5</ele></trkpt>
    <trkpt lat="48.85677" lon="2.91287"><ele>50.5</ele></trkpt>
    <trkpt lat="48.85735" lon="2.91351"><ele>50.5</ele></trkpt>
    <trkpt lat="48.85806" lon="2.91366"><ele>51.1</ele></trkpt>
    <trkpt lat="48.85822" lon="2.91375"><ele>51.3</ele></trkpt>
    <trkpt lat="48.85912" lon="2.91466"><ele>55.0</ele></trkpt>
    <trkpt lat="48.85925" lon="2.91484"><ele>55.7</ele></trkpt>
    <trkpt lat="48.85933" lon="2.91509"><ele>56.3</ele></trkpt>
    <trkpt lat="48.85935" lon="2.91563"><ele>57.1</ele></trkpt>
    <trkpt lat="48.85929" lon="2.91617"><ele>57.3</ele></trkpt>
    <trkpt lat="48.85835" lon="2.92228"><ele>53.0</ele></trkpt>
    <trkpt lat="48.85828" lon="2.92392"><ele>54.0</ele></trkpt>
    <trkpt lat="48.85845" lon="2.92553"><ele>54.2</ele></trkpt>
    <trkpt lat="48.8584" lon="2.92579"><ele>54.3</ele></trkpt>
    <trkpt lat="48.85813" lon="2.9265"><ele>54.9</ele></trkpt>
    <trkpt lat="48.85608" lon="2.92917"><ele>73.0</ele></trkpt>
    <trkpt lat="48.85579" lon="2.92948"><ele>75.8</ele></trkpt>
    <trkpt lat="48.85468" lon="2.93038"><ele>84.8</ele></trkpt>
    <trkpt lat="48.85159" lon="2.9326"><ele>109.1</ele></trkpt>
    <trkpt lat="48.85128" lon="2.93288"><ele>111.9</ele></trkpt>
    <trkpt lat="48.85101" lon="2.93324"><ele>114.9</ele></trkpt>
    <trkpt lat="48.85068" lon="2.93389"><ele>119.0</ele></trkpt>
    <trkpt lat="48.84823" lon="2.93994"><ele>138.7</ele></trkpt>
    <trkpt lat="48.84795" lon="2.94028"><ele>140.0</ele></trkpt>
    <trkpt lat="48.84793" lon="2.94053"><ele>140.3</ele></trkpt>
    <trkpt lat="48.84807" lon="2.94066"><ele>140.3</ele></trkpt>
    <trkpt lat="48.8482" lon="2.9405"><ele>140.2</ele></trkpt>
    <trkpt lat="48.84815" lon="2.94025"><ele>140.2</ele></trkpt>
    <trkpt lat="48.84799" lon="2.94025"><ele>140.2</ele></trkpt>
    <trkpt lat="48.84792" lon="2.94048"><ele>140.2</ele></trkpt>
    <trkpt lat="48.84803" lon="2.94065"><ele>140.2</ele></trkpt>
    <trkpt lat="48.84819" lon="2.94055"><ele>140.1</ele></trkpt>
    <trkpt lat="48.84818" lon="2.94029"><ele>140.1</ele></trkpt>
    <trkpt lat="48.84802" lon="2.94022"><ele>140.1</ele></trkpt>
    <trkpt lat="48.84791" lon="2.94042"><ele>140.2</ele></trkpt>
    <trkpt lat="48.848" lon="2.94064"><ele>140.2</ele></trkpt>
    <trkpt lat="48.84817" lon="2.9406"><ele>140.1</ele></trkpt>
    <trkpt lat="48.8482" lon="2.94034"><ele>140.1</ele></trkpt>
    <trkpt lat="48.84805" lon="2.9402"><ele>140.1</ele></trkpt>
    <trkpt lat="48.84792" lon="2.94037"><ele>140.2</ele></trkpt>
    <trkpt lat="48.84797" lon="2.94061"><ele>140.2</ele></trkpt>
    <trkpt lat="48.84814" lon="2.94062"><ele>140.2</ele></trkpt>
    <trkpt lat="48.84821" lon="2.94039"><ele>140.2</ele></trkpt>
    <trkpt lat="48.84809" lon="2.94021"><ele>140.2</ele></trkpt>
    <trkpt lat="48.84793" lon="2.94031"><ele>140.2</ele></trkpt>
    <trkpt lat="48.84794" lon="2.94057"><ele>140.3</ele></trkpt>
    <trkpt lat="48.8481" lon="2.94064"><ele>140.2</ele></trkpt>
    <trkpt lat="48.8482" lon="2.94045"><ele>140.2</ele></trkpt>
    <trkpt lat="48.84812" lon="2.94023"><ele>140.2</ele></trkpt>
    <trkpt lat="48.84796" lon="2.94027"><ele>140.2</ele></trkpt>
    <trkpt lat="48.84792" lon="2.94052"><ele>140.3</ele></trkpt>
    <trkpt lat="48.84806" lon="2.94066"><ele>140.3</ele></trkpt>
    <trkpt lat="48.8482" lon="2.94051"><ele>140.0</ele></trkpt>
    <trkpt lat="48.84816" lon="2.94026"><ele>140.0</ele></trkpt>
    <trkpt lat="48.84799" lon="2.94024"><ele>140.2</ele></trkpt>
    <trkpt lat="48.84604" lon="2.94059"><ele>144.6</ele></trkpt>
    <trkpt lat="48.8446" lon="2.94048"><ele>145.4</ele></trkpt>
    <trkpt lat="48.84425" lon="2.94062"><ele>146.0</ele></trkpt>
    <trkpt lat="48.8441" lon="2.94075"><ele>146.5</ele></trkpt>
    <trkpt lat="48.84226" lon="2.94248"><ele>149.1</ele></trkpt>
    <trkpt lat="48.84193" lon="2.94268"><ele>148.6</ele></trkpt>
    <trkpt lat="48.83642" lon="2.94395"><ele>140.0</ele></trkpt>
    <trkpt lat="48.83516" lon="2.94399"><ele>142.0</ele></trkpt>
    <trkpt lat="48.83409" lon="2.94416"><ele>144.9</ele></trkpt>
    <trkpt lat="48.83374" lon="2.94431"><ele>145.8</ele></trkpt>
    <trkpt lat="48.8332" lon="2.94538"><ele>146.9</ele></trkpt>
    <trkpt lat="48.83231" lon="2.94674"><ele>146.7</ele></trkpt>
    <trkpt lat="48.83123" lon="2.94818"><ele>144.3</ele></trkpt>
    <trkpt lat="48.8309" lon="2.9484"><ele>142.6</ele></trkpt>
    <trkpt lat="48.82781" lon="2.94986"><ele>125.8</ele></trkpt>
    <trkpt lat="48.82764" lon="2.94996"><ele>124.9</ele></trkpt>
    <trkpt lat="48.82754" lon="2.95013"><ele>123.8</ele></trkpt>
    <trkpt lat="48.82749" lon="2.95039"><ele>122.7</ele></trkpt>
    <trkpt lat="48.82814" lon="2.95202"><ele>114.0</ele></trkpt>
    <trkpt lat="48.82829" lon="2.95252"><ele>111.6</ele></trkpt>
    <trkpt lat="48.82882" lon="2.95709"><ele>89.1</ele></trkpt>
    <trkpt lat="48.82875" lon="2.95731"><ele>87.4</ele></trkpt>
    <trkpt lat="48.82861" lon="2.95716"><ele>85.6</ele></trkpt>
    <trkpt lat="48.8277" lon="2.95546"><ele>72.8</ele></trkpt>
    <trkpt lat="48.82728" lon="2.95495"><ele>68.6</ele></trkpt>
    <trkpt lat="48.82678" lon="2.95466"><ele>64.6</ele></trkpt>
    <trkpt lat="48.82607" lon="2.95446"><ele>60.3</ele></trkpt>
    <trkpt lat="48.8259" lon="2.9545"><ele>59.6</ele></trkpt>
    <trkpt lat="48.8258" lon="2.95472"><ele>59.2</ele></trkpt>
    <trkpt lat="48.82584" lon="2.95485"><ele>58.9</ele></trkpt>
    <trkpt lat="48.82638" lon="2.95496"><ele>59.4</ele></trkpt>
    <trkpt lat="48.82671" lon="2.95515"><ele>60.5</ele></trkpt>
    <trkpt lat="48.82711" lon="2.9557"><ele>62.2</ele></trkpt>
    <trkpt lat="48.8274" lon="2.95639"><ele>62.1</ele></trkpt>
    <trkpt lat="48.82753" lon="2.95746"><ele>60.2</ele></trkpt>
    <trkpt lat="48.8276" lon="2.95909"><ele>60.0</ele></trkpt>
    <trkpt lat="48.82746" lon="2.96264"><ele>64.7</ele></trkpt>
    <trkpt lat="48.82764" lon="2.96369"><ele>67.5</ele></trkpt>
    <trkpt lat="48.8277" lon="2.96478"><ele>70.4</ele></trkpt>
    <trkpt lat="48.82785" lon="2.96584"><ele>73.1</ele></trkpt>
    <trkpt lat="48.82761" lon="2.96687"><ele>75.5</ele></trkpt>
    <trkpt lat="48.82758" lon="2.96741"><ele>76.9</ele></trkpt>
    <trkpt lat="48.82738" lon="2.96874"><ele>78.6</ele></trkpt>
    <trkpt lat="48.82714" lon="2.96947"><ele>76.2</ele></trkpt>
    <trkpt lat="48.82655" lon="2.97177"><ele>72.7</ele></trkpt>
    <trkpt lat="48.82647" lon="2.972"><ele>72.6</ele></trkpt>
    <trkpt lat="48.82578" lon="2.97327"><ele>73.7</ele></trkpt>
    <trkpt lat="48.82558" lon="2.97403"><ele>76.1</ele></trkpt>
    <trkpt lat="48.82559" lon="2.9743"><ele>77.3</ele></trkpt>
    <trkpt lat="48.82566" lon="2.97453"><ele>78.7</ele></trkpt>
    <trkpt lat="48.82679" lon="2.9759"><ele>85.0</ele></trkpt>
    <trkpt lat="48.82767" lon="2.97726"><ele>91.0</ele></trkpt>
    <trkpt lat="48.82814" lon="2.97809"><ele>96.7</ele></trkpt>
    <trkpt lat="48.82883" lon="2.97896"><ele>103.1</ele></trkpt>
    <trkpt lat="48.82894" lon="2.97917"><ele>104.5</ele></trkpt>
    <trkpt lat="48.82916" lon="2.97992"><ele>108.4</ele></trkpt>
    <trkpt lat="48.82937" lon="2.98036"><ele>110.6</ele></trkpt>
    <trkpt lat="48.83032" lon="2.98161"><ele>114.3</ele></trkpt>
    <trkpt lat="48.83056" lon="2.98201"><ele>115.1</ele></trkpt>
    <trkpt lat="48.83083" lon="2.98272"><ele>117.3</ele></trkpt>
    <trkpt lat="48.83154" lon="2.98524"><ele>126.9</ele></trkpt>
    <trkpt lat="48.83199" lon="2.98872"><ele>132.3</ele></trkpt>
    <trkpt lat="48.83184" lon="2.98865"><ele>132.6</ele></trkpt>
    <trkpt lat="48.8306" lon="2.98756"><ele>133.8</ele></trkpt>
    <trkpt lat="48.82847" lon="2.98608"><ele>134.6</ele></trkpt>
    <trkpt lat="48.82756" lon="2.9852"><ele>135.0</ele></trkpt>
    <trkpt lat="48.82662" lon="2.98441"><ele>133.2</ele></trkpt>
    <trkpt lat="48.82594" lon="2.98403"><ele>132.0</ele></trkpt>
    <trkpt lat="48.8249" lon="2.98361"><ele>130.0</ele></trkpt>
    <trkpt lat="48.8242" lon="2.98335"><ele>128.3</ele></trkpt>
    <trkpt lat="48.82385" lon="2.98338"><ele>127.1</ele></trkpt>
    <trkpt lat="48.82335" lon="2.98369"><ele>124.2</ele></trkpt>
    <trkpt lat="48.82307" lon="2.98402"><ele>121.5</ele></trkpt>
    <trkpt lat="48.82269" lon="2.98461"><ele>116.3</ele></trkpt>
    <trkpt lat="48.82238" lon="2.98486"><ele>112.6</ele></trkpt>
    <trkpt lat="48.82094" lon="2.9849"><ele>98.8</ele></trkpt>
    <trkpt lat="48.82077" lon="2.98496"><ele>97.2</ele></trkpt>
    <trkpt lat="48.82062" lon="2.98511"><ele>95.7</ele></trkpt>
    <trkpt lat="48.82043" lon="2.98557"><ele>92.9</ele></trkpt>
    <trkpt lat="48.8196" lon="2.9883"><ele>86.7</ele></trkpt>
    <trkpt lat="48.81939" lon="2.98874"><ele>85.4</ele></trkpt>
    <trkpt lat="48.81907" lon="2.98898"><ele>83.4</ele></trkpt>
    <trkpt lat="48.81728" lon="2.98909"><ele>72.5</ele></trkpt>
    <trkpt lat="48.81692" lon="2.98918"><ele>71.0</ele></trkpt>
    <trkpt lat="48.81421" lon="2.99131"><ele>63.3</ele></trkpt>
    <trkpt lat="48.81339" lon="2.99186"><ele>62.4</ele></trkpt>
    <trkpt lat="48.8116" lon="2.99162"><ele>64.3</ele></trkpt>
    <trkpt lat="48.81143" lon="2.99171"><ele>65.3</ele></trkpt>
    <trkpt lat="48.80923" lon="2.99355"><ele>83.2</ele></trkpt>
    <trkpt lat="48.80869" lon="2.99428"><ele>89.0</ele></trkpt>
    <trkpt lat="48.80852" lon="2.99433"><ele>90.0</ele></trkpt>
    <trkpt lat="48.80801" lon="2.99411"><ele>93.4</ele></trkpt>
    <trkpt lat="48.80298" lon="2.99452"><ele>120.2</ele></trkpt>
    <trkpt lat="48.80209" lon="2.9944"><ele>122.6</ele></trkpt>
    <trkpt lat="48.80191" lon="2.99444"><ele>122.9</ele></trkpt>
    <trkpt lat="48.80145" lon="2.99528"><ele>123.3</ele></trkpt>
    <trkpt lat="48.80118" lon="2.9971"><ele>124.5</ele></trkpt>
    <trkpt lat="48.80083" lon="2.99699"><ele>124.7</ele></trkpt>
    <trkpt lat="48.80073" lon="2.99703"><ele>124.8</ele></trkpt>
    <trkpt lat="48.80128" lon="2.99811"><ele>124.5</ele></trkpt>
    <trkpt lat="48.80138" lon="2.99918"><ele>123.7</ele></trkpt>
    <trkpt lat="48.80157" lon="2.99965"><ele>122.9</ele></trkpt>
    <trkpt lat="48.80171" lon="2.9998"><ele>122.5</ele></trkpt>
    <trkpt lat="48.80815" lon="3.00526"><ele>94.9</ele></trkpt>
    <trkpt lat="48.80867" lon="3.00548"><ele>92.5</ele></trkpt>
    <trkpt lat="48.80882" lon="3.00562"><ele>91.7</ele></trkpt>
    <trkpt lat="48.80963" lon="3.00805"><ele>81.6</ele></trkpt>
    <trkpt lat="48.81206" lon="3.01379"><ele>64.2</ele></trkpt>
    <trkpt lat="48.81247" lon="3.01432"><ele>64.5</ele></trkpt>
    <trkpt lat="48.81399" lon="3.01518"><ele>66.6</ele></trkpt>
    <trkpt lat="48.81434" lon="3.01528"><ele>66.7</ele></trkpt>
    <trkpt lat="48.81596" lon="3.01528"><ele>66.7</ele></trkpt>
    <trkpt lat="48.81631" lon="3.01519"><ele>66.4</ele></trkpt>
    <trkpt lat="48.81819" lon="3.01359"><ele>65.7</ele></trkpt>
    <trkpt lat="48.81854" lon="3.01345"><ele>66.2</ele></trkpt>
    <trkpt lat="48.81888" lon="3.01358"><ele>67.6</ele></trkpt>
    <trkpt lat="48.8189" lon="3.01332"><ele>68.7</ele></trkpt>
    <trkpt lat="48.81842" lon="3.01069"><ele>83.4</ele></trkpt>
    <trkpt lat="48.81815" lon="3.00968"><ele>85.7</ele></trkpt>
    <trkpt lat="48.81812" lon="3.00887"><ele>88.5</ele></trkpt>
    <trkpt lat="48.81821" lon="3.00806"><ele>91.7</ele></trkpt>
    <trkpt lat="48.8182" lon="3.00752"><ele>93.6</ele></trkpt>
    <trkpt lat="48.81802" lon="3.0059"><ele>96.4</ele></trkpt>
    <trkpt lat="48.81788" lon="3.0054"><ele>96.5</ele></trkpt>
    <trkpt lat="48.81762" lon="3.00381"><ele>97.2</ele></trkpt>
    <trkpt lat="48.81757" lon="3.00272"><ele>98.2</ele></trkpt>
    <trkpt lat="48.81691" lon="3.00048"><ele>95.6</ele></trkpt>
    <trkpt lat="48.81571" lon="2.99712"><ele>84.6</ele></trkpt>
    <trkpt lat="48.81538" lon="2.99586"><ele>78.1</ele></trkpt>
    <trkpt lat="48.81537" lon="2.99477"><ele>72.5</ele></trkpt>
    <trkpt lat="48.81527" lon="2.99454"><ele>71.3</ele></trkpt>
    <trkpt lat="48.81482" lon="2.99411"><ele>68.2</ele></trkpt>
    <trkpt lat="48.81465" lon="2.99363"><ele>66.5</ele></trkpt>
    <trkpt lat="48.81453" lon="2.99344"><ele>65.8</ele></trkpt>
    <trkpt lat="48.81388" lon="2.99297"><ele>63.5</ele></trkpt>
    <trkpt lat="48.81361" lon="2.99261"><ele>62.7</ele></trkpt>
    <trkpt lat="48.8134" lon="2.99218"><ele>62.4</ele></trkpt>
    <trkpt lat="48.81338" lon="2.99192"><ele>62.4</ele></trkpt>
    <trkpt lat="48.81688" lon="2.98919"><ele>72.0</ele></trkpt>
    <trkpt lat="48.81723" lon="2.98909"><ele>73.7</ele></trkpt>
    <trkpt lat="48.81885" lon="2.98903"><ele>83.9</ele></trkpt>
    <trkpt lat="48.8192" lon="2.98892"><ele>85.7</ele></trkpt>
    <trkpt lat="48.81935" lon="2.98878"><ele>86.4</ele></trkpt>
    <trkpt lat="48.81958" lon="2.98837"><ele>87.3</ele></trkpt>
    <trkpt lat="48.82048" lon="2.98539"><ele>96.3</ele></trkpt>
    <trkpt lat="48.82073" lon="2.985"><ele>99.5</ele></trkpt>
    <trkpt lat="48.82089" lon="2.98491"><ele>101.1</ele></trkpt>
    <trkpt lat="48.82215" lon="2.9849"><ele>113.4</ele></trkpt>
    <trkpt lat="48.8225" lon="2.9848"><ele>117.1</ele></trkpt>
    <trkpt lat="48.82265" lon="2.98466"><ele>118.8</ele></trkpt>
    <trkpt lat="48.82331" lon="2.98373"><ele>125.7</ele></trkpt>
    <trkpt lat="48.82362" lon="2.98347"><ele>127.4</ele></trkpt>
    <trkpt lat="48.82397" lon="2.98334"><ele>128.5</ele></trkpt>
    <trkpt lat="48.82415" lon="2.98334"><ele>129.0</ele></trkpt>
    <trkpt lat="48.82503" lon="2.98366"><ele>130.8</ele></trkpt>
    <trkpt lat="48.82607" lon="2.98409"><ele>132.7</ele></trkpt>
    <trkpt lat="48.82657" lon="2.98438"><ele>133.7</ele></trkpt>
    <trkpt lat="48.82752" lon="2.98517"><ele>135.1</ele></trkpt>
    <trkpt lat="48.82859" lon="2.98617"><ele>134.2</ele></trkpt>
    <trkpt lat="48.83056" lon="2.98752"><ele>133.7</ele></trkpt>
    <trkpt lat="48.83196" lon="2.98874"><ele>132.0</ele></trkpt>
    <trkpt lat="48.83155" lon="2.98532"><ele>125.8</ele></trkpt>
    <trkpt lat="48.83123" lon="2.98405"><ele>121.0</ele></trkpt>
    <trkpt lat="48.8306" lon="2.98208"><ele>114.5</ele></trkpt>
    <trkpt lat="48.83037" lon="2.98167"><ele>113.9</ele></trkpt>
    <trkpt lat="48.82929" lon="2.98022"><ele>107.9</ele></trkpt>
    <trkpt lat="48.82887" lon="2.97903"><ele>101.3</ele></trkpt>
    <trkpt lat="48.82818" lon="2.97815"><ele>94.7</ele></trkpt>
    <trkpt lat="48.82771" lon="2.97733"><ele>89.3</ele></trkpt>
    <trkpt lat="48.8267" lon="2.97577"><ele>83.9</ele></trkpt>
    <trkpt lat="48.82571" lon="2.97459"><ele>76.8</ele></trkpt>
    <trkpt lat="48.8256" lon="2.97439"><ele>75.6</ele></trkpt>
    <trkpt lat="48.82558" lon="2.97412"><ele>74.7</ele></trkpt>
    <trkpt lat="48.82567" lon="2.97359"><ele>73.5</ele></trkpt>
    <trkpt lat="48.82586" lon="2.97312"><ele>72.8</ele></trkpt>
    <trkpt lat="48.82653" lon="2.97184"><ele>72.7</ele></trkpt>
    <trkpt lat="48.82712" lon="2.96956"><ele>77.7</ele></trkpt>
    <trkpt lat="48.82743" lon="2.96857"><ele>78.3</ele></trkpt>
    <trkpt lat="48.82764" lon="2.96669"><ele>74.0</ele></trkpt>
    <trkpt lat="48.82784" lon="2.96593"><ele>72.2</ele></trkpt>
    <trkpt lat="48.82765" lon="2.96378"><ele>66.4</ele></trkpt>
    <trkpt lat="48.82747" lon="2.96272"><ele>64.1</ele></trkpt>
    <trkpt lat="48.8276" lon="2.95891"><ele>59.6</ele></trkpt>
    <trkpt lat="48.82752" lon="2.95727"><ele>61.3</ele></trkpt>
    <trkpt lat="48.82741" lon="2.95647"><ele>62.5</ele></trkpt>
    <trkpt lat="48.82735" lon="2.95621"><ele>62.4</ele></trkpt>
    <trkpt lat="48.82715" lon="2.95576"><ele>61.6</ele></trkpt>
    <trkpt lat="48.82676" lon="2.95521"><ele>59.7</ele></trkpt>
    <trkpt lat="48.82644" lon="2.95497"><ele>58.9</ele></trkpt>
    <trkpt lat="48.82578" lon="2.9548"><ele>59.9</ele></trkpt>
    <trkpt lat="48.82586" lon="2.95456"><ele>60.6</ele></trkpt>
    <trkpt lat="48.82601" lon="2.95445"><ele>61.5</ele></trkpt>
    <trkpt lat="48.8269" lon="2.95471"><ele>67.8</ele></trkpt>
    <trkpt lat="48.82723" lon="2.95491"><ele>70.6</ele></trkpt>
    <trkpt lat="48.82766" lon="2.95539"><ele>74.8</ele></trkpt>
    <trkpt lat="48.8287" lon="2.95728"><ele>89.7</ele></trkpt>
    <trkpt lat="48.82882" lon="2.95718"><ele>91.2</ele></trkpt>
    <trkpt lat="48.8283" lon="2.9526"><ele>113.3</ele></trkpt>
    <trkpt lat="48.82817" lon="2.9521"><ele>115.7</ele></trkpt>
    <trkpt lat="48.82751" lon="2.95047"><ele>124.2</ele></trkpt>
    <trkpt lat="48.82752" lon="2.95021"><ele>125.2</ele></trkpt>
    <trkpt lat="48.82761" lon="2.94999"><ele>126.1</ele></trkpt>
    <trkpt lat="48.82778" lon="2.94987"><ele>127.0</ele></trkpt>
    <trkpt lat="48.83087" lon="2.94841"><ele>143.8</ele></trkpt>
    <trkpt lat="48.8312" lon="2.94821"><ele>145.1</ele></trkpt>
    <trkpt lat="48.83229" lon="2.94678"><ele>146.9</ele></trkpt>
    <trkpt lat="48.83341" lon="2.94501"><ele>146.3</ele></trkpt>
    <trkpt lat="48.83371" lon="2.94433"><ele>145.4</ele></trkpt>
    <trkpt lat="48.83393" lon="2.94329"><ele>144.0</ele></trkpt>
    <trkpt lat="48.83403" lon="2.94112"><ele>141.2</ele></trkpt>
    <trkpt lat="48.83401" lon="2.93838"><ele>136.9</ele></trkpt>
    <trkpt lat="48.83407" lon="2.93729"><ele>134.8</ele></trkpt>
    <trkpt lat="48.834" lon="2.93621"><ele>132.6</ele></trkpt>
    <trkpt lat="48.83385" lon="2.93542"><ele>131.0</ele></trkpt>
    <trkpt lat="48.83317" lon="2.9335"><ele>126.8</ele></trkpt>
    <trkpt lat="48.83271" lon="2.93172"><ele>124.5</ele></trkpt>
    <trkpt lat="48.83259" lon="2.93152"><ele>124.4</ele></trkpt>
    <trkpt lat="48.8321" lon="2.93118"><ele>123.8</ele></trkpt>
    <trkpt lat="48.83199" lon="2.93098"><ele>123.5</ele></trkpt>
    <trkpt lat="48.83199" lon="2.92961"><ele>122.0</ele></trkpt>
    <trkpt lat="48.83194" lon="2.92935"><ele>121.7</ele></trkpt>
    <trkpt lat="48.83124" lon="2.92912"><ele>119.3</ele></trkpt>
    <trkpt lat="48.83053" lon="2.92899"><ele>115.2</ele></trkpt>
    <trkpt lat="48.83047" lon="2.92823"><ele>112.7</ele></trkpt>
    <trkpt lat="48.83027" lon="2.92747"><ele>110.7</ele></trkpt>
    <trkpt lat="48.83014" lon="2.92667"><ele>108.6</ele></trkpt>
    <trkpt lat="48.8299" lon="2.92628"><ele>106.5</ele></trkpt>
    <trkpt lat="48.829" lon="2.92537"><ele>98.4</ele></trkpt>
    <trkpt lat="48.82754" lon="2.92296"><ele>80.6</ele></trkpt>
    <trkpt lat="48.8271" lon="2.9225"><ele>76.3</ele></trkpt>
    <trkpt lat="48.82698" lon="2.9223"><ele>74.8</ele></trkpt>
    <trkpt lat="48.82679" lon="2.92154"><ele>70.3</ele></trkpt>
    <trkpt lat="48.82632" lon="2.92071"><ele>64.4</ele></trkpt>
    <trkpt lat="48.82586" lon="2.91923"><ele>57.1</ele></trkpt>
    <trkpt lat="48.82557" lon="2.91891"><ele>56.0</ele></trkpt>
    <trkpt lat="48.8245" lon="2.91898"><ele>54.6</ele></trkpt>
    <trkpt lat="48.82345" lon="2.91861"><ele>55.9</ele></trkpt>
    <trkpt lat="48.8222" lon="2.91875"><ele>61.7</ele></trkpt>
    <trkpt lat="48.82113" lon="2.91854"><ele>66.0</ele></trkpt>
    <trkpt lat="48.81971" lon="2.91885"><ele>66.9</ele></trkpt>
    <trkpt lat="48.81918" lon="2.91876"><ele>66.3</ele></trkpt>
    <trkpt lat="48.81869" lon="2.91616"><ele>61.6</ele></trkpt>
    <trkpt lat="48.81836" lon="2.91404"><ele>58.9</ele></trkpt>
    <trkpt lat="48.81828" lon="2.91323"><ele>58.8</ele></trkpt>
    <trkpt lat="48.81832" lon="2.91298"><ele>58.8</ele></trkpt>
    <trkpt lat="48.81955" lon="2.90996"><ele>56.7</ele></trkpt>
    <trkpt lat="48.81976" lon="2.90921"><ele>56.1</ele></trkpt>
    <trkpt lat="48.82003" lon="2.9065"><ele>58.6</ele></trkpt>
    <trkpt lat="48.82011" lon="2.90598"><ele>59.6</ele></trkpt>
    <trkpt lat="48.82045" lon="2.90502"><ele>62.2</ele></trkpt>
    <trkpt lat="48.82077" lon="2.90374"><ele>69.2</ele></trkpt>
    <trkpt lat="48.82112" lon="2.9019"><ele>79.4</ele></trkpt>
    <trkpt lat="48.82178" lon="2.89907"><ele>98.4</ele></trkpt>
    <trkpt lat="48.8221" lon="2.89751"><ele>109.6</ele></trkpt>
    <trkpt lat="48.82178" lon="2.89567"><ele>120.6</ele></trkpt>
    <trkpt lat="48.82092" lon="2.89149"><ele>127.7</ele></trkpt>
    <trkpt lat="48.82089" lon="2.89123"><ele>127.6</ele></trkpt>
    <trkpt lat="48.82093" lon="2.89097"><ele>127.6</ele></trkpt>
    <trkpt lat="48.82105" lon="2.89077"><ele>127.4</ele></trkpt>
    <trkpt lat="48.82208" lon="2.89029"><ele>126.3</ele></trkpt>
    <trkpt lat="48.82223" lon="2.89014"><ele>126.1</ele></trkpt>
    <trkpt lat="48.82286" lon="2.8885"><ele>124.9</ele></trkpt>
    <trkpt lat="48.82305" lon="2.88773"><ele>124.5</ele></trkpt>
    <trkpt lat="48.82373" lon="2.88209"><ele>126.9</ele></trkpt>
    <trkpt lat="48.82367" lon="2.88128"><ele>127.7</ele></trkpt>
    <trkpt lat="48.82355" lon="2.88077"><ele>128.1</ele></trkpt>
    <trkpt lat="48.82257" lon="2.87785"><ele>129.3</ele></trkpt>
    <trkpt lat="48.82255" lon="2.87758"><ele>129.3</ele></trkpt>
    <trkpt lat="48.82266" lon="2.87707"><ele>129.4</ele></trkpt>
    <trkpt lat="48.82257" lon="2.87685"><ele>129.5</ele></trkpt>
    <trkpt lat="48.82247" lon="2.87634"><ele>129.5</ele></trkpt>
    <trkpt lat="48.82225" lon="2.87591"><ele>129.5</ele></trkpt>
    <trkpt lat="48.82194" lon="2.87563"><ele>129.6</ele></trkpt>
    <trkpt lat="48.8217" lon="2.87524"><ele>129.6</ele></trkpt>
    <trkpt lat="48.81863" lon="2.86627"><ele>130.7</ele></trkpt>
    <trkpt lat="48.81846" lon="2.86549"><ele>130.5</ele></trkpt>
    <trkpt lat="48.81571" lon="2.84824"><ele>126.2</ele></trkpt>
    <trkpt lat="48.81544" lon="2.84581"><ele>125.3</ele></trkpt>
    <trkpt lat="48.81521" lon="2.84311"><ele>124.8</ele></trkpt>
    <trkpt lat="48.81522" lon="2.84256"><ele>125.0</ele></trkpt>
    <trkpt lat="48.81539" lon="2.84209"><ele>125.0</ele></trkpt>
    <trkpt lat="48.8154" lon="2.84182"><ele>124.9</ele></trkpt>
    <trkpt lat="48.81531" lon="2.84159"><ele>124.7</ele></trkpt>
    <trkpt lat="48.81516" lon="2.84146"><ele>124.5</ele></trkpt>
    <trkpt lat="48.81507" lon="2.84123"><ele>124.2</ele></trkpt>
    <trkpt lat="48.81498" lon="2.8407"><ele>123.8</ele></trkpt>
    <trkpt lat="48.81434" lon="2.83366"><ele>125.2</ele></trkpt>
    <trkpt lat="48.81414" lon="2.83068"><ele>125.9</ele></trkpt>
    <trkpt lat="48.81462" lon="2.83083"><ele>125.9</ele></trkpt>
    <trkpt lat="48.81475" lon="2.83082"><ele>125.9</ele></trkpt>
    <trkpt lat="48.81473" lon="2.83"><ele>125.8</ele></trkpt>
    <trkpt lat="48.81451" lon="2.82977"><ele>125.8</ele></trkpt>
    <trkpt lat="48.81489" lon="2.82853"><ele>126.2</ele></trkpt>
    <trkpt lat="48.81501" lon="2.82833"><ele>126.3</ele></trkpt>
    <trkpt lat="48.81565" lon="2.82784"><ele>126.6</ele></trkpt>
    <trkpt lat="48.81574" lon="2.82761"><ele>126.6</ele></trkpt>
    <trkpt lat="48.81727" lon="2.82062"><ele>125.7</ele></trkpt>
    <trkpt lat="48.81748" lon="2.82017"><ele>125.5</ele></trkpt>
    <trkpt lat="48.81798" lon="2.81939"><ele>125.4</ele></trkpt>
    <trkpt lat="48.81841" lon="2.8189"><ele>125.6</ele></trkpt>
    <trkpt lat="48.81876" lon="2.81883"><ele>125.6</ele></trkpt>
    <trkpt lat="48.8189" lon="2.81867"><ele>125.6</ele></trkpt>
    <trkpt lat="48.81894" lon="2.81842"><ele>125.5</ele></trkpt>
    <trkpt lat="48.81889" lon="2.81816"><ele>125.5</ele></trkpt>
    <trkpt lat="48.81876" lon="2.81799"><ele>125.4</ele></trkpt>
    <trkpt lat="48.81859" lon="2.81794"><ele>125.3</ele></trkpt>
    <trkpt lat="48.81845" lon="2.81777"><ele>125.2</ele></trkpt>
    <trkpt lat="48.81835" lon="2.81754"><ele>125.1</ele></trkpt>
    <trkpt lat="48.81805" lon="2.81655"><ele>124.8</ele></trkpt>
    <trkpt lat="48.81796" lon="2.81602"><ele>124.6</ele></trkpt>
    <trkpt lat="48.81777" lon="2.81413"><ele>124.1</ele></trkpt>
    <trkpt lat="48.81762" lon="2.81306"><ele>123.7</ele></trkpt>
    <trkpt lat="48.81706" lon="2.81018"><ele>122.4</ele></trkpt>
    <trkpt lat="48.81655" lon="2.80785"><ele>121.5</ele></trkpt>
    <trkpt lat="48.81622" lon="2.80516"><ele>120.9</ele></trkpt>
    <trkpt lat="48.81602" lon="2.80383"><ele>121.3</ele></trkpt>
    <trkpt lat="48.81594" lon="2.80248"><ele>121.7</ele></trkpt>
    <trkpt lat="48.816" lon="2.79947"><ele>122.2</ele></trkpt>
    <trkpt lat="48.81645" lon="2.79655"><ele>121.2</ele></trkpt>
    <trkpt lat="48.81649" lon="2.79601"><ele>121.1</ele></trkpt>
    <trkpt lat="48.81632" lon="2.79524"><ele>121.0</ele></trkpt>
    <trkpt lat="48.81569" lon="2.79298"><ele>120.7</ele></trkpt>
    <trkpt lat="48.81566" lon="2.79275"><ele>120.4</ele></trkpt>
    <trkpt lat="48.81668" lon="2.7922"><ele>120.2</ele></trkpt>
    <trkpt lat="48.8168" lon="2.79205"><ele>120.2</ele></trkpt>
    <trkpt lat="48.81678" lon="2.79152"><ele>120.3</ele></trkpt>
    <trkpt lat="48.8165" lon="2.79022"><ele>120.7</ele></trkpt>
    <trkpt lat="48.81652" lon="2.78968"><ele>120.9</ele></trkpt>
    <trkpt lat="48.81658" lon="2.78942"><ele>121.0</ele></trkpt>
    <trkpt lat="48.8193" lon="2.78204"><ele>130.1</ele></trkpt>
    <trkpt lat="48.82206" lon="2.77563"><ele>126.0</ele></trkpt>
    <trkpt lat="48.82452" lon="2.76865"><ele>137.9</ele></trkpt>
    <trkpt lat="48.82473" lon="2.76822"><ele>139.2</ele></trkpt>
    <trkpt lat="48.82636" lon="2.76651"><ele>142.7</ele></trkpt>
    <trkpt lat="48.82659" lon="2.7661"><ele>142.2</ele></trkpt>
    <trkpt lat="48.82663" lon="2.76583"><ele>141.8</ele></trkpt>
    <trkpt lat="48.8266" lon="2.76557"><ele>141.3</ele></trkpt>
    <trkpt lat="48.82618" lon="2.76436"><ele>139.1</ele></trkpt>
    <trkpt lat="48.8262" lon="2.76383"><ele>138.4</ele></trkpt>
    <trkpt lat="48.82858" lon="2.75709"><ele>132.1</ele></trkpt>
    <trkpt lat="48.82889" lon="2.75642"><ele>132.7</ele></trkpt>
    <trkpt lat="48.82946" lon="2.75578"><ele>133.1</ele></trkpt>
    <trkpt lat="48.83156" lon="2.75512"><ele>127.6</ele></trkpt>
    <trkpt lat="48.83191" lon="2.75496"><ele>126.2</ele></trkpt>
    <trkpt lat="48.83436" lon="2.75327"><ele>125.4</ele></trkpt>
    <trkpt lat="48.83722" lon="2.75293"><ele>127.0</ele></trkpt>
    <trkpt lat="48.83938" lon="2.75301"><ele>125.9</ele></trkpt>
    <trkpt lat="48.83991" lon="2.75292"><ele>125.4</ele></trkpt>
    <trkpt lat="48.84121" lon="2.75199"><ele>124.3</ele></trkpt>
    <trkpt lat="48.84245" lon="2.75087"><ele>123.4</ele></trkpt>
    <trkpt lat="48.84344" lon="2.75022"><ele>122.5</ele></trkpt>
    <trkpt lat="48.84359" lon="2.75009"><ele>122.4</ele></trkpt>
    <trkpt lat="48.8437" lon="2.74987"><ele>122.3</ele></trkpt>
    <trkpt lat="48.84495" lon="2.74563"><ele>121.3</ele></trkpt>
    <trkpt lat="48.84505" lon="2.74542"><ele>121.2</ele></trkpt>
    <trkpt lat="48.84522" lon="2.74534"><ele>121.1</ele></trkpt>
    <trkpt lat="48.84536" lon="2.74519"><ele>120.8</ele></trkpt>
    <trkpt lat="48.84542" lon="2.74494"><ele>120.5</ele></trkpt>
    <trkpt lat="48.84533" lon="2.74442"><ele>119.8</ele></trkpt>
    <trkpt lat="48.84561" lon="2.74342"><ele>118.3</ele></trkpt>
    <trkpt lat="48.84835" lon="2.73635"><ele>108.5</ele></trkpt>
    <trkpt lat="48.84871" lon="2.73574"><ele>107.7</ele></trkpt>
    <trkpt lat="48.84958" lon="2.73477"><ele>106.3</ele></trkpt>
    <trkpt lat="48.84992" lon="2.73479"><ele>105.8</ele></trkpt>
    <trkpt lat="48.85006" lon="2.73464"><ele>105.6</ele></trkpt>
    <trkpt lat="48.85009" lon="2.73438"><ele>105.5</ele></trkpt>
    <trkpt lat="48.84994" lon="2.73391"><ele>105.5</ele></trkpt>
    <trkpt lat="48.84997" lon="2.73364"><ele>105.5</ele></trkpt>
    <trkpt lat="48.85207" lon="2.7255"><ele>112.0</ele></trkpt>
    <trkpt lat="48.85228" lon="2.72446"><ele>111.9</ele></trkpt>
    <trkpt lat="48.85244" lon="2.719"><ele>112.5</ele></trkpt>
    <trkpt lat="48.85239" lon="2.71791"><ele>111.8</ele></trkpt>
    <trkpt lat="48.85247" lon="2.71767"><ele>111.5</ele></trkpt>
    <trkpt lat="48.85244" lon="2.71742"><ele>111.2</ele></trkpt>
    <trkpt lat="48.85251" lon="2.71661"><ele>110.1</ele></trkpt>
    <trkpt lat="48.85258" lon="2.71443"><ele>107.7</ele></trkpt>
    <trkpt lat="48.85268" lon="2.71391"><ele>107.0</ele></trkpt>
    <trkpt lat="48.85377" lon="2.71209"><ele>101.2</ele></trkpt>
    <trkpt lat="48.85395" lon="2.71163"><ele>100.1</ele></trkpt>
    <trkpt lat="48.85462" lon="2.7057"><ele>98.6</ele></trkpt>
    <trkpt lat="48.85496" lon="2.7033"><ele>97.8</ele></trkpt>
    <trkpt lat="48.85499" lon="2.70139"><ele>97.4</ele></trkpt>
    <trkpt lat="48.8553" lon="2.6987"><ele>91.9</ele></trkpt>
    <trkpt lat="48.8539" lon="2.6905"><ele>80.7</ele></trkpt>
    <trkpt lat="48.85348" lon="2.68899"><ele>77.6</ele></trkpt>
    <trkpt lat="48.85284" lon="2.68703"><ele>72.8</ele></trkpt>
    <trkpt lat="48.85247" lon="2.68644"><ele>71.1</ele></trkpt>
    <trkpt lat="48.85176" lon="2.6856"><ele>67.9</ele></trkpt>
    <trkpt lat="48.85145" lon="2.68532"><ele>66.6</ele></trkpt>
    <trkpt lat="48.8511" lon="2.68518"><ele>65.4</ele></trkpt>
    <trkpt lat="48.84985" lon="2.68506"><ele>60.4</ele></trkpt>
    <trkpt lat="48.84953" lon="2.68483"><ele>58.9</ele></trkpt>
    <trkpt lat="48.84939" lon="2.68466"><ele>58.3</ele></trkpt>
    <trkpt lat="48.84931" lon="2.68442"><ele>57.7</ele></trkpt>
    <trkpt lat="48.84904" lon="2.68311"><ele>56.3</ele></trkpt>
    <trkpt lat="48.84903" lon="2.68284"><ele>56.2</ele></trkpt>
    <trkpt lat="48.84988" lon="2.67558"><ele>68.0</ele></trkpt>
    <trkpt lat="48.85011" lon="2.67314"><ele>69.7</ele></trkpt>
    <trkpt lat="48.85035" lon="2.66468"><ele>85.7</ele></trkpt>
    <trkpt lat="48.85013" lon="2.66252"><ele>91.8</ele></trkpt>
    <trkpt lat="48.85029" lon="2.66035"><ele>93.6</ele></trkpt>
    <trkpt lat="48.85055" lon="2.6582"><ele>93.9</ele></trkpt>
    <trkpt lat="48.85067" lon="2.65769"><ele>94.2</ele></trkpt>
    <trkpt lat="48.85081" lon="2.65634"><ele>94.9</ele></trkpt>
    <trkpt lat="48.85091" lon="2.65471"><ele>96.0</ele></trkpt>
    <trkpt lat="48.85086" lon="2.65361"><ele>96.6</ele></trkpt>
    <trkpt lat="48.85077" lon="2.6531"><ele>96.8</ele></trkpt>
    <trkpt lat="48.85081" lon="2.65256"><ele>97.0</ele></trkpt>
    <trkpt lat="48.85073" lon="2.65065"><ele>99.0</ele></trkpt>
    <trkpt lat="48.84951" lon="2.64294"><ele>99.2</ele></trkpt>
    <trkpt lat="48.84945" lon="2.64186"><ele>97.7</ele></trkpt>
    <trkpt lat="48.85136" lon="2.62185"><ele>77.6</ele></trkpt>
    <trkpt lat="48.85167" lon="2.62119"><ele>78.3</ele></trkpt>
    <trkpt lat="48.85166" lon="2.62093"><ele>78.7</ele></trkpt>
    <trkpt lat="48.85156" lon="2.62069"><ele>79.1</ele></trkpt>
    <trkpt lat="48.85152" lon="2.62043"><ele>79.6</ele></trkpt>
    <trkpt lat="48.85156" lon="2.62017"><ele>79.9</ele></trkpt>
    <trkpt lat="48.85263" lon="2.61438"><ele>79.8</ele></trkpt>
    <trkpt lat="48.85269" lon="2.61386"><ele>80.1</ele></trkpt>
    <trkpt lat="48.85263" lon="2.61363"><ele>80.3</ele></trkpt>
    <trkpt lat="48.8526" lon="2.61172"><ele>81.1</ele></trkpt>
    <trkpt lat="48.85231" lon="2.60299"><ele>76.7</ele></trkpt>
    <trkpt lat="48.85229" lon="2.60135"><ele>74.1</ele></trkpt>
    <trkpt lat="48.85211" lon="2.59973"><ele>68.8</ele></trkpt>
    <trkpt lat="48.85045" lon="2.58797"><ele>77.8</ele></trkpt>
    <trkpt lat="48.85047" lon="2.58772"><ele>78.2</ele></trkpt>
    <trkpt lat="48.85036" lon="2.58721"><ele>78.7</ele></trkpt>
    <trkpt lat="48.85018" lon="2.58587"><ele>79.2</ele></trkpt>
    <trkpt lat="48.85016" lon="2.5856"><ele>79.3</ele></trkpt>
    <trkpt lat="48.8502" lon="2.58537"><ele>79.4</ele></trkpt>
    <trkpt lat="48.85015" lon="2.58516"><ele>79.6</ele></trkpt>
    <trkpt lat="48.85" lon="2.58526"><ele>79.9</ele></trkpt>
    <trkpt lat="48.84985" lon="2.58523"><ele>80.4</ele></trkpt>
    <trkpt lat="48.84895" lon="2.58536"><ele>82.3</ele></trkpt>
    <trkpt lat="48.84879" lon="2.5853"><ele>82.0</ele></trkpt>
    <trkpt lat="48.84897" lon="2.58177"><ele>75.2</ele></trkpt>
    <trkpt lat="48.84868" lon="2.57963"><ele>82.7</ele></trkpt>
    <trkpt lat="48.84849" lon="2.57858"><ele>84.8</ele></trkpt>
    <trkpt lat="48.84838" lon="2.57848"><ele>85.0</ele></trkpt>
    <trkpt lat="48.84649" lon="2.57936"><ele>84.8</ele></trkpt>
    <trkpt lat="48.84578" lon="2.57958"><ele>86.8</ele></trkpt>
    <trkpt lat="48.84382" lon="2.57999"><ele>94.7</ele></trkpt>
    <trkpt lat="48.84365" lon="2.58001"><ele>95.1</ele></trkpt>
    <trkpt lat="48.84349" lon="2.57988"><ele>95.4</ele></trkpt>
    <trkpt lat="48.84331" lon="2.57987"><ele>95.7</ele></trkpt>
    <trkpt lat="48.84308" lon="2.58027"><ele>96.3</ele></trkpt>
    <trkpt lat="48.84116" lon="2.58096"><ele>97.4</ele></trkpt>
    <trkpt lat="48.8396" lon="2.58164"><ele>98.7</ele></trkpt>
    <trkpt lat="48.8389" lon="2.58185"><ele>98.8</ele></trkpt>
    <trkpt lat="48.83818" lon="2.58199"><ele>98.6</ele></trkpt>
    <trkpt lat="48.83786" lon="2.58184"><ele>98.5</ele></trkpt>
    <trkpt lat="48.83758" lon="2.58213"><ele>98.3</ele></trkpt>
    <trkpt lat="48.8367" lon="2.58237"><ele>99.2</ele></trkpt>
    <trkpt lat="48.83478" lon="2.5831"><ele>103.3</ele></trkpt>
    <trkpt lat="48.83443" lon="2.58321"><ele>103.1</ele></trkpt>
    <trkpt lat="48.83425" lon="2.5832"><ele>102.9</ele></trkpt>
    <trkpt lat="48.8341" lon="2.58308"><ele>102.7</ele></trkpt>
    <trkpt lat="48.83393" lon="2.58315"><ele>102.6</ele></trkpt>
    <trkpt lat="48.83388" lon="2.5834"><ele>102.6</ele></trkpt>
    <trkpt lat="48.83396" lon="2.58362"><ele>102.7</ele></trkpt>
    <trkpt lat="48.83413" lon="2.58365"><ele>102.9</ele></trkpt>
    <trkpt lat="48.83425" lon="2.58346"><ele>102.9</ele></trkpt>
    <trkpt lat="48.83423" lon="2.5832"><ele>102.9</ele></trkpt>
    <trkpt lat="48.83408" lon="2.58307"><ele>102.6</ele></trkpt>
    <trkpt lat="48.83391" lon="2.58317"><ele>102.3</ele></trkpt>
    <trkpt lat="48.83379" lon="2.58335"><ele>101.9</ele></trkpt>
    <trkpt lat="48.83345" lon="2.58354"><ele>101.0</ele></trkpt>
    <trkpt lat="48.83222" lon="2.58393"><ele>99.1</ele></trkpt>
    <trkpt lat="48.83208" lon="2.58389"><ele>99.0</ele></trkpt>
    <trkpt lat="48.83188" lon="2.58359"><ele>99.0</ele></trkpt>
    <trkpt lat="48.83186" lon="2.58168"><ele>99.4</ele></trkpt>
    <trkpt lat="48.83198" lon="2.58159"><ele>99.4</ele></trkpt>
    <trkpt lat="48.83269" lon="2.58163"><ele>99.2</ele></trkpt>
    <trkpt lat="48.83299" lon="2.58134"><ele>99.1</ele></trkpt>
    <trkpt lat="48.83316" lon="2.58086"><ele>99.0</ele></trkpt>
    <trkpt lat="48.83325" lon="2.57951"><ele>98.9</ele></trkpt>
    <trkpt lat="48.83322" lon="2.57897"><ele>99.0</ele></trkpt>
    <trkpt lat="48.83328" lon="2.57788"><ele>99.2</ele></trkpt>
    <trkpt lat="48.8334" lon="2.57744"><ele>99.1</ele></trkpt>
    <trkpt lat="48.83331" lon="2.57724"><ele>99.2</ele></trkpt>
    <trkpt lat="48.83371" lon="2.56989"><ele>100.0</ele></trkpt>
    <trkpt lat="48.83381" lon="2.56967"><ele>99.8</ele></trkpt>
    <trkpt lat="48.83398" lon="2.56961"><ele>99.6</ele></trkpt>
    <trkpt lat="48.8347" lon="2.56967"><ele>99.2</ele></trkpt>
    <trkpt lat="48.83475" lon="2.56943"><ele>99.1</ele></trkpt>
    <trkpt lat="48.83487" lon="2.56698"><ele>97.8</ele></trkpt>
    <trkpt lat="48.83475" lon="2.56591"><ele>97.6</ele></trkpt>
    <trkpt lat="48.83479" lon="2.56569"><ele>97.8</ele></trkpt>
    <trkpt lat="48.83496" lon="2.56562"><ele>98.1</ele></trkpt>
    <trkpt lat="48.83522" lon="2.56524"><ele>99.1</ele></trkpt>
    <trkpt lat="48.83529" lon="2.56499"><ele>99.6</ele></trkpt>
    <trkpt lat="48.8353" lon="2.56472"><ele>100.2</ele></trkpt>
    <trkpt lat="48.83518" lon="2.5631"><ele>101.8</ele></trkpt>
    <trkpt lat="48.83513" lon="2.56289"><ele>101.4</ele></trkpt>
    <trkpt lat="48.83437" lon="2.56173"><ele>98.7</ele></trkpt>
    <trkpt lat="48.83214" lon="2.55779"><ele>97.1</ele></trkpt>
    <trkpt lat="48.83208" lon="2.55758"><ele>97.3</ele></trkpt>
    <trkpt lat="48.83209" lon="2.55733"><ele>97.5</ele></trkpt>
    <trkpt lat="48.83199" lon="2.55715"><ele>97.7</ele></trkpt>
    <trkpt lat="48.83245" lon="2.55256"><ele>99.9</ele></trkpt>
    <trkpt lat="48.8326" lon="2.55246"><ele>99.7</ele></trkpt>
    <trkpt lat="48.83275" lon="2.55199"><ele>99.3</ele></trkpt>
    <trkpt lat="48.83342" lon="2.55108"><ele>98.1</ele></trkpt>
    <trkpt lat="48.83506" lon="2.549"><ele>96.3</ele></trkpt>
    <trkpt lat="48.83501" lon="2.54875"><ele>96.2</ele></trkpt>
    <trkpt lat="48.835" lon="2.54629"><ele>96.0</ele></trkpt>
    <trkpt lat="48.83508" lon="2.54576"><ele>96.4</ele></trkpt>
    <trkpt lat="48.83535" lon="2.54475"><ele>97.3</ele></trkpt>
    <trkpt lat="48.83539" lon="2.54448"><ele>97.5</ele></trkpt>
    <trkpt lat="48.8354" lon="2.54339"><ele>98.3</ele></trkpt>
    <trkpt lat="48.83556" lon="2.54293"><ele>98.3</ele></trkpt>
    <trkpt lat="48.83552" lon="2.54268"><ele>98.2</ele></trkpt>
    <trkpt lat="48.83541" lon="2.54247"><ele>98.0</ele></trkpt>
    <trkpt lat="48.83536" lon="2.54083"><ele>96.4</ele></trkpt>
    <trkpt lat="48.83528" lon="2.5403"><ele>96.1</ele></trkpt>
    <trkpt lat="48.83508" lon="2.53954"><ele>96.4</ele></trkpt>
    <trkpt lat="48.83469" lon="2.53862"><ele>97.0</ele></trkpt>
    <trkpt lat="48.83357" lon="2.53614"><ele>97.3</ele></trkpt>
    <trkpt lat="48.83206" lon="2.53344"><ele>95.3</ele></trkpt>
    <trkpt lat="48.83202" lon="2.53318"><ele>95.3</ele></trkpt>
    <trkpt lat="48.83209" lon="2.53292"><ele>95.4</ele></trkpt>
    <trkpt lat="48.83259" lon="2.53148"><ele>96.5</ele></trkpt>
    <trkpt lat="48.83251" lon="2.53126"><ele>96.5</ele></trkpt>
    <trkpt lat="48.83015" lon="2.52751"><ele>96.0</ele></trkpt>
    <trkpt lat="48.82819" lon="2.52469"><ele>88.0</ele></trkpt>
    <trkpt lat="48.82784" lon="2.52406"><ele>87.1</ele></trkpt>
    <trkpt lat="48.82759" lon="2.52334"><ele>86.6</ele></trkpt>
    <trkpt lat="48.82745" lon="2.52255"><ele>86.2</ele></trkpt>
    <trkpt lat="48.82727" lon="2.52093"><ele>84.0</ele></trkpt>
    <trkpt lat="48.82706" lon="2.5185"><ele>77.1</ele></trkpt>
    <trkpt lat="48.82708" lon="2.51795"><ele>75.3</ele></trkpt>
    <trkpt lat="48.8272" lon="2.51687"><ele>72.6</ele></trkpt>
    <trkpt lat="48.82718" lon="2.51469"><ele>69.2</ele></trkpt>
    <trkpt lat="48.82731" lon="2.51169"><ele>66.0</ele></trkpt>
    <trkpt lat="48.82758" lon="2.51011"><ele>63.5</ele></trkpt>
    <trkpt lat="48.82737" lon="2.50907"><ele>62.9</ele></trkpt>
    <trkpt lat="48.82668" lon="2.50654"><ele>60.6</ele></trkpt>
    <trkpt lat="48.82497" lon="2.50082"><ele>54.1</ele></trkpt>
    <trkpt lat="48.82457" lon="2.4996"><ele>51.6</ele></trkpt>
    <trkpt lat="48.82111" lon="2.48789"><ele>43.3</ele></trkpt>
    <trkpt lat="48.82053" lon="2.48588"><ele>42.9</ele></trkpt>
    <trkpt lat="48.82043" lon="2.48536"><ele>42.8</ele></trkpt>
    <trkpt lat="48.82031" lon="2.48524"><ele>42.8</ele></trkpt>
    <trkpt lat="48.82022" lon="2.48503"><ele>42.8</ele></trkpt>
    <trkpt lat="48.82002" lon="2.4843"><ele>43.0</ele></trkpt>
    <trkpt lat="48.81992" lon="2.48446"><ele>43.1</ele></trkpt>
    <trkpt lat="48.81978" lon="2.48496"><ele>43.2</ele></trkpt>
    <trkpt lat="48.81911" lon="2.48808"><ele>43.0</ele></trkpt>
    <trkpt lat="48.81894" lon="2.48855"><ele>43.1</ele></trkpt>
    <trkpt lat="48.81839" lon="2.49115"><ele>43.9</ele></trkpt>
    <trkpt lat="48.81831" lon="2.49196"><ele>43.5</ele></trkpt>
    <trkpt lat="48.81582" lon="2.50365"><ele>41.4</ele></trkpt>
    <trkpt lat="48.81461" lon="2.50791"><ele>41.9</ele></trkpt>
    <trkpt lat="48.81393" lon="2.50952"><ele>41.7</ele></trkpt>
    <trkpt lat="48.81349" lon="2.511"><ele>41.1</ele></trkpt>
    <trkpt lat="48.8134" lon="2.51121"><ele>40.5</ele></trkpt>
    <trkpt lat="48.81323" lon="2.51117"><ele>39.8</ele></trkpt>
    <trkpt lat="48.81254" lon="2.51087"><ele>37.4</ele></trkpt>
    <trkpt lat="48.81183" lon="2.51067"><ele>37.3</ele></trkpt>
    <trkpt lat="48.81045" lon="2.51008"><ele>41.0</ele></trkpt>
  </trkseg></trk>
</gpx>
