<?xml version="1.0" encoding="UTF-8"?>
<gpx version="1.1" creator="Club Cycliste USO" xmlns="http://www.topografix.com/GPX/1/1">
  <metadata><name>Réau – 83 km</name><desc>82.8 km, D+ 381 m. Départ et arrivée : pont de Champigny.</desc></metadata>
  <trk><name>Réau – 83 km</name><trkseg>
    <trkpt lat="48.81032" lon="2.51002"><ele>42.8</ele></trkpt>
    <trkpt lat="48.80962" lon="2.50978"><ele>41.5</ele></trkpt>
    <trkpt lat="48.80948" lon="2.50985"><ele>40.6</ele></trkpt>
    <trkpt lat="48.80909" lon="2.51417"><ele>36.0</ele></trkpt>
    <trkpt lat="48.80853" lon="2.51646"><ele>35.8</ele></trkpt>
    <trkpt lat="48.80807" lon="2.51764"><ele>35.5</ele></trkpt>
    <trkpt lat="48.80747" lon="2.51865"><ele>35.3</ele></trkpt>
    <trkpt lat="48.80664" lon="2.51971"><ele>35.4</ele></trkpt>
    <trkpt lat="48.80464" lon="2.52147"><ele>35.1</ele></trkpt>
    <trkpt lat="48.80439" lon="2.52176"><ele>35.0</ele></trkpt>
    <trkpt lat="48.80421" lon="2.52175"><ele>35.0</ele></trkpt>
    <trkpt lat="48.80369" lon="2.52194"><ele>34.9</ele></trkpt>
    <trkpt lat="48.80227" lon="2.52227"><ele>34.9</ele></trkpt>
    <trkpt lat="48.80156" lon="2.52229"><ele>34.7</ele></trkpt>
    <trkpt lat="48.79995" lon="2.52199"><ele>34.9</ele></trkpt>
    <trkpt lat="48.79888" lon="2.52207"><ele>35.1</ele></trkpt>
    <trkpt lat="48.79693" lon="2.52244"><ele>35.0</ele></trkpt>
    <trkpt lat="48.79392" lon="2.52185"><ele>35.0</ele></trkpt>
    <trkpt lat="48.79375" lon="2.5219"><ele>35.1</ele></trkpt>
    <trkpt lat="48.79303" lon="2.52184"><ele>35.1</ele></trkpt>
    <trkpt lat="48.79216" lon="2.52154"><ele>35.2</ele></trkpt>
    <trkpt lat="48.792" lon="2.52143"><ele>35.2</ele></trkpt>
    <trkpt lat="48.79195" lon="2.52118"><ele>35.3</ele></trkpt>
    <trkpt lat="48.792" lon="2.52064"><ele>35.4</ele></trkpt>
    <trkpt lat="48.79189" lon="2.52044"><ele>35.4</ele></trkpt>
    <trkpt lat="48.79172" lon="2.52043"><ele>35.5</ele></trkpt>
    <trkpt lat="48.79149" lon="2.52084"><ele>35.8</ele></trkpt>
    <trkpt lat="48.79135" lon="2.52099"><ele>36.1</ele></trkpt>
    <trkpt lat="48.79101" lon="2.52086"><ele>36.7</ele></trkpt>
    <trkpt lat="48.79085" lon="2.52094"><ele>37.5</ele></trkpt>
    <trkpt lat="48.79027" lon="2.52231"><ele>39.3</ele></trkpt>
    <trkpt lat="48.79013" lon="2.52231"><ele>38.9</ele></trkpt>
    <trkpt lat="48.78963" lon="2.522"><ele>37.2</ele></trkpt>
    <trkpt lat="48.78749" lon="2.52056"><ele>38.3</ele></trkpt>
    <trkpt lat="48.78433" lon="2.51651"><ele>39.2</ele></trkpt>
    <trkpt lat="48.78381" lon="2.51541"><ele>38.6</ele></trkpt>
    <trkpt lat="48.78367" lon="2.51526"><ele>38.3</ele></trkpt>
    <trkpt lat="48.78331" lon="2.51516"><ele>38.1</ele></trkpt>
    <trkpt lat="48.78317" lon="2.51501"><ele>38.0</ele></trkpt>
    <trkpt lat="48.78139" lon="2.5127"><ele>39.7</ele></trkpt>
    <trkpt lat="48.78094" lon="2.51225"><ele>39.5</ele></trkpt>
    <trkpt lat="48.7756" lon="2.51114"><ele>38.8</ele></trkpt>
    <trkpt lat="48.77471" lon="2.51106"><ele>39.2</ele></trkpt>
    <trkpt lat="48.77456" lon="2.51095"><ele>39.2</ele></trkpt>
    <trkpt lat="48.77313" lon="2.51066"><ele>39.4</ele></trkpt>
    <trkpt lat="48.77146" lon="2.50906"><ele>38.7</ele></trkpt>
    <trkpt lat="48.77048" lon="2.50838"><ele>38.5</ele></trkpt>
    <trkpt lat="48.77013" lon="2.50834"><ele>38.4</ele></trkpt>
    <trkpt lat="48.76718" lon="2.51146"><ele>43.8</ele></trkpt>
    <trkpt lat="48.76705" lon="2.51164"><ele>44.6</ele></trkpt>
    <trkpt lat="48.76685" lon="2.51209"><ele>46.3</ele></trkpt>
    <trkpt lat="48.76677" lon="2.51233"><ele>47.2</ele></trkpt>
    <trkpt lat="48.76671" lon="2.51287"><ele>49.2</ele></trkpt>
    <trkpt lat="48.76674" lon="2.51395"><ele>53.3</ele></trkpt>
    <trkpt lat="48.76749" lon="2.517"><ele>64.9</ele></trkpt>
    <trkpt lat="48.76803" lon="2.517"><ele>69.5</ele></trkpt>
    <trkpt lat="48.7682" lon="2.51707"><ele>71.3</ele></trkpt>
    <trkpt lat="48.76846" lon="2.51745"><ele>74.9</ele></trkpt>
    <trkpt lat="48.76871" lon="2.51816"><ele>79.8</ele></trkpt>
    <trkpt lat="48.76906" lon="2.52"><ele>88.5</ele></trkpt>
    <trkpt lat="48.76916" lon="2.52021"><ele>89.9</ele></trkpt>
    <trkpt lat="48.76943" lon="2.52056"><ele>92.5</ele></trkpt>
    <trkpt lat="48.76904" lon="2.52108"><ele>95.2</ele></trkpt>
    <trkpt lat="48.76908" lon="2.52134"><ele>95.9</ele></trkpt>
    <trkpt lat="48.76896" lon="2.52149"><ele>96.5</ele></trkpt>
    <trkpt lat="48.76846" lon="2.5218"><ele>97.9</ele></trkpt>
    <trkpt lat="48.76799" lon="2.5222"><ele>99.3</ele></trkpt>
    <trkpt lat="48.76794" lon="2.52241"><ele>99.8</ele></trkpt>
    <trkpt lat="48.76803" lon="2.52294"><ele>100.8</ele></trkpt>
    <trkpt lat="48.76826" lon="2.52336"><ele>101.6</ele></trkpt>
    <trkpt lat="48.76832" lon="2.52361"><ele>101.8</ele></trkpt>
    <trkpt lat="48.76839" lon="2.52414"><ele>102.3</ele></trkpt>
    <trkpt lat="48.76848" lon="2.52435"><ele>102.4</ele></trkpt>
    <trkpt lat="48.76857" lon="2.52487"><ele>102.5</ele></trkpt>
    <trkpt lat="48.76857" lon="2.52814"><ele>100.8</ele></trkpt>
    <trkpt lat="48.7685" lon="2.52836"><ele>100.6</ele></trkpt>
    <trkpt lat="48.76816" lon="2.52854"><ele>100.3</ele></trkpt>
    <trkpt lat="48.76803" lon="2.52873"><ele>100.2</ele></trkpt>
    <trkpt lat="48.7667" lon="2.53197"><ele>97.9</ele></trkpt>
    <trkpt lat="48.76576" lon="2.53361"><ele>96.2</ele></trkpt>
    <trkpt lat="48.7655" lon="2.53399"><ele>96.3</ele></trkpt>
    <trkpt lat="48.76413" lon="2.5353"><ele>96.3</ele></trkpt>
    <trkpt lat="48.76342" lon="2.53612"><ele>97.2</ele></trkpt>
    <trkpt lat="48.7633" lon="2.53662"><ele>97.8</ele></trkpt>
    <trkpt lat="48.76298" lon="2.53727"><ele>98.4</ele></trkpt>
    <trkpt lat="48.76232" lon="2.5392"><ele>100.6</ele></trkpt>
    <trkpt lat="48.76147" lon="2.54562"><ele>102.0</ele></trkpt>
    <trkpt lat="48.76118" lon="2.54887"><ele>101.6</ele></trkpt>
    <trkpt lat="48.76105" lon="2.54903"><ele>101.4</ele></trkpt>
    <trkpt lat="48.75809" lon="2.55013"><ele>100.3</ele></trkpt>
    <trkpt lat="48.75804" lon="2.55033"><ele>100.2</ele></trkpt>
    <trkpt lat="48.75835" lon="2.55246"><ele>100.6</ele></trkpt>
    <trkpt lat="48.75842" lon="2.55327"><ele>101.1</ele></trkpt>
    <trkpt lat="48.75843" lon="2.55354"><ele>101.3</ele></trkpt>
    <trkpt lat="48.75834" lon="2.55377"><ele>101.5</ele></trkpt>
    <trkpt lat="48.75534" lon="2.55726"><ele>103.0</ele></trkpt>
    <trkpt lat="48.75517" lon="2.5573"><ele>103.0</ele></trkpt>
    <trkpt lat="48.7487" lon="2.55707"><ele>100.0</ele></trkpt>
    <trkpt lat="48.74672" lon="2.55697"><ele>98.4</ele></trkpt>
    <trkpt lat="48.74637" lon="2.55689"><ele>98.1</ele></trkpt>
    <trkpt lat="48.74621" lon="2.55696"><ele>98.0</ele></trkpt>
    <trkpt lat="48.74514" lon="2.55695"><ele>96.9</ele></trkpt>
    <trkpt lat="48.74461" lon="2.5571"><ele>96.6</ele></trkpt>
    <trkpt lat="48.74425" lon="2.55711"><ele>96.6</ele></trkpt>
    <trkpt lat="48.74325" lon="2.5565"><ele>96.4</ele></trkpt>
    <trkpt lat="48.74313" lon="2.55634"><ele>96.3</ele></trkpt>
    <trkpt lat="48.74307" lon="2.55611"><ele>96.2</ele></trkpt>
    <trkpt lat="48.7429" lon="2.55605"><ele>96.4</ele></trkpt>
    <trkpt lat="48.74277" lon="2.55619"><ele>96.6</ele></trkpt>
    <trkpt lat="48.74274" lon="2.55646"><ele>96.9</ele></trkpt>
    <trkpt lat="48.7426" lon="2.55695"><ele>97.5</ele></trkpt>
    <trkpt lat="48.74258" lon="2.5575"><ele>97.5</ele></trkpt>
    <trkpt lat="48.74242" lon="2.55855"><ele>97.2</ele></trkpt>
    <trkpt lat="48.74239" lon="2.56019"><ele>97.2</ele></trkpt>
    <trkpt lat="48.74228" lon="2.56071"><ele>97.1</ele></trkpt>
    <trkpt lat="48.74203" lon="2.56109"><ele>97.1</ele></trkpt>
    <trkpt lat="48.74171" lon="2.56132"><ele>97.3</ele></trkpt>
    <trkpt lat="48.74117" lon="2.56137"><ele>97.5</ele></trkpt>
    <trkpt lat="48.74101" lon="2.56128"><ele>97.5</ele></trkpt>
    <trkpt lat="48.74088" lon="2.56141"><ele>97.4</ele></trkpt>
    <trkpt lat="48.74" lon="2.56154"><ele>97.0</ele></trkpt>
    <trkpt lat="48.73947" lon="2.5617"><ele>97.0</ele></trkpt>
    <trkpt lat="48.73913" lon="2.56189"><ele>96.7</ele></trkpt>
    <trkpt lat="48.73853" lon="2.56246"><ele>96.4</ele></trkpt>
    <trkpt lat="48.73841" lon="2.56298"><ele>96.1</ele></trkpt>
    <trkpt lat="48.73834" lon="2.56351"><ele>95.7</ele></trkpt>
    <trkpt lat="48.73831" lon="2.5646"><ele>95.1</ele></trkpt>
    <trkpt lat="48.73817" lon="2.56507"><ele>94.8</ele></trkpt>
    <trkpt lat="48.73802" lon="2.56518"><ele>94.6</ele></trkpt>
    <trkpt lat="48.73712" lon="2.56517"><ele>92.8</ele></trkpt>
    <trkpt lat="48.73569" lon="2.56492"><ele>91.1</ele></trkpt>
    <trkpt lat="48.73552" lon="2.56488"><ele>90.9</ele></trkpt>
    <trkpt lat="48.7354" lon="2.5647"><ele>90.7</ele></trkpt>
    <trkpt lat="48.73533" lon="2.56444"><ele>90.6</ele></trkpt>
    <trkpt lat="48.73517" lon="2.56439"><ele>90.5</ele></trkpt>
    <trkpt lat="48.73483" lon="2.56498"><ele>90.5</ele></trkpt>
    <trkpt lat="48.73395" lon="2.56529"><ele>90.6</ele></trkpt>
    <trkpt lat="48.7319" lon="2.56697"><ele>92.2</ele></trkpt>
    <trkpt lat="48.73134" lon="2.56767"><ele>93.0</ele></trkpt>
    <trkpt lat="48.73086" lon="2.56789"><ele>93.9</ele></trkpt>
    <trkpt lat="48.73076" lon="2.5681"><ele>94.0</ele></trkpt>
    <trkpt lat="48.73036" lon="2.56991"><ele>93.5</ele></trkpt>
    <trkpt lat="48.73029" lon="2.57016"><ele>93.1</ele></trkpt>
    <trkpt lat="48.73016" lon="2.57035"><ele>92.7</ele></trkpt>
    <trkpt lat="48.72983" lon="2.57052"><ele>91.5</ele></trkpt>
    <trkpt lat="48.72662" lon="2.57116"><ele>80.2</ele></trkpt>
    <trkpt lat="48.72627" lon="2.57129"><ele>79.3</ele></trkpt>
    <trkpt lat="48.7257" lon="2.57064"><ele>74.2</ele></trkpt>
    <trkpt lat="48.7241" lon="2.56938"><ele>65.6</ele></trkpt>
    <trkpt lat="48.72207" lon="2.56827"><ele>72.1</ele></trkpt>
    <trkpt lat="48.72112" lon="2.56751"><ele>81.5</ele></trkpt>
    <trkpt lat="48.7199" lon="2.56635"><ele>92.3</ele></trkpt>
    <trkpt lat="48.71977" lon="2.56617"><ele>92.7</ele></trkpt>
    <trkpt lat="48.71947" lon="2.5655"><ele>93.8</ele></trkpt>
    <trkpt lat="48.71923" lon="2.56511"><ele>94.5</ele></trkpt>
    <trkpt lat="48.71883" lon="2.56459"><ele>95.3</ele></trkpt>
    <trkpt lat="48.71853" lon="2.5643"><ele>95.7</ele></trkpt>
    <trkpt lat="48.7159" lon="2.56254"><ele>96.4</ele></trkpt>
    <trkpt lat="48.71503" lon="2.56218"><ele>98.6</ele></trkpt>
    <trkpt lat="48.7147" lon="2.56198"><ele>99.4</ele></trkpt>
    <trkpt lat="48.71247" lon="2.55969"><ele>94.3</ele></trkpt>
    <trkpt lat="48.71039" lon="2.55807"><ele>93.3</ele></trkpt>
    <trkpt lat="48.71028" lon="2.55788"><ele>93.3</ele></trkpt>
    <trkpt lat="48.7101" lon="2.55785"><ele>93.4</ele></trkpt>
    <trkpt lat="48.7096" lon="2.55757"><ele>93.8</ele></trkpt>
    <trkpt lat="48.70894" lon="2.55713"><ele>94.1</ele></trkpt>
    <trkpt lat="48.70818" lon="2.55639"><ele>94.5</ele></trkpt>
    <trkpt lat="48.70746" lon="2.55558"><ele>94.8</ele></trkpt>
    <trkpt lat="48.70533" lon="2.55266"><ele>94.7</ele></trkpt>
    <trkpt lat="48.70393" lon="2.55054"><ele>94.1</ele></trkpt>
    <trkpt lat="48.70359" lon="2.5499"><ele>93.6</ele></trkpt>
    <trkpt lat="48.70333" lon="2.54919"><ele>93.0</ele></trkpt>
    <trkpt lat="48.70308" lon="2.54816"><ele>92.4</ele></trkpt>
    <trkpt lat="48.70274" lon="2.54605"><ele>91.6</ele></trkpt>
    <trkpt lat="48.70267" lon="2.54472"><ele>91.4</ele></trkpt>
    <trkpt lat="48.70256" lon="2.54421"><ele>91.4</ele></trkpt>
    <trkpt lat="48.70128" lon="2.5423"><ele>91.1</ele></trkpt>
    <trkpt lat="48.70096" lon="2.54164"><ele>90.5</ele></trkpt>
    <trkpt lat="48.7007" lon="2.54125"><ele>89.9</ele></trkpt>
    <trkpt lat="48.70058" lon="2.54115"><ele>89.5</ele></trkpt>
    <trkpt lat="48.70042" lon="2.54126"><ele>89.2</ele></trkpt>
    <trkpt lat="48.70026" lon="2.54115"><ele>88.8</ele></trkpt>
    <trkpt lat="48.69961" lon="2.54065"><ele>87.3</ele></trkpt>
    <trkpt lat="48.69919" lon="2.54016"><ele>86.1</ele></trkpt>
    <trkpt lat="48.69893" lon="2.53978"><ele>85.6</ele></trkpt>
    <trkpt lat="48.69778" lon="2.53768"><ele>83.3</ele></trkpt>
    <trkpt lat="48.69728" lon="2.53655"><ele>82.2</ele></trkpt>
    <trkpt lat="48.69715" lon="2.53636"><ele>81.9</ele></trkpt>
    <trkpt lat="48.69518" lon="2.53624"><ele>78.0</ele></trkpt>
    <trkpt lat="48.69361" lon="2.53565"><ele>71.7</ele></trkpt>
    <trkpt lat="48.69224" lon="2.53501"><ele>66.0</ele></trkpt>
    <trkpt lat="48.69209" lon="2.5349"><ele>65.4</ele></trkpt>
    <trkpt lat="48.69204" lon="2.53136"><ele>60.4</ele></trkpt>
    <trkpt lat="48.69197" lon="2.53111"><ele>60.2</ele></trkpt>
    <trkpt lat="48.69092" lon="2.52962"><ele>58.3</ele></trkpt>
    <trkpt lat="48.68931" lon="2.52975"><ele>55.5</ele></trkpt>
    <trkpt lat="48.68899" lon="2.52988"><ele>55.2</ele></trkpt>
    <trkpt lat="48.68896" lon="2.53041"><ele>54.9</ele></trkpt>
    <trkpt lat="48.68874" lon="2.53173"><ele>53.6</ele></trkpt>
    <trkpt lat="48.6887" lon="2.53281"><ele>52.3</ele></trkpt>
    <trkpt lat="48.68861" lon="2.53303"><ele>52.0</ele></trkpt>
    <trkpt lat="48.68814" lon="2.53345"><ele>51.0</ele></trkpt>
    <trkpt lat="48.68768" lon="2.53386"><ele>50.4</ele></trkpt>
    <trkpt lat="48.68754" lon="2.53386"><ele>50.3</ele></trkpt>
    <trkpt lat="48.68728" lon="2.53117"><ele>50.3</ele></trkpt>
    <trkpt lat="48.687" lon="2.52931"><ele>49.3</ele></trkpt>
    <trkpt lat="48.68698" lon="2.5285"><ele>48.8</ele></trkpt>
    <trkpt lat="48.68706" lon="2.52769"><ele>48.4</ele></trkpt>
    <trkpt lat="48.68705" lon="2.52687"><ele>48.3</ele></trkpt>
    <trkpt lat="48.68703" lon="2.52606"><ele>48.4</ele></trkpt>
    <trkpt lat="48.68693" lon="2.52498"><ele>48.9</ele></trkpt>
    <trkpt lat="48.68696" lon="2.5239"><ele>49.8</ele></trkpt>
    <trkpt lat="48.68725" lon="2.52204"><ele>51.1</ele></trkpt>
    <trkpt lat="48.6876" lon="2.52079"><ele>50.9</ele></trkpt>
    <trkpt lat="48.6878" lon="2.52035"><ele>51.3</ele></trkpt>
    <trkpt lat="48.68817" lon="2.51975"><ele>52.0</ele></trkpt>
    <trkpt lat="48.68832" lon="2.5196"><ele>52.2</ele></trkpt>
    <trkpt lat="48.68883" lon="2.51933"><ele>52.8</ele></trkpt>
    <trkpt lat="48.6899" lon="2.51912"><ele>54.0</ele></trkpt>
    <trkpt lat="48.69007" lon="2.51917"><ele>54.2</ele></trkpt>
    <trkpt lat="48.69058" lon="2.51944"><ele>54.9</ele></trkpt>
    <trkpt lat="48.69121" lon="2.51997"><ele>55.5</ele></trkpt>
    <trkpt lat="48.69138" lon="2.52001"><ele>55.8</ele></trkpt>
    <trkpt lat="48.69156" lon="2.51997"><ele>56.1</ele></trkpt>
    <trkpt lat="48.69177" lon="2.51954"><ele>57.1</ele></trkpt>
    <trkpt lat="48.69177" lon="2.51935"><ele>57.6</ele></trkpt>
    <trkpt lat="48.69079" lon="2.51867"><ele>60.5</ele></trkpt>
    <trkpt lat="48.68989" lon="2.51853"><ele>63.0</ele></trkpt>
    <trkpt lat="48.68886" lon="2.51819"><ele>65.6</ele></trkpt>
    <trkpt lat="48.68883" lon="2.51765"><ele>66.3</ele></trkpt>
    <trkpt lat="48.68886" lon="2.51741"><ele>66.6</ele></trkpt>
    <trkpt lat="48.68915" lon="2.5171"><ele>67.3</ele></trkpt>
    <trkpt lat="48.68985" lon="2.51685"><ele>69.4</ele></trkpt>
    <trkpt lat="48.68987" lon="2.51671"><ele>70.1</ele></trkpt>
    <trkpt lat="48.6897" lon="2.51662"><ele>70.9</ele></trkpt>
    <trkpt lat="48.68946" lon="2.51622"><ele>72.4</ele></trkpt>
    <trkpt lat="48.68932" lon="2.51608"><ele>73.1</ele></trkpt>
    <trkpt lat="48.68882" lon="2.51638"><ele>75.3</ele></trkpt>
    <trkpt lat="48.68846" lon="2.51641"><ele>76.8</ele></trkpt>
    <trkpt lat="48.68756" lon="2.51633"><ele>80.4</ele></trkpt>
    <trkpt lat="48.6874" lon="2.51625"><ele>81.2</ele></trkpt>
    <trkpt lat="48.68579" lon="2.51452"><ele>87.5</ele></trkpt>
    <trkpt lat="48.68563" lon="2.51443"><ele>87.9</ele></trkpt>
    <trkpt lat="48.68545" lon="2.51446"><ele>88.2</ele></trkpt>
    <trkpt lat="48.68538" lon="2.51433"><ele>88.4</ele></trkpt>
    <trkpt lat="48.68616" lon="2.51129"><ele>89.4</ele></trkpt>
    <trkpt lat="48.68797" lon="2.50535"><ele>85.5</ele></trkpt>
    <trkpt lat="48.68853" lon="2.50366"><ele>84.7</ele></trkpt>
    <trkpt lat="48.68816" lon="2.50243"><ele>84.7</ele></trkpt>
    <trkpt lat="48.68606" lon="2.49672"><ele>89.1</ele></trkpt>
    <trkpt lat="48.68564" lon="2.49524"><ele>90.2</ele></trkpt>
    <trkpt lat="48.68551" lon="2.4951"><ele>90.4</ele></trkpt>
    <trkpt lat="48.68425" lon="2.4918"><ele>89.3</ele></trkpt>
    <trkpt lat="48.68388" lon="2.49056"><ele>89.5</ele></trkpt>
    <trkpt lat="48.68394" lon="2.49032"><ele>89.7</ele></trkpt>
    <trkpt lat="48.68393" lon="2.49006"><ele>89.9</ele></trkpt>
    <trkpt lat="48.6839" lon="2.48979"><ele>90.1</ele></trkpt>
    <trkpt lat="48.68378" lon="2.48962"><ele>90.3</ele></trkpt>
    <trkpt lat="48.68343" lon="2.48964"><ele>90.8</ele></trkpt>
    <trkpt lat="48.68308" lon="2.48953"><ele>91.2</ele></trkpt>
    <trkpt lat="48.67911" lon="2.48698"><ele>94.9</ele></trkpt>
    <trkpt lat="48.67139" lon="2.48623"><ele>94.7</ele></trkpt>
    <trkpt lat="48.66729" lon="2.48543"><ele>94.2</ele></trkpt>
    <trkpt lat="48.66189" lon="2.48334"><ele>94.3</ele></trkpt>
    <trkpt lat="48.66154" lon="2.48329"><ele>94.1</ele></trkpt>
    <trkpt lat="48.66138" lon="2.48339"><ele>94.0</ele></trkpt>
    <trkpt lat="48.66065" lon="2.4842"><ele>93.1</ele></trkpt>
    <trkpt lat="48.65797" lon="2.48695"><ele>91.3</ele></trkpt>
    <trkpt lat="48.65787" lon="2.48715"><ele>91.0</ele></trkpt>
    <trkpt lat="48.65673" lon="2.49232"><ele>87.4</ele></trkpt>
    <trkpt lat="48.65643" lon="2.49251"><ele>87.1</ele></trkpt>
    <trkpt lat="48.65636" lon="2.49275"><ele>87.1</ele></trkpt>
    <trkpt lat="48.65442" lon="2.49324"><ele>87.8</ele></trkpt>
    <trkpt lat="48.65138" lon="2.49381"><ele>85.7</ele></trkpt>
    <trkpt lat="48.65125" lon="2.49373"><ele>85.5</ele></trkpt>
    <trkpt lat="48.65028" lon="2.49081"><ele>84.8</ele></trkpt>
    <trkpt lat="48.65015" lon="2.49085"><ele>84.9</ele></trkpt>
    <trkpt lat="48.64886" lon="2.49311"><ele>88.2</ele></trkpt>
    <trkpt lat="48.64816" lon="2.49469"><ele>88.1</ele></trkpt>
    <trkpt lat="48.64741" lon="2.49544"><ele>86.5</ele></trkpt>
    <trkpt lat="48.64544" lon="2.49781"><ele>76.2</ele></trkpt>
    <trkpt lat="48.64491" lon="2.4989"><ele>71.4</ele></trkpt>
    <trkpt lat="48.64478" lon="2.49908"><ele>70.6</ele></trkpt>
    <trkpt lat="48.64374" lon="2.50015"><ele>68.2</ele></trkpt>
    <trkpt lat="48.64342" lon="2.5004"><ele>68.3</ele></trkpt>
    <trkpt lat="48.64308" lon="2.50059"><ele>68.7</ele></trkpt>
    <trkpt lat="48.64219" lon="2.50072"><ele>70.7</ele></trkpt>
    <trkpt lat="48.6419" lon="2.50102"><ele>71.8</ele></trkpt>
    <trkpt lat="48.6417" lon="2.50147"><ele>73.0</ele></trkpt>
    <trkpt lat="48.64134" lon="2.50299"><ele>77.0</ele></trkpt>
    <trkpt lat="48.64103" lon="2.50366"><ele>79.4</ele></trkpt>
    <trkpt lat="48.63927" lon="2.50599"><ele>84.7</ele></trkpt>
    <trkpt lat="48.63921" lon="2.50621"><ele>84.7</ele></trkpt>
    <trkpt lat="48.63935" lon="2.50699"><ele>84.7</ele></trkpt>
    <trkpt lat="48.63923" lon="2.50916"><ele>83.9</ele></trkpt>
    <trkpt lat="48.63883" lon="2.50968"><ele>83.5</ele></trkpt>
    <trkpt lat="48.63873" lon="2.5099"><ele>83.4</ele></trkpt>
    <trkpt lat="48.63517" lon="2.5224"><ele>83.2</ele></trkpt>
    <trkpt lat="48.63509" lon="2.52264"><ele>83.2</ele></trkpt>
    <trkpt lat="48.63494" lon="2.52275"><ele>83.3</ele></trkpt>
    <trkpt lat="48.6349" lon="2.52328"><ele>83.3</ele></trkpt>
    <trkpt lat="48.63463" lon="2.52429"><ele>83.5</ele></trkpt>
    <trkpt lat="48.63366" lon="2.52658"><ele>86.1</ele></trkpt>
    <trkpt lat="48.63362" lon="2.52738"><ele>86.7</ele></trkpt>
    <trkpt lat="48.63367" lon="2.52764"><ele>86.9</ele></trkpt>
    <trkpt lat="48.63379" lon="2.52785"><ele>87.1</ele></trkpt>
    <trkpt lat="48.63656" lon="2.53038"><ele>88.1</ele></trkpt>
    <trkpt lat="48.63669" lon="2.53055"><ele>87.9</ele></trkpt>
    <trkpt lat="48.63676" lon="2.5308"><ele>87.6</ele></trkpt>
    <trkpt lat="48.6368" lon="2.53133"><ele>86.9</ele></trkpt>
    <trkpt lat="48.63677" lon="2.5316"><ele>86.5</ele></trkpt>
    <trkpt lat="48.63611" lon="2.53383"><ele>84.7</ele></trkpt>
    <trkpt lat="48.63547" lon="2.53891"><ele>83.5</ele></trkpt>
    <trkpt lat="48.63497" lon="2.54237"><ele>84.8</ele></trkpt>
    <trkpt lat="48.63482" lon="2.54426"><ele>86.0</ele></trkpt>
    <trkpt lat="48.63488" lon="2.54443"><ele>86.3</ele></trkpt>
    <trkpt lat="48.63542" lon="2.54444"><ele>87.1</ele></trkpt>
    <trkpt lat="48.63555" lon="2.54459"><ele>87.3</ele></trkpt>
    <trkpt lat="48.63623" lon="2.54586"><ele>88.7</ele></trkpt>
    <trkpt lat="48.6364" lon="2.54634"><ele>88.9</ele></trkpt>
    <trkpt lat="48.63641" lon="2.54661"><ele>88.9</ele></trkpt>
    <trkpt lat="48.63722" lon="2.54764"><ele>88.8</ele></trkpt>
    <trkpt lat="48.63773" lon="2.54907"><ele>88.3</ele></trkpt>
    <trkpt lat="48.63784" lon="2.54957"><ele>88.1</ele></trkpt>
    <trkpt lat="48.63784" lon="2.54983"><ele>88.0</ele></trkpt>
    <trkpt lat="48.63739" lon="2.55161"><ele>86.4</ele></trkpt>
    <trkpt lat="48.63699" lon="2.55281"><ele>85.4</ele></trkpt>
    <trkpt lat="48.63672" lon="2.5541"><ele>85.6</ele></trkpt>
    <trkpt lat="48.63648" lon="2.55484"><ele>85.6</ele></trkpt>
    <trkpt lat="48.63629" lon="2.5553"><ele>85.5</ele></trkpt>
    <trkpt lat="48.63604" lon="2.55567"><ele>85.3</ele></trkpt>
    <trkpt lat="48.63599" lon="2.55621"><ele>85.2</ele></trkpt>
    <trkpt lat="48.6359" lon="2.55644"><ele>85.1</ele></trkpt>
    <trkpt lat="48.63515" lon="2.55797"><ele>84.5</ele></trkpt>
    <trkpt lat="48.63454" lon="2.55896"><ele>84.1</ele></trkpt>
    <trkpt lat="48.63423" lon="2.55923"><ele>83.9</ele></trkpt>
    <trkpt lat="48.63413" lon="2.55944"><ele>83.8</ele></trkpt>
    <trkpt lat="48.63329" lon="2.56046"><ele>82.9</ele></trkpt>
    <trkpt lat="48.63281" lon="2.56082"><ele>82.6</ele></trkpt>
    <trkpt lat="48.63264" lon="2.56088"><ele>82.5</ele></trkpt>
    <trkpt lat="48.63251" lon="2.56101"><ele>82.5</ele></trkpt>
    <trkpt lat="48.63242" lon="2.56121"><ele>82.6</ele></trkpt>
    <trkpt lat="48.6321" lon="2.56147"><ele>82.8</ele></trkpt>
    <trkpt lat="48.62979" lon="2.56296"><ele>84.5</ele></trkpt>
    <trkpt lat="48.62943" lon="2.56306"><ele>84.9</ele></trkpt>
    <trkpt lat="48.62926" lon="2.56304"><ele>85.1</ele></trkpt>
    <trkpt lat="48.6291" lon="2.56312"><ele>85.4</ele></trkpt>
    <trkpt lat="48.62886" lon="2.56352"><ele>85.8</ele></trkpt>
    <trkpt lat="48.62871" lon="2.56366"><ele>86.0</ele></trkpt>
    <trkpt lat="48.62755" lon="2.56439"><ele>86.8</ele></trkpt>
    <trkpt lat="48.62742" lon="2.56454"><ele>86.8</ele></trkpt>
    <trkpt lat="48.62737" lon="2.56671"><ele>86.6</ele></trkpt>
    <trkpt lat="48.62697" lon="2.56908"><ele>87.7</ele></trkpt>
    <trkpt lat="48.62725" lon="2.57149"><ele>87.0</ele></trkpt>
    <trkpt lat="48.6273" lon="2.57339"><ele>86.7</ele></trkpt>
    <trkpt lat="48.62718" lon="2.57357"><ele>86.7</ele></trkpt>
    <trkpt lat="48.62684" lon="2.57377"><ele>86.8</ele></trkpt>
    <trkpt lat="48.62631" lon="2.57387"><ele>86.7</ele></trkpt>
    <trkpt lat="48.6262" lon="2.57405"><ele>86.6</ele></trkpt>
    <trkpt lat="48.62607" lon="2.57484"><ele>85.9</ele></trkpt>
    <trkpt lat="48.62587" lon="2.5756"><ele>85.6</ele></trkpt>
    <trkpt lat="48.62541" lon="2.57676"><ele>86.1</ele></trkpt>
    <trkpt lat="48.62507" lon="2.57741"><ele>86.4</ele></trkpt>
    <trkpt lat="48.62424" lon="2.57843"><ele>87.1</ele></trkpt>
    <trkpt lat="48.62075" lon="2.58181"><ele>89.1</ele></trkpt>
    <trkpt lat="48.62022" lon="2.58253"><ele>89.5</ele></trkpt>
    <trkpt lat="48.61999" lon="2.58295"><ele>89.9</ele></trkpt>
    <trkpt lat="48.61968" lon="2.58362"><ele>90.9</ele></trkpt>
    <trkpt lat="48.61933" lon="2.58457"><ele>92.2</ele></trkpt>
    <trkpt lat="48.61908" lon="2.58587"><ele>93.7</ele></trkpt>
    <trkpt lat="48.61901" lon="2.58696"><ele>94.6</ele></trkpt>
    <trkpt lat="48.61897" lon="2.59267"><ele>95.7</ele></trkpt>
    <trkpt lat="48.61901" lon="2.59376"><ele>95.4</ele></trkpt>
    <trkpt lat="48.61917" lon="2.59482"><ele>95.0</ele></trkpt>
    <trkpt lat="48.61948" lon="2.59609"><ele>94.5</ele></trkpt>
    <trkpt lat="48.62028" lon="2.59853"><ele>93.0</ele></trkpt>
    <trkpt lat="48.6213" lon="2.60141"><ele>89.3</ele></trkpt>
    <trkpt lat="48.62134" lon="2.60167"><ele>89.0</ele></trkpt>
    <trkpt lat="48.62135" lon="2.60248"><ele>88.3</ele></trkpt>
    <trkpt lat="48.62129" lon="2.60273"><ele>88.1</ele></trkpt>
    <trkpt lat="48.61965" lon="2.60562"><ele>85.5</ele></trkpt>
    <trkpt lat="48.61904" lon="2.6062"><ele>85.9</ele></trkpt>
    <trkpt lat="48.61728" lon="2.60755"><ele>87.1</ele></trkpt>
    <trkpt lat="48.61689" lon="2.6081"><ele>87.3</ele></trkpt>
    <trkpt lat="48.61648" lon="2.609"><ele>87.7</ele></trkpt>
    <trkpt lat="48.61588" lon="2.61127"><ele>88.3</ele></trkpt>
    <trkpt lat="48.61481" lon="2.61472"><ele>89.1</ele></trkpt>
    <trkpt lat="48.61396" lon="2.61772"><ele>91.8</ele></trkpt>
    <trkpt lat="48.61375" lon="2.61932"><ele>92.8</ele></trkpt>
    <trkpt lat="48.6137" lon="2.62312"><ele>94.3</ele></trkpt>
    <trkpt lat="48.61361" lon="2.62324"><ele>94.3</ele></trkpt>
    <trkpt lat="48.61308" lon="2.62309"><ele>94.3</ele></trkpt>
    <trkpt lat="48.61189" lon="2.6225"><ele>93.6</ele></trkpt>
    <trkpt lat="48.61117" lon="2.62253"><ele>92.9</ele></trkpt>
    <trkpt lat="48.61048" lon="2.62282"><ele>92.1</ele></trkpt>
    <trkpt lat="48.60973" lon="2.62355"><ele>91.2</ele></trkpt>
    <trkpt lat="48.60956" lon="2.62364"><ele>91.1</ele></trkpt>
    <trkpt lat="48.60815" lon="2.62409"><ele>90.4</ele></trkpt>
    <trkpt lat="48.60642" lon="2.62482"><ele>89.0</ele></trkpt>
    <trkpt lat="48.60815" lon="2.62409"><ele>90.5</ele></trkpt>
    <trkpt lat="48.60956" lon="2.62364"><ele>91.3</ele></trkpt>
    <trkpt lat="48.60973" lon="2.62355"><ele>91.4</ele></trkpt>
    <trkpt lat="48.61048" lon="2.62282"><ele>92.3</ele></trkpt>
    <trkpt lat="48.61117" lon="2.62253"><ele>93.2</ele></trkpt>
    <trkpt lat="48.61171" lon="2.62248"><ele>93.7</ele></trkpt>
    <trkpt lat="48.61206" lon="2.62257"><ele>94.0</ele></trkpt>
    <trkpt lat="48.61308" lon="2.6231"><ele>94.1</ele></trkpt>
    <trkpt lat="48.61358" lon="2.6234"><ele>94.0</ele></trkpt>
    <trkpt lat="48.61369" lon="2.62355"><ele>94.0</ele></trkpt>
    <trkpt lat="48.6137" lon="2.6279"><ele>93.0</ele></trkpt>
    <trkpt lat="48.61365" lon="2.62872"><ele>92.7</ele></trkpt>
    <trkpt lat="48.61352" lon="2.62948"><ele>92.6</ele></trkpt>
    <trkpt lat="48.61366" lon="2.62997"><ele>92.8</ele></trkpt>
    <trkpt lat="48.6137" lon="2.63078"><ele>92.8</ele></trkpt>
    <trkpt lat="48.61369" lon="2.63377"><ele>91.0</ele></trkpt>
    <trkpt lat="48.61365" lon="2.63459"><ele>90.2</ele></trkpt>
    <trkpt lat="48.61354" lon="2.63509"><ele>89.5</ele></trkpt>
    <trkpt lat="48.61354" lon="2.63536"><ele>89.2</ele></trkpt>
    <trkpt lat="48.61363" lon="2.63587"><ele>88.9</ele></trkpt>
    <trkpt lat="48.61362" lon="2.63696"><ele>88.4</ele></trkpt>
    <trkpt lat="48.6135" lon="2.63746"><ele>88.2</ele></trkpt>
    <trkpt lat="48.61317" lon="2.6381"><ele>88.0</ele></trkpt>
    <trkpt lat="48.61272" lon="2.63855"><ele>88.1</ele></trkpt>
    <trkpt lat="48.61238" lon="2.63874"><ele>88.4</ele></trkpt>
    <trkpt lat="48.61204" lon="2.63885"><ele>88.7</ele></trkpt>
    <trkpt lat="48.61226" lon="2.641"><ele>90.4</ele></trkpt>
    <trkpt lat="48.61253" lon="2.64229"><ele>91.8</ele></trkpt>
    <trkpt lat="48.61423" lon="2.64829"><ele>91.4</ele></trkpt>
    <trkpt lat="48.61446" lon="2.64932"><ele>91.3</ele></trkpt>
    <trkpt lat="48.61457" lon="2.65012"><ele>91.0</ele></trkpt>
    <trkpt lat="48.61481" lon="2.65337"><ele>90.2</ele></trkpt>
    <trkpt lat="48.61491" lon="2.65354"><ele>90.4</ele></trkpt>
    <trkpt lat="48.61626" lon="2.65429"><ele>90.8</ele></trkpt>
    <trkpt lat="48.61674" lon="2.65466"><ele>91.0</ele></trkpt>
    <trkpt lat="48.61726" lon="2.65484"><ele>91.0</ele></trkpt>
    <trkpt lat="48.61739" lon="2.65501"><ele>91.0</ele></trkpt>
    <trkpt lat="48.61801" lon="2.65697"><ele>92.8</ele></trkpt>
    <trkpt lat="48.61917" lon="2.65905"><ele>96.6</ele></trkpt>
    <trkpt lat="48.62046" lon="2.66052"><ele>100.7</ele></trkpt>
    <trkpt lat="48.62122" lon="2.66124"><ele>102.6</ele></trkpt>
    <trkpt lat="48.62444" lon="2.66368"><ele>99.1</ele></trkpt>
    <trkpt lat="48.62598" lon="2.66507"><ele>96.1</ele></trkpt>
    <trkpt lat="48.62614" lon="2.66511"><ele>95.8</ele></trkpt>
    <trkpt lat="48.62647" lon="2.6649"><ele>95.2</ele></trkpt>
    <trkpt lat="48.62668" lon="2.66448"><ele>95.0</ele></trkpt>
    <trkpt lat="48.62685" lon="2.66439"><ele>95.0</ele></trkpt>
    <trkpt lat="48.62721" lon="2.66438"><ele>95.2</ele></trkpt>
    <trkpt lat="48.62773" lon="2.66453"><ele>95.3</ele></trkpt>
    <trkpt lat="48.62791" lon="2.6645"><ele>95.3</ele></trkpt>
    <trkpt lat="48.62998" lon="2.66359"><ele>93.2</ele></trkpt>
    <trkpt lat="48.63047" lon="2.66326"><ele>92.9</ele></trkpt>
    <trkpt lat="48.63082" lon="2.66321"><ele>92.9</ele></trkpt>
    <trkpt lat="48.63098" lon="2.66309"><ele>93.1</ele></trkpt>
    <trkpt lat="48.63133" lon="2.66301"><ele>93.5</ele></trkpt>
    <trkpt lat="48.63271" lon="2.6624"><ele>94.4</ele></trkpt>
    <trkpt lat="48.63307" lon="2.66236"><ele>94.6</ele></trkpt>
    <trkpt lat="48.63807" lon="2.66667"><ele>105.3</ele></trkpt>
    <trkpt lat="48.64288" lon="2.67094"><ele>92.6</ele></trkpt>
    <trkpt lat="48.64322" lon="2.67108"><ele>91.6</ele></trkpt>
    <trkpt lat="48.64734" lon="2.67169"><ele>90.0</ele></trkpt>
    <trkpt lat="48.64743" lon="2.67184"><ele>89.9</ele></trkpt>
    <trkpt lat="48.64794" lon="2.67641"><ele>90.6</ele></trkpt>
    <trkpt lat="48.64808" lon="2.67646"><ele>90.5</ele></trkpt>
    <trkpt lat="48.6561" lon="2.67164"><ele>62.5</ele></trkpt>
    <trkpt lat="48.65646" lon="2.67159"><ele>63.7</ele></trkpt>
    <trkpt lat="48.65664" lon="2.67163"><ele>64.4</ele></trkpt>
    <trkpt lat="48.65695" lon="2.67189"><ele>65.9</ele></trkpt>
    <trkpt lat="48.65711" lon="2.67203"><ele>66.6</ele></trkpt>
    <trkpt lat="48.65722" lon="2.67224"><ele>67.2</ele></trkpt>
    <trkpt lat="48.65725" lon="2.67278"><ele>68.6</ele></trkpt>
    <trkpt lat="48.65718" lon="2.67359"><ele>70.8</ele></trkpt>
    <trkpt lat="48.65716" lon="2.6744"><ele>73.4</ele></trkpt>
    <trkpt lat="48.65741" lon="2.6771"><ele>81.6</ele></trkpt>
    <trkpt lat="48.65745" lon="2.67736"><ele>82.3</ele></trkpt>
    <trkpt lat="48.6576" lon="2.6775"><ele>83.1</ele></trkpt>
    <trkpt lat="48.65795" lon="2.67753"><ele>84.7</ele></trkpt>
    <trkpt lat="48.65861" lon="2.6771"><ele>87.3</ele></trkpt>
    <trkpt lat="48.65888" lon="2.67675"><ele>87.9</ele></trkpt>
    <trkpt lat="48.65903" lon="2.67627"><ele>88.1</ele></trkpt>
    <trkpt lat="48.65913" lon="2.6752"><ele>88.6</ele></trkpt>
    <trkpt lat="48.66006" lon="2.67355"><ele>91.4</ele></trkpt>
    <trkpt lat="48.66021" lon="2.67339"><ele>91.5</ele></trkpt>
    <trkpt lat="48.66074" lon="2.67332"><ele>91.8</ele></trkpt>
    <trkpt lat="48.66091" lon="2.67322"><ele>91.9</ele></trkpt>
    <trkpt lat="48.66141" lon="2.67291"><ele>92.1</ele></trkpt>
    <trkpt lat="48.66203" lon="2.67238"><ele>92.1</ele></trkpt>
    <trkpt lat="48.66891" lon="2.66835"><ele>92.4</ele></trkpt>
    <trkpt lat="48.67112" lon="2.66654"><ele>90.4</ele></trkpt>
    <trkpt lat="48.67628" lon="2.66415"><ele>95.8</ele></trkpt>
    <trkpt lat="48.67715" lon="2.66382"><ele>96.3</ele></trkpt>
    <trkpt lat="48.67769" lon="2.66384"><ele>96.3</ele></trkpt>
    <trkpt lat="48.67839" lon="2.66411"><ele>96.5</ele></trkpt>
    <trkpt lat="48.6834" lon="2.6663"><ele>98.2</ele></trkpt>
    <trkpt lat="48.68465" lon="2.66652"><ele>98.1</ele></trkpt>
    <trkpt lat="48.68472" lon="2.66671"><ele>98.1</ele></trkpt>
    <trkpt lat="48.68484" lon="2.66853"><ele>98.1</ele></trkpt>
    <trkpt lat="48.68574" lon="2.6685"><ele>97.2</ele></trkpt>
    <trkpt lat="48.68713" lon="2.66797"><ele>95.9</ele></trkpt>
    <trkpt lat="48.68819" lon="2.66771"><ele>95.6</ele></trkpt>
    <trkpt lat="48.6896" lon="2.66815"><ele>95.1</ele></trkpt>
    <trkpt lat="48.69004" lon="2.66862"><ele>94.8</ele></trkpt>
    <trkpt lat="48.69057" lon="2.66935"><ele>94.8</ele></trkpt>
    <trkpt lat="48.69131" lon="2.67013"><ele>94.4</ele></trkpt>
    <trkpt lat="48.69211" lon="2.67076"><ele>93.6</ele></trkpt>
    <trkpt lat="48.6927" lon="2.67137"><ele>92.9</ele></trkpt>
    <trkpt lat="48.69309" lon="2.67194"><ele>92.8</ele></trkpt>
    <trkpt lat="48.69378" lon="2.67319"><ele>94.0</ele></trkpt>
    <trkpt lat="48.69407" lon="2.67349"><ele>94.1</ele></trkpt>
    <trkpt lat="48.69425" lon="2.67348"><ele>94.0</ele></trkpt>
    <trkpt lat="48.69539" lon="2.67268"><ele>92.4</ele></trkpt>
    <trkpt lat="48.6976" lon="2.67152"><ele>91.9</ele></trkpt>
    <trkpt lat="48.69939" lon="2.67137"><ele>91.9</ele></trkpt>
    <trkpt lat="48.7004" lon="2.6708"><ele>96.2</ele></trkpt>
    <trkpt lat="48.70195" lon="2.67007"><ele>105.7</ele></trkpt>
    <trkpt lat="48.70423" lon="2.66934"><ele>109.0</ele></trkpt>
    <trkpt lat="48.70477" lon="2.66929"><ele>107.9</ele></trkpt>
    <trkpt lat="48.70531" lon="2.66936"><ele>105.9</ele></trkpt>
    <trkpt lat="48.7058" lon="2.66969"><ele>103.6</ele></trkpt>
    <trkpt lat="48.70622" lon="2.67019"><ele>102.2</ele></trkpt>
    <trkpt lat="48.70862" lon="2.67496"><ele>102.9</ele></trkpt>
    <trkpt lat="48.70901" lon="2.67552"><ele>103.0</ele></trkpt>
    <trkpt lat="48.70932" lon="2.67578"><ele>103.0</ele></trkpt>
    <trkpt lat="48.7095" lon="2.67579"><ele>102.9</ele></trkpt>
    <trkpt lat="48.70968" lon="2.67575"><ele>102.9</ele></trkpt>
    <trkpt lat="48.71083" lon="2.67446"><ele>103.2</ele></trkpt>
    <trkpt lat="48.71662" lon="2.67007"><ele>105.1</ele></trkpt>
    <trkpt lat="48.71714" lon="2.66983"><ele>104.7</ele></trkpt>
    <trkpt lat="48.71856" lon="2.66954"><ele>103.5</ele></trkpt>
    <trkpt lat="48.71873" lon="2.66945"><ele>103.4</ele></trkpt>
    <trkpt lat="48.72296" lon="2.66642"><ele>101.5</ele></trkpt>
    <trkpt lat="48.72363" lon="2.66611"><ele>101.4</ele></trkpt>
    <trkpt lat="48.72383" lon="2.66451"><ele>102.1</ele></trkpt>
    <trkpt lat="48.72392" lon="2.66343"><ele>102.6</ele></trkpt>
    <trkpt lat="48.7237" lon="2.66072"><ele>103.6</ele></trkpt>
    <trkpt lat="48.72363" lon="2.66019"><ele>103.7</ele></trkpt>
    <trkpt lat="48.72339" lon="2.65945"><ele>103.8</ele></trkpt>
    <trkpt lat="48.72288" lon="2.65742"><ele>104.0</ele></trkpt>
    <trkpt lat="48.72237" lon="2.65754"><ele>103.9</ele></trkpt>
    <trkpt lat="48.72226" lon="2.65743"><ele>103.8</ele></trkpt>
    <trkpt lat="48.72229" lon="2.65607"><ele>103.5</ele></trkpt>
    <trkpt lat="48.72246" lon="2.656"><ele>103.4</ele></trkpt>
    <trkpt lat="48.72335" lon="2.65601"><ele>102.8</ele></trkpt>
    <trkpt lat="48.72369" lon="2.65583"><ele>102.0</ele></trkpt>
    <trkpt lat="48.72383" lon="2.65567"><ele>101.6</ele></trkpt>
    <trkpt lat="48.72392" lon="2.65545"><ele>101.3</ele></trkpt>
    <trkpt lat="48.72219" lon="2.65308"><ele>101.5</ele></trkpt>
    <trkpt lat="48.72169" lon="2.6523"><ele>101.9</ele></trkpt>
    <trkpt lat="48.72171" lon="2.6521"><ele>101.9</ele></trkpt>
    <trkpt lat="48.72268" lon="2.65014"><ele>100.4</ele></trkpt>
    <trkpt lat="48.7264" lon="2.64312"><ele>98.2</ele></trkpt>
    <trkpt lat="48.72699" lon="2.64176"><ele>97.7</ele></trkpt>
    <trkpt lat="48.72754" lon="2.64105"><ele>97.5</ele></trkpt>
    <trkpt lat="48.72765" lon="2.64084"><ele>97.5</ele></trkpt>
    <trkpt lat="48.72829" lon="2.63952"><ele>97.2</ele></trkpt>
    <trkpt lat="48.72948" lon="2.63647"><ele>97.3</ele></trkpt>
    <trkpt lat="48.72972" lon="2.63574"><ele>97.3</ele></trkpt>
    <trkpt lat="48.72996" lon="2.63471"><ele>97.3</ele></trkpt>
    <trkpt lat="48.7309" lon="2.63002"><ele>96.4</ele></trkpt>
    <trkpt lat="48.73112" lon="2.62704"><ele>95.8</ele></trkpt>
    <trkpt lat="48.72756" lon="2.62647"><ele>99.0</ele></trkpt>
    <trkpt lat="48.72613" lon="2.62655"><ele>100.3</ele></trkpt>
    <trkpt lat="48.726" lon="2.62357"><ele>100.9</ele></trkpt>
    <trkpt lat="48.72587" lon="2.62278"><ele>100.9</ele></trkpt>
    <trkpt lat="48.72571" lon="2.62229"><ele>100.9</ele></trkpt>
    <trkpt lat="48.72201" lon="2.61492"><ele>97.8</ele></trkpt>
    <trkpt lat="48.72038" lon="2.611"><ele>94.7</ele></trkpt>
    <trkpt lat="48.72002" lon="2.61039"><ele>94.2</ele></trkpt>
    <trkpt lat="48.71911" lon="2.6095"><ele>93.0</ele></trkpt>
    <trkpt lat="48.7185" lon="2.60754"><ele>91.9</ele></trkpt>
    <trkpt lat="48.71814" lon="2.606"><ele>91.2</ele></trkpt>
    <trkpt lat="48.71804" lon="2.60547"><ele>90.9</ele></trkpt>
    <trkpt lat="48.71793" lon="2.60412"><ele>90.4</ele></trkpt>
    <trkpt lat="48.71775" lon="2.60279"><ele>90.0</ele></trkpt>
    <trkpt lat="48.71734" lon="2.60099"><ele>90.1</ele></trkpt>
    <trkpt lat="48.71728" lon="2.59827"><ele>89.8</ele></trkpt>
    <trkpt lat="48.71706" lon="2.59753"><ele>89.8</ele></trkpt>
    <trkpt lat="48.71704" lon="2.59726"><ele>89.6</ele></trkpt>
    <trkpt lat="48.71687" lon="2.59681"><ele>89.1</ele></trkpt>
    <trkpt lat="48.71675" lon="2.59601"><ele>88.2</ele></trkpt>
    <trkpt lat="48.71669" lon="2.59492"><ele>87.6</ele></trkpt>
    <trkpt lat="48.71674" lon="2.59247"><ele>86.1</ele></trkpt>
    <trkpt lat="48.71669" lon="2.59138"><ele>86.5</ele></trkpt>
    <trkpt lat="48.71659" lon="2.59086"><ele>86.9</ele></trkpt>
    <trkpt lat="48.71646" lon="2.59036"><ele>87.3</ele></trkpt>
    <trkpt lat="48.71636" lon="2.59018"><ele>87.6</ele></trkpt>
    <trkpt lat="48.71624" lon="2.58967"><ele>88.2</ele></trkpt>
    <trkpt lat="48.71592" lon="2.58754"><ele>90.3</ele></trkpt>
    <trkpt lat="48.71587" lon="2.58646"><ele>91.4</ele></trkpt>
    <trkpt lat="48.71589" lon="2.58619"><ele>91.8</ele></trkpt>
    <trkpt lat="48.716" lon="2.5857"><ele>92.6</ele></trkpt>
    <trkpt lat="48.71586" lon="2.5852"><ele>93.4</ele></trkpt>
    <trkpt lat="48.71575" lon="2.58501"><ele>93.8</ele></trkpt>
    <trkpt lat="48.71486" lon="2.58479"><ele>95.2</ele></trkpt>
    <trkpt lat="48.71469" lon="2.5847"><ele>95.5</ele></trkpt>
    <trkpt lat="48.71456" lon="2.58455"><ele>95.7</ele></trkpt>
    <trkpt lat="48.71476" lon="2.5838"><ele>96.5</ele></trkpt>
    <trkpt lat="48.71488" lon="2.58358"><ele>96.6</ele></trkpt>
    <trkpt lat="48.71615" lon="2.58166"><ele>97.3</ele></trkpt>
    <trkpt lat="48.7166" lon="2.58122"><ele>97.4</ele></trkpt>
    <trkpt lat="48.7174" lon="2.5806"><ele>97.3</ele></trkpt>
    <trkpt lat="48.71753" lon="2.58042"><ele>97.2</ele></trkpt>
    <trkpt lat="48.71778" lon="2.5797"><ele>96.9</ele></trkpt>
    <trkpt lat="48.71829" lon="2.57857"><ele>96.3</ele></trkpt>
    <trkpt lat="48.71836" lon="2.57833"><ele>96.2</ele></trkpt>
    <trkpt lat="48.71845" lon="2.57726"><ele>95.3</ele></trkpt>
    <trkpt lat="48.71794" lon="2.57708"><ele>94.5</ele></trkpt>
    <trkpt lat="48.71808" lon="2.57629"><ele>93.5</ele></trkpt>
    <trkpt lat="48.71818" lon="2.57521"><ele>92.1</ele></trkpt>
    <trkpt lat="48.71829" lon="2.57501"><ele>91.7</ele></trkpt>
    <trkpt lat="48.71874" lon="2.57456"><ele>90.0</ele></trkpt>
    <trkpt lat="48.71881" lon="2.57433"><ele>89.5</ele></trkpt>
    <trkpt lat="48.71898" lon="2.57271"><ele>86.2</ele></trkpt>
    <trkpt lat="48.71903" lon="2.57249"><ele>85.7</ele></trkpt>
    <trkpt lat="48.72154" lon="2.57284"><ele>76.6</ele></trkpt>
    <trkpt lat="48.72167" lon="2.57297"><ele>75.3</ele></trkpt>
    <trkpt lat="48.72345" lon="2.57313"><ele>68.8</ele></trkpt>
    <trkpt lat="48.72452" lon="2.5734"><ele>67.0</ele></trkpt>
    <trkpt lat="48.72465" lon="2.57329"><ele>66.6</ele></trkpt>
    <trkpt lat="48.72491" lon="2.57258"><ele>65.7</ele></trkpt>
    <trkpt lat="48.72496" lon="2.57232"><ele>65.5</ele></trkpt>
    <trkpt lat="48.72492" lon="2.57124"><ele>64.4</ele></trkpt>
    <trkpt lat="48.72502" lon="2.57016"><ele>63.8</ele></trkpt>
    <trkpt lat="48.72518" lon="2.57023"><ele>63.6</ele></trkpt>
    <trkpt lat="48.72666" lon="2.56682"><ele>61.4</ele></trkpt>
    <trkpt lat="48.72742" lon="2.56529"><ele>62.0</ele></trkpt>
    <trkpt lat="48.72809" lon="2.56367"><ele>64.1</ele></trkpt>
    <trkpt lat="48.72884" lon="2.56215"><ele>67.2</ele></trkpt>
    <trkpt lat="48.72908" lon="2.56174"><ele>68.4</ele></trkpt>
    <trkpt lat="48.72952" lon="2.56128"><ele>70.7</ele></trkpt>
    <trkpt lat="48.72964" lon="2.56108"><ele>71.5</ele></trkpt>
    <trkpt lat="48.72997" lon="2.55982"><ele>74.9</ele></trkpt>
    <trkpt lat="48.73062" lon="2.55818"><ele>79.4</ele></trkpt>
    <trkpt lat="48.73074" lon="2.55767"><ele>80.9</ele></trkpt>
    <trkpt lat="48.73116" lon="2.55654"><ele>84.8</ele></trkpt>
    <trkpt lat="48.73129" lon="2.5567"><ele>85.6</ele></trkpt>
    <trkpt lat="48.73235" lon="2.55705"><ele>89.2</ele></trkpt>
    <trkpt lat="48.73414" lon="2.55728"><ele>93.6</ele></trkpt>
    <trkpt lat="48.73533" lon="2.5579"><ele>95.0</ele></trkpt>
    <trkpt lat="48.73543" lon="2.55779"><ele>95.1</ele></trkpt>
    <trkpt lat="48.7358" lon="2.55597"><ele>95.5</ele></trkpt>
    <trkpt lat="48.73594" lon="2.55462"><ele>95.2</ele></trkpt>
    <trkpt lat="48.736" lon="2.55438"><ele>95.2</ele></trkpt>
    <trkpt lat="48.73671" lon="2.55447"><ele>94.7</ele></trkpt>
    <trkpt lat="48.73688" lon="2.55455"><ele>94.6</ele></trkpt>
    <trkpt lat="48.73706" lon="2.55456"><ele>94.4</ele></trkpt>
    <trkpt lat="48.73723" lon="2.55449"><ele>94.2</ele></trkpt>
    <trkpt lat="48.73736" lon="2.5543"><ele>94.0</ele></trkpt>
    <trkpt lat="48.73742" lon="2.55405"><ele>93.9</ele></trkpt>
    <trkpt lat="48.7375" lon="2.55324"><ele>93.6</ele></trkpt>
    <trkpt lat="48.73762" lon="2.55311"><ele>93.5</ele></trkpt>
    <trkpt lat="48.73779" lon="2.55315"><ele>93.4</ele></trkpt>
    <trkpt lat="48.73843" lon="2.55364"><ele>93.1</ele></trkpt>
    <trkpt lat="48.73895" lon="2.55384"><ele>93.0</ele></trkpt>
    <trkpt lat="48.7411" lon="2.5537"><ele>93.6</ele></trkpt>
    <trkpt lat="48.74146" lon="2.55375"><ele>93.8</ele></trkpt>
    <trkpt lat="48.74181" lon="2.55389"><ele>94.0</ele></trkpt>
    <trkpt lat="48.74229" lon="2.55427"><ele>94.4</ele></trkpt>
    <trkpt lat="48.74263" lon="2.55489"><ele>94.8</ele></trkpt>
    <trkpt lat="48.7428" lon="2.55566"><ele>95.4</ele></trkpt>
    <trkpt lat="48.74282" lon="2.55593"><ele>95.8</ele></trkpt>
    <trkpt lat="48.74277" lon="2.55644"><ele>96.8</ele></trkpt>
    <trkpt lat="48.74289" lon="2.5566"><ele>96.9</ele></trkpt>
    <trkpt lat="48.74324" lon="2.55656"><ele>96.9</ele></trkpt>
    <trkpt lat="48.74425" lon="2.55711"><ele>96.6</ele></trkpt>
    <trkpt lat="48.74461" lon="2.5571"><ele>96.6</ele></trkpt>
    <trkpt lat="48.74532" lon="2.55694"><ele>97.1</ele></trkpt>
    <trkpt lat="48.74622" lon="2.557"><ele>98.0</ele></trkpt>
    <trkpt lat="48.74637" lon="2.55708"><ele>98.1</ele></trkpt>
    <trkpt lat="48.74673" lon="2.55701"><ele>98.4</ele></trkpt>
    <trkpt lat="48.74763" lon="2.55702"><ele>99.0</ele></trkpt>
    <trkpt lat="48.75518" lon="2.55729"><ele>103.0</ele></trkpt>
    <trkpt lat="48.75535" lon="2.55726"><ele>103.0</ele></trkpt>
    <trkpt lat="48.75579" lon="2.55677"><ele>102.9</ele></trkpt>
    <trkpt lat="48.75847" lon="2.55357"><ele>101.5</ele></trkpt>
    <trkpt lat="48.76047" lon="2.55239"><ele>101.1</ele></trkpt>
    <trkpt lat="48.76057" lon="2.55224"><ele>101.0</ele></trkpt>
    <trkpt lat="48.76102" lon="2.55046"><ele>101.0</ele></trkpt>
    <trkpt lat="48.76121" lon="2.54888"><ele>101.5</ele></trkpt>
    <trkpt lat="48.76147" lon="2.54563"><ele>102.0</ele></trkpt>
    <trkpt lat="48.76232" lon="2.53921"><ele>100.6</ele></trkpt>
    <trkpt lat="48.76294" lon="2.53755"><ele>98.7</ele></trkpt>
    <trkpt lat="48.76305" lon="2.53735"><ele>98.4</ele></trkpt>
    <trkpt lat="48.76329" lon="2.53662"><ele>97.7</ele></trkpt>
    <trkpt lat="48.76341" lon="2.53642"><ele>97.4</ele></trkpt>
    <trkpt lat="48.76356" lon="2.5363"><ele>97.1</ele></trkpt>
    <trkpt lat="48.76376" lon="2.53585"><ele>96.6</ele></trkpt>
    <trkpt lat="48.76404" lon="2.53551"><ele>96.3</ele></trkpt>
    <trkpt lat="48.76525" lon="2.53434"><ele>96.2</ele></trkpt>
    <trkpt lat="48.76568" lon="2.53385"><ele>96.1</ele></trkpt>
    <trkpt lat="48.76665" lon="2.53224"><ele>97.6</ele></trkpt>
    <trkpt lat="48.76681" lon="2.53212"><ele>98.2</ele></trkpt>
    <trkpt lat="48.76691" lon="2.53161"><ele>99.1</ele></trkpt>
    <trkpt lat="48.76708" lon="2.53113"><ele>99.0</ele></trkpt>
    <trkpt lat="48.7676" lon="2.53002"><ele>99.6</ele></trkpt>
    <trkpt lat="48.76805" lon="2.52883"><ele>100.2</ele></trkpt>
    <trkpt lat="48.76818" lon="2.52864"><ele>100.3</ele></trkpt>
    <trkpt lat="48.76852" lon="2.52847"><ele>100.4</ele></trkpt>
    <trkpt lat="48.76864" lon="2.52833"><ele>100.4</ele></trkpt>
    <trkpt lat="48.77013" lon="2.52428"><ele>98.7</ele></trkpt>
    <trkpt lat="48.7703" lon="2.52351"><ele>97.9</ele></trkpt>
    <trkpt lat="48.77046" lon="2.52245"><ele>95.9</ele></trkpt>
    <trkpt lat="48.7708" lon="2.52238"><ele>95.2</ele></trkpt>
    <trkpt lat="48.77088" lon="2.52216"><ele>94.8</ele></trkpt>
    <trkpt lat="48.77089" lon="2.52162"><ele>93.6</ele></trkpt>
    <trkpt lat="48.77198" lon="2.51983"><ele>82.7</ele></trkpt>
    <trkpt lat="48.7738" lon="2.51718"><ele>63.1</ele></trkpt>
    <trkpt lat="48.77561" lon="2.51493"><ele>46.6</ele></trkpt>
    <trkpt lat="48.77652" lon="2.51407"><ele>39.4</ele></trkpt>
    <trkpt lat="48.77771" lon="2.51239"><ele>36.5</ele></trkpt>
    <trkpt lat="48.77803" lon="2.51175"><ele>36.8</ele></trkpt>
    <trkpt lat="48.77928" lon="2.51188"><ele>38.4</ele></trkpt>
    <trkpt lat="48.78089" lon="2.51221"><ele>39.5</ele></trkpt>
    <trkpt lat="48.78104" lon="2.51233"><ele>39.6</ele></trkpt>
    <trkpt lat="48.78134" lon="2.51264"><ele>39.7</ele></trkpt>
    <trkpt lat="48.78326" lon="2.51512"><ele>38.2</ele></trkpt>
    <trkpt lat="48.78377" lon="2.51533"><ele>38.2</ele></trkpt>
    <trkpt lat="48.78428" lon="2.51645"><ele>39.2</ele></trkpt>
    <trkpt lat="48.78744" lon="2.5205"><ele>38.3</ele></trkpt>
    <trkpt lat="48.7894" lon="2.52186"><ele>37.3</ele></trkpt>
    <trkpt lat="48.79023" lon="2.52238"><ele>39.3</ele></trkpt>
    <trkpt lat="48.79036" lon="2.52221"><ele>39.7</ele></trkpt>
    <trkpt lat="48.79098" lon="2.52089"><ele>36.8</ele></trkpt>
    <trkpt lat="48.79132" lon="2.52099"><ele>36.2</ele></trkpt>
    <trkpt lat="48.79147" lon="2.52088"><ele>35.9</ele></trkpt>
    <trkpt lat="48.79169" lon="2.52045"><ele>35.6</ele></trkpt>
    <trkpt lat="48.79186" lon="2.52043"><ele>35.5</ele></trkpt>
    <trkpt lat="48.79198" lon="2.52059"><ele>35.4</ele></trkpt>
    <trkpt lat="48.79195" lon="2.52113"><ele>35.3</ele></trkpt>
    <trkpt lat="48.79198" lon="2.52139"><ele>35.2</ele></trkpt>
    <trkpt lat="48.79213" lon="2.52153"><ele>35.2</ele></trkpt>
    <trkpt lat="48.793" lon="2.52183"><ele>35.1</ele></trkpt>
    <trkpt lat="48.79372" lon="2.52189"><ele>35.1</ele></trkpt>
    <trkpt lat="48.79389" lon="2.52185"><ele>35.0</ele></trkpt>
    <trkpt lat="48.79513" lon="2.5221"><ele>35.0</ele></trkpt>
    <trkpt lat="48.79531" lon="2.52207"><ele>35.0</ele></trkpt>
    <trkpt lat="48.79547" lon="2.52218"><ele>34.9</ele></trkpt>
    <trkpt lat="48.79707" lon="2.52245"><ele>34.9</ele></trkpt>
    <trkpt lat="48.79885" lon="2.52207"><ele>35.1</ele></trkpt>
    <trkpt lat="48.79992" lon="2.52198"><ele>34.9</ele></trkpt>
    <trkpt lat="48.80152" lon="2.52229"><ele>34.7</ele></trkpt>
    <trkpt lat="48.80187" lon="2.5223"><ele>34.8</ele></trkpt>
    <trkpt lat="48.80241" lon="2.52225"><ele>34.9</ele></trkpt>
    <trkpt lat="48.80312" lon="2.52208"><ele>34.9</ele></trkpt>
    <trkpt lat="48.8045" lon="2.52166"><ele>35.0</ele></trkpt>
    <trkpt lat="48.80461" lon="2.52149"><ele>35.1</ele></trkpt>
    <trkpt lat="48.80647" lon="2.51989"><ele>35.4</ele></trkpt>
    <trkpt lat="48.80745" lon="2.51869"><ele>35.3</ele></trkpt>
    <trkpt lat="48.80805" lon="2.51768"><ele>35.5</ele></trkpt>
    <trkpt lat="48.80843" lon="2.51675"><ele>35.8</ele></trkpt>
    <trkpt lat="48.80903" lon="2.51448"><ele>36.0</ele></trkpt>
    <trkpt lat="48.80923" lon="2.51288"><ele>36.2</ele></trkpt>
    <trkpt lat="48.80948" lon="2.5099"><ele>40.6</ele></trkpt>
    <trkpt lat="48.80959" lon="2.50976"><ele>41.4</ele></trkpt>
    <trkpt lat="48.81029" lon="2.51001"><ele>42.9</ele></trkpt>
  </trkseg></trk>
</gpx>
