<?xml version="1.0" encoding="UTF-8"?>
<gpx version="1.1" creator="Club Cycliste USO" xmlns="http://www.topografix.com/GPX/1/1">
  <metadata><name>Soignolles-en-Brie – 89 km</name><desc>89.2 km, D+ 487 m. Départ et arrivée : pont de Champigny.</desc></metadata>
  <trk><name>Soignolles-en-Brie – 89 km</name><trkseg>
    <trkpt lat="48.81032" lon="2.51002"><ele>41.0</ele></trkpt>
    <trkpt lat="48.81188" lon="2.51068"><ele>37.2</ele></trkpt>
    <trkpt lat="48.81344" lon="2.51122"><ele>40.7</ele></trkpt>
    <trkpt lat="48.81263" lon="2.51481"><ele>46.4</ele></trkpt>
    <trkpt lat="48.81253" lon="2.51502"><ele>47.2</ele></trkpt>
    <trkpt lat="48.81151" lon="2.51822"><ele>56.7</ele></trkpt>
    <trkpt lat="48.81101" lon="2.51935"><ele>60.8</ele></trkpt>
    <trkpt lat="48.81057" lon="2.52054"><ele>65.4</ele></trkpt>
    <trkpt lat="48.80873" lon="2.52425"><ele>80.6</ele></trkpt>
    <trkpt lat="48.80846" lon="2.52461"><ele>82.2</ele></trkpt>
    <trkpt lat="48.80735" lon="2.5255"><ele>88.1</ele></trkpt>
    <trkpt lat="48.8071" lon="2.52588"><ele>89.7</ele></trkpt>
    <trkpt lat="48.80655" lon="2.52697"><ele>94.2</ele></trkpt>
    <trkpt lat="48.80637" lon="2.52773"><ele>96.6</ele></trkpt>
    <trkpt lat="48.80608" lon="2.53208"><ele>101.7</ele></trkpt>
    <trkpt lat="48.80596" lon="2.53287"><ele>101.6</ele></trkpt>
    <trkpt lat="48.80587" lon="2.53311"><ele>101.5</ele></trkpt>
    <trkpt lat="48.80572" lon="2.53324"><ele>101.3</ele></trkpt>
    <trkpt lat="48.80564" lon="2.5337"><ele>101.2</ele></trkpt>
    <trkpt lat="48.80034" lon="2.54262"><ele>102.6</ele></trkpt>
    <trkpt lat="48.79957" lon="2.54376"><ele>103.5</ele></trkpt>
    <trkpt lat="48.79914" lon="2.54424"><ele>104.1</ele></trkpt>
    <trkpt lat="48.79864" lon="2.54536"><ele>104.5</ele></trkpt>
    <trkpt lat="48.79683" lon="2.54841"><ele>103.5</ele></trkpt>
    <trkpt lat="48.79223" lon="2.55492"><ele>99.5</ele></trkpt>
    <trkpt lat="48.79209" lon="2.55508"><ele>99.6</ele></trkpt>
    <trkpt lat="48.79192" lon="2.55508"><ele>99.5</ele></trkpt>
    <trkpt lat="48.79178" lon="2.55524"><ele>99.4</ele></trkpt>
    <trkpt lat="48.79164" lon="2.55574"><ele>99.0</ele></trkpt>
    <trkpt lat="48.79086" lon="2.55687"><ele>96.3</ele></trkpt>
    <trkpt lat="48.79038" lon="2.55769"><ele>92.9</ele></trkpt>
    <trkpt lat="48.78927" lon="2.56016"><ele>79.0</ele></trkpt>
    <trkpt lat="48.78891" lon="2.56078"><ele>75.0</ele></trkpt>
    <trkpt lat="48.78835" lon="2.56146"><ele>70.8</ele></trkpt>
    <trkpt lat="48.78551" lon="2.5638"><ele>81.0</ele></trkpt>
    <trkpt lat="48.78493" lon="2.56446"><ele>86.0</ele></trkpt>
    <trkpt lat="48.78468" lon="2.56485"><ele>88.4</ele></trkpt>
    <trkpt lat="48.78231" lon="2.56931"><ele>102.3</ele></trkpt>
    <trkpt lat="48.78183" lon="2.57012"><ele>103.6</ele></trkpt>
    <trkpt lat="48.78159" lon="2.57115"><ele>103.6</ele></trkpt>
    <trkpt lat="48.78047" lon="2.57457"><ele>103.2</ele></trkpt>
    <trkpt lat="48.78031" lon="2.57535"><ele>103.1</ele></trkpt>
    <trkpt lat="48.77976" lon="2.57992"><ele>102.5</ele></trkpt>
    <trkpt lat="48.77885" lon="2.58491"><ele>102.7</ele></trkpt>
    <trkpt lat="48.77869" lon="2.5854"><ele>102.6</ele></trkpt>
    <trkpt lat="48.77843" lon="2.58573"><ele>102.7</ele></trkpt>
    <trkpt lat="48.77811" lon="2.58549"><ele>103.0</ele></trkpt>
    <trkpt lat="48.77793" lon="2.58547"><ele>103.1</ele></trkpt>
    <trkpt lat="48.77721" lon="2.58548"><ele>103.9</ele></trkpt>
    <trkpt lat="48.77668" lon="2.58561"><ele>104.5</ele></trkpt>
    <trkpt lat="48.77601" lon="2.586"><ele>105.1</ele></trkpt>
    <trkpt lat="48.77577" lon="2.58639"><ele>105.4</ele></trkpt>
    <trkpt lat="48.7756" lon="2.58688"><ele>105.7</ele></trkpt>
    <trkpt lat="48.77544" lon="2.58766"><ele>106.0</ele></trkpt>
    <trkpt lat="48.77499" lon="2.59252"><ele>105.7</ele></trkpt>
    <trkpt lat="48.77486" lon="2.59267"><ele>105.6</ele></trkpt>
    <trkpt lat="48.77489" lon="2.59291"><ele>105.6</ele></trkpt>
    <trkpt lat="48.77452" lon="2.59415"><ele>105.1</ele></trkpt>
    <trkpt lat="48.77446" lon="2.59468"><ele>105.0</ele></trkpt>
    <trkpt lat="48.77438" lon="2.59487"><ele>104.9</ele></trkpt>
    <trkpt lat="48.77445" lon="2.59508"><ele>104.8</ele></trkpt>
    <trkpt lat="48.77443" lon="2.59588"><ele>104.6</ele></trkpt>
    <trkpt lat="48.77467" lon="2.59914"><ele>105.1</ele></trkpt>
    <trkpt lat="48.77465" lon="2.60077"><ele>105.2</ele></trkpt>
    <trkpt lat="48.77468" lon="2.60104"><ele>105.2</ele></trkpt>
    <trkpt lat="48.77507" lon="2.60257"><ele>105.5</ele></trkpt>
    <trkpt lat="48.77489" lon="2.60302"><ele>105.6</ele></trkpt>
    <trkpt lat="48.77488" lon="2.60329"><ele>105.6</ele></trkpt>
    <trkpt lat="48.77511" lon="2.60432"><ele>105.7</ele></trkpt>
    <trkpt lat="48.77509" lon="2.60459"><ele>105.7</ele></trkpt>
    <trkpt lat="48.7747" lon="2.60669"><ele>105.9</ele></trkpt>
    <trkpt lat="48.77451" lon="2.60715"><ele>105.8</ele></trkpt>
    <trkpt lat="48.77435" lon="2.60728"><ele>105.7</ele></trkpt>
    <trkpt lat="48.77333" lon="2.60778"><ele>105.6</ele></trkpt>
    <trkpt lat="48.77271" lon="2.60833"><ele>105.8</ele></trkpt>
    <trkpt lat="48.77229" lon="2.60884"><ele>105.7</ele></trkpt>
    <trkpt lat="48.77059" lon="2.61128"><ele>105.7</ele></trkpt>
    <trkpt lat="48.76997" lon="2.61184"><ele>105.8</ele></trkpt>
    <trkpt lat="48.7693" lon="2.6122"><ele>105.3</ele></trkpt>
    <trkpt lat="48.76823" lon="2.61243"><ele>104.6</ele></trkpt>
    <trkpt lat="48.76755" lon="2.61279"><ele>104.2</ele></trkpt>
    <trkpt lat="48.76562" lon="2.61342"><ele>103.1</ele></trkpt>
    <trkpt lat="48.76486" lon="2.61416"><ele>102.8</ele></trkpt>
    <trkpt lat="48.7646" lon="2.61452"><ele>102.7</ele></trkpt>
    <trkpt lat="48.76398" lon="2.61507"><ele>102.6</ele></trkpt>
    <trkpt lat="48.76313" lon="2.61554"><ele>102.7</ele></trkpt>
    <trkpt lat="48.76278" lon="2.61565"><ele>102.7</ele></trkpt>
    <trkpt lat="48.76242" lon="2.61567"><ele>102.6</ele></trkpt>
    <trkpt lat="48.76207" lon="2.61561"><ele>102.5</ele></trkpt>
    <trkpt lat="48.76129" lon="2.61493"><ele>102.1</ele></trkpt>
    <trkpt lat="48.76112" lon="2.61487"><ele>102.0</ele></trkpt>
    <trkpt lat="48.7595" lon="2.61471"><ele>101.3</ele></trkpt>
    <trkpt lat="48.75933" lon="2.61478"><ele>101.2</ele></trkpt>
    <trkpt lat="48.75902" lon="2.61507"><ele>101.1</ele></trkpt>
    <trkpt lat="48.75885" lon="2.61513"><ele>101.0</ele></trkpt>
    <trkpt lat="48.75759" lon="2.61516"><ele>100.6</ele></trkpt>
    <trkpt lat="48.75545" lon="2.61485"><ele>99.4</ele></trkpt>
    <trkpt lat="48.75172" lon="2.61394"><ele>99.1</ele></trkpt>
    <trkpt lat="48.75154" lon="2.61388"><ele>99.1</ele></trkpt>
    <trkpt lat="48.75139" lon="2.61374"><ele>99.2</ele></trkpt>
    <trkpt lat="48.75078" lon="2.61273"><ele>99.9</ele></trkpt>
    <trkpt lat="48.75063" lon="2.61259"><ele>100.0</ele></trkpt>
    <trkpt lat="48.75028" lon="2.61249"><ele>100.0</ele></trkpt>
    <trkpt lat="48.74956" lon="2.61252"><ele>99.9</ele></trkpt>
    <trkpt lat="48.7494" lon="2.61263"><ele>99.9</ele></trkpt>
    <trkpt lat="48.74885" lon="2.61333"><ele>99.5</ele></trkpt>
    <trkpt lat="48.74851" lon="2.61347"><ele>99.3</ele></trkpt>
    <trkpt lat="48.74725" lon="2.61345"><ele>98.7</ele></trkpt>
    <trkpt lat="48.746" lon="2.61324"><ele>98.2</ele></trkpt>
    <trkpt lat="48.74546" lon="2.61328"><ele>97.9</ele></trkpt>
    <trkpt lat="48.74479" lon="2.6129"><ele>97.7</ele></trkpt>
    <trkpt lat="48.74461" lon="2.6129"><ele>97.6</ele></trkpt>
    <trkpt lat="48.74446" lon="2.61281"><ele>97.6</ele></trkpt>
    <trkpt lat="48.74433" lon="2.61295"><ele>97.4</ele></trkpt>
    <trkpt lat="48.7444" lon="2.61318"><ele>97.2</ele></trkpt>
    <trkpt lat="48.74391" lon="2.61514"><ele>96.2</ele></trkpt>
    <trkpt lat="48.74587" lon="2.61705"><ele>96.7</ele></trkpt>
    <trkpt lat="48.74588" lon="2.61727"><ele>96.7</ele></trkpt>
    <trkpt lat="48.74555" lon="2.61823"><ele>96.0</ele></trkpt>
    <trkpt lat="48.74534" lon="2.61868"><ele>95.4</ele></trkpt>
    <trkpt lat="48.74155" lon="2.62487"><ele>92.9</ele></trkpt>
    <trkpt lat="48.74029" lon="2.62681"><ele>98.6</ele></trkpt>
    <trkpt lat="48.73996" lon="2.62701"><ele>98.5</ele></trkpt>
    <trkpt lat="48.73908" lon="2.62731"><ele>99.2</ele></trkpt>
    <trkpt lat="48.73759" lon="2.62827"><ele>99.9</ele></trkpt>
    <trkpt lat="48.73675" lon="2.62873"><ele>99.0</ele></trkpt>
    <trkpt lat="48.7366" lon="2.62888"><ele>99.1</ele></trkpt>
    <trkpt lat="48.73649" lon="2.6291"><ele>99.2</ele></trkpt>
    <trkpt lat="48.73606" lon="2.63028"><ele>97.9</ele></trkpt>
    <trkpt lat="48.73589" lon="2.63026"><ele>97.1</ele></trkpt>
    <trkpt lat="48.73539" lon="2.62914"><ele>91.0</ele></trkpt>
    <trkpt lat="48.73492" lon="2.62874"><ele>85.7</ele></trkpt>
    <trkpt lat="48.73459" lon="2.62853"><ele>82.8</ele></trkpt>
    <trkpt lat="48.7327" lon="2.62764"><ele>84.4</ele></trkpt>
    <trkpt lat="48.73286" lon="2.62685"><ele>86.1</ele></trkpt>
    <trkpt lat="48.73284" lon="2.62666"><ele>86.5</ele></trkpt>
    <trkpt lat="48.73144" lon="2.62621"><ele>92.9</ele></trkpt>
    <trkpt lat="48.73129" lon="2.6263"><ele>93.7</ele></trkpt>
    <trkpt lat="48.73088" lon="2.63006"><ele>96.5</ele></trkpt>
    <trkpt lat="48.73005" lon="2.63422"><ele>97.7</ele></trkpt>
    <trkpt lat="48.7297" lon="2.63577"><ele>97.2</ele></trkpt>
    <trkpt lat="48.72947" lon="2.63651"><ele>97.3</ele></trkpt>
    <trkpt lat="48.72827" lon="2.63955"><ele>97.1</ele></trkpt>
    <trkpt lat="48.72763" lon="2.64087"><ele>97.0</ele></trkpt>
    <trkpt lat="48.72698" lon="2.6418"><ele>97.6</ele></trkpt>
    <trkpt lat="48.72637" lon="2.64314"><ele>98.2</ele></trkpt>
    <trkpt lat="48.72166" lon="2.6521"><ele>102.0</ele></trkpt>
    <trkpt lat="48.72164" lon="2.6523"><ele>101.9</ele></trkpt>
    <trkpt lat="48.72376" lon="2.65525"><ele>100.3</ele></trkpt>
    <trkpt lat="48.7239" lon="2.65542"><ele>100.2</ele></trkpt>
    <trkpt lat="48.72425" lon="2.65534"><ele>100.0</ele></trkpt>
    <trkpt lat="48.72438" lon="2.6555"><ele>99.9</ele></trkpt>
    <trkpt lat="48.72451" lon="2.65657"><ele>100.0</ele></trkpt>
    <trkpt lat="48.72499" lon="2.65948"><ele>100.7</ele></trkpt>
    <trkpt lat="48.72547" lon="2.66406"><ele>100.7</ele></trkpt>
    <trkpt lat="48.72584" lon="2.6653"><ele>100.5</ele></trkpt>
    <trkpt lat="48.7229" lon="2.66646"><ele>101.3</ele></trkpt>
    <trkpt lat="48.71867" lon="2.66947"><ele>103.3</ele></trkpt>
    <trkpt lat="48.71725" lon="2.66981"><ele>104.5</ele></trkpt>
    <trkpt lat="48.71673" lon="2.67002"><ele>104.9</ele></trkpt>
    <trkpt lat="48.71078" lon="2.67451"><ele>102.7</ele></trkpt>
    <trkpt lat="48.70992" lon="2.67551"><ele>102.6</ele></trkpt>
    <trkpt lat="48.70962" lon="2.6758"><ele>102.7</ele></trkpt>
    <trkpt lat="48.70944" lon="2.67582"><ele>102.7</ele></trkpt>
    <trkpt lat="48.70927" lon="2.67575"><ele>102.8</ele></trkpt>
    <trkpt lat="48.70896" lon="2.67546"><ele>102.7</ele></trkpt>
    <trkpt lat="48.70846" lon="2.67468"><ele>102.2</ele></trkpt>
    <trkpt lat="48.70631" lon="2.67032"><ele>101.9</ele></trkpt>
    <trkpt lat="48.7059" lon="2.66978"><ele>103.6</ele></trkpt>
    <trkpt lat="48.70558" lon="2.66952"><ele>105.2</ele></trkpt>
    <trkpt lat="48.70525" lon="2.66934"><ele>106.7</ele></trkpt>
    <trkpt lat="48.70489" lon="2.66927"><ele>107.8</ele></trkpt>
    <trkpt lat="48.70453" lon="2.66928"><ele>108.6</ele></trkpt>
    <trkpt lat="48.70206" lon="2.67003"><ele>104.6</ele></trkpt>
    <trkpt lat="48.70051" lon="2.67074"><ele>95.6</ele></trkpt>
    <trkpt lat="48.69968" lon="2.67123"><ele>91.7</ele></trkpt>
    <trkpt lat="48.69933" lon="2.67137"><ele>90.7</ele></trkpt>
    <trkpt lat="48.69754" lon="2.67156"><ele>91.8</ele></trkpt>
    <trkpt lat="48.69533" lon="2.67271"><ele>92.1</ele></trkpt>
    <trkpt lat="48.69419" lon="2.67353"><ele>93.9</ele></trkpt>
    <trkpt lat="48.69402" lon="2.67348"><ele>93.8</ele></trkpt>
    <trkpt lat="48.69388" lon="2.67333"><ele>93.6</ele></trkpt>
    <trkpt lat="48.69317" lon="2.67209"><ele>92.4</ele></trkpt>
    <trkpt lat="48.69265" lon="2.67133"><ele>92.7</ele></trkpt>
    <trkpt lat="48.69206" lon="2.67072"><ele>93.6</ele></trkpt>
    <trkpt lat="48.69111" lon="2.66994"><ele>94.4</ele></trkpt>
    <trkpt lat="48.69053" lon="2.6693"><ele>94.2</ele></trkpt>
    <trkpt lat="48.69" lon="2.66857"><ele>94.5</ele></trkpt>
    <trkpt lat="48.68954" lon="2.66813"><ele>94.8</ele></trkpt>
    <trkpt lat="48.68815" lon="2.66765"><ele>95.2</ele></trkpt>
    <trkpt lat="48.68709" lon="2.66798"><ele>95.8</ele></trkpt>
    <trkpt lat="48.68588" lon="2.66847"><ele>96.9</ele></trkpt>
    <trkpt lat="48.6848" lon="2.66856"><ele>97.9</ele></trkpt>
    <trkpt lat="48.68483" lon="2.66785"><ele>98.0</ele></trkpt>
    <trkpt lat="48.68471" lon="2.66678"><ele>98.0</ele></trkpt>
    <trkpt lat="48.68465" lon="2.66655"><ele>97.9</ele></trkpt>
    <trkpt lat="48.6834" lon="2.66628"><ele>97.8</ele></trkpt>
    <trkpt lat="48.67752" lon="2.66373"><ele>96.1</ele></trkpt>
    <trkpt lat="48.67735" lon="2.66367"><ele>96.1</ele></trkpt>
    <trkpt lat="48.67717" lon="2.66374"><ele>96.0</ele></trkpt>
    <trkpt lat="48.67116" lon="2.66653"><ele>90.1</ele></trkpt>
    <trkpt lat="48.66878" lon="2.66846"><ele>92.4</ele></trkpt>
    <trkpt lat="48.66291" lon="2.67187"><ele>91.9</ele></trkpt>
    <trkpt lat="48.66191" lon="2.67249"><ele>91.7</ele></trkpt>
    <trkpt lat="48.66095" lon="2.67323"><ele>91.7</ele></trkpt>
    <trkpt lat="48.6606" lon="2.67337"><ele>91.5</ele></trkpt>
    <trkpt lat="48.66024" lon="2.6734"><ele>91.1</ele></trkpt>
    <trkpt lat="48.66008" lon="2.67353"><ele>90.8</ele></trkpt>
    <trkpt lat="48.65915" lon="2.67518"><ele>88.2</ele></trkpt>
    <trkpt lat="48.65909" lon="2.67543"><ele>87.9</ele></trkpt>
    <trkpt lat="48.65891" lon="2.67729"><ele>87.7</ele></trkpt>
    <trkpt lat="48.65849" lon="2.67779"><ele>86.7</ele></trkpt>
    <trkpt lat="48.65806" lon="2.67865"><ele>84.5</ele></trkpt>
    <trkpt lat="48.65759" lon="2.67904"><ele>82.8</ele></trkpt>
    <trkpt lat="48.65735" lon="2.67945"><ele>81.5</ele></trkpt>
    <trkpt lat="48.65705" lon="2.68013"><ele>79.4</ele></trkpt>
    <trkpt lat="48.65665" lon="2.68067"><ele>77.6</ele></trkpt>
    <trkpt lat="48.65651" lon="2.68116"><ele>76.5</ele></trkpt>
    <trkpt lat="48.65648" lon="2.68196"><ele>74.7</ele></trkpt>
    <trkpt lat="48.65605" lon="2.68316"><ele>71.7</ele></trkpt>
    <trkpt lat="48.65579" lon="2.68353"><ele>70.7</ele></trkpt>
    <trkpt lat="48.65494" lon="2.68397"><ele>68.1</ele></trkpt>
    <trkpt lat="48.65464" lon="2.68426"><ele>67.1</ele></trkpt>
    <trkpt lat="48.65452" lon="2.68446"><ele>66.7</ele></trkpt>
    <trkpt lat="48.65369" lon="2.68656"><ele>68.0</ele></trkpt>
    <trkpt lat="48.65332" lon="2.68715"><ele>67.4</ele></trkpt>
    <trkpt lat="48.65284" lon="2.68752"><ele>64.4</ele></trkpt>
    <trkpt lat="48.6527" lon="2.68769"><ele>63.3</ele></trkpt>
    <trkpt lat="48.65251" lon="2.68815"><ele>61.4</ele></trkpt>
    <trkpt lat="48.65245" lon="2.68841"><ele>60.6</ele></trkpt>
    <trkpt lat="48.65246" lon="2.68922"><ele>59.5</ele></trkpt>
    <trkpt lat="48.65235" lon="2.69002"><ele>59.2</ele></trkpt>
    <trkpt lat="48.65237" lon="2.69029"><ele>59.2</ele></trkpt>
    <trkpt lat="48.65331" lon="2.69323"><ele>59.2</ele></trkpt>
    <trkpt lat="48.65332" lon="2.6935"><ele>59.3</ele></trkpt>
    <trkpt lat="48.65315" lon="2.69396"><ele>59.6</ele></trkpt>
    <trkpt lat="48.65302" lon="2.69415"><ele>60.0</ele></trkpt>
    <trkpt lat="48.65255" lon="2.69454"><ele>61.3</ele></trkpt>
    <trkpt lat="48.65252" lon="2.69474"><ele>61.7</ele></trkpt>
    <trkpt lat="48.65304" lon="2.69677"><ele>62.6</ele></trkpt>
    <trkpt lat="48.65352" lon="2.69792"><ele>63.5</ele></trkpt>
    <trkpt lat="48.65346" lon="2.69808"><ele>63.7</ele></trkpt>
    <trkpt lat="48.65257" lon="2.69803"><ele>65.7</ele></trkpt>
    <trkpt lat="48.6517" lon="2.69838"><ele>68.2</ele></trkpt>
    <trkpt lat="48.65116" lon="2.69844"><ele>69.4</ele></trkpt>
    <trkpt lat="48.64793" lon="2.6985"><ele>85.9</ele></trkpt>
    <trkpt lat="48.64578" lon="2.69885"><ele>92.0</ele></trkpt>
    <trkpt lat="48.64363" lon="2.69895"><ele>91.4</ele></trkpt>
    <trkpt lat="48.64313" lon="2.69925"><ele>92.1</ele></trkpt>
    <trkpt lat="48.64167" lon="2.70032"><ele>94.4</ele></trkpt>
    <trkpt lat="48.64157" lon="2.70051"><ele>94.6</ele></trkpt>
    <trkpt lat="48.64122" lon="2.70146"><ele>94.4</ele></trkpt>
    <trkpt lat="48.64101" lon="2.70221"><ele>94.0</ele></trkpt>
    <trkpt lat="48.64089" lon="2.70272"><ele>93.8</ele></trkpt>
    <trkpt lat="48.64075" lon="2.70379"><ele>92.8</ele></trkpt>
    <trkpt lat="48.6406" lon="2.70814"><ele>89.9</ele></trkpt>
    <trkpt lat="48.64038" lon="2.71029"><ele>90.1</ele></trkpt>
    <trkpt lat="48.64038" lon="2.71138"><ele>88.9</ele></trkpt>
    <trkpt lat="48.64049" lon="2.71272"><ele>87.9</ele></trkpt>
    <trkpt lat="48.64067" lon="2.71349"><ele>88.3</ele></trkpt>
    <trkpt lat="48.64075" lon="2.71373"><ele>88.6</ele></trkpt>
    <trkpt lat="48.64087" lon="2.7139"><ele>88.8</ele></trkpt>
    <trkpt lat="48.64156" lon="2.7142"><ele>88.3</ele></trkpt>
    <trkpt lat="48.64192" lon="2.71422"><ele>88.1</ele></trkpt>
    <trkpt lat="48.64224" lon="2.71446"><ele>88.3</ele></trkpt>
    <trkpt lat="48.64311" lon="2.71652"><ele>86.6</ele></trkpt>
    <trkpt lat="48.64324" lon="2.71669"><ele>86.1</ele></trkpt>
    <trkpt lat="48.64501" lon="2.71716"><ele>75.6</ele></trkpt>
    <trkpt lat="48.64519" lon="2.71711"><ele>74.0</ele></trkpt>
    <trkpt lat="48.64549" lon="2.71683"><ele>71.1</ele></trkpt>
    <trkpt lat="48.64643" lon="2.71556"><ele>63.0</ele></trkpt>
    <trkpt lat="48.64649" lon="2.71531"><ele>62.5</ele></trkpt>
    <trkpt lat="48.64649" lon="2.71449"><ele>62.1</ele></trkpt>
    <trkpt lat="48.6464" lon="2.71314"><ele>65.2</ele></trkpt>
    <trkpt lat="48.64649" lon="2.71262"><ele>67.4</ele></trkpt>
    <trkpt lat="48.64659" lon="2.7124"><ele>68.4</ele></trkpt>
    <trkpt lat="48.647" lon="2.71186"><ele>70.4</ele></trkpt>
    <trkpt lat="48.64716" lon="2.71181"><ele>70.8</ele></trkpt>
    <trkpt lat="48.64823" lon="2.71203"><ele>72.0</ele></trkpt>
    <trkpt lat="48.64716" lon="2.71181"><ele>70.2</ele></trkpt>
    <trkpt lat="48.647" lon="2.71186"><ele>69.6</ele></trkpt>
    <trkpt lat="48.64659" lon="2.7124"><ele>66.9</ele></trkpt>
    <trkpt lat="48.64649" lon="2.71262"><ele>65.8</ele></trkpt>
    <trkpt lat="48.6464" lon="2.71314"><ele>63.7</ele></trkpt>
    <trkpt lat="48.64649" lon="2.71449"><ele>62.1</ele></trkpt>
    <trkpt lat="48.64649" lon="2.71531"><ele>63.3</ele></trkpt>
    <trkpt lat="48.64644" lon="2.71556"><ele>64.2</ele></trkpt>
    <trkpt lat="48.6455" lon="2.71682"><ele>73.2</ele></trkpt>
    <trkpt lat="48.64519" lon="2.71711"><ele>76.3</ele></trkpt>
    <trkpt lat="48.64502" lon="2.71716"><ele>77.8</ele></trkpt>
    <trkpt lat="48.6436" lon="2.71681"><ele>84.4</ele></trkpt>
    <trkpt lat="48.645" lon="2.71716"><ele>75.6</ele></trkpt>
    <trkpt lat="48.64518" lon="2.71712"><ele>74.0</ele></trkpt>
    <trkpt lat="48.64563" lon="2.71667"><ele>69.7</ele></trkpt>
    <trkpt lat="48.64631" lon="2.71577"><ele>63.8</ele></trkpt>
    <trkpt lat="48.64643" lon="2.71558"><ele>63.0</ele></trkpt>
    <trkpt lat="48.64649" lon="2.71532"><ele>62.5</ele></trkpt>
    <trkpt lat="48.64642" lon="2.71288"><ele>66.3</ele></trkpt>
    <trkpt lat="48.64659" lon="2.71241"><ele>68.4</ele></trkpt>
    <trkpt lat="48.64671" lon="2.71222"><ele>69.2</ele></trkpt>
    <trkpt lat="48.64699" lon="2.71187"><ele>70.4</ele></trkpt>
    <trkpt lat="48.64715" lon="2.71181"><ele>70.8</ele></trkpt>
    <trkpt lat="48.6484" lon="2.71208"><ele>72.6</ele></trkpt>
    <trkpt lat="48.64945" lon="2.71245"><ele>75.5</ele></trkpt>
    <trkpt lat="48.6498" lon="2.71239"><ele>76.6</ele></trkpt>
    <trkpt lat="48.65046" lon="2.71281"><ele>77.3</ele></trkpt>
    <trkpt lat="48.65116" lon="2.71305"><ele>78.2</ele></trkpt>
    <trkpt lat="48.65219" lon="2.71354"><ele>81.4</ele></trkpt>
    <trkpt lat="48.65309" lon="2.71352"><ele>86.1</ele></trkpt>
    <trkpt lat="48.65379" lon="2.7133"><ele>88.9</ele></trkpt>
    <trkpt lat="48.65397" lon="2.7133"><ele>89.3</ele></trkpt>
    <trkpt lat="48.65414" lon="2.7134"><ele>89.6</ele></trkpt>
    <trkpt lat="48.6549" lon="2.71413"><ele>90.7</ele></trkpt>
    <trkpt lat="48.65577" lon="2.71448"><ele>91.9</ele></trkpt>
    <trkpt lat="48.65643" lon="2.71486"><ele>92.7</ele></trkpt>
    <trkpt lat="48.65697" lon="2.71479"><ele>93.2</ele></trkpt>
    <trkpt lat="48.65785" lon="2.71488"><ele>93.4</ele></trkpt>
    <trkpt lat="48.65793" lon="2.71569"><ele>93.0</ele></trkpt>
    <trkpt lat="48.65803" lon="2.71621"><ele>92.8</ele></trkpt>
    <trkpt lat="48.65911" lon="2.71903"><ele>91.4</ele></trkpt>
    <trkpt lat="48.65925" lon="2.71953"><ele>91.1</ele></trkpt>
    <trkpt lat="48.65934" lon="2.72006"><ele>91.1</ele></trkpt>
    <trkpt lat="48.65926" lon="2.7203"><ele>91.1</ele></trkpt>
    <trkpt lat="48.65928" lon="2.72056"><ele>91.3</ele></trkpt>
    <trkpt lat="48.65948" lon="2.72102"><ele>91.8</ele></trkpt>
    <trkpt lat="48.66002" lon="2.72172"><ele>93.7</ele></trkpt>
    <trkpt lat="48.66386" lon="2.72747"><ele>98.1</ele></trkpt>
    <trkpt lat="48.66452" lon="2.72838"><ele>101.0</ele></trkpt>
    <trkpt lat="48.66622" lon="2.73041"><ele>107.1</ele></trkpt>
    <trkpt lat="48.66687" lon="2.73135"><ele>107.1</ele></trkpt>
    <trkpt lat="48.6687" lon="2.7347"><ele>99.7</ele></trkpt>
    <trkpt lat="48.67496" lon="2.7441"><ele>99.5</ele></trkpt>
    <trkpt lat="48.67574" lon="2.7456"><ele>99.2</ele></trkpt>
    <trkpt lat="48.67587" lon="2.74578"><ele>99.2</ele></trkpt>
    <trkpt lat="48.67603" lon="2.7459"><ele>99.3</ele></trkpt>
    <trkpt lat="48.67671" lon="2.74624"><ele>99.6</ele></trkpt>
    <trkpt lat="48.67699" lon="2.74657"><ele>99.9</ele></trkpt>
    <trkpt lat="48.6775" lon="2.74628"><ele>100.2</ele></trkpt>
    <trkpt lat="48.67779" lon="2.74598"><ele>100.5</ele></trkpt>
    <trkpt lat="48.67824" lon="2.74513"><ele>100.6</ele></trkpt>
    <trkpt lat="48.67911" lon="2.74374"><ele>100.3</ele></trkpt>
    <trkpt lat="48.6832" lon="2.74031"><ele>101.7</ele></trkpt>
    <trkpt lat="48.68353" lon="2.74012"><ele>101.8</ele></trkpt>
    <trkpt lat="48.68389" lon="2.74004"><ele>101.8</ele></trkpt>
    <trkpt lat="48.68766" lon="2.74007"><ele>105.3</ele></trkpt>
    <trkpt lat="48.69468" lon="2.73997"><ele>100.2</ele></trkpt>
    <trkpt lat="48.7026" lon="2.74895"><ele>81.6</ele></trkpt>
    <trkpt lat="48.70277" lon="2.74899"><ele>82.1</ele></trkpt>
    <trkpt lat="48.70295" lon="2.74894"><ele>82.7</ele></trkpt>
    <trkpt lat="48.70381" lon="2.74856"><ele>88.2</ele></trkpt>
    <trkpt lat="48.70416" lon="2.74858"><ele>90.8</ele></trkpt>
    <trkpt lat="48.70426" lon="2.74879"><ele>92.0</ele></trkpt>
    <trkpt lat="48.70433" lon="2.7496"><ele>95.2</ele></trkpt>
    <trkpt lat="48.70439" lon="2.74986"><ele>96.3</ele></trkpt>
    <trkpt lat="48.7049" lon="2.75097"><ele>100.7</ele></trkpt>
    <trkpt lat="48.70515" lon="2.75136"><ele>101.6</ele></trkpt>
    <trkpt lat="48.70698" lon="2.75252"><ele>102.6</ele></trkpt>
    <trkpt lat="48.70859" lon="2.75372"><ele>103.9</ele></trkpt>
    <trkpt lat="48.7092" lon="2.7543"><ele>105.2</ele></trkpt>
    <trkpt lat="48.70944" lon="2.75467"><ele>105.8</ele></trkpt>
    <trkpt lat="48.70959" lon="2.75458"><ele>106.0</ele></trkpt>
    <trkpt lat="48.70982" lon="2.75418"><ele>106.3</ele></trkpt>
    <trkpt lat="48.71024" lon="2.75368"><ele>105.9</ele></trkpt>
    <trkpt lat="48.71057" lon="2.75348"><ele>104.9</ele></trkpt>
    <trkpt lat="48.71067" lon="2.75331"><ele>103.9</ele></trkpt>
    <trkpt lat="48.71089" lon="2.75257"><ele>100.1</ele></trkpt>
    <trkpt lat="48.71283" lon="2.74936"><ele>82.9</ele></trkpt>
    <trkpt lat="48.71377" lon="2.74809"><ele>81.9</ele></trkpt>
    <trkpt lat="48.71459" lon="2.74664"><ele>82.9</ele></trkpt>
    <trkpt lat="48.71544" lon="2.74488"><ele>88.5</ele></trkpt>
    <trkpt lat="48.71557" lon="2.74437"><ele>90.4</ele></trkpt>
    <trkpt lat="48.71586" lon="2.74252"><ele>94.8</ele></trkpt>
    <trkpt lat="48.7159" lon="2.74198"><ele>95.8</ele></trkpt>
    <trkpt lat="48.71583" lon="2.7415"><ele>96.4</ele></trkpt>
    <trkpt lat="48.7161" lon="2.7402"><ele>96.8</ele></trkpt>
    <trkpt lat="48.71624" lon="2.73858"><ele>97.0</ele></trkpt>
    <trkpt lat="48.71634" lon="2.73844"><ele>96.8</ele></trkpt>
    <trkpt lat="48.71758" lon="2.73879"><ele>93.3</ele></trkpt>
    <trkpt lat="48.71794" lon="2.73875"><ele>92.3</ele></trkpt>
    <trkpt lat="48.71864" lon="2.73851"><ele>91.9</ele></trkpt>
    <trkpt lat="48.72043" lon="2.73868"><ele>96.0</ele></trkpt>
    <trkpt lat="48.72097" lon="2.7387"><ele>96.1</ele></trkpt>
    <trkpt lat="48.72169" lon="2.73861"><ele>95.5</ele></trkpt>
    <trkpt lat="48.72258" lon="2.73881"><ele>94.1</ele></trkpt>
    <trkpt lat="48.72833" lon="2.73895"><ele>101.9</ele></trkpt>
    <trkpt lat="48.72959" lon="2.73907"><ele>102.2</ele></trkpt>
    <trkpt lat="48.73131" lon="2.73941"><ele>102.8</ele></trkpt>
    <trkpt lat="48.73145" lon="2.73934"><ele>102.8</ele></trkpt>
    <trkpt lat="48.73199" lon="2.73944"><ele>103.0</ele></trkpt>
    <trkpt lat="48.73251" lon="2.73927"><ele>103.5</ele></trkpt>
    <trkpt lat="48.73404" lon="2.73784"><ele>105.3</ele></trkpt>
    <trkpt lat="48.73456" lon="2.73762"><ele>105.6</ele></trkpt>
    <trkpt lat="48.73617" lon="2.73736"><ele>105.5</ele></trkpt>
    <trkpt lat="48.73653" lon="2.73735"><ele>105.2</ele></trkpt>
    <trkpt lat="48.73705" lon="2.73754"><ele>104.9</ele></trkpt>
    <trkpt lat="48.73784" lon="2.73807"><ele>104.8</ele></trkpt>
    <trkpt lat="48.73859" lon="2.73694"><ele>105.2</ele></trkpt>
    <trkpt lat="48.73875" lon="2.73686"><ele>105.2</ele></trkpt>
    <trkpt lat="48.73887" lon="2.73704"><ele>105.1</ele></trkpt>
    <trkpt lat="48.73926" lon="2.73796"><ele>104.1</ele></trkpt>
    <trkpt lat="48.73972" lon="2.7388"><ele>102.0</ele></trkpt>
    <trkpt lat="48.74019" lon="2.73917"><ele>100.8</ele></trkpt>
    <trkpt lat="48.74051" lon="2.73893"><ele>100.8</ele></trkpt>
    <trkpt lat="48.74068" lon="2.73887"><ele>101.0</ele></trkpt>
    <trkpt lat="48.74085" lon="2.73895"><ele>101.3</ele></trkpt>
    <trkpt lat="48.74238" lon="2.74039"><ele>106.5</ele></trkpt>
    <trkpt lat="48.74356" lon="2.74162"><ele>107.5</ele></trkpt>
    <trkpt lat="48.7436" lon="2.7438"><ele>107.3</ele></trkpt>
    <trkpt lat="48.74354" lon="2.74489"><ele>107.2</ele></trkpt>
    <trkpt lat="48.74335" lon="2.74705"><ele>107.7</ele></trkpt>
    <trkpt lat="48.74272" lon="2.74931"><ele>108.2</ele></trkpt>
    <trkpt lat="48.74259" lon="2.7501"><ele>108.1</ele></trkpt>
    <trkpt lat="48.74228" lon="2.75109"><ele>108.0</ele></trkpt>
    <trkpt lat="48.74414" lon="2.75275"><ele>108.6</ele></trkpt>
    <trkpt lat="48.74429" lon="2.7529"><ele>108.6</ele></trkpt>
    <trkpt lat="48.74442" lon="2.75326"><ele>108.3</ele></trkpt>
    <trkpt lat="48.74459" lon="2.7532"><ele>108.2</ele></trkpt>
    <trkpt lat="48.74475" lon="2.7533"><ele>108.1</ele></trkpt>
    <trkpt lat="48.74598" lon="2.75441"><ele>107.8</ele></trkpt>
    <trkpt lat="48.74623" lon="2.7548"><ele>107.8</ele></trkpt>
    <trkpt lat="48.74641" lon="2.75527"><ele>107.8</ele></trkpt>
    <trkpt lat="48.74649" lon="2.7558"><ele>107.7</ele></trkpt>
    <trkpt lat="48.74649" lon="2.75627"><ele>107.4</ele></trkpt>
    <trkpt lat="48.74657" lon="2.75646"><ele>107.2</ele></trkpt>
    <trkpt lat="48.74676" lon="2.75807"><ele>107.0</ele></trkpt>
    <trkpt lat="48.74675" lon="2.75835"><ele>106.9</ele></trkpt>
    <trkpt lat="48.74598" lon="2.76339"><ele>104.1</ele></trkpt>
    <trkpt lat="48.74593" lon="2.76365"><ele>104.0</ele></trkpt>
    <trkpt lat="48.74581" lon="2.76379"><ele>103.9</ele></trkpt>
    <trkpt lat="48.74593" lon="2.76394"><ele>103.8</ele></trkpt>
    <trkpt lat="48.74627" lon="2.76404"><ele>103.6</ele></trkpt>
    <trkpt lat="48.75278" lon="2.76723"><ele>102.0</ele></trkpt>
    <trkpt lat="48.7554" lon="2.769"><ele>108.6</ele></trkpt>
    <trkpt lat="48.76137" lon="2.77282"><ele>101.9</ele></trkpt>
    <trkpt lat="48.76198" lon="2.77339"><ele>100.3</ele></trkpt>
    <trkpt lat="48.76247" lon="2.77419"><ele>100.8</ele></trkpt>
    <trkpt lat="48.76264" lon="2.77426"><ele>101.1</ele></trkpt>
    <trkpt lat="48.76294" lon="2.77398"><ele>101.6</ele></trkpt>
    <trkpt lat="48.76311" lon="2.77399"><ele>101.8</ele></trkpt>
    <trkpt lat="48.76326" lon="2.77412"><ele>101.8</ele></trkpt>
    <trkpt lat="48.76346" lon="2.77458"><ele>101.7</ele></trkpt>
    <trkpt lat="48.76346" lon="2.77512"><ele>101.6</ele></trkpt>
    <trkpt lat="48.76352" lon="2.77538"><ele>101.6</ele></trkpt>
    <trkpt lat="48.76365" lon="2.77552"><ele>101.8</ele></trkpt>
    <trkpt lat="48.76434" lon="2.77525"><ele>103.1</ele></trkpt>
    <trkpt lat="48.76559" lon="2.77548"><ele>104.7</ele></trkpt>
    <trkpt lat="48.76721" lon="2.77542"><ele>105.9</ele></trkpt>
    <trkpt lat="48.76971" lon="2.77588"><ele>108.0</ele></trkpt>
    <trkpt lat="48.77042" lon="2.77577"><ele>108.9</ele></trkpt>
    <trkpt lat="48.77181" lon="2.77518"><ele>110.8</ele></trkpt>
    <trkpt lat="48.77199" lon="2.77518"><ele>110.9</ele></trkpt>
    <trkpt lat="48.77215" lon="2.7753"><ele>110.9</ele></trkpt>
    <trkpt lat="48.77391" lon="2.7772"><ele>107.9</ele></trkpt>
    <trkpt lat="48.77498" lon="2.7782"><ele>109.3</ele></trkpt>
    <trkpt lat="48.77549" lon="2.77846"><ele>109.5</ele></trkpt>
    <trkpt lat="48.77674" lon="2.77855"><ele>109.5</ele></trkpt>
    <trkpt lat="48.77728" lon="2.77846"><ele>109.6</ele></trkpt>
    <trkpt lat="48.77763" lon="2.77832"><ele>109.9</ele></trkpt>
    <trkpt lat="48.77839" lon="2.77761"><ele>111.0</ele></trkpt>
    <trkpt lat="48.77985" lon="2.77655"><ele>110.9</ele></trkpt>
    <trkpt lat="48.78353" lon="2.77369"><ele>113.7</ele></trkpt>
    <trkpt lat="48.78409" lon="2.77313"><ele>114.2</ele></trkpt>
    <trkpt lat="48.7843" lon="2.77269"><ele>113.9</ele></trkpt>
    <trkpt lat="48.78445" lon="2.7722"><ele>113.6</ele></trkpt>
    <trkpt lat="48.78492" lon="2.77138"><ele>113.2</ele></trkpt>
    <trkpt lat="48.78526" lon="2.77117"><ele>113.1</ele></trkpt>
    <trkpt lat="48.78594" lon="2.77085"><ele>113.2</ele></trkpt>
    <trkpt lat="48.78734" lon="2.77035"><ele>113.5</ele></trkpt>
    <trkpt lat="48.78765" lon="2.77007"><ele>113.4</ele></trkpt>
    <trkpt lat="48.78821" lon="2.76939"><ele>112.9</ele></trkpt>
    <trkpt lat="48.78873" lon="2.76916"><ele>113.2</ele></trkpt>
    <trkpt lat="48.7889" lon="2.76911"><ele>113.3</ele></trkpt>
    <trkpt lat="48.79034" lon="2.76919"><ele>114.3</ele></trkpt>
    <trkpt lat="48.7916" lon="2.76909"><ele>115.6</ele></trkpt>
    <trkpt lat="48.79247" lon="2.76878"><ele>115.7</ele></trkpt>
    <trkpt lat="48.79367" lon="2.76818"><ele>116.1</ele></trkpt>
    <trkpt lat="48.79523" lon="2.76685"><ele>116.5</ele></trkpt>
    <trkpt lat="48.79686" lon="2.7647"><ele>116.0</ele></trkpt>
    <trkpt lat="48.7972" lon="2.76407"><ele>116.3</ele></trkpt>
    <trkpt lat="48.79747" lon="2.76306"><ele>116.3</ele></trkpt>
    <trkpt lat="48.79765" lon="2.76259"><ele>116.3</ele></trkpt>
    <trkpt lat="48.79789" lon="2.76218"><ele>116.3</ele></trkpt>
    <trkpt lat="48.79856" lon="2.76127"><ele>116.6</ele></trkpt>
    <trkpt lat="48.79886" lon="2.76097"><ele>116.7</ele></trkpt>
    <trkpt lat="48.80099" lon="2.76046"><ele>117.9</ele></trkpt>
    <trkpt lat="48.80135" lon="2.76042"><ele>118.2</ele></trkpt>
    <trkpt lat="48.80188" lon="2.76054"><ele>118.7</ele></trkpt>
    <trkpt lat="48.80311" lon="2.76096"><ele>119.7</ele></trkpt>
    <trkpt lat="48.80346" lon="2.7609"><ele>119.7</ele></trkpt>
    <trkpt lat="48.80592" lon="2.75923"><ele>124.9</ele></trkpt>
    <trkpt lat="48.80643" lon="2.75895"><ele>125.7</ele></trkpt>
    <trkpt lat="48.80705" lon="2.75843"><ele>125.0</ele></trkpt>
    <trkpt lat="48.80842" lon="2.75777"><ele>121.4</ele></trkpt>
    <trkpt lat="48.81147" lon="2.75611"><ele>122.5</ele></trkpt>
    <trkpt lat="48.81303" lon="2.75542"><ele>123.8</ele></trkpt>
    <trkpt lat="48.81443" lon="2.75589"><ele>124.6</ele></trkpt>
    <trkpt lat="48.81732" lon="2.75742"><ele>122.9</ele></trkpt>
    <trkpt lat="48.81767" lon="2.75751"><ele>123.2</ele></trkpt>
    <trkpt lat="48.81785" lon="2.7575"><ele>123.3</ele></trkpt>
    <trkpt lat="48.81835" lon="2.75722"><ele>123.9</ele></trkpt>
    <trkpt lat="48.82082" lon="2.75556"><ele>125.9</ele></trkpt>
    <trkpt lat="48.8227" lon="2.75464"><ele>127.3</ele></trkpt>
    <trkpt lat="48.82769" lon="2.75564"><ele>133.8</ele></trkpt>
    <trkpt lat="48.82895" lon="2.75579"><ele>133.5</ele></trkpt>
    <trkpt lat="48.82949" lon="2.75576"><ele>133.1</ele></trkpt>
    <trkpt lat="48.83125" lon="2.75523"><ele>128.6</ele></trkpt>
    <trkpt lat="48.83195" lon="2.75494"><ele>126.1</ele></trkpt>
    <trkpt lat="48.83406" lon="2.75342"><ele>125.4</ele></trkpt>
    <trkpt lat="48.83439" lon="2.75324"><ele>125.6</ele></trkpt>
    <trkpt lat="48.83726" lon="2.75291"><ele>127.6</ele></trkpt>
    <trkpt lat="48.83941" lon="2.75302"><ele>126.0</ele></trkpt>
    <trkpt lat="48.83994" lon="2.75292"><ele>125.5</ele></trkpt>
    <trkpt lat="48.84123" lon="2.75197"><ele>124.3</ele></trkpt>
    <trkpt lat="48.84247" lon="2.75086"><ele>123.0</ele></trkpt>
    <trkpt lat="48.84361" lon="2.75006"><ele>122.1</ele></trkpt>
    <trkpt lat="48.84372" lon="2.74984"><ele>122.0</ele></trkpt>
    <trkpt lat="48.84496" lon="2.7456"><ele>121.2</ele></trkpt>
    <trkpt lat="48.84508" lon="2.7454"><ele>121.0</ele></trkpt>
    <trkpt lat="48.84525" lon="2.74534"><ele>120.8</ele></trkpt>
    <trkpt lat="48.84538" lon="2.74516"><ele>120.5</ele></trkpt>
    <trkpt lat="48.84542" lon="2.7449"><ele>120.1</ele></trkpt>
    <trkpt lat="48.84533" lon="2.74438"><ele>119.4</ele></trkpt>
    <trkpt lat="48.84562" lon="2.74338"><ele>117.9</ele></trkpt>
    <trkpt lat="48.84624" lon="2.74172"><ele>115.1</ele></trkpt>
    <trkpt lat="48.84836" lon="2.73632"><ele>108.2</ele></trkpt>
    <trkpt lat="48.84873" lon="2.73572"><ele>107.4</ele></trkpt>
    <trkpt lat="48.84945" lon="2.73491"><ele>106.4</ele></trkpt>
    <trkpt lat="48.84957" lon="2.7347"><ele>106.2</ele></trkpt>
    <trkpt lat="48.8497" lon="2.73422"><ele>105.8</ele></trkpt>
    <trkpt lat="48.84985" lon="2.73411"><ele>105.7</ele></trkpt>
    <trkpt lat="48.85219" lon="2.72496"><ele>111.9</ele></trkpt>
    <trkpt lat="48.85232" lon="2.72389"><ele>111.5</ele></trkpt>
    <trkpt lat="48.85244" lon="2.71897"><ele>112.4</ele></trkpt>
    <trkpt lat="48.85238" lon="2.71816"><ele>112.1</ele></trkpt>
    <trkpt lat="48.8524" lon="2.71789"><ele>111.8</ele></trkpt>
    <trkpt lat="48.85248" lon="2.71765"><ele>111.5</ele></trkpt>
    <trkpt lat="48.85244" lon="2.7174"><ele>111.2</ele></trkpt>
    <trkpt lat="48.85251" lon="2.71659"><ele>110.0</ele></trkpt>
    <trkpt lat="48.85261" lon="2.71413"><ele>107.2</ele></trkpt>
    <trkpt lat="48.85279" lon="2.71367"><ele>106.2</ele></trkpt>
    <trkpt lat="48.85377" lon="2.71207"><ele>101.0</ele></trkpt>
    <trkpt lat="48.85395" lon="2.71161"><ele>100.0</ele></trkpt>
    <trkpt lat="48.85458" lon="2.70595"><ele>98.4</ele></trkpt>
    <trkpt lat="48.85484" lon="2.70436"><ele>98.2</ele></trkpt>
    <trkpt lat="48.85496" lon="2.70328"><ele>98.0</ele></trkpt>
    <trkpt lat="48.85503" lon="2.7011"><ele>96.7</ele></trkpt>
    <trkpt lat="48.85529" lon="2.69895"><ele>92.1</ele></trkpt>
    <trkpt lat="48.85527" lon="2.69841"><ele>91.6</ele></trkpt>
    <trkpt lat="48.85395" lon="2.69074"><ele>81.0</ele></trkpt>
    <trkpt lat="48.85356" lon="2.68922"><ele>78.2</ele></trkpt>
    <trkpt lat="48.8531" lon="2.68773"><ele>74.3</ele></trkpt>
    <trkpt lat="48.85283" lon="2.68702"><ele>72.6</ele></trkpt>
    <trkpt lat="48.85246" lon="2.68643"><ele>70.8</ele></trkpt>
    <trkpt lat="48.85175" lon="2.68559"><ele>67.7</ele></trkpt>
    <trkpt lat="48.85144" lon="2.68532"><ele>66.5</ele></trkpt>
    <trkpt lat="48.85109" lon="2.68518"><ele>65.3</ele></trkpt>
    <trkpt lat="48.84984" lon="2.68506"><ele>59.7</ele></trkpt>
    <trkpt lat="48.84952" lon="2.68482"><ele>58.3</ele></trkpt>
    <trkpt lat="48.84938" lon="2.68465"><ele>57.7</ele></trkpt>
    <trkpt lat="48.84931" lon="2.6844"><ele>57.3</ele></trkpt>
    <trkpt lat="48.84906" lon="2.68309"><ele>55.9</ele></trkpt>
    <trkpt lat="48.84903" lon="2.68282"><ele>55.8</ele></trkpt>
    <trkpt lat="48.84967" lon="2.67744"><ele>65.3</ele></trkpt>
    <trkpt lat="48.85006" lon="2.67394"><ele>69.9</ele></trkpt>
    <trkpt lat="48.85011" lon="2.67312"><ele>69.6</ele></trkpt>
    <trkpt lat="48.85035" lon="2.66466"><ele>86.5</ele></trkpt>
    <trkpt lat="48.85013" lon="2.66278"><ele>91.3</ele></trkpt>
    <trkpt lat="48.85003" lon="2.66261"><ele>91.6</ele></trkpt>
    <trkpt lat="48.84968" lon="2.66259"><ele>92.0</ele></trkpt>
    <trkpt lat="48.84934" lon="2.66278"><ele>92.5</ele></trkpt>
    <trkpt lat="48.84776" lon="2.66329"><ele>94.5</ele></trkpt>
    <trkpt lat="48.84742" lon="2.66346"><ele>94.8</ele></trkpt>
    <trkpt lat="48.84528" lon="2.66596"><ele>94.4</ele></trkpt>
    <trkpt lat="48.84469" lon="2.66658"><ele>95.5</ele></trkpt>
    <trkpt lat="48.84436" lon="2.66679"><ele>96.4</ele></trkpt>
    <trkpt lat="48.84263" lon="2.66755"><ele>101.1</ele></trkpt>
    <trkpt lat="48.84245" lon="2.66752"><ele>101.2</ele></trkpt>
    <trkpt lat="48.84232" lon="2.66735"><ele>101.5</ele></trkpt>
    <trkpt lat="48.84215" lon="2.6673"><ele>101.7</ele></trkpt>
    <trkpt lat="48.84198" lon="2.66739"><ele>102.0</ele></trkpt>
    <trkpt lat="48.8418" lon="2.66786"><ele>102.6</ele></trkpt>
    <trkpt lat="48.84165" lon="2.66799"><ele>102.8</ele></trkpt>
    <trkpt lat="48.84113" lon="2.66822"><ele>103.1</ele></trkpt>
    <trkpt lat="48.84098" lon="2.66812"><ele>102.9</ele></trkpt>
    <trkpt lat="48.84094" lon="2.66786"><ele>102.8</ele></trkpt>
    <trkpt lat="48.84089" lon="2.66704"><ele>102.4</ele></trkpt>
    <trkpt lat="48.84057" lon="2.6652"><ele>100.1</ele></trkpt>
    <trkpt lat="48.84047" lon="2.66357"><ele>99.6</ele></trkpt>
    <trkpt lat="48.84042" lon="2.66331"><ele>99.9</ele></trkpt>
    <trkpt lat="48.84017" lon="2.66293"><ele>100.4</ele></trkpt>
    <trkpt lat="48.84019" lon="2.66271"><ele>100.5</ele></trkpt>
    <trkpt lat="48.83966" lon="2.65848"><ele>100.1</ele></trkpt>
    <trkpt lat="48.83949" lon="2.65857"><ele>99.8</ele></trkpt>
    <trkpt lat="48.83919" lon="2.65832"><ele>99.2</ele></trkpt>
    <trkpt lat="48.83883" lon="2.65828"><ele>98.7</ele></trkpt>
    <trkpt lat="48.838" lon="2.65881"><ele>98.4</ele></trkpt>
    <trkpt lat="48.83656" lon="2.65994"><ele>100.1</ele></trkpt>
    <trkpt lat="48.83623" lon="2.66013"><ele>100.6</ele></trkpt>
    <trkpt lat="48.83518" lon="2.66055"><ele>101.0</ele></trkpt>
    <trkpt lat="48.83505" lon="2.66048"><ele>100.7</ele></trkpt>
    <trkpt lat="48.83474" lon="2.6595"><ele>98.3</ele></trkpt>
    <trkpt lat="48.83423" lon="2.65928"><ele>96.1</ele></trkpt>
    <trkpt lat="48.83407" lon="2.65916"><ele>95.2</ele></trkpt>
    <trkpt lat="48.834" lon="2.65899"><ele>94.4</ele></trkpt>
    <trkpt lat="48.83334" lon="2.65855"><ele>90.2</ele></trkpt>
    <trkpt lat="48.83281" lon="2.65845"><ele>88.6</ele></trkpt>
    <trkpt lat="48.83191" lon="2.65845"><ele>89.8</ele></trkpt>
    <trkpt lat="48.83158" lon="2.65824"><ele>90.8</ele></trkpt>
    <trkpt lat="48.83064" lon="2.65745"><ele>93.1</ele></trkpt>
    <trkpt lat="48.83051" lon="2.65727"><ele>93.1</ele></trkpt>
    <trkpt lat="48.8305" lon="2.657"><ele>93.2</ele></trkpt>
    <trkpt lat="48.83098" lon="2.65553"><ele>94.3</ele></trkpt>
    <trkpt lat="48.83101" lon="2.65526"><ele>94.4</ele></trkpt>
    <trkpt lat="48.83081" lon="2.65365"><ele>96.5</ele></trkpt>
    <trkpt lat="48.8308" lon="2.65038"><ele>99.7</ele></trkpt>
    <trkpt lat="48.8307" lon="2.64986"><ele>99.8</ele></trkpt>
    <trkpt lat="48.83044" lon="2.64914"><ele>100.1</ele></trkpt>
    <trkpt lat="48.8282" lon="2.64487"><ele>102.6</ele></trkpt>
    <trkpt lat="48.82812" lon="2.64463"><ele>102.8</ele></trkpt>
    <trkpt lat="48.82779" lon="2.64422"><ele>103.1</ele></trkpt>
    <trkpt lat="48.8275" lon="2.64415"><ele>103.3</ele></trkpt>
    <trkpt lat="48.82703" lon="2.64333"><ele>103.8</ele></trkpt>
    <trkpt lat="48.82675" lon="2.64299"><ele>104.1</ele></trkpt>
    <trkpt lat="48.82643" lon="2.64273"><ele>104.3</ele></trkpt>
    <trkpt lat="48.82592" lon="2.64246"><ele>104.4</ele></trkpt>
    <trkpt lat="48.82363" lon="2.64178"><ele>104.5</ele></trkpt>
    <trkpt lat="48.82347" lon="2.64167"><ele>104.6</ele></trkpt>
    <trkpt lat="48.82338" lon="2.64144"><ele>104.6</ele></trkpt>
    <trkpt lat="48.82337" lon="2.64119"><ele>104.6</ele></trkpt>
    <trkpt lat="48.82351" lon="2.64101"><ele>104.7</ele></trkpt>
    <trkpt lat="48.82356" lon="2.64075"><ele>104.7</ele></trkpt>
    <trkpt lat="48.82356" lon="2.64049"><ele>104.8</ele></trkpt>
    <trkpt lat="48.82347" lon="2.64025"><ele>104.8</ele></trkpt>
    <trkpt lat="48.82322" lon="2.63987"><ele>105.0</ele></trkpt>
    <trkpt lat="48.82316" lon="2.63962"><ele>105.1</ele></trkpt>
    <trkpt lat="48.82315" lon="2.63935"><ele>105.1</ele></trkpt>
    <trkpt lat="48.82478" lon="2.63154"><ele>106.0</ele></trkpt>
    <trkpt lat="48.82496" lon="2.6302"><ele>106.6</ele></trkpt>
    <trkpt lat="48.82496" lon="2.62885"><ele>107.0</ele></trkpt>
    <trkpt lat="48.82463" lon="2.6245"><ele>108.6</ele></trkpt>
    <trkpt lat="48.82467" lon="2.62432"><ele>108.6</ele></trkpt>
    <trkpt lat="48.82435" lon="2.62052"><ele>108.0</ele></trkpt>
    <trkpt lat="48.82426" lon="2.62005"><ele>107.8</ele></trkpt>
    <trkpt lat="48.82416" lon="2.61897"><ele>107.6</ele></trkpt>
    <trkpt lat="48.82406" lon="2.61845"><ele>107.4</ele></trkpt>
    <trkpt lat="48.82358" lon="2.61668"><ele>106.6</ele></trkpt>
    <trkpt lat="48.82361" lon="2.61616"><ele>106.4</ele></trkpt>
    <trkpt lat="48.82335" lon="2.61579"><ele>106.2</ele></trkpt>
    <trkpt lat="48.82297" lon="2.61486"><ele>106.0</ele></trkpt>
    <trkpt lat="48.82258" lon="2.61431"><ele>106.1</ele></trkpt>
    <trkpt lat="48.82226" lon="2.61407"><ele>106.2</ele></trkpt>
    <trkpt lat="48.82191" lon="2.61396"><ele>106.4</ele></trkpt>
    <trkpt lat="48.82085" lon="2.6141"><ele>107.2</ele></trkpt>
    <trkpt lat="48.82077" lon="2.61387"><ele>107.2</ele></trkpt>
    <trkpt lat="48.82076" lon="2.6136"><ele>107.1</ele></trkpt>
    <trkpt lat="48.82087" lon="2.61339"><ele>107.0</ele></trkpt>
    <trkpt lat="48.82105" lon="2.61332"><ele>107.0</ele></trkpt>
    <trkpt lat="48.82139" lon="2.61344"><ele>106.9</ele></trkpt>
    <trkpt lat="48.82263" lon="2.61309"><ele>107.4</ele></trkpt>
    <trkpt lat="48.82371" lon="2.61295"><ele>107.9</ele></trkpt>
    <trkpt lat="48.82422" lon="2.61273"><ele>108.2</ele></trkpt>
    <trkpt lat="48.82877" lon="2.60885"><ele>103.4</ele></trkpt>
    <trkpt lat="48.8293" lon="2.60812"><ele>102.5</ele></trkpt>
    <trkpt lat="48.82961" lon="2.60745"><ele>101.8</ele></trkpt>
    <trkpt lat="48.8298" lon="2.60669"><ele>101.2</ele></trkpt>
    <trkpt lat="48.83127" lon="2.59767"><ele>95.5</ele></trkpt>
    <trkpt lat="48.83151" lon="2.59693"><ele>92.8</ele></trkpt>
    <trkpt lat="48.83234" lon="2.59516"><ele>89.5</ele></trkpt>
    <trkpt lat="48.8326" lon="2.59415"><ele>88.9</ele></trkpt>
    <trkpt lat="48.83266" lon="2.59333"><ele>89.0</ele></trkpt>
    <trkpt lat="48.83265" lon="2.59279"><ele>89.3</ele></trkpt>
    <trkpt lat="48.83249" lon="2.59173"><ele>90.6</ele></trkpt>
    <trkpt lat="48.83213" lon="2.59078"><ele>93.1</ele></trkpt>
    <trkpt lat="48.83131" lon="2.58934"><ele>96.9</ele></trkpt>
    <trkpt lat="48.83136" lon="2.58911"><ele>97.2</ele></trkpt>
    <trkpt lat="48.83133" lon="2.58886"><ele>97.5</ele></trkpt>
    <trkpt lat="48.83118" lon="2.58872"><ele>97.8</ele></trkpt>
    <trkpt lat="48.83103" lon="2.58872"><ele>98.0</ele></trkpt>
    <trkpt lat="48.8308" lon="2.58769"><ele>98.6</ele></trkpt>
    <trkpt lat="48.83071" lon="2.58634"><ele>98.8</ele></trkpt>
    <trkpt lat="48.83034" lon="2.58541"><ele>98.9</ele></trkpt>
    <trkpt lat="48.8303" lon="2.58515"><ele>98.9</ele></trkpt>
    <trkpt lat="48.83013" lon="2.58353"><ele>98.7</ele></trkpt>
    <trkpt lat="48.82978" lon="2.57864"><ele>98.5</ele></trkpt>
    <trkpt lat="48.8291" lon="2.56803"><ele>98.7</ele></trkpt>
    <trkpt lat="48.82923" lon="2.56668"><ele>97.9</ele></trkpt>
    <trkpt lat="48.82948" lon="2.56481"><ele>96.0</ele></trkpt>
    <trkpt lat="48.83008" lon="2.56137"><ele>94.6</ele></trkpt>
    <trkpt lat="48.83007" lon="2.55892"><ele>94.9</ele></trkpt>
    <trkpt lat="48.83182" lon="2.55761"><ele>96.6</ele></trkpt>
    <trkpt lat="48.83198" lon="2.55766"><ele>96.8</ele></trkpt>
    <trkpt lat="48.8321" lon="2.55749"><ele>97.1</ele></trkpt>
    <trkpt lat="48.83202" lon="2.55704"><ele>97.6</ele></trkpt>
    <trkpt lat="48.83243" lon="2.55272"><ele>99.4</ele></trkpt>
    <trkpt lat="48.83251" lon="2.55252"><ele>99.2</ele></trkpt>
    <trkpt lat="48.83264" lon="2.55237"><ele>99.1</ele></trkpt>
    <trkpt lat="48.83269" lon="2.55211"><ele>98.9</ele></trkpt>
    <trkpt lat="48.8328" lon="2.55191"><ele>98.7</ele></trkpt>
    <trkpt lat="48.83484" lon="2.54922"><ele>96.0</ele></trkpt>
    <trkpt lat="48.835" lon="2.54911"><ele>95.9</ele></trkpt>
    <trkpt lat="48.83501" lon="2.5462"><ele>95.6</ele></trkpt>
    <trkpt lat="48.8351" lon="2.54567"><ele>96.0</ele></trkpt>
    <trkpt lat="48.83537" lon="2.54466"><ele>96.9</ele></trkpt>
    <trkpt lat="48.8354" lon="2.5433"><ele>97.7</ele></trkpt>
    <trkpt lat="48.83552" lon="2.54309"><ele>97.7</ele></trkpt>
    <trkpt lat="48.83557" lon="2.54284"><ele>97.6</ele></trkpt>
    <trkpt lat="48.83541" lon="2.54238"><ele>97.3</ele></trkpt>
    <trkpt lat="48.83535" lon="2.54074"><ele>96.0</ele></trkpt>
    <trkpt lat="48.83526" lon="2.54021"><ele>95.8</ele></trkpt>
    <trkpt lat="48.83505" lon="2.53946"><ele>96.1</ele></trkpt>
    <trkpt lat="48.83365" lon="2.53628"><ele>96.7</ele></trkpt>
    <trkpt lat="48.83286" lon="2.53479"><ele>95.5</ele></trkpt>
    <trkpt lat="48.83202" lon="2.53338"><ele>94.9</ele></trkpt>
    <trkpt lat="48.83204" lon="2.53312"><ele>94.9</ele></trkpt>
    <trkpt lat="48.83254" lon="2.53137"><ele>96.0</ele></trkpt>
    <trkpt lat="48.83245" lon="2.53115"><ele>96.1</ele></trkpt>
    <trkpt lat="48.83059" lon="2.52819"><ele>97.0</ele></trkpt>
    <trkpt lat="48.82825" lon="2.5248"><ele>87.5</ele></trkpt>
    <trkpt lat="48.82779" lon="2.52395"><ele>86.3</ele></trkpt>
    <trkpt lat="48.82763" lon="2.52347"><ele>86.1</ele></trkpt>
    <trkpt lat="48.82743" lon="2.52242"><ele>85.5</ele></trkpt>
    <trkpt lat="48.82706" lon="2.51864"><ele>76.7</ele></trkpt>
    <trkpt lat="48.82709" lon="2.51782"><ele>74.0</ele></trkpt>
    <trkpt lat="48.8272" lon="2.51674"><ele>71.7</ele></trkpt>
    <trkpt lat="48.82718" lon="2.51456"><ele>68.4</ele></trkpt>
    <trkpt lat="48.82731" lon="2.51183"><ele>65.6</ele></trkpt>
    <trkpt lat="48.82736" lon="2.51129"><ele>64.9</ele></trkpt>
    <trkpt lat="48.82754" lon="2.51024"><ele>63.2</ele></trkpt>
    <trkpt lat="48.82745" lon="2.50944"><ele>62.5</ele></trkpt>
    <trkpt lat="48.82729" lon="2.50865"><ele>62.2</ele></trkpt>
    <trkpt lat="48.82664" lon="2.5064"><ele>59.3</ele></trkpt>
    <trkpt lat="48.82493" lon="2.50068"><ele>53.2</ele></trkpt>
    <trkpt lat="48.8246" lon="2.49971"><ele>51.3</ele></trkpt>
    <trkpt lat="48.82107" lon="2.48774"><ele>42.8</ele></trkpt>
    <trkpt lat="48.82049" lon="2.48574"><ele>42.5</ele></trkpt>
    <trkpt lat="48.8204" lon="2.48522"><ele>42.6</ele></trkpt>
    <trkpt lat="48.82026" lon="2.48517"><ele>42.6</ele></trkpt>
    <trkpt lat="48.82008" lon="2.4844"><ele>43.0</ele></trkpt>
    <trkpt lat="48.81996" lon="2.48431"><ele>43.1</ele></trkpt>
    <trkpt lat="48.81975" lon="2.48507"><ele>43.2</ele></trkpt>
    <trkpt lat="48.81909" lon="2.48818"><ele>43.0</ele></trkpt>
    <trkpt lat="48.81892" lon="2.48866"><ele>43.1</ele></trkpt>
    <trkpt lat="48.81837" lon="2.49126"><ele>43.8</ele></trkpt>
    <trkpt lat="48.81828" lon="2.49206"><ele>43.5</ele></trkpt>
    <trkpt lat="48.8158" lon="2.50375"><ele>41.5</ele></trkpt>
    <trkpt lat="48.81457" lon="2.50801"><ele>41.9</ele></trkpt>
    <trkpt lat="48.81398" lon="2.50938"><ele>41.7</ele></trkpt>
    <trkpt lat="48.81377" lon="2.51013"><ele>41.7</ele></trkpt>
    <trkpt lat="48.81366" lon="2.51035"><ele>41.7</ele></trkpt>
    <trkpt lat="48.81346" lon="2.51111"><ele>40.8</ele></trkpt>
    <trkpt lat="48.81333" lon="2.51121"><ele>40.2</ele></trkpt>
    <trkpt lat="48.81298" lon="2.51109"><ele>38.6</ele></trkpt>
    <trkpt lat="48.81037" lon="2.51005"><ele>41.0</ele></trkpt>
  </trkseg></trk>
</gpx>
