<?xml version="1.0" encoding="UTF-8"?>
<gpx version="1.1" creator="Club Cycliste USO" xmlns="http://www.topografix.com/GPX/1/1">
  <metadata><name>Soignolles-en-Brie – 85 km</name><desc>85.4 km, D+ 421 m. Départ et arrivée : pont de Champigny.</desc></metadata>
  <trk><name>Soignolles-en-Brie – 85 km</name><trkseg>
    <trkpt lat="48.81032" lon="2.51002"><ele>42.8</ele></trkpt>
    <trkpt lat="48.80962" lon="2.50978"><ele>40.6</ele></trkpt>
    <trkpt lat="48.80948" lon="2.50985"><ele>39.9</ele></trkpt>
    <trkpt lat="48.80909" lon="2.51417"><ele>36.0</ele></trkpt>
    <trkpt lat="48.80853" lon="2.51646"><ele>35.8</ele></trkpt>
    <trkpt lat="48.80807" lon="2.51764"><ele>35.5</ele></trkpt>
    <trkpt lat="48.80747" lon="2.51865"><ele>35.3</ele></trkpt>
    <trkpt lat="48.80664" lon="2.51971"><ele>35.4</ele></trkpt>
    <trkpt lat="48.80464" lon="2.52147"><ele>35.1</ele></trkpt>
    <trkpt lat="48.80439" lon="2.52176"><ele>35.0</ele></trkpt>
    <trkpt lat="48.80421" lon="2.52175"><ele>35.0</ele></trkpt>
    <trkpt lat="48.80369" lon="2.52194"><ele>34.9</ele></trkpt>
    <trkpt lat="48.80227" lon="2.52227"><ele>34.9</ele></trkpt>
    <trkpt lat="48.80156" lon="2.52229"><ele>34.7</ele></trkpt>
    <trkpt lat="48.79995" lon="2.52199"><ele>34.9</ele></trkpt>
    <trkpt lat="48.79888" lon="2.52207"><ele>35.1</ele></trkpt>
    <trkpt lat="48.79693" lon="2.52244"><ele>35.0</ele></trkpt>
    <trkpt lat="48.79392" lon="2.52185"><ele>35.0</ele></trkpt>
    <trkpt lat="48.79375" lon="2.5219"><ele>35.1</ele></trkpt>
    <trkpt lat="48.79303" lon="2.52184"><ele>35.1</ele></trkpt>
    <trkpt lat="48.79216" lon="2.52154"><ele>35.2</ele></trkpt>
    <trkpt lat="48.792" lon="2.52143"><ele>35.2</ele></trkpt>
    <trkpt lat="48.79195" lon="2.52118"><ele>35.3</ele></trkpt>
    <trkpt lat="48.792" lon="2.52064"><ele>35.4</ele></trkpt>
    <trkpt lat="48.79189" lon="2.52044"><ele>35.4</ele></trkpt>
    <trkpt lat="48.79172" lon="2.52043"><ele>35.5</ele></trkpt>
    <trkpt lat="48.79149" lon="2.52084"><ele>35.9</ele></trkpt>
    <trkpt lat="48.79135" lon="2.52099"><ele>36.1</ele></trkpt>
    <trkpt lat="48.79101" lon="2.52086"><ele>37.6</ele></trkpt>
    <trkpt lat="48.79085" lon="2.52092"><ele>38.6</ele></trkpt>
    <trkpt lat="48.79036" lon="2.52206"><ele>40.7</ele></trkpt>
    <trkpt lat="48.79028" lon="2.52235"><ele>40.5</ele></trkpt>
    <trkpt lat="48.79091" lon="2.52102"><ele>40.4</ele></trkpt>
    <trkpt lat="48.79091" lon="2.52086"><ele>40.2</ele></trkpt>
    <trkpt lat="48.79079" lon="2.52106"><ele>40.2</ele></trkpt>
    <trkpt lat="48.79022" lon="2.52243"><ele>39.7</ele></trkpt>
    <trkpt lat="48.78744" lon="2.5205"><ele>38.3</ele></trkpt>
    <trkpt lat="48.78429" lon="2.51644"><ele>36.5</ele></trkpt>
    <trkpt lat="48.78376" lon="2.51534"><ele>36.8</ele></trkpt>
    <trkpt lat="48.78325" lon="2.51511"><ele>37.7</ele></trkpt>
    <trkpt lat="48.78133" lon="2.51263"><ele>41.4</ele></trkpt>
    <trkpt lat="48.78087" lon="2.51221"><ele>41.2</ele></trkpt>
    <trkpt lat="48.77481" lon="2.51099"><ele>41.2</ele></trkpt>
    <trkpt lat="48.77465" lon="2.51108"><ele>41.3</ele></trkpt>
    <trkpt lat="48.77452" lon="2.51094"><ele>41.4</ele></trkpt>
    <trkpt lat="48.7731" lon="2.51063"><ele>42.2</ele></trkpt>
    <trkpt lat="48.77158" lon="2.50915"><ele>40.9</ele></trkpt>
    <trkpt lat="48.77044" lon="2.50834"><ele>40.0</ele></trkpt>
    <trkpt lat="48.77009" lon="2.50823"><ele>39.9</ele></trkpt>
    <trkpt lat="48.76919" lon="2.50819"><ele>40.6</ele></trkpt>
    <trkpt lat="48.76812" lon="2.50832"><ele>42.2</ele></trkpt>
    <trkpt lat="48.76742" lon="2.50855"><ele>42.9</ele></trkpt>
    <trkpt lat="48.76622" lon="2.50912"><ele>44.1</ele></trkpt>
    <trkpt lat="48.76606" lon="2.50926"><ele>44.3</ele></trkpt>
    <trkpt lat="48.76427" lon="2.51231"><ele>48.7</ele></trkpt>
    <trkpt lat="48.76412" lon="2.51241"><ele>49.2</ele></trkpt>
    <trkpt lat="48.76406" lon="2.51262"><ele>49.8</ele></trkpt>
    <trkpt lat="48.76407" lon="2.51286"><ele>50.5</ele></trkpt>
    <trkpt lat="48.76355" lon="2.51603"><ele>56.9</ele></trkpt>
    <trkpt lat="48.76328" lon="2.51733"><ele>59.6</ele></trkpt>
    <trkpt lat="48.76293" lon="2.51887"><ele>64.6</ele></trkpt>
    <trkpt lat="48.7625" lon="2.52007"><ele>70.6</ele></trkpt>
    <trkpt lat="48.7625" lon="2.52033"><ele>71.8</ele></trkpt>
    <trkpt lat="48.76282" lon="2.52217"><ele>80.4</ele></trkpt>
    <trkpt lat="48.76349" lon="2.52378"><ele>89.4</ele></trkpt>
    <trkpt lat="48.76408" lon="2.52547"><ele>96.0</ele></trkpt>
    <trkpt lat="48.76431" lon="2.52561"><ele>96.9</ele></trkpt>
    <trkpt lat="48.76416" lon="2.52611"><ele>97.1</ele></trkpt>
    <trkpt lat="48.76414" lon="2.52638"><ele>97.2</ele></trkpt>
    <trkpt lat="48.76403" lon="2.52855"><ele>98.1</ele></trkpt>
    <trkpt lat="48.76365" lon="2.53065"><ele>98.3</ele></trkpt>
    <trkpt lat="48.76316" lon="2.53383"><ele>97.7</ele></trkpt>
    <trkpt lat="48.76301" lon="2.53511"><ele>97.9</ele></trkpt>
    <trkpt lat="48.76295" lon="2.53536"><ele>98.0</ele></trkpt>
    <trkpt lat="48.76342" lon="2.53613"><ele>98.1</ele></trkpt>
    <trkpt lat="48.76329" lon="2.53663"><ele>98.3</ele></trkpt>
    <trkpt lat="48.7631" lon="2.5371"><ele>98.4</ele></trkpt>
    <trkpt lat="48.76297" lon="2.53724"><ele>98.4</ele></trkpt>
    <trkpt lat="48.76296" lon="2.53747"><ele>98.4</ele></trkpt>
    <trkpt lat="48.76235" lon="2.53913"><ele>98.4</ele></trkpt>
    <trkpt lat="48.7623" lon="2.53939"><ele>98.4</ele></trkpt>
    <trkpt lat="48.76149" lon="2.54554"><ele>99.2</ele></trkpt>
    <trkpt lat="48.76119" lon="2.54879"><ele>100.9</ele></trkpt>
    <trkpt lat="48.76109" lon="2.54898"><ele>100.9</ele></trkpt>
    <trkpt lat="48.76093" lon="2.54907"><ele>100.8</ele></trkpt>
    <trkpt lat="48.75796" lon="2.55018"><ele>100.1</ele></trkpt>
    <trkpt lat="48.75847" lon="2.55336"><ele>101.4</ele></trkpt>
    <trkpt lat="48.75844" lon="2.55358"><ele>101.6</ele></trkpt>
    <trkpt lat="48.75832" lon="2.55378"><ele>101.7</ele></trkpt>
    <trkpt lat="48.75533" lon="2.5573"><ele>103.2</ele></trkpt>
    <trkpt lat="48.74707" lon="2.557"><ele>98.2</ele></trkpt>
    <trkpt lat="48.74653" lon="2.55694"><ele>98.3</ele></trkpt>
    <trkpt lat="48.74637" lon="2.55686"><ele>98.3</ele></trkpt>
    <trkpt lat="48.74623" lon="2.55698"><ele>98.2</ele></trkpt>
    <trkpt lat="48.74569" lon="2.55699"><ele>98.0</ele></trkpt>
    <trkpt lat="48.74516" lon="2.55691"><ele>97.9</ele></trkpt>
    <trkpt lat="48.74446" lon="2.55715"><ele>97.7</ele></trkpt>
    <trkpt lat="48.74411" lon="2.55704"><ele>97.6</ele></trkpt>
    <trkpt lat="48.74328" lon="2.55652"><ele>97.6</ele></trkpt>
    <trkpt lat="48.74314" lon="2.5564"><ele>97.6</ele></trkpt>
    <trkpt lat="48.74311" lon="2.55614"><ele>97.5</ele></trkpt>
    <trkpt lat="48.74296" lon="2.55601"><ele>97.5</ele></trkpt>
    <trkpt lat="48.74279" lon="2.55609"><ele>97.5</ele></trkpt>
    <trkpt lat="48.74273" lon="2.55634"><ele>97.5</ele></trkpt>
    <trkpt lat="48.74273" lon="2.55657"><ele>97.5</ele></trkpt>
    <trkpt lat="48.74263" lon="2.55679"><ele>97.5</ele></trkpt>
    <trkpt lat="48.74257" lon="2.5576"><ele>97.5</ele></trkpt>
    <trkpt lat="48.74242" lon="2.55838"><ele>97.5</ele></trkpt>
    <trkpt lat="48.74246" lon="2.56028"><ele>98.0</ele></trkpt>
    <trkpt lat="48.74214" lon="2.56094"><ele>97.9</ele></trkpt>
    <trkpt lat="48.742" lon="2.5611"><ele>97.9</ele></trkpt>
    <trkpt lat="48.74167" lon="2.56134"><ele>97.9</ele></trkpt>
    <trkpt lat="48.7415" lon="2.56138"><ele>97.8</ele></trkpt>
    <trkpt lat="48.74114" lon="2.56143"><ele>97.7</ele></trkpt>
    <trkpt lat="48.74103" lon="2.56126"><ele>97.7</ele></trkpt>
    <trkpt lat="48.74075" lon="2.56144"><ele>97.6</ele></trkpt>
    <trkpt lat="48.73986" lon="2.56158"><ele>97.3</ele></trkpt>
    <trkpt lat="48.73916" lon="2.56187"><ele>97.0</ele></trkpt>
    <trkpt lat="48.73885" lon="2.56215"><ele>96.9</ele></trkpt>
    <trkpt lat="48.73849" lon="2.56268"><ele>96.5</ele></trkpt>
    <trkpt lat="48.73842" lon="2.56293"><ele>96.3</ele></trkpt>
    <trkpt lat="48.7383" lon="2.56373"><ele>95.8</ele></trkpt>
    <trkpt lat="48.73835" lon="2.56453"><ele>95.4</ele></trkpt>
    <trkpt lat="48.73823" lon="2.56468"><ele>95.2</ele></trkpt>
    <trkpt lat="48.73823" lon="2.56493"><ele>95.0</ele></trkpt>
    <trkpt lat="48.73814" lon="2.56512"><ele>94.8</ele></trkpt>
    <trkpt lat="48.73796" lon="2.56519"><ele>94.6</ele></trkpt>
    <trkpt lat="48.73706" lon="2.56515"><ele>93.0</ele></trkpt>
    <trkpt lat="48.73564" lon="2.5649"><ele>91.0</ele></trkpt>
    <trkpt lat="48.73546" lon="2.56482"><ele>90.8</ele></trkpt>
    <trkpt lat="48.7353" lon="2.56437"><ele>90.5</ele></trkpt>
    <trkpt lat="48.73513" lon="2.56437"><ele>90.4</ele></trkpt>
    <trkpt lat="48.73493" lon="2.56481"><ele>90.4</ele></trkpt>
    <trkpt lat="48.73478" lon="2.56496"><ele>90.5</ele></trkpt>
    <trkpt lat="48.73409" lon="2.56521"><ele>91.0</ele></trkpt>
    <trkpt lat="48.73376" lon="2.56543"><ele>91.4</ele></trkpt>
    <trkpt lat="48.73201" lon="2.56685"><ele>93.5</ele></trkpt>
    <trkpt lat="48.73131" lon="2.56769"><ele>94.3</ele></trkpt>
    <trkpt lat="48.73116" lon="2.56769"><ele>94.4</ele></trkpt>
    <trkpt lat="48.73104" lon="2.56783"><ele>94.4</ele></trkpt>
    <trkpt lat="48.73088" lon="2.5679"><ele>94.3</ele></trkpt>
    <trkpt lat="48.73076" lon="2.56809"><ele>94.2</ele></trkpt>
    <trkpt lat="48.73028" lon="2.57015"><ele>93.2</ele></trkpt>
    <trkpt lat="48.73015" lon="2.57033"><ele>92.7</ele></trkpt>
    <trkpt lat="48.72984" lon="2.5705"><ele>91.5</ele></trkpt>
    <trkpt lat="48.72663" lon="2.57115"><ele>80.3</ele></trkpt>
    <trkpt lat="48.7263" lon="2.57133"><ele>79.4</ele></trkpt>
    <trkpt lat="48.72573" lon="2.57067"><ele>74.7</ele></trkpt>
    <trkpt lat="48.72397" lon="2.56929"><ele>65.5</ele></trkpt>
    <trkpt lat="48.72211" lon="2.56829"><ele>71.8</ele></trkpt>
    <trkpt lat="48.72116" lon="2.56753"><ele>81.1</ele></trkpt>
    <trkpt lat="48.71979" lon="2.56621"><ele>92.7</ele></trkpt>
    <trkpt lat="48.71926" lon="2.56516"><ele>94.4</ele></trkpt>
    <trkpt lat="48.71859" lon="2.56436"><ele>95.6</ele></trkpt>
    <trkpt lat="48.71596" lon="2.5626"><ele>96.2</ele></trkpt>
    <trkpt lat="48.71476" lon="2.56203"><ele>99.3</ele></trkpt>
    <trkpt lat="48.71237" lon="2.55961"><ele>94.2</ele></trkpt>
    <trkpt lat="48.71045" lon="2.55813"><ele>93.2</ele></trkpt>
    <trkpt lat="48.71034" lon="2.55795"><ele>93.3</ele></trkpt>
    <trkpt lat="48.71004" lon="2.55785"><ele>93.5</ele></trkpt>
    <trkpt lat="48.70889" lon="2.55708"><ele>94.2</ele></trkpt>
    <trkpt lat="48.70813" lon="2.55634"><ele>94.6</ele></trkpt>
    <trkpt lat="48.70742" lon="2.55552"><ele>94.8</ele></trkpt>
    <trkpt lat="48.70541" lon="2.55278"><ele>94.7</ele></trkpt>
    <trkpt lat="48.70389" lon="2.55047"><ele>94.0</ele></trkpt>
    <trkpt lat="48.70346" lon="2.54959"><ele>93.4</ele></trkpt>
    <trkpt lat="48.70323" lon="2.54885"><ele>92.8</ele></trkpt>
    <trkpt lat="48.70278" lon="2.54622"><ele>91.6</ele></trkpt>
    <trkpt lat="48.70269" lon="2.54514"><ele>91.5</ele></trkpt>
    <trkpt lat="48.70257" lon="2.54502"><ele>91.4</ele></trkpt>
    <trkpt lat="48.70227" lon="2.54532"><ele>91.5</ele></trkpt>
    <trkpt lat="48.70082" lon="2.54735"><ele>93.0</ele></trkpt>
    <trkpt lat="48.69925" lon="2.54918"><ele>93.3</ele></trkpt>
    <trkpt lat="48.69886" lon="2.54974"><ele>93.3</ele></trkpt>
    <trkpt lat="48.69718" lon="2.55221"><ele>93.4</ele></trkpt>
    <trkpt lat="48.69607" lon="2.55435"><ele>92.9</ele></trkpt>
    <trkpt lat="48.69558" lon="2.55514"><ele>92.4</ele></trkpt>
    <trkpt lat="48.69517" lon="2.55567"><ele>91.8</ele></trkpt>
    <trkpt lat="48.69313" lon="2.55789"><ele>85.0</ele></trkpt>
    <trkpt lat="48.69281" lon="2.55786"><ele>85.1</ele></trkpt>
    <trkpt lat="48.68946" lon="2.55687"><ele>90.4</ele></trkpt>
    <trkpt lat="48.68894" lon="2.55707"><ele>90.6</ele></trkpt>
    <trkpt lat="48.68793" lon="2.55766"><ele>91.1</ele></trkpt>
    <trkpt lat="48.68694" lon="2.55831"><ele>90.9</ele></trkpt>
    <trkpt lat="48.68599" lon="2.55906"><ele>89.9</ele></trkpt>
    <trkpt lat="48.6853" lon="2.55935"><ele>89.3</ele></trkpt>
    <trkpt lat="48.6844" lon="2.55947"><ele>87.8</ele></trkpt>
    <trkpt lat="48.6828" lon="2.55915"><ele>77.1</ele></trkpt>
    <trkpt lat="48.68173" lon="2.55929"><ele>69.2</ele></trkpt>
    <trkpt lat="48.68122" lon="2.559"><ele>65.7</ele></trkpt>
    <trkpt lat="48.68046" lon="2.55829"><ele>60.2</ele></trkpt>
    <trkpt lat="48.6793" lon="2.55958"><ele>55.8</ele></trkpt>
    <trkpt lat="48.6786" lon="2.55979"><ele>55.2</ele></trkpt>
    <trkpt lat="48.67845" lon="2.55976"><ele>55.0</ele></trkpt>
    <trkpt lat="48.67817" lon="2.55942"><ele>54.4</ele></trkpt>
    <trkpt lat="48.67584" lon="2.55602"><ele>48.4</ele></trkpt>
    <trkpt lat="48.67553" lon="2.55576"><ele>48.3</ele></trkpt>
    <trkpt lat="48.67283" lon="2.55574"><ele>50.9</ele></trkpt>
    <trkpt lat="48.67266" lon="2.55568"><ele>51.2</ele></trkpt>
    <trkpt lat="48.67252" lon="2.55575"><ele>51.5</ele></trkpt>
    <trkpt lat="48.67038" lon="2.55578"><ele>54.3</ele></trkpt>
    <trkpt lat="48.67023" lon="2.55572"><ele>54.3</ele></trkpt>
    <trkpt lat="48.66979" lon="2.5553"><ele>55.2</ele></trkpt>
    <trkpt lat="48.66806" lon="2.55335"><ele>67.2</ele></trkpt>
    <trkpt lat="48.66758" lon="2.55297"><ele>70.8</ele></trkpt>
    <trkpt lat="48.66591" lon="2.55196"><ele>84.0</ele></trkpt>
    <trkpt lat="48.6658" lon="2.55204"><ele>84.5</ele></trkpt>
    <trkpt lat="48.66599" lon="2.5542"><ele>85.4</ele></trkpt>
    <trkpt lat="48.66595" lon="2.5561"><ele>86.7</ele></trkpt>
    <trkpt lat="48.66609" lon="2.55744"><ele>86.7</ele></trkpt>
    <trkpt lat="48.66632" lon="2.55876"><ele>86.7</ele></trkpt>
    <trkpt lat="48.66637" lon="2.5593"><ele>86.6</ele></trkpt>
    <trkpt lat="48.66627" lon="2.55982"><ele>86.4</ele></trkpt>
    <trkpt lat="48.66539" lon="2.56154"><ele>86.1</ele></trkpt>
    <trkpt lat="48.66465" lon="2.56341"><ele>86.0</ele></trkpt>
    <trkpt lat="48.66414" lon="2.56345"><ele>85.8</ele></trkpt>
    <trkpt lat="48.6639" lon="2.56558"><ele>86.0</ele></trkpt>
    <trkpt lat="48.66325" lon="2.56751"><ele>85.2</ele></trkpt>
    <trkpt lat="48.66279" lon="2.56986"><ele>86.2</ele></trkpt>
    <trkpt lat="48.66265" lon="2.57093"><ele>86.1</ele></trkpt>
    <trkpt lat="48.66272" lon="2.57283"><ele>87.2</ele></trkpt>
    <trkpt lat="48.66269" lon="2.5731"><ele>87.4</ele></trkpt>
    <trkpt lat="48.66208" lon="2.57565"><ele>88.3</ele></trkpt>
    <trkpt lat="48.66184" lon="2.58026"><ele>87.9</ele></trkpt>
    <trkpt lat="48.66157" lon="2.5824"><ele>87.6</ele></trkpt>
    <trkpt lat="48.66147" lon="2.58261"><ele>87.5</ele></trkpt>
    <trkpt lat="48.66153" lon="2.58284"><ele>87.4</ele></trkpt>
    <trkpt lat="48.66152" lon="2.58311"><ele>87.3</ele></trkpt>
    <trkpt lat="48.66094" lon="2.58597"><ele>86.4</ele></trkpt>
    <trkpt lat="48.66057" lon="2.58808"><ele>87.2</ele></trkpt>
    <trkpt lat="48.66002" lon="2.59038"><ele>88.0</ele></trkpt>
    <trkpt lat="48.65989" lon="2.59117"><ele>87.6</ele></trkpt>
    <trkpt lat="48.65989" lon="2.59199"><ele>87.4</ele></trkpt>
    <trkpt lat="48.66007" lon="2.59524"><ele>87.8</ele></trkpt>
    <trkpt lat="48.66008" lon="2.59606"><ele>87.9</ele></trkpt>
    <trkpt lat="48.65958" lon="2.60118"><ele>83.0</ele></trkpt>
    <trkpt lat="48.65939" lon="2.60251"><ele>81.5</ele></trkpt>
    <trkpt lat="48.65849" lon="2.60577"><ele>86.7</ele></trkpt>
    <trkpt lat="48.65788" lon="2.60862"><ele>82.9</ele></trkpt>
    <trkpt lat="48.65763" lon="2.61076"><ele>76.0</ele></trkpt>
    <trkpt lat="48.65722" lon="2.61508"><ele>66.2</ele></trkpt>
    <trkpt lat="48.65726" lon="2.61561"><ele>66.9</ele></trkpt>
    <trkpt lat="48.65723" lon="2.61587"><ele>67.3</ele></trkpt>
    <trkpt lat="48.65697" lon="2.61625"><ele>68.4</ele></trkpt>
    <trkpt lat="48.65657" lon="2.61777"><ele>73.9</ele></trkpt>
    <trkpt lat="48.65566" lon="2.62073"><ele>71.8</ele></trkpt>
    <trkpt lat="48.65548" lon="2.6215"><ele>71.0</ele></trkpt>
    <trkpt lat="48.65523" lon="2.62364"><ele>71.4</ele></trkpt>
    <trkpt lat="48.65511" lon="2.62415"><ele>72.1</ele></trkpt>
    <trkpt lat="48.65492" lon="2.62462"><ele>72.9</ele></trkpt>
    <trkpt lat="48.65453" lon="2.62518"><ele>74.5</ele></trkpt>
    <trkpt lat="48.65316" lon="2.62647"><ele>74.3</ele></trkpt>
    <trkpt lat="48.65252" lon="2.62698"><ele>72.3</ele></trkpt>
    <trkpt lat="48.65239" lon="2.62716"><ele>72.2</ele></trkpt>
    <trkpt lat="48.65163" lon="2.6283"><ele>73.3</ele></trkpt>
    <trkpt lat="48.6513" lon="2.62927"><ele>74.9</ele></trkpt>
    <trkpt lat="48.65109" lon="2.62971"><ele>76.0</ele></trkpt>
    <trkpt lat="48.65077" lon="2.62995"><ele>77.1</ele></trkpt>
    <trkpt lat="48.65007" lon="2.63009"><ele>80.1</ele></trkpt>
    <trkpt lat="48.64996" lon="2.6303"><ele>80.4</ele></trkpt>
    <trkpt lat="48.65004" lon="2.63051"><ele>80.4</ele></trkpt>
    <trkpt lat="48.65018" lon="2.63067"><ele>80.0</ele></trkpt>
    <trkpt lat="48.6507" lon="2.63086"><ele>78.5</ele></trkpt>
    <trkpt lat="48.65086" lon="2.631"><ele>78.2</ele></trkpt>
    <trkpt lat="48.6513" lon="2.63148"><ele>78.8</ele></trkpt>
    <trkpt lat="48.65206" lon="2.63263"><ele>86.8</ele></trkpt>
    <trkpt lat="48.65282" lon="2.63334"><ele>90.4</ele></trkpt>
    <trkpt lat="48.65289" lon="2.63354"><ele>90.7</ele></trkpt>
    <trkpt lat="48.65274" lon="2.63432"><ele>91.3</ele></trkpt>
    <trkpt lat="48.65279" lon="2.63485"><ele>91.4</ele></trkpt>
    <trkpt lat="48.65246" lon="2.6355"><ele>91.3</ele></trkpt>
    <trkpt lat="48.65245" lon="2.63574"><ele>91.2</ele></trkpt>
    <trkpt lat="48.65299" lon="2.63647"><ele>91.4</ele></trkpt>
    <trkpt lat="48.65371" lon="2.63768"><ele>92.0</ele></trkpt>
    <trkpt lat="48.65366" lon="2.63789"><ele>92.0</ele></trkpt>
    <trkpt lat="48.65315" lon="2.63901"><ele>91.9</ele></trkpt>
    <trkpt lat="48.65162" lon="2.64204"><ele>91.9</ele></trkpt>
    <trkpt lat="48.65019" lon="2.64643"><ele>93.2</ele></trkpt>
    <trkpt lat="48.64992" lon="2.64744"><ele>93.7</ele></trkpt>
    <trkpt lat="48.64958" lon="2.64983"><ele>94.6</ele></trkpt>
    <trkpt lat="48.64934" lon="2.65198"><ele>95.3</ele></trkpt>
    <trkpt lat="48.64919" lon="2.65388"><ele>95.9</ele></trkpt>
    <trkpt lat="48.64911" lon="2.6544"><ele>95.9</ele></trkpt>
    <trkpt lat="48.649" lon="2.65492"><ele>95.9</ele></trkpt>
    <trkpt lat="48.64815" lon="2.65793"><ele>95.2</ele></trkpt>
    <trkpt lat="48.64802" lon="2.65872"><ele>94.8</ele></trkpt>
    <trkpt lat="48.64798" lon="2.66008"><ele>93.6</ele></trkpt>
    <trkpt lat="48.64789" lon="2.66115"><ele>92.3</ele></trkpt>
    <trkpt lat="48.64777" lon="2.66167"><ele>91.8</ele></trkpt>
    <trkpt lat="48.64724" lon="2.6634"><ele>90.2</ele></trkpt>
    <trkpt lat="48.64713" lon="2.66447"><ele>89.4</ele></trkpt>
    <trkpt lat="48.64709" lon="2.66937"><ele>91.1</ele></trkpt>
    <trkpt lat="48.64807" lon="2.67767"><ele>91.3</ele></trkpt>
    <trkpt lat="48.64816" lon="2.6779"><ele>91.2</ele></trkpt>
    <trkpt lat="48.64866" lon="2.6782"><ele>90.4</ele></trkpt>
    <trkpt lat="48.64904" lon="2.67877"><ele>89.5</ele></trkpt>
    <trkpt lat="48.64925" lon="2.67952"><ele>88.5</ele></trkpt>
    <trkpt lat="48.64948" lon="2.68139"><ele>86.6</ele></trkpt>
    <trkpt lat="48.64946" lon="2.68302"><ele>85.0</ele></trkpt>
    <trkpt lat="48.64949" lon="2.68329"><ele>84.5</ele></trkpt>
    <trkpt lat="48.6501" lon="2.68614"><ele>77.1</ele></trkpt>
    <trkpt lat="48.65006" lon="2.68777"><ele>71.3</ele></trkpt>
    <trkpt lat="48.65012" lon="2.68858"><ele>69.6</ele></trkpt>
    <trkpt lat="48.65021" lon="2.68879"><ele>69.1</ele></trkpt>
    <trkpt lat="48.65096" lon="2.68953"><ele>66.9</ele></trkpt>
    <trkpt lat="48.65148" lon="2.69064"><ele>64.8</ele></trkpt>
    <trkpt lat="48.65202" lon="2.69265"><ele>63.4</ele></trkpt>
    <trkpt lat="48.65303" lon="2.69673"><ele>63.0</ele></trkpt>
    <trkpt lat="48.65351" lon="2.69788"><ele>63.4</ele></trkpt>
    <trkpt lat="48.65375" lon="2.69821"><ele>63.1</ele></trkpt>
    <trkpt lat="48.65398" lon="2.69895"><ele>62.6</ele></trkpt>
    <trkpt lat="48.65409" lon="2.69914"><ele>62.5</ele></trkpt>
    <trkpt lat="48.65493" lon="2.69963"><ele>62.6</ele></trkpt>
    <trkpt lat="48.65562" lon="2.69991"><ele>63.0</ele></trkpt>
    <trkpt lat="48.65568" lon="2.70015"><ele>63.3</ele></trkpt>
    <trkpt lat="48.65568" lon="2.70042"><ele>63.7</ele></trkpt>
    <trkpt lat="48.65449" lon="2.70314"><ele>73.5</ele></trkpt>
    <trkpt lat="48.65442" lon="2.70338"><ele>74.3</ele></trkpt>
    <trkpt lat="48.65445" lon="2.70364"><ele>75.2</ele></trkpt>
    <trkpt lat="48.65461" lon="2.70374"><ele>76.2</ele></trkpt>
    <trkpt lat="48.65511" lon="2.70348"><ele>79.1</ele></trkpt>
    <trkpt lat="48.65526" lon="2.70332"><ele>80.0</ele></trkpt>
    <trkpt lat="48.65564" lon="2.7024"><ele>83.2</ele></trkpt>
    <trkpt lat="48.65579" lon="2.70227"><ele>84.0</ele></trkpt>
    <trkpt lat="48.65596" lon="2.70232"><ele>84.7</ele></trkpt>
    <trkpt lat="48.6564" lon="2.70318"><ele>87.0</ele></trkpt>
    <trkpt lat="48.6565" lon="2.7037"><ele>88.0</ele></trkpt>
    <trkpt lat="48.65733" lon="2.71122"><ele>95.5</ele></trkpt>
    <trkpt lat="48.65789" lon="2.71323"><ele>94.9</ele></trkpt>
    <trkpt lat="48.65784" lon="2.71486"><ele>94.0</ele></trkpt>
    <trkpt lat="48.65795" lon="2.71593"><ele>93.4</ele></trkpt>
    <trkpt lat="48.65809" lon="2.71643"><ele>93.2</ele></trkpt>
    <trkpt lat="48.6591" lon="2.71901"><ele>91.8</ele></trkpt>
    <trkpt lat="48.65928" lon="2.71978"><ele>91.6</ele></trkpt>
    <trkpt lat="48.65932" lon="2.72004"><ele>91.6</ele></trkpt>
    <trkpt lat="48.65927" lon="2.7203"><ele>91.6</ele></trkpt>
    <trkpt lat="48.65928" lon="2.72056"><ele>91.7</ele></trkpt>
    <trkpt lat="48.65936" lon="2.7208"><ele>91.9</ele></trkpt>
    <trkpt lat="48.66385" lon="2.72746"><ele>98.9</ele></trkpt>
    <trkpt lat="48.66452" lon="2.72838"><ele>101.7</ele></trkpt>
    <trkpt lat="48.66593" lon="2.73006"><ele>107.3</ele></trkpt>
    <trkpt lat="48.66674" lon="2.73114"><ele>107.8</ele></trkpt>
    <trkpt lat="48.66735" lon="2.73214"><ele>106.2</ele></trkpt>
    <trkpt lat="48.66847" lon="2.73427"><ele>100.7</ele></trkpt>
    <trkpt lat="48.66919" lon="2.73548"><ele>100.3</ele></trkpt>
    <trkpt lat="48.67407" lon="2.74273"><ele>100.6</ele></trkpt>
    <trkpt lat="48.67507" lon="2.7443"><ele>100.2</ele></trkpt>
    <trkpt lat="48.67573" lon="2.74559"><ele>99.9</ele></trkpt>
    <trkpt lat="48.67602" lon="2.74589"><ele>99.9</ele></trkpt>
    <trkpt lat="48.67671" lon="2.74621"><ele>100.3</ele></trkpt>
    <trkpt lat="48.67698" lon="2.74656"><ele>100.5</ele></trkpt>
    <trkpt lat="48.67749" lon="2.7463"><ele>100.9</ele></trkpt>
    <trkpt lat="48.67778" lon="2.74599"><ele>101.1</ele></trkpt>
    <trkpt lat="48.67823" lon="2.74515"><ele>101.2</ele></trkpt>
    <trkpt lat="48.67908" lon="2.74374"><ele>100.9</ele></trkpt>
    <trkpt lat="48.68304" lon="2.7405"><ele>102.1</ele></trkpt>
    <trkpt lat="48.68353" lon="2.74017"><ele>102.2</ele></trkpt>
    <trkpt lat="48.68388" lon="2.74009"><ele>102.2</ele></trkpt>
    <trkpt lat="48.68586" lon="2.74004"><ele>103.5</ele></trkpt>
    <trkpt lat="48.68766" lon="2.74007"><ele>105.2</ele></trkpt>
    <trkpt lat="48.69467" lon="2.73997"><ele>100.7</ele></trkpt>
    <trkpt lat="48.69357" lon="2.73788"><ele>101.1</ele></trkpt>
    <trkpt lat="48.69465" lon="2.73998"><ele>100.7</ele></trkpt>
    <trkpt lat="48.68584" lon="2.74004"><ele>102.8</ele></trkpt>
    <trkpt lat="48.68386" lon="2.74009"><ele>102.2</ele></trkpt>
    <trkpt lat="48.68351" lon="2.74018"><ele>102.1</ele></trkpt>
    <trkpt lat="48.68286" lon="2.74064"><ele>102.0</ele></trkpt>
    <trkpt lat="48.67907" lon="2.74376"><ele>101.0</ele></trkpt>
    <trkpt lat="48.67822" lon="2.74517"><ele>101.2</ele></trkpt>
    <trkpt lat="48.67776" lon="2.74601"><ele>100.8</ele></trkpt>
    <trkpt lat="48.67747" lon="2.74632"><ele>100.5</ele></trkpt>
    <trkpt lat="48.677" lon="2.74662"><ele>100.4</ele></trkpt>
    <trkpt lat="48.67732" lon="2.74758"><ele>100.4</ele></trkpt>
    <trkpt lat="48.67701" lon="2.7467"><ele>100.5</ele></trkpt>
    <trkpt lat="48.67708" lon="2.74653"><ele>100.6</ele></trkpt>
    <trkpt lat="48.67742" lon="2.74636"><ele>100.8</ele></trkpt>
    <trkpt lat="48.67772" lon="2.74607"><ele>101.1</ele></trkpt>
    <trkpt lat="48.67903" lon="2.74383"><ele>100.9</ele></trkpt>
    <trkpt lat="48.67917" lon="2.74366"><ele>100.9</ele></trkpt>
    <trkpt lat="48.68345" lon="2.7402"><ele>102.2</ele></trkpt>
    <trkpt lat="48.68381" lon="2.74009"><ele>102.2</ele></trkpt>
    <trkpt lat="48.68579" lon="2.74004"><ele>103.3</ele></trkpt>
    <trkpt lat="48.69442" lon="2.74"><ele>100.7</ele></trkpt>
    <trkpt lat="48.6946" lon="2.73999"><ele>100.7</ele></trkpt>
    <trkpt lat="48.69462" lon="2.73986"><ele>100.7</ele></trkpt>
    <trkpt lat="48.68829" lon="2.72799"><ele>107.3</ele></trkpt>
    <trkpt lat="48.68666" lon="2.72508"><ele>116.0</ele></trkpt>
    <trkpt lat="48.68587" lon="2.72396"><ele>115.7</ele></trkpt>
    <trkpt lat="48.685" lon="2.723"><ele>113.1</ele></trkpt>
    <trkpt lat="48.68281" lon="2.72113"><ele>102.0</ele></trkpt>
    <trkpt lat="48.67853" lon="2.7153"><ele>100.4</ele></trkpt>
    <trkpt lat="48.6783" lon="2.71488"><ele>100.3</ele></trkpt>
    <trkpt lat="48.67524" lon="2.70383"><ele>93.1</ele></trkpt>
    <trkpt lat="48.67532" lon="2.70221"><ele>93.3</ele></trkpt>
    <trkpt lat="48.67527" lon="2.69813"><ele>94.7</ele></trkpt>
    <trkpt lat="48.6744" lon="2.69807"><ele>94.0</ele></trkpt>
    <trkpt lat="48.67186" lon="2.69672"><ele>91.9</ele></trkpt>
    <trkpt lat="48.67043" lon="2.69654"><ele>90.7</ele></trkpt>
    <trkpt lat="48.66939" lon="2.69611"><ele>88.7</ele></trkpt>
    <trkpt lat="48.66921" lon="2.69614"><ele>88.1</ele></trkpt>
    <trkpt lat="48.66905" lon="2.69625"><ele>87.6</ele></trkpt>
    <trkpt lat="48.66877" lon="2.69659"><ele>86.6</ele></trkpt>
    <trkpt lat="48.66845" lon="2.69684"><ele>85.7</ele></trkpt>
    <trkpt lat="48.66757" lon="2.69707"><ele>84.3</ele></trkpt>
    <trkpt lat="48.66723" lon="2.69689"><ele>83.9</ele></trkpt>
    <trkpt lat="48.66676" lon="2.6965"><ele>83.2</ele></trkpt>
    <trkpt lat="48.66658" lon="2.69649"><ele>83.0</ele></trkpt>
    <trkpt lat="48.66627" lon="2.69674"><ele>82.4</ele></trkpt>
    <trkpt lat="48.66575" lon="2.69749"><ele>81.3</ele></trkpt>
    <trkpt lat="48.66543" lon="2.69772"><ele>80.9</ele></trkpt>
    <trkpt lat="48.65908" lon="2.69963"><ele>68.1</ele></trkpt>
    <trkpt lat="48.65692" lon="2.69959"><ele>63.1</ele></trkpt>
    <trkpt lat="48.65569" lon="2.69999"><ele>62.8</ele></trkpt>
    <trkpt lat="48.65555" lon="2.69986"><ele>62.7</ele></trkpt>
    <trkpt lat="48.65485" lon="2.69958"><ele>62.4</ele></trkpt>
    <trkpt lat="48.65402" lon="2.69908"><ele>63.0</ele></trkpt>
    <trkpt lat="48.65371" lon="2.6981"><ele>63.5</ele></trkpt>
    <trkpt lat="48.65356" lon="2.69801"><ele>63.4</ele></trkpt>
    <trkpt lat="48.65307" lon="2.69687"><ele>62.7</ele></trkpt>
    <trkpt lat="48.65249" lon="2.69459"><ele>60.7</ele></trkpt>
    <trkpt lat="48.6531" lon="2.69404"><ele>59.5</ele></trkpt>
    <trkpt lat="48.65323" lon="2.69384"><ele>59.4</ele></trkpt>
    <trkpt lat="48.65333" lon="2.69334"><ele>59.3</ele></trkpt>
    <trkpt lat="48.65241" lon="2.69039"><ele>59.3</ele></trkpt>
    <trkpt lat="48.65237" lon="2.69012"><ele>59.5</ele></trkpt>
    <trkpt lat="48.65246" lon="2.68932"><ele>60.5</ele></trkpt>
    <trkpt lat="48.65246" lon="2.68851"><ele>62.8</ele></trkpt>
    <trkpt lat="48.6525" lon="2.68824"><ele>63.8</ele></trkpt>
    <trkpt lat="48.65265" lon="2.68775"><ele>65.8</ele></trkpt>
    <trkpt lat="48.65278" lon="2.68756"><ele>66.7</ele></trkpt>
    <trkpt lat="48.65326" lon="2.68718"><ele>68.1</ele></trkpt>
    <trkpt lat="48.65353" lon="2.68683"><ele>67.7</ele></trkpt>
    <trkpt lat="48.65449" lon="2.68454"><ele>68.2</ele></trkpt>
    <trkpt lat="48.65473" lon="2.68414"><ele>69.2</ele></trkpt>
    <trkpt lat="48.65489" lon="2.684"><ele>69.7</ele></trkpt>
    <trkpt lat="48.65574" lon="2.68357"><ele>72.5</ele></trkpt>
    <trkpt lat="48.65601" lon="2.68322"><ele>73.6</ele></trkpt>
    <trkpt lat="48.65646" lon="2.68204"><ele>76.6</ele></trkpt>
    <trkpt lat="48.65651" lon="2.68178"><ele>77.1</ele></trkpt>
    <trkpt lat="48.65649" lon="2.68124"><ele>78.2</ele></trkpt>
    <trkpt lat="48.65663" lon="2.68074"><ele>79.4</ele></trkpt>
    <trkpt lat="48.65673" lon="2.68053"><ele>80.0</ele></trkpt>
    <trkpt lat="48.65713" lon="2.67998"><ele>82.1</ele></trkpt>
    <trkpt lat="48.65754" lon="2.67909"><ele>84.6</ele></trkpt>
    <trkpt lat="48.658" lon="2.67869"><ele>86.3</ele></trkpt>
    <trkpt lat="48.65845" lon="2.67785"><ele>87.9</ele></trkpt>
    <trkpt lat="48.65888" lon="2.67736"><ele>88.4</ele></trkpt>
    <trkpt lat="48.65899" lon="2.67684"><ele>88.4</ele></trkpt>
    <trkpt lat="48.65908" lon="2.67549"><ele>89.1</ele></trkpt>
    <trkpt lat="48.65923" lon="2.675"><ele>89.8</ele></trkpt>
    <trkpt lat="48.66005" lon="2.67357"><ele>91.9</ele></trkpt>
    <trkpt lat="48.66019" lon="2.6734"><ele>92.0</ele></trkpt>
    <trkpt lat="48.66073" lon="2.67331"><ele>92.3</ele></trkpt>
    <trkpt lat="48.6609" lon="2.67323"><ele>92.3</ele></trkpt>
    <trkpt lat="48.6614" lon="2.67291"><ele>92.3</ele></trkpt>
    <trkpt lat="48.66202" lon="2.67238"><ele>92.4</ele></trkpt>
    <trkpt lat="48.66873" lon="2.66846"><ele>92.7</ele></trkpt>
    <trkpt lat="48.67111" lon="2.66654"><ele>90.7</ele></trkpt>
    <trkpt lat="48.67714" lon="2.66377"><ele>96.8</ele></trkpt>
    <trkpt lat="48.67767" lon="2.66381"><ele>96.8</ele></trkpt>
    <trkpt lat="48.68338" lon="2.66627"><ele>98.7</ele></trkpt>
    <trkpt lat="48.68462" lon="2.66655"><ele>98.8</ele></trkpt>
    <trkpt lat="48.6847" lon="2.66674"><ele>98.8</ele></trkpt>
    <trkpt lat="48.68482" lon="2.66782"><ele>98.6</ele></trkpt>
    <trkpt lat="48.68484" lon="2.66809"><ele>98.5</ele></trkpt>
    <trkpt lat="48.68478" lon="2.66856"><ele>98.2</ele></trkpt>
    <trkpt lat="48.68585" lon="2.66848"><ele>97.2</ele></trkpt>
    <trkpt lat="48.68707" lon="2.66799"><ele>96.1</ele></trkpt>
    <trkpt lat="48.68813" lon="2.66765"><ele>95.9</ele></trkpt>
    <trkpt lat="48.6883" lon="2.66767"><ele>95.8</ele></trkpt>
    <trkpt lat="48.68952" lon="2.66812"><ele>95.3</ele></trkpt>
    <trkpt lat="48.68998" lon="2.66855"><ele>95.1</ele></trkpt>
    <trkpt lat="48.69051" lon="2.66928"><ele>94.9</ele></trkpt>
    <trkpt lat="48.69109" lon="2.66992"><ele>94.9</ele></trkpt>
    <trkpt lat="48.69204" lon="2.6707"><ele>93.8</ele></trkpt>
    <trkpt lat="48.69264" lon="2.67131"><ele>93.1</ele></trkpt>
    <trkpt lat="48.69316" lon="2.67206"><ele>93.3</ele></trkpt>
    <trkpt lat="48.69386" lon="2.6733"><ele>94.5</ele></trkpt>
    <trkpt lat="48.694" lon="2.67347"><ele>94.5</ele></trkpt>
    <trkpt lat="48.69417" lon="2.67353"><ele>94.4</ele></trkpt>
    <trkpt lat="48.69434" lon="2.67346"><ele>94.1</ele></trkpt>
    <trkpt lat="48.69531" lon="2.67272"><ele>92.6</ele></trkpt>
    <trkpt lat="48.69751" lon="2.67156"><ele>92.4</ele></trkpt>
    <trkpt lat="48.69948" lon="2.67132"><ele>93.3</ele></trkpt>
    <trkpt lat="48.70049" lon="2.67075"><ele>98.3</ele></trkpt>
    <trkpt lat="48.70204" lon="2.67004"><ele>107.3</ele></trkpt>
    <trkpt lat="48.70451" lon="2.66928"><ele>108.5</ele></trkpt>
    <trkpt lat="48.70487" lon="2.66926"><ele>107.3</ele></trkpt>
    <trkpt lat="48.70522" lon="2.66934"><ele>105.8</ele></trkpt>
    <trkpt lat="48.70588" lon="2.66976"><ele>103.0</ele></trkpt>
    <trkpt lat="48.70629" lon="2.67029"><ele>102.2</ele></trkpt>
    <trkpt lat="48.70844" lon="2.67466"><ele>103.0</ele></trkpt>
    <trkpt lat="48.70894" lon="2.67544"><ele>103.3</ele></trkpt>
    <trkpt lat="48.70925" lon="2.67574"><ele>103.3</ele></trkpt>
    <trkpt lat="48.70942" lon="2.67582"><ele>103.3</ele></trkpt>
    <trkpt lat="48.70959" lon="2.67581"><ele>103.3</ele></trkpt>
    <trkpt lat="48.70975" lon="2.67568"><ele>103.3</ele></trkpt>
    <trkpt lat="48.71032" lon="2.675"><ele>103.3</ele></trkpt>
    <trkpt lat="48.71092" lon="2.67441"><ele>103.6</ele></trkpt>
    <trkpt lat="48.71671" lon="2.67003"><ele>105.2</ele></trkpt>
    <trkpt lat="48.71723" lon="2.66981"><ele>104.6</ele></trkpt>
    <trkpt lat="48.71865" lon="2.66949"><ele>103.6</ele></trkpt>
    <trkpt lat="48.72288" lon="2.66647"><ele>101.7</ele></trkpt>
    <trkpt lat="48.72322" lon="2.6663"><ele>101.7</ele></trkpt>
    <trkpt lat="48.72584" lon="2.66532"><ele>100.7</ele></trkpt>
    <trkpt lat="48.726" lon="2.6658"><ele>100.6</ele></trkpt>
    <trkpt lat="48.726" lon="2.66605"><ele>100.6</ele></trkpt>
    <trkpt lat="48.72613" lon="2.66613"><ele>100.6</ele></trkpt>
    <trkpt lat="48.72616" lon="2.6659"><ele>100.7</ele></trkpt>
    <trkpt lat="48.72601" lon="2.66583"><ele>100.8</ele></trkpt>
    <trkpt lat="48.7255" lon="2.66409"><ele>101.4</ele></trkpt>
    <trkpt lat="48.725" lon="2.65952"><ele>101.1</ele></trkpt>
    <trkpt lat="48.72452" lon="2.65661"><ele>100.5</ele></trkpt>
    <trkpt lat="48.72438" lon="2.65554"><ele>100.7</ele></trkpt>
    <trkpt lat="48.72427" lon="2.65535"><ele>100.8</ele></trkpt>
    <trkpt lat="48.72392" lon="2.65542"><ele>101.0</ele></trkpt>
    <trkpt lat="48.72377" lon="2.65528"><ele>101.1</ele></trkpt>
    <trkpt lat="48.72369" lon="2.65506"><ele>101.1</ele></trkpt>
    <trkpt lat="48.72171" lon="2.65229"><ele>102.6</ele></trkpt>
    <trkpt lat="48.72168" lon="2.65209"><ele>102.5</ele></trkpt>
    <trkpt lat="48.72638" lon="2.64313"><ele>98.7</ele></trkpt>
    <trkpt lat="48.72699" lon="2.64178"><ele>97.8</ele></trkpt>
    <trkpt lat="48.72753" lon="2.64106"><ele>97.7</ele></trkpt>
    <trkpt lat="48.72808" lon="2.63998"><ele>97.9</ele></trkpt>
    <trkpt lat="48.72948" lon="2.63649"><ele>98.0</ele></trkpt>
    <trkpt lat="48.72971" lon="2.63575"><ele>97.8</ele></trkpt>
    <trkpt lat="48.72995" lon="2.63472"><ele>98.3</ele></trkpt>
    <trkpt lat="48.73084" lon="2.6303"><ele>97.0</ele></trkpt>
    <trkpt lat="48.73118" lon="2.62707"><ele>95.4</ele></trkpt>
    <trkpt lat="48.73067" lon="2.62693"><ele>95.6</ele></trkpt>
    <trkpt lat="48.72745" lon="2.62643"><ele>101.3</ele></trkpt>
    <trkpt lat="48.7262" lon="2.62664"><ele>102.2</ele></trkpt>
    <trkpt lat="48.72608" lon="2.62648"><ele>102.2</ele></trkpt>
    <trkpt lat="48.72608" lon="2.62539"><ele>102.1</ele></trkpt>
    <trkpt lat="48.72603" lon="2.6243"><ele>101.9</ele></trkpt>
    <trkpt lat="48.72595" lon="2.62349"><ele>101.8</ele></trkpt>
    <trkpt lat="48.72582" lon="2.6227"><ele>101.8</ele></trkpt>
    <trkpt lat="48.72574" lon="2.62246"><ele>101.7</ele></trkpt>
    <trkpt lat="48.72207" lon="2.61504"><ele>97.1</ele></trkpt>
    <trkpt lat="48.72188" lon="2.61458"><ele>97.5</ele></trkpt>
    <trkpt lat="48.72188" lon="2.61438"><ele>97.9</ele></trkpt>
    <trkpt lat="48.72139" lon="2.61325"><ele>97.5</ele></trkpt>
    <trkpt lat="48.72141" lon="2.61298"><ele>97.1</ele></trkpt>
    <trkpt lat="48.72103" lon="2.61242"><ele>95.9</ele></trkpt>
    <trkpt lat="48.72063" lon="2.6112"><ele>94.6</ele></trkpt>
    <trkpt lat="48.72051" lon="2.61103"><ele>94.5</ele></trkpt>
    <trkpt lat="48.72038" lon="2.61095"><ele>94.5</ele></trkpt>
    <trkpt lat="48.72" lon="2.61038"><ele>94.4</ele></trkpt>
    <trkpt lat="48.71911" lon="2.60945"><ele>94.2</ele></trkpt>
    <trkpt lat="48.71901" lon="2.60924"><ele>94.2</ele></trkpt>
    <trkpt lat="48.71849" lon="2.6075"><ele>94.1</ele></trkpt>
    <trkpt lat="48.71814" lon="2.60595"><ele>93.0</ele></trkpt>
    <trkpt lat="48.71774" lon="2.60274"><ele>89.7</ele></trkpt>
    <trkpt lat="48.71726" lon="2.60069"><ele>93.2</ele></trkpt>
    <trkpt lat="48.71726" lon="2.59852"><ele>91.8</ele></trkpt>
    <trkpt lat="48.71717" lon="2.59799"><ele>90.9</ele></trkpt>
    <trkpt lat="48.71699" lon="2.59753"><ele>90.5</ele></trkpt>
    <trkpt lat="48.71698" lon="2.59707"><ele>90.3</ele></trkpt>
    <trkpt lat="48.71688" lon="2.59685"><ele>90.0</ele></trkpt>
    <trkpt lat="48.71668" lon="2.59525"><ele>89.3</ele></trkpt>
    <trkpt lat="48.71667" lon="2.59416"><ele>87.9</ele></trkpt>
    <trkpt lat="48.71677" lon="2.5928"><ele>86.5</ele></trkpt>
    <trkpt lat="48.71677" lon="2.59199"><ele>86.7</ele></trkpt>
    <trkpt lat="48.7167" lon="2.59145"><ele>87.1</ele></trkpt>
    <trkpt lat="48.71641" lon="2.59016"><ele>87.9</ele></trkpt>
    <trkpt lat="48.71647" lon="2.58998"><ele>87.7</ele></trkpt>
    <trkpt lat="48.71701" lon="2.58997"><ele>86.2</ele></trkpt>
    <trkpt lat="48.71753" lon="2.58981"><ele>83.3</ele></trkpt>
    <trkpt lat="48.71825" lon="2.58979"><ele>78.0</ele></trkpt>
    <trkpt lat="48.71948" lon="2.58951"><ele>69.8</ele></trkpt>
    <trkpt lat="48.7227" lon="2.58908"><ele>87.8</ele></trkpt>
    <trkpt lat="48.72305" lon="2.58915"><ele>88.4</ele></trkpt>
    <trkpt lat="48.72313" lon="2.58897"><ele>88.5</ele></trkpt>
    <trkpt lat="48.72335" lon="2.58793"><ele>88.6</ele></trkpt>
    <trkpt lat="48.72353" lon="2.58659"><ele>88.3</ele></trkpt>
    <trkpt lat="48.72385" lon="2.58503"><ele>87.6</ele></trkpt>
    <trkpt lat="48.72465" lon="2.5829"><ele>86.8</ele></trkpt>
    <trkpt lat="48.72513" lon="2.58143"><ele>83.2</ele></trkpt>
    <trkpt lat="48.7255" lon="2.57933"><ele>76.1</ele></trkpt>
    <trkpt lat="48.72569" lon="2.57856"><ele>76.4</ele></trkpt>
    <trkpt lat="48.72578" lon="2.57836"><ele>76.8</ele></trkpt>
    <trkpt lat="48.72589" lon="2.57818"><ele>77.4</ele></trkpt>
    <trkpt lat="48.72639" lon="2.57787"><ele>80.3</ele></trkpt>
    <trkpt lat="48.72726" lon="2.57755"><ele>85.5</ele></trkpt>
    <trkpt lat="48.72832" lon="2.57726"><ele>88.9</ele></trkpt>
    <trkpt lat="48.72865" lon="2.5774"><ele>89.8</ele></trkpt>
    <trkpt lat="48.72881" lon="2.57728"><ele>90.3</ele></trkpt>
    <trkpt lat="48.72893" lon="2.57709"><ele>90.7</ele></trkpt>
    <trkpt lat="48.72957" lon="2.57661"><ele>91.7</ele></trkpt>
    <trkpt lat="48.72993" lon="2.57599"><ele>92.1</ele></trkpt>
    <trkpt lat="48.73006" lon="2.57549"><ele>92.3</ele></trkpt>
    <trkpt lat="48.73037" lon="2.57392"><ele>92.8</ele></trkpt>
    <trkpt lat="48.73067" lon="2.57207"><ele>93.6</ele></trkpt>
    <trkpt lat="48.73112" lon="2.56859"><ele>94.5</ele></trkpt>
    <trkpt lat="48.73114" lon="2.56805"><ele>94.3</ele></trkpt>
    <trkpt lat="48.73133" lon="2.56767"><ele>93.9</ele></trkpt>
    <trkpt lat="48.73204" lon="2.56683"><ele>93.1</ele></trkpt>
    <trkpt lat="48.73378" lon="2.56542"><ele>90.9</ele></trkpt>
    <trkpt lat="48.73411" lon="2.5652"><ele>90.6</ele></trkpt>
    <trkpt lat="48.73464" lon="2.56504"><ele>90.6</ele></trkpt>
    <trkpt lat="48.73514" lon="2.56477"><ele>91.0</ele></trkpt>
    <trkpt lat="48.73692" lon="2.56513"><ele>93.6</ele></trkpt>
    <trkpt lat="48.73782" lon="2.56519"><ele>94.9</ele></trkpt>
    <trkpt lat="48.738" lon="2.56518"><ele>95.1</ele></trkpt>
    <trkpt lat="48.73844" lon="2.56488"><ele>95.5</ele></trkpt>
    <trkpt lat="48.7383" lon="2.56388"><ele>96.1</ele></trkpt>
    <trkpt lat="48.73839" lon="2.56308"><ele>96.6</ele></trkpt>
    <trkpt lat="48.73852" lon="2.56257"><ele>96.8</ele></trkpt>
    <trkpt lat="48.73892" lon="2.56209"><ele>97.1</ele></trkpt>
    <trkpt lat="48.7394" lon="2.56174"><ele>97.3</ele></trkpt>
    <trkpt lat="48.73993" lon="2.56156"><ele>97.5</ele></trkpt>
    <trkpt lat="48.74083" lon="2.56143"><ele>97.8</ele></trkpt>
    <trkpt lat="48.74094" lon="2.5616"><ele>97.8</ele></trkpt>
    <trkpt lat="48.74123" lon="2.56141"><ele>97.9</ele></trkpt>
    <trkpt lat="48.74159" lon="2.56136"><ele>97.9</ele></trkpt>
    <trkpt lat="48.74192" lon="2.56117"><ele>97.9</ele></trkpt>
    <trkpt lat="48.7422" lon="2.56083"><ele>98.0</ele></trkpt>
    <trkpt lat="48.74241" lon="2.56039"><ele>97.9</ele></trkpt>
    <trkpt lat="48.74247" lon="2.56014"><ele>97.7</ele></trkpt>
    <trkpt lat="48.74241" lon="2.55851"><ele>97.5</ele></trkpt>
    <trkpt lat="48.74255" lon="2.55773"><ele>97.5</ele></trkpt>
    <trkpt lat="48.7426" lon="2.55692"><ele>97.7</ele></trkpt>
    <trkpt lat="48.74268" lon="2.55667"><ele>97.7</ele></trkpt>
    <trkpt lat="48.7428" lon="2.55654"><ele>97.7</ele></trkpt>
    <trkpt lat="48.74296" lon="2.55663"><ele>97.7</ele></trkpt>
    <trkpt lat="48.74328" lon="2.55652"><ele>97.7</ele></trkpt>
    <trkpt lat="48.74411" lon="2.55704"><ele>97.7</ele></trkpt>
    <trkpt lat="48.74446" lon="2.55715"><ele>97.8</ele></trkpt>
    <trkpt lat="48.74498" lon="2.55696"><ele>97.9</ele></trkpt>
    <trkpt lat="48.74534" lon="2.5569"><ele>98.0</ele></trkpt>
    <trkpt lat="48.74569" lon="2.55699"><ele>98.2</ele></trkpt>
    <trkpt lat="48.74623" lon="2.55698"><ele>98.4</ele></trkpt>
    <trkpt lat="48.74636" lon="2.55711"><ele>98.3</ele></trkpt>
    <trkpt lat="48.7467" lon="2.55697"><ele>98.2</ele></trkpt>
    <trkpt lat="48.75533" lon="2.55731"><ele>103.4</ele></trkpt>
    <trkpt lat="48.75831" lon="2.55379"><ele>101.8</ele></trkpt>
    <trkpt lat="48.75843" lon="2.55359"><ele>101.8</ele></trkpt>
    <trkpt lat="48.76055" lon="2.55234"><ele>101.5</ele></trkpt>
    <trkpt lat="48.761" lon="2.55056"><ele>101.1</ele></trkpt>
    <trkpt lat="48.76115" lon="2.54921"><ele>100.9</ele></trkpt>
    <trkpt lat="48.76123" lon="2.54902"><ele>100.8</ele></trkpt>
    <trkpt lat="48.76118" lon="2.54879"><ele>100.7</ele></trkpt>
    <trkpt lat="48.76149" lon="2.54555"><ele>99.0</ele></trkpt>
    <trkpt lat="48.7623" lon="2.53939"><ele>98.3</ele></trkpt>
    <trkpt lat="48.76243" lon="2.53889"><ele>98.2</ele></trkpt>
    <trkpt lat="48.76296" lon="2.53747"><ele>98.3</ele></trkpt>
    <trkpt lat="48.76308" lon="2.53731"><ele>98.3</ele></trkpt>
    <trkpt lat="48.76312" lon="2.53706"><ele>98.2</ele></trkpt>
    <trkpt lat="48.76331" lon="2.5366"><ele>98.1</ele></trkpt>
    <trkpt lat="48.76357" lon="2.53627"><ele>97.7</ele></trkpt>
    <trkpt lat="48.76378" lon="2.53584"><ele>97.3</ele></trkpt>
    <trkpt lat="48.76405" lon="2.5355"><ele>97.0</ele></trkpt>
    <trkpt lat="48.76556" lon="2.534"><ele>97.3</ele></trkpt>
    <trkpt lat="48.76583" lon="2.53364"><ele>98.0</ele></trkpt>
    <trkpt lat="48.76667" lon="2.53222"><ele>99.2</ele></trkpt>
    <trkpt lat="48.76683" lon="2.53211"><ele>99.3</ele></trkpt>
    <trkpt lat="48.767" lon="2.53137"><ele>99.5</ele></trkpt>
    <trkpt lat="48.7676" lon="2.53001"><ele>99.9</ele></trkpt>
    <trkpt lat="48.76805" lon="2.52883"><ele>100.4</ele></trkpt>
    <trkpt lat="48.76819" lon="2.52865"><ele>100.4</ele></trkpt>
    <trkpt lat="48.76865" lon="2.52834"><ele>100.3</ele></trkpt>
    <trkpt lat="48.76869" lon="2.52811"><ele>100.2</ele></trkpt>
    <trkpt lat="48.77011" lon="2.52431"><ele>98.8</ele></trkpt>
    <trkpt lat="48.77046" lon="2.52249"><ele>96.3</ele></trkpt>
    <trkpt lat="48.7706" lon="2.52239"><ele>95.7</ele></trkpt>
    <trkpt lat="48.77078" lon="2.52237"><ele>95.2</ele></trkpt>
    <trkpt lat="48.7709" lon="2.52221"><ele>94.7</ele></trkpt>
    <trkpt lat="48.77088" lon="2.52166"><ele>93.8</ele></trkpt>
    <trkpt lat="48.77099" lon="2.52146"><ele>93.2</ele></trkpt>
    <trkpt lat="48.77196" lon="2.51987"><ele>83.2</ele></trkpt>
    <trkpt lat="48.77378" lon="2.51722"><ele>61.2</ele></trkpt>
    <trkpt lat="48.77529" lon="2.51529"><ele>48.8</ele></trkpt>
    <trkpt lat="48.77663" lon="2.51391"><ele>38.6</ele></trkpt>
    <trkpt lat="48.77814" lon="2.51167"><ele>37.8</ele></trkpt>
    <trkpt lat="48.78082" lon="2.5122"><ele>41.5</ele></trkpt>
    <trkpt lat="48.78099" lon="2.51229"><ele>41.4</ele></trkpt>
    <trkpt lat="48.78143" lon="2.51275"><ele>40.8</ele></trkpt>
    <trkpt lat="48.78321" lon="2.51506"><ele>37.0</ele></trkpt>
    <trkpt lat="48.78372" lon="2.5153"><ele>36.4</ele></trkpt>
    <trkpt lat="48.78385" lon="2.51549"><ele>36.4</ele></trkpt>
    <trkpt lat="48.78425" lon="2.51638"><ele>36.7</ele></trkpt>
    <trkpt lat="48.78741" lon="2.52045"><ele>38.6</ele></trkpt>
    <trkpt lat="48.79018" lon="2.5224"><ele>40.5</ele></trkpt>
    <trkpt lat="48.79031" lon="2.52231"><ele>40.8</ele></trkpt>
    <trkpt lat="48.79043" lon="2.5221"><ele>41.0</ele></trkpt>
    <trkpt lat="48.79093" lon="2.52097"><ele>37.9</ele></trkpt>
    <trkpt lat="48.79102" lon="2.52087"><ele>37.0</ele></trkpt>
    <trkpt lat="48.79118" lon="2.52097"><ele>36.4</ele></trkpt>
    <trkpt lat="48.79136" lon="2.52098"><ele>36.1</ele></trkpt>
    <trkpt lat="48.79173" lon="2.52042"><ele>35.5</ele></trkpt>
    <trkpt lat="48.7919" lon="2.52045"><ele>35.4</ele></trkpt>
    <trkpt lat="48.792" lon="2.52065"><ele>35.4</ele></trkpt>
    <trkpt lat="48.79195" lon="2.52119"><ele>35.2</ele></trkpt>
    <trkpt lat="48.79201" lon="2.52144"><ele>35.2</ele></trkpt>
    <trkpt lat="48.79217" lon="2.52155"><ele>35.1</ele></trkpt>
    <trkpt lat="48.79304" lon="2.52184"><ele>35.1</ele></trkpt>
    <trkpt lat="48.79376" lon="2.5219"><ele>35.1</ele></trkpt>
    <trkpt lat="48.79393" lon="2.52185"><ele>35.0</ele></trkpt>
    <trkpt lat="48.79694" lon="2.52244"><ele>35.0</ele></trkpt>
    <trkpt lat="48.79871" lon="2.5221"><ele>35.1</ele></trkpt>
    <trkpt lat="48.79997" lon="2.52199"><ele>34.9</ele></trkpt>
    <trkpt lat="48.80157" lon="2.5223"><ele>34.7</ele></trkpt>
    <trkpt lat="48.80192" lon="2.52229"><ele>34.8</ele></trkpt>
    <trkpt lat="48.80246" lon="2.52224"><ele>34.9</ele></trkpt>
    <trkpt lat="48.8037" lon="2.52194"><ele>34.9</ele></trkpt>
    <trkpt lat="48.80422" lon="2.52175"><ele>35.0</ele></trkpt>
    <trkpt lat="48.8044" lon="2.52176"><ele>35.0</ele></trkpt>
    <trkpt lat="48.8045" lon="2.5216"><ele>35.0</ele></trkpt>
    <trkpt lat="48.80651" lon="2.51985"><ele>35.4</ele></trkpt>
    <trkpt lat="48.80748" lon="2.51864"><ele>35.3</ele></trkpt>
    <trkpt lat="48.80808" lon="2.51762"><ele>35.5</ele></trkpt>
    <trkpt lat="48.80845" lon="2.51669"><ele>35.8</ele></trkpt>
    <trkpt lat="48.80904" lon="2.51442"><ele>36.0</ele></trkpt>
    <trkpt lat="48.80921" lon="2.51308"><ele>36.1</ele></trkpt>
    <trkpt lat="48.80948" lon="2.50983"><ele>39.8</ele></trkpt>
    <trkpt lat="48.80963" lon="2.50978"><ele>40.6</ele></trkpt>
    <trkpt lat="48.81016" lon="2.50997"><ele>42.8</ele></trkpt>
  </trkseg></trk>
</gpx>
