<?xml version="1.0" encoding="UTF-8"?>
<gpx version="1.1" creator="Club Cycliste USO" xmlns="http://www.topografix.com/GPX/1/1">
  <metadata><name>Vallée de Chevreuse – 146 km</name><desc>146.1 km, D+ 1026 m. Départ et arrivée : pont de Champigny.</desc></metadata>
  <trk><name>Vallée de Chevreuse – 146 km</name><trkseg>
    <trkpt lat="48.82484" lon="2.41153"><ele>57.1</ele></trkpt>
    <trkpt lat="48.82508" lon="2.41022"><ele>56.7</ele></trkpt>
    <trkpt lat="48.82535" lon="2.4095"><ele>56.5</ele></trkpt>
    <trkpt lat="48.82566" lon="2.40884"><ele>56.4</ele></trkpt>
    <trkpt lat="48.82678" lon="2.40707"><ele>56.7</ele></trkpt>
    <trkpt lat="48.82776" lon="2.40587"><ele>56.6</ele></trkpt>
    <trkpt lat="48.82829" lon="2.40512"><ele>56.4</ele></trkpt>
    <trkpt lat="48.82889" lon="2.40411"><ele>56.1</ele></trkpt>
    <trkpt lat="48.82917" lon="2.40377"><ele>55.9</ele></trkpt>
    <trkpt lat="48.82958" lon="2.40227"><ele>55.1</ele></trkpt>
    <trkpt lat="48.8298" lon="2.40096"><ele>54.0</ele></trkpt>
    <trkpt lat="48.83155" lon="2.39823"><ele>47.8</ele></trkpt>
    <trkpt lat="48.83176" lon="2.39781"><ele>46.9</ele></trkpt>
    <trkpt lat="48.83175" lon="2.39759"><ele>46.5</ele></trkpt>
    <trkpt lat="48.83093" lon="2.39548"><ele>43.5</ele></trkpt>
    <trkpt lat="48.83021" lon="2.39239"><ele>40.1</ele></trkpt>
    <trkpt lat="48.82858" lon="2.38847"><ele>38.4</ele></trkpt>
    <trkpt lat="48.82647" lon="2.38406"><ele>40.4</ele></trkpt>
    <trkpt lat="48.82569" lon="2.3819"><ele>43.4</ele></trkpt>
    <trkpt lat="48.82529" lon="2.38068"><ele>44.4</ele></trkpt>
    <trkpt lat="48.82512" lon="2.37963"><ele>45.2</ele></trkpt>
    <trkpt lat="48.82209" lon="2.37064"><ele>70.1</ele></trkpt>
    <trkpt lat="48.82156" lon="2.3689"><ele>71.9</ele></trkpt>
    <trkpt lat="48.81938" lon="2.36231"><ele>68.3</ele></trkpt>
    <trkpt lat="48.81929" lon="2.36179"><ele>67.4</ele></trkpt>
    <trkpt lat="48.81917" lon="2.35961"><ele>63.1</ele></trkpt>
    <trkpt lat="48.81918" lon="2.35879"><ele>61.8</ele></trkpt>
    <trkpt lat="48.81926" lon="2.35798"><ele>60.7</ele></trkpt>
    <trkpt lat="48.81956" lon="2.35731"><ele>59.1</ele></trkpt>
    <trkpt lat="48.82066" lon="2.3559"><ele>54.8</ele></trkpt>
    <trkpt lat="48.82092" lon="2.35518"><ele>54.2</ele></trkpt>
    <trkpt lat="48.82105" lon="2.35439"><ele>54.6</ele></trkpt>
    <trkpt lat="48.82104" lon="2.35084"><ele>59.2</ele></trkpt>
    <trkpt lat="48.81956" lon="2.34528"><ele>67.5</ele></trkpt>
    <trkpt lat="48.81955" lon="2.34391"><ele>68.3</ele></trkpt>
    <trkpt lat="48.81966" lon="2.34283"><ele>69.5</ele></trkpt>
    <trkpt lat="48.81994" lon="2.34069"><ele>72.5</ele></trkpt>
    <trkpt lat="48.82017" lon="2.33966"><ele>74.6</ele></trkpt>
    <trkpt lat="48.82039" lon="2.33891"><ele>76.2</ele></trkpt>
    <trkpt lat="48.82073" lon="2.33707"><ele>80.4</ele></trkpt>
    <trkpt lat="48.82125" lon="2.33475"><ele>84.2</ele></trkpt>
    <trkpt lat="48.82152" lon="2.33373"><ele>85.7</ele></trkpt>
    <trkpt lat="48.82171" lon="2.33268"><ele>86.5</ele></trkpt>
    <trkpt lat="48.82258" lon="2.32881"><ele>86.0</ele></trkpt>
    <trkpt lat="48.8229" lon="2.32724"><ele>84.2</ele></trkpt>
    <trkpt lat="48.82319" lon="2.32543"><ele>82.0</ele></trkpt>
    <trkpt lat="48.82178" lon="2.32502"><ele>82.2</ele></trkpt>
    <trkpt lat="48.82012" lon="2.32398"><ele>84.9</ele></trkpt>
    <trkpt lat="48.81819" lon="2.32251"><ele>90.0</ele></trkpt>
    <trkpt lat="48.8179" lon="2.3222"><ele>90.0</ele></trkpt>
    <trkpt lat="48.81592" lon="2.32089"><ele>88.1</ele></trkpt>
    <trkpt lat="48.8154" lon="2.32067"><ele>88.2</ele></trkpt>
    <trkpt lat="48.81487" lon="2.32069"><ele>88.1</ele></trkpt>
    <trkpt lat="48.81004" lon="2.31771"><ele>87.3</ele></trkpt>
    <trkpt lat="48.80993" lon="2.31754"><ele>87.0</ele></trkpt>
    <trkpt lat="48.80991" lon="2.31727"><ele>86.8</ele></trkpt>
    <trkpt lat="48.81052" lon="2.3094"><ele>89.5</ele></trkpt>
    <trkpt lat="48.81059" lon="2.30804"><ele>90.8</ele></trkpt>
    <trkpt lat="48.81055" lon="2.30779"><ele>91.0</ele></trkpt>
    <trkpt lat="48.80672" lon="2.30423"><ele>89.6</ele></trkpt>
    <trkpt lat="48.80624" lon="2.30385"><ele>88.8</ele></trkpt>
    <trkpt lat="48.80573" lon="2.30357"><ele>88.0</ele></trkpt>
    <trkpt lat="48.80521" lon="2.30337"><ele>87.4</ele></trkpt>
    <trkpt lat="48.80342" lon="2.30303"><ele>86.5</ele></trkpt>
    <trkpt lat="48.80101" lon="2.30197"><ele>88.6</ele></trkpt>
    <trkpt lat="48.80017" lon="2.30149"><ele>89.6</ele></trkpt>
    <trkpt lat="48.80017" lon="2.30132"><ele>89.7</ele></trkpt>
    <trkpt lat="48.80179" lon="2.30013"><ele>90.7</ele></trkpt>
    <trkpt lat="48.80315" lon="2.2988"><ele>92.7</ele></trkpt>
    <trkpt lat="48.80401" lon="2.29785"><ele>94.7</ele></trkpt>
    <trkpt lat="48.80252" lon="2.29688"><ele>98.6</ele></trkpt>
    <trkpt lat="48.80228" lon="2.29654"><ele>99.9</ele></trkpt>
    <trkpt lat="48.80016" lon="2.29179"><ele>111.0</ele></trkpt>
    <trkpt lat="48.79971" lon="2.29061"><ele>112.5</ele></trkpt>
    <trkpt lat="48.79972" lon="2.29036"><ele>112.8</ele></trkpt>
    <trkpt lat="48.79983" lon="2.28984"><ele>113.6</ele></trkpt>
    <trkpt lat="48.79993" lon="2.28964"><ele>114.0</ele></trkpt>
    <trkpt lat="48.80009" lon="2.28952"><ele>114.3</ele></trkpt>
    <trkpt lat="48.8002" lon="2.28931"><ele>114.6</ele></trkpt>
    <trkpt lat="48.80051" lon="2.28864"><ele>115.3</ele></trkpt>
    <trkpt lat="48.80076" lon="2.28792"><ele>116.0</ele></trkpt>
    <trkpt lat="48.80082" lon="2.28766"><ele>116.4</ele></trkpt>
    <trkpt lat="48.80081" lon="2.28741"><ele>116.7</ele></trkpt>
    <trkpt lat="48.8007" lon="2.2872"><ele>117.2</ele></trkpt>
    <trkpt lat="48.80065" lon="2.28695"><ele>117.7</ele></trkpt>
    <trkpt lat="48.80068" lon="2.28668"><ele>118.2</ele></trkpt>
    <trkpt lat="48.8006" lon="2.28648"><ele>118.9</ele></trkpt>
    <trkpt lat="48.79984" lon="2.28574"><ele>123.0</ele></trkpt>
    <trkpt lat="48.79944" lon="2.2852"><ele>126.6</ele></trkpt>
    <trkpt lat="48.79838" lon="2.28334"><ele>139.0</ele></trkpt>
    <trkpt lat="48.79821" lon="2.28287"><ele>141.4</ele></trkpt>
    <trkpt lat="48.79807" lon="2.28272"><ele>142.7</ele></trkpt>
    <trkpt lat="48.79733" lon="2.28153"><ele>150.4</ele></trkpt>
    <trkpt lat="48.79689" lon="2.28068"><ele>154.8</ele></trkpt>
    <trkpt lat="48.79592" lon="2.27656"><ele>167.5</ele></trkpt>
    <trkpt lat="48.79518" lon="2.27469"><ele>171.0</ele></trkpt>
    <trkpt lat="48.79517" lon="2.27444"><ele>171.5</ele></trkpt>
    <trkpt lat="48.79521" lon="2.27422"><ele>171.9</ele></trkpt>
    <trkpt lat="48.7945" lon="2.27298"><ele>173.4</ele></trkpt>
    <trkpt lat="48.79436" lon="2.27282"><ele>173.4</ele></trkpt>
    <trkpt lat="48.79402" lon="2.27264"><ele>173.4</ele></trkpt>
    <trkpt lat="48.79389" lon="2.27245"><ele>173.3</ele></trkpt>
    <trkpt lat="48.79378" lon="2.27166"><ele>173.2</ele></trkpt>
    <trkpt lat="48.7928" lon="2.2697"><ele>172.2</ele></trkpt>
    <trkpt lat="48.79212" lon="2.26809"><ele>172.9</ele></trkpt>
    <trkpt lat="48.78998" lon="2.26272"><ele>175.3</ele></trkpt>
    <trkpt lat="48.78824" lon="2.25858"><ele>174.8</ele></trkpt>
    <trkpt lat="48.78184" lon="2.24277"><ele>180.2</ele></trkpt>
    <trkpt lat="48.78046" lon="2.23957"><ele>180.8</ele></trkpt>
    <trkpt lat="48.78028" lon="2.23881"><ele>181.2</ele></trkpt>
    <trkpt lat="48.77911" lon="2.23606"><ele>182.1</ele></trkpt>
    <trkpt lat="48.77878" lon="2.23512"><ele>181.8</ele></trkpt>
    <trkpt lat="48.77866" lon="2.23494"><ele>181.6</ele></trkpt>
    <trkpt lat="48.77851" lon="2.23445"><ele>181.2</ele></trkpt>
    <trkpt lat="48.77718" lon="2.23121"><ele>173.7</ele></trkpt>
    <trkpt lat="48.77706" lon="2.2307"><ele>171.3</ele></trkpt>
    <trkpt lat="48.77703" lon="2.23016"><ele>168.8</ele></trkpt>
    <trkpt lat="48.77671" lon="2.23001"><ele>166.3</ele></trkpt>
    <trkpt lat="48.77628" lon="2.22915"><ele>161.2</ele></trkpt>
    <trkpt lat="48.77614" lon="2.22897"><ele>159.8</ele></trkpt>
    <trkpt lat="48.77599" lon="2.22884"><ele>158.4</ele></trkpt>
    <trkpt lat="48.77564" lon="2.22873"><ele>155.5</ele></trkpt>
    <trkpt lat="48.77456" lon="2.22878"><ele>147.9</ele></trkpt>
    <trkpt lat="48.7717" lon="2.22916"><ele>133.5</ele></trkpt>
    <trkpt lat="48.7699" lon="2.2291"><ele>127.8</ele></trkpt>
    <trkpt lat="48.76954" lon="2.22919"><ele>127.0</ele></trkpt>
    <trkpt lat="48.76886" lon="2.22953"><ele>125.1</ele></trkpt>
    <trkpt lat="48.7685" lon="2.22958"><ele>124.3</ele></trkpt>
    <trkpt lat="48.76724" lon="2.22959"><ele>122.3</ele></trkpt>
    <trkpt lat="48.76637" lon="2.22931"><ele>121.5</ele></trkpt>
    <trkpt lat="48.76345" lon="2.22614"><ele>118.3</ele></trkpt>
    <trkpt lat="48.76289" lon="2.22508"><ele>116.7</ele></trkpt>
    <trkpt lat="48.762" lon="2.22415"><ele>115.4</ele></trkpt>
    <trkpt lat="48.76151" lon="2.22301"><ele>114.7</ele></trkpt>
    <trkpt lat="48.76139" lon="2.22281"><ele>114.5</ele></trkpt>
    <trkpt lat="48.76029" lon="2.2214"><ele>112.7</ele></trkpt>
    <trkpt lat="48.75926" lon="2.22031"><ele>110.9</ele></trkpt>
    <trkpt lat="48.7561" lon="2.21769"><ele>108.6</ele></trkpt>
    <trkpt lat="48.75563" lon="2.21687"><ele>106.0</ele></trkpt>
    <trkpt lat="48.75504" lon="2.2155"><ele>100.7</ele></trkpt>
    <trkpt lat="48.75492" lon="2.21501"><ele>98.9</ele></trkpt>
    <trkpt lat="48.75465" lon="2.21531"><ele>97.1</ele></trkpt>
    <trkpt lat="48.75399" lon="2.21575"><ele>93.2</ele></trkpt>
    <trkpt lat="48.75345" lon="2.21583"><ele>90.5</ele></trkpt>
    <trkpt lat="48.75313" lon="2.21562"><ele>88.9</ele></trkpt>
    <trkpt lat="48.75243" lon="2.2148"><ele>87.0</ele></trkpt>
    <trkpt lat="48.75175" lon="2.21392"><ele>87.5</ele></trkpt>
    <trkpt lat="48.75087" lon="2.21254"><ele>92.7</ele></trkpt>
    <trkpt lat="48.75054" lon="2.21158"><ele>96.8</ele></trkpt>
    <trkpt lat="48.75046" lon="2.2111"><ele>99.0</ele></trkpt>
    <trkpt lat="48.75009" lon="2.21017"><ele>103.3</ele></trkpt>
    <trkpt lat="48.74979" lon="2.20918"><ele>107.7</ele></trkpt>
    <trkpt lat="48.7498" lon="2.2081"><ele>112.2</ele></trkpt>
    <trkpt lat="48.74993" lon="2.2073"><ele>116.1</ele></trkpt>
    <trkpt lat="48.75026" lon="2.20604"><ele>122.7</ele></trkpt>
    <trkpt lat="48.75065" lon="2.20513"><ele>127.5</ele></trkpt>
    <trkpt lat="48.75074" lon="2.20461"><ele>129.9</ele></trkpt>
    <trkpt lat="48.75081" lon="2.2038"><ele>133.5</ele></trkpt>
    <trkpt lat="48.75076" lon="2.20325"><ele>135.9</ele></trkpt>
    <trkpt lat="48.7504" lon="2.20201"><ele>142.0</ele></trkpt>
    <trkpt lat="48.75015" lon="2.20163"><ele>144.2</ele></trkpt>
    <trkpt lat="48.74946" lon="2.20036"><ele>148.7</ele></trkpt>
    <trkpt lat="48.7484" lon="2.19816"><ele>155.2</ele></trkpt>
    <trkpt lat="48.74841" lon="2.19734"><ele>157.5</ele></trkpt>
    <trkpt lat="48.74837" lon="2.19708"><ele>158.2</ele></trkpt>
    <trkpt lat="48.74785" lon="2.19598"><ele>160.6</ele></trkpt>
    <trkpt lat="48.7477" lon="2.19585"><ele>161.0</ele></trkpt>
    <trkpt lat="48.74734" lon="2.19582"><ele>161.8</ele></trkpt>
    <trkpt lat="48.74718" lon="2.19571"><ele>162.2</ele></trkpt>
    <trkpt lat="48.74677" lon="2.19518"><ele>163.3</ele></trkpt>
    <trkpt lat="48.74409" lon="2.1897"><ele>165.9</ele></trkpt>
    <trkpt lat="48.74404" lon="2.18917"><ele>165.9</ele></trkpt>
    <trkpt lat="48.74407" lon="2.1889"><ele>165.9</ele></trkpt>
    <trkpt lat="48.74379" lon="2.1886"><ele>165.9</ele></trkpt>
    <trkpt lat="48.74279" lon="2.18705"><ele>164.5</ele></trkpt>
    <trkpt lat="48.74079" lon="2.18285"><ele>161.2</ele></trkpt>
    <trkpt lat="48.73783" lon="2.17701"><ele>161.4</ele></trkpt>
    <trkpt lat="48.737" lon="2.17491"><ele>159.7</ele></trkpt>
    <trkpt lat="48.73591" lon="2.17273"><ele>157.9</ele></trkpt>
    <trkpt lat="48.73429" lon="2.16981"><ele>160.6</ele></trkpt>
    <trkpt lat="48.73327" lon="2.16827"><ele>162.4</ele></trkpt>
    <trkpt lat="48.73318" lon="2.16804"><ele>162.7</ele></trkpt>
    <trkpt lat="48.73243" lon="2.16688"><ele>163.5</ele></trkpt>
    <trkpt lat="48.7312" lon="2.16452"><ele>162.4</ele></trkpt>
    <trkpt lat="48.73108" lon="2.16436"><ele>162.4</ele></trkpt>
    <trkpt lat="48.73079" lon="2.16368"><ele>162.3</ele></trkpt>
    <trkpt lat="48.73079" lon="2.16314"><ele>162.2</ele></trkpt>
    <trkpt lat="48.73031" lon="2.16278"><ele>162.5</ele></trkpt>
    <trkpt lat="48.72947" lon="2.16232"><ele>163.9</ele></trkpt>
    <trkpt lat="48.72948" lon="2.16207"><ele>164.2</ele></trkpt>
    <trkpt lat="48.72877" lon="2.16124"><ele>165.6</ele></trkpt>
    <trkpt lat="48.72844" lon="2.16101"><ele>166.5</ele></trkpt>
    <trkpt lat="48.72484" lon="2.15741"><ele>171.9</ele></trkpt>
    <trkpt lat="48.72412" lon="2.15661"><ele>173.3</ele></trkpt>
    <trkpt lat="48.7223" lon="2.15486"><ele>170.6</ele></trkpt>
    <trkpt lat="48.71832" lon="2.15065"><ele>166.8</ele></trkpt>
    <trkpt lat="48.71444" lon="2.14668"><ele>167.2</ele></trkpt>
    <trkpt lat="48.71398" lon="2.14625"><ele>167.3</ele></trkpt>
    <trkpt lat="48.71381" lon="2.14621"><ele>167.2</ele></trkpt>
    <trkpt lat="48.71365" lon="2.14607"><ele>167.1</ele></trkpt>
    <trkpt lat="48.71323" lon="2.14556"><ele>167.0</ele></trkpt>
    <trkpt lat="48.71291" lon="2.1453"><ele>167.2</ele></trkpt>
    <trkpt lat="48.70723" lon="2.13954"><ele>170.7</ele></trkpt>
    <trkpt lat="48.7065" lon="2.13876"><ele>165.5</ele></trkpt>
    <trkpt lat="48.70623" lon="2.1384"><ele>163.2</ele></trkpt>
    <trkpt lat="48.70605" lon="2.13793"><ele>161.0</ele></trkpt>
    <trkpt lat="48.70603" lon="2.13766"><ele>159.9</ele></trkpt>
    <trkpt lat="48.70602" lon="2.13684"><ele>157.2</ele></trkpt>
    <trkpt lat="48.70608" lon="2.13631"><ele>155.5</ele></trkpt>
    <trkpt lat="48.70627" lon="2.13585"><ele>153.8</ele></trkpt>
    <trkpt lat="48.70655" lon="2.1355"><ele>151.5</ele></trkpt>
    <trkpt lat="48.70722" lon="2.13512"><ele>144.9</ele></trkpt>
    <trkpt lat="48.7081" lon="2.13484"><ele>137.3</ele></trkpt>
    <trkpt lat="48.70822" lon="2.13466"><ele>136.1</ele></trkpt>
    <trkpt lat="48.70825" lon="2.13412"><ele>134.1</ele></trkpt>
    <trkpt lat="48.70817" lon="2.13389"><ele>133.2</ele></trkpt>
    <trkpt lat="48.70793" lon="2.13349"><ele>131.6</ele></trkpt>
    <trkpt lat="48.7079" lon="2.13322"><ele>130.8</ele></trkpt>
    <trkpt lat="48.70791" lon="2.13295"><ele>129.9</ele></trkpt>
    <trkpt lat="48.70815" lon="2.13192"><ele>126.2</ele></trkpt>
    <trkpt lat="48.70833" lon="2.13145"><ele>124.0</ele></trkpt>
    <trkpt lat="48.71003" lon="2.12864"><ele>107.5</ele></trkpt>
    <trkpt lat="48.71002" lon="2.1281"><ele>105.7</ele></trkpt>
    <trkpt lat="48.70992" lon="2.12788"><ele>104.7</ele></trkpt>
    <trkpt lat="48.70532" lon="2.1222"><ele>93.7</ele></trkpt>
    <trkpt lat="48.70506" lon="2.12119"><ele>94.2</ele></trkpt>
    <trkpt lat="48.70482" lon="2.11876"><ele>92.2</ele></trkpt>
    <trkpt lat="48.704" lon="2.1118"><ele>78.4</ele></trkpt>
    <trkpt lat="48.70351" lon="2.11149"><ele>77.3</ele></trkpt>
    <trkpt lat="48.70298" lon="2.1113"><ele>76.9</ele></trkpt>
    <trkpt lat="48.70263" lon="2.11134"><ele>76.9</ele></trkpt>
    <trkpt lat="48.70194" lon="2.11166"><ele>77.0</ele></trkpt>
    <trkpt lat="48.70176" lon="2.11168"><ele>77.0</ele></trkpt>
    <trkpt lat="48.70071" lon="2.1116"><ele>78.4</ele></trkpt>
    <trkpt lat="48.70058" lon="2.11153"><ele>79.0</ele></trkpt>
    <trkpt lat="48.7005" lon="2.11045"><ele>81.8</ele></trkpt>
    <trkpt lat="48.69975" lon="2.10974"><ele>85.5</ele></trkpt>
    <trkpt lat="48.69943" lon="2.1095"><ele>87.2</ele></trkpt>
    <trkpt lat="48.69855" lon="2.10855"><ele>91.0</ele></trkpt>
    <trkpt lat="48.69808" lon="2.10778"><ele>92.5</ele></trkpt>
    <trkpt lat="48.69777" lon="2.10711"><ele>93.5</ele></trkpt>
    <trkpt lat="48.69708" lon="2.10624"><ele>95.2</ele></trkpt>
    <trkpt lat="48.69701" lon="2.10599"><ele>95.5</ele></trkpt>
    <trkpt lat="48.69496" lon="2.10669"><ele>102.7</ele></trkpt>
    <trkpt lat="48.69443" lon="2.1068"><ele>104.4</ele></trkpt>
    <trkpt lat="48.69426" lon="2.10676"><ele>104.9</ele></trkpt>
    <trkpt lat="48.69416" lon="2.10655"><ele>105.4</ele></trkpt>
    <trkpt lat="48.69413" lon="2.10628"><ele>105.9</ele></trkpt>
    <trkpt lat="48.69426" lon="2.10466"><ele>110.3</ele></trkpt>
    <trkpt lat="48.69423" lon="2.10439"><ele>111.3</ele></trkpt>
    <trkpt lat="48.69409" lon="2.10426"><ele>112.4</ele></trkpt>
    <trkpt lat="48.69391" lon="2.10424"><ele>113.5</ele></trkpt>
    <trkpt lat="48.69374" lon="2.10433"><ele>114.7</ele></trkpt>
    <trkpt lat="48.69362" lon="2.10453"><ele>115.8</ele></trkpt>
    <trkpt lat="48.69354" lon="2.10534"><ele>118.8</ele></trkpt>
    <trkpt lat="48.69348" lon="2.10559"><ele>119.8</ele></trkpt>
    <trkpt lat="48.69338" lon="2.10581"><ele>120.8</ele></trkpt>
    <trkpt lat="48.69299" lon="2.10639"><ele>123.9</ele></trkpt>
    <trkpt lat="48.69279" lon="2.10683"><ele>125.6</ele></trkpt>
    <trkpt lat="48.69224" lon="2.10884"><ele>132.1</ele></trkpt>
    <trkpt lat="48.6921" lon="2.109"><ele>133.4</ele></trkpt>
    <trkpt lat="48.69192" lon="2.109"><ele>134.6</ele></trkpt>
    <trkpt lat="48.69176" lon="2.10889"><ele>135.9</ele></trkpt>
    <trkpt lat="48.6917" lon="2.10865"><ele>137.0</ele></trkpt>
    <trkpt lat="48.6917" lon="2.10838"><ele>138.0</ele></trkpt>
    <trkpt lat="48.69222" lon="2.10665"><ele>143.7</ele></trkpt>
    <trkpt lat="48.69226" lon="2.10638"><ele>144.4</ele></trkpt>
    <trkpt lat="48.69223" lon="2.10611"><ele>145.2</ele></trkpt>
    <trkpt lat="48.69212" lon="2.10591"><ele>146.0</ele></trkpt>
    <trkpt lat="48.69195" lon="2.10587"><ele>146.8</ele></trkpt>
    <trkpt lat="48.69178" lon="2.10592"><ele>147.7</ele></trkpt>
    <trkpt lat="48.69164" lon="2.10609"><ele>148.5</ele></trkpt>
    <trkpt lat="48.69147" lon="2.10714"><ele>150.9</ele></trkpt>
    <trkpt lat="48.69138" lon="2.10738"><ele>151.4</ele></trkpt>
    <trkpt lat="48.69128" lon="2.1076"><ele>151.9</ele></trkpt>
    <trkpt lat="48.69087" lon="2.10815"><ele>153.9</ele></trkpt>
    <trkpt lat="48.69056" lon="2.1084"><ele>155.3</ele></trkpt>
    <trkpt lat="48.69003" lon="2.1084"><ele>156.9</ele></trkpt>
    <trkpt lat="48.68951" lon="2.10818"><ele>158.2</ele></trkpt>
    <trkpt lat="48.68787" lon="2.10709"><ele>163.2</ele></trkpt>
    <trkpt lat="48.68727" lon="2.10649"><ele>164.3</ele></trkpt>
    <trkpt lat="48.68657" lon="2.10563"><ele>167.0</ele></trkpt>
    <trkpt lat="48.68507" lon="2.10414"><ele>172.8</ele></trkpt>
    <trkpt lat="48.68308" lon="2.10286"><ele>174.2</ele></trkpt>
    <trkpt lat="48.68137" lon="2.10135"><ele>168.3</ele></trkpt>
    <trkpt lat="48.67943" lon="2.10083"><ele>170.1</ele></trkpt>
    <trkpt lat="48.67835" lon="2.10079"><ele>173.3</ele></trkpt>
    <trkpt lat="48.678" lon="2.1007"><ele>173.9</ele></trkpt>
    <trkpt lat="48.67602" lon="2.09939"><ele>176.8</ele></trkpt>
    <trkpt lat="48.67521" lon="2.09893"><ele>176.3</ele></trkpt>
    <trkpt lat="48.67255" lon="2.08735"><ele>169.7</ele></trkpt>
    <trkpt lat="48.67232" lon="2.08632"><ele>169.8</ele></trkpt>
    <trkpt lat="48.67226" lon="2.08578"><ele>169.9</ele></trkpt>
    <trkpt lat="48.67218" lon="2.07053"><ele>177.1</ele></trkpt>
    <trkpt lat="48.67231" lon="2.07003"><ele>176.5</ele></trkpt>
    <trkpt lat="48.67293" lon="2.06871"><ele>174.1</ele></trkpt>
    <trkpt lat="48.67225" lon="2.06745"><ele>171.6</ele></trkpt>
    <trkpt lat="48.67216" lon="2.06722"><ele>171.1</ele></trkpt>
    <trkpt lat="48.67205" lon="2.06642"><ele>170.1</ele></trkpt>
    <trkpt lat="48.67151" lon="2.0657"><ele>168.9</ele></trkpt>
    <trkpt lat="48.67136" lon="2.06557"><ele>168.6</ele></trkpt>
    <trkpt lat="48.67131" lon="2.06531"><ele>168.3</ele></trkpt>
    <trkpt lat="48.67092" lon="2.06441"><ele>167.4</ele></trkpt>
    <trkpt lat="48.6711" lon="2.06281"><ele>166.5</ele></trkpt>
    <trkpt lat="48.67105" lon="2.06227"><ele>166.3</ele></trkpt>
    <trkpt lat="48.66881" lon="2.05366"><ele>172.6</ele></trkpt>
    <trkpt lat="48.66859" lon="2.05263"><ele>171.6</ele></trkpt>
    <trkpt lat="48.66861" lon="2.05236"><ele>171.3</ele></trkpt>
    <trkpt lat="48.66989" lon="2.04877"><ele>169.2</ele></trkpt>
    <trkpt lat="48.67011" lon="2.04803"><ele>169.5</ele></trkpt>
    <trkpt lat="48.67016" lon="2.04749"><ele>169.5</ele></trkpt>
    <trkpt lat="48.67015" lon="2.04613"><ele>169.7</ele></trkpt>
    <trkpt lat="48.6701" lon="2.04559"><ele>170.0</ele></trkpt>
    <trkpt lat="48.66893" lon="2.03987"><ele>173.0</ele></trkpt>
    <trkpt lat="48.66787" lon="2.0313"><ele>175.5</ele></trkpt>
    <trkpt lat="48.66734" lon="2.02509"><ele>176.3</ele></trkpt>
    <trkpt lat="48.66727" lon="2.0221"><ele>179.2</ele></trkpt>
    <trkpt lat="48.6667" lon="2.01981"><ele>181.9</ele></trkpt>
    <trkpt lat="48.66655" lon="2.01902"><ele>182.9</ele></trkpt>
    <trkpt lat="48.6665" lon="2.01848"><ele>183.7</ele></trkpt>
    <trkpt lat="48.6663" lon="2.01332"><ele>189.6</ele></trkpt>
    <trkpt lat="48.66608" lon="2.01258"><ele>189.6</ele></trkpt>
    <trkpt lat="48.66564" lon="2.01211"><ele>188.6</ele></trkpt>
    <trkpt lat="48.66386" lon="2.0108"><ele>180.9</ele></trkpt>
    <trkpt lat="48.66299" lon="2.01057"><ele>177.0</ele></trkpt>
    <trkpt lat="48.66346" lon="2.00851"><ele>169.4</ele></trkpt>
    <trkpt lat="48.66871" lon="1.9891"><ele>164.9</ele></trkpt>
    <trkpt lat="48.66894" lon="1.98874"><ele>164.5</ele></trkpt>
    <trkpt lat="48.66898" lon="1.9882"><ele>164.2</ele></trkpt>
    <trkpt lat="48.66971" lon="1.98542"><ele>162.8</ele></trkpt>
    <trkpt lat="48.67038" lon="1.98349"><ele>162.7</ele></trkpt>
    <trkpt lat="48.67205" lon="1.97929"><ele>166.9</ele></trkpt>
    <trkpt lat="48.67271" lon="1.97736"><ele>168.5</ele></trkpt>
    <trkpt lat="48.67301" lon="1.97607"><ele>168.9</ele></trkpt>
    <trkpt lat="48.67353" lon="1.97435"><ele>166.9</ele></trkpt>
    <trkpt lat="48.67361" lon="1.97272"><ele>166.7</ele></trkpt>
    <trkpt lat="48.6736" lon="1.97191"><ele>167.4</ele></trkpt>
    <trkpt lat="48.67352" lon="1.97166"><ele>167.7</ele></trkpt>
    <trkpt lat="48.67276" lon="1.97051"><ele>168.9</ele></trkpt>
    <trkpt lat="48.67253" lon="1.97008"><ele>169.1</ele></trkpt>
    <trkpt lat="48.67172" lon="1.96765"><ele>170.6</ele></trkpt>
    <trkpt lat="48.67089" lon="1.96588"><ele>172.3</ele></trkpt>
    <trkpt lat="48.67067" lon="1.96514"><ele>172.1</ele></trkpt>
    <trkpt lat="48.67" lon="1.95951"><ele>171.1</ele></trkpt>
    <trkpt lat="48.66952" lon="1.95746"><ele>172.0</ele></trkpt>
    <trkpt lat="48.66946" lon="1.95665"><ele>172.8</ele></trkpt>
    <trkpt lat="48.66931" lon="1.95617"><ele>173.4</ele></trkpt>
    <trkpt lat="48.66908" lon="1.95402"><ele>173.6</ele></trkpt>
    <trkpt lat="48.66871" lon="1.95278"><ele>172.4</ele></trkpt>
    <trkpt lat="48.66861" lon="1.95226"><ele>172.0</ele></trkpt>
    <trkpt lat="48.66861" lon="1.95063"><ele>170.9</ele></trkpt>
    <trkpt lat="48.66885" lon="1.94903"><ele>168.7</ele></trkpt>
    <trkpt lat="48.66892" lon="1.94768"><ele>166.2</ele></trkpt>
    <trkpt lat="48.66891" lon="1.94686"><ele>165.4</ele></trkpt>
    <trkpt lat="48.66882" lon="1.94606"><ele>165.0</ele></trkpt>
    <trkpt lat="48.66812" lon="1.94326"><ele>167.6</ele></trkpt>
    <trkpt lat="48.66708" lon="1.93978"><ele>173.7</ele></trkpt>
    <trkpt lat="48.66679" lon="1.9391"><ele>175.0</ele></trkpt>
    <trkpt lat="48.66567" lon="1.93733"><ele>178.7</ele></trkpt>
    <trkpt lat="48.66531" lon="1.93639"><ele>179.6</ele></trkpt>
    <trkpt lat="48.66477" lon="1.93467"><ele>179.3</ele></trkpt>
    <trkpt lat="48.66433" lon="1.93348"><ele>177.8</ele></trkpt>
    <trkpt lat="48.66402" lon="1.93221"><ele>176.5</ele></trkpt>
    <trkpt lat="48.66381" lon="1.92979"><ele>173.3</ele></trkpt>
    <trkpt lat="48.66272" lon="1.92576"><ele>172.5</ele></trkpt>
    <trkpt lat="48.66177" lon="1.92313"><ele>172.3</ele></trkpt>
    <trkpt lat="48.66042" lon="1.91721"><ele>172.6</ele></trkpt>
    <trkpt lat="48.66023" lon="1.91675"><ele>173.0</ele></trkpt>
    <trkpt lat="48.65939" lon="1.91533"><ele>174.7</ele></trkpt>
    <trkpt lat="48.65922" lon="1.91486"><ele>175.4</ele></trkpt>
    <trkpt lat="48.65813" lon="1.91024"><ele>176.7</ele></trkpt>
    <trkpt lat="48.65787" lon="1.90894"><ele>177.1</ele></trkpt>
    <trkpt lat="48.658" lon="1.90214"><ele>182.3</ele></trkpt>
    <trkpt lat="48.65749" lon="1.9001"><ele>183.3</ele></trkpt>
    <trkpt lat="48.65683" lon="1.89786"><ele>183.1</ele></trkpt>
    <trkpt lat="48.65616" lon="1.89658"><ele>181.9</ele></trkpt>
    <trkpt lat="48.65579" lon="1.89565"><ele>181.7</ele></trkpt>
    <trkpt lat="48.6553" lon="1.89361"><ele>182.2</ele></trkpt>
    <trkpt lat="48.65534" lon="1.89337"><ele>182.2</ele></trkpt>
    <trkpt lat="48.65614" lon="1.89156"><ele>181.2</ele></trkpt>
    <trkpt lat="48.66053" lon="1.88225"><ele>169.0</ele></trkpt>
    <trkpt lat="48.66225" lon="1.87876"><ele>169.6</ele></trkpt>
    <trkpt lat="48.66238" lon="1.87858"><ele>169.6</ele></trkpt>
    <trkpt lat="48.66305" lon="1.87819"><ele>169.9</ele></trkpt>
    <trkpt lat="48.66374" lon="1.87785"><ele>170.1</ele></trkpt>
    <trkpt lat="48.66497" lon="1.87743"><ele>170.5</ele></trkpt>
    <trkpt lat="48.66548" lon="1.87719"><ele>169.8</ele></trkpt>
    <trkpt lat="48.66561" lon="1.87708"><ele>169.5</ele></trkpt>
    <trkpt lat="48.66533" lon="1.8755"><ele>168.3</ele></trkpt>
    <trkpt lat="48.66474" lon="1.87487"><ele>167.9</ele></trkpt>
    <trkpt lat="48.66451" lon="1.87445"><ele>167.9</ele></trkpt>
    <trkpt lat="48.66313" lon="1.87063"><ele>168.5</ele></trkpt>
    <trkpt lat="48.66067" lon="1.85924"><ele>171.3</ele></trkpt>
    <trkpt lat="48.66055" lon="1.85909"><ele>171.2</ele></trkpt>
    <trkpt lat="48.65986" lon="1.85941"><ele>171.0</ele></trkpt>
    <trkpt lat="48.65937" lon="1.85973"><ele>170.9</ele></trkpt>
    <trkpt lat="48.6594" lon="1.86053"><ele>170.9</ele></trkpt>
    <trkpt lat="48.65931" lon="1.86075"><ele>170.9</ele></trkpt>
    <trkpt lat="48.65914" lon="1.86079"><ele>170.9</ele></trkpt>
    <trkpt lat="48.65735" lon="1.86102"><ele>171.4</ele></trkpt>
    <trkpt lat="48.65537" lon="1.86114"><ele>171.3</ele></trkpt>
    <trkpt lat="48.65357" lon="1.861"><ele>171.5</ele></trkpt>
    <trkpt lat="48.65286" lon="1.86086"><ele>171.0</ele></trkpt>
    <trkpt lat="48.65113" lon="1.86011"><ele>170.0</ele></trkpt>
    <trkpt lat="48.65008" lon="1.85972"><ele>170.0</ele></trkpt>
    <trkpt lat="48.64705" lon="1.85914"><ele>168.3</ele></trkpt>
    <trkpt lat="48.64635" lon="1.85893"><ele>168.7</ele></trkpt>
    <trkpt lat="48.64586" lon="1.85858"><ele>168.5</ele></trkpt>
    <trkpt lat="48.645" lon="1.8582"><ele>167.2</ele></trkpt>
    <trkpt lat="48.64423" lon="1.85751"><ele>165.8</ele></trkpt>
    <trkpt lat="48.64365" lon="1.85685"><ele>165.7</ele></trkpt>
    <trkpt lat="48.64355" lon="1.85703"><ele>165.6</ele></trkpt>
    <trkpt lat="48.62687" lon="1.89384"><ele>174.9</ele></trkpt>
    <trkpt lat="48.62646" lon="1.89436"><ele>174.8</ele></trkpt>
    <trkpt lat="48.62579" lon="1.89474"><ele>173.6</ele></trkpt>
    <trkpt lat="48.62453" lon="1.89491"><ele>170.4</ele></trkpt>
    <trkpt lat="48.62419" lon="1.89505"><ele>169.3</ele></trkpt>
    <trkpt lat="48.62357" lon="1.8956"><ele>166.8</ele></trkpt>
    <trkpt lat="48.62316" lon="1.89612"><ele>164.7</ele></trkpt>
    <trkpt lat="48.62281" lon="1.89675"><ele>162.2</ele></trkpt>
    <trkpt lat="48.62224" lon="1.89845"><ele>155.9</ele></trkpt>
    <trkpt lat="48.62166" lon="1.90044"><ele>149.1</ele></trkpt>
    <trkpt lat="48.62109" lon="1.90183"><ele>143.3</ele></trkpt>
    <trkpt lat="48.62077" lon="1.90248"><ele>140.8</ele></trkpt>
    <trkpt lat="48.62003" lon="1.90434"><ele>135.2</ele></trkpt>
    <trkpt lat="48.61972" lon="1.9046"><ele>134.1</ele></trkpt>
    <trkpt lat="48.61794" lon="1.90499"><ele>130.1</ele></trkpt>
    <trkpt lat="48.61642" lon="1.90582"><ele>130.2</ele></trkpt>
    <trkpt lat="48.61482" lon="1.90705"><ele>130.8</ele></trkpt>
    <trkpt lat="48.61341" lon="1.90746"><ele>131.5</ele></trkpt>
    <trkpt lat="48.6131" lon="1.90775"><ele>131.5</ele></trkpt>
    <trkpt lat="48.61274" lon="1.90835"><ele>131.4</ele></trkpt>
    <trkpt lat="48.61233" lon="1.90955"><ele>130.5</ele></trkpt>
    <trkpt lat="48.61206" lon="1.91307"><ele>127.7</ele></trkpt>
    <trkpt lat="48.61197" lon="1.91359"><ele>127.4</ele></trkpt>
    <trkpt lat="48.61114" lon="1.91502"><ele>126.9</ele></trkpt>
    <trkpt lat="48.60955" lon="1.91831"><ele>133.8</ele></trkpt>
    <trkpt lat="48.60939" lon="1.91879"><ele>134.7</ele></trkpt>
    <trkpt lat="48.60943" lon="1.92232"><ele>138.1</ele></trkpt>
    <trkpt lat="48.60937" lon="1.92313"><ele>138.7</ele></trkpt>
    <trkpt lat="48.60916" lon="1.92417"><ele>138.8</ele></trkpt>
    <trkpt lat="48.60834" lon="1.92748"><ele>135.3</ele></trkpt>
    <trkpt lat="48.60817" lon="1.92854"><ele>134.4</ele></trkpt>
    <trkpt lat="48.60747" lon="1.93443"><ele>125.3</ele></trkpt>
    <trkpt lat="48.607" lon="1.93789"><ele>123.5</ele></trkpt>
    <trkpt lat="48.60675" lon="1.9392"><ele>122.7</ele></trkpt>
    <trkpt lat="48.60645" lon="1.94019"><ele>121.9</ele></trkpt>
    <trkpt lat="48.60617" lon="1.94088"><ele>121.1</ele></trkpt>
    <trkpt lat="48.60064" lon="1.95262"><ele>120.2</ele></trkpt>
    <trkpt lat="48.6005" lon="1.95278"><ele>120.0</ele></trkpt>
    <trkpt lat="48.60016" lon="1.95299"><ele>119.8</ele></trkpt>
    <trkpt lat="48.5953" lon="1.95582"><ele>117.7</ele></trkpt>
    <trkpt lat="48.59504" lon="1.95619"><ele>117.7</ele></trkpt>
    <trkpt lat="48.59095" lon="1.96706"><ele>117.1</ele></trkpt>
    <trkpt lat="48.58708" lon="1.9775"><ele>112.4</ele></trkpt>
    <trkpt lat="48.58608" lon="1.98008"><ele>116.9</ele></trkpt>
    <trkpt lat="48.58579" lon="1.98137"><ele>119.8</ele></trkpt>
    <trkpt lat="48.58585" lon="1.98158"><ele>120.4</ele></trkpt>
    <trkpt lat="48.58665" lon="1.98268"><ele>123.6</ele></trkpt>
    <trkpt lat="48.59248" lon="1.98994"><ele>133.8</ele></trkpt>
    <trkpt lat="48.59296" lon="1.99075"><ele>133.7</ele></trkpt>
    <trkpt lat="48.59357" lon="1.99239"><ele>131.4</ele></trkpt>
    <trkpt lat="48.59445" lon="1.99264"><ele>127.7</ele></trkpt>
    <trkpt lat="48.59526" lon="1.99322"><ele>123.5</ele></trkpt>
    <trkpt lat="48.5956" lon="1.99337"><ele>121.8</ele></trkpt>
    <trkpt lat="48.59704" lon="1.99328"><ele>114.2</ele></trkpt>
    <trkpt lat="48.59812" lon="1.99331"><ele>106.4</ele></trkpt>
    <trkpt lat="48.60152" lon="1.99381"><ele>95.7</ele></trkpt>
    <trkpt lat="48.60159" lon="1.99396"><ele>95.5</ele></trkpt>
    <trkpt lat="48.60151" lon="1.9942"><ele>95.3</ele></trkpt>
    <trkpt lat="48.60043" lon="1.99638"><ele>95.2</ele></trkpt>
    <trkpt lat="48.60026" lon="1.99685"><ele>96.1</ele></trkpt>
    <trkpt lat="48.59964" lon="1.99911"><ele>98.9</ele></trkpt>
    <trkpt lat="48.5991" lon="2.00141"><ele>100.0</ele></trkpt>
    <trkpt lat="48.5997" lon="2.00201"><ele>102.9</ele></trkpt>
    <trkpt lat="48.60095" lon="2.00308"><ele>110.0</ele></trkpt>
    <trkpt lat="48.60165" lon="2.00394"><ele>112.6</ele></trkpt>
    <trkpt lat="48.60221" lon="2.005"><ele>115.3</ele></trkpt>
    <trkpt lat="48.60362" lon="2.00815"><ele>118.5</ele></trkpt>
    <trkpt lat="48.60409" lon="2.00932"><ele>117.6</ele></trkpt>
    <trkpt lat="48.60591" lon="2.01336"><ele>120.1</ele></trkpt>
    <trkpt lat="48.6079" lon="2.01687"><ele>121.3</ele></trkpt>
    <trkpt lat="48.60829" lon="2.01743"><ele>120.7</ele></trkpt>
    <trkpt lat="48.61119" lon="2.02066"><ele>117.6</ele></trkpt>
    <trkpt lat="48.61196" lon="2.02179"><ele>117.5</ele></trkpt>
    <trkpt lat="48.61255" lon="2.02282"><ele>117.1</ele></trkpt>
    <trkpt lat="48.61287" lon="2.02347"><ele>117.2</ele></trkpt>
    <trkpt lat="48.61314" lon="2.02419"><ele>117.8</ele></trkpt>
    <trkpt lat="48.61372" lon="2.02617"><ele>117.8</ele></trkpt>
    <trkpt lat="48.61528" lon="2.03077"><ele>121.3</ele></trkpt>
    <trkpt lat="48.61587" lon="2.03213"><ele>124.5</ele></trkpt>
    <trkpt lat="48.61622" lon="2.03275"><ele>125.9</ele></trkpt>
    <trkpt lat="48.61719" lon="2.03396"><ele>128.8</ele></trkpt>
    <trkpt lat="48.61815" lon="2.03471"><ele>131.8</ele></trkpt>
    <trkpt lat="48.61881" lon="2.03515"><ele>134.0</ele></trkpt>
    <trkpt lat="48.61932" lon="2.03541"><ele>135.8</ele></trkpt>
    <trkpt lat="48.62055" lon="2.03586"><ele>141.0</ele></trkpt>
    <trkpt lat="48.62125" lon="2.03605"><ele>144.1</ele></trkpt>
    <trkpt lat="48.62229" lon="2.03652"><ele>147.4</ele></trkpt>
    <trkpt lat="48.6234" lon="2.03739"><ele>147.7</ele></trkpt>
    <trkpt lat="48.62425" lon="2.0384"><ele>145.6</ele></trkpt>
    <trkpt lat="48.62486" lon="2.0394"><ele>142.4</ele></trkpt>
    <trkpt lat="48.62564" lon="2.04123"><ele>136.6</ele></trkpt>
    <trkpt lat="48.62677" lon="2.04334"><ele>133.3</ele></trkpt>
    <trkpt lat="48.62989" lon="2.04745"><ele>138.7</ele></trkpt>
    <trkpt lat="48.63027" lon="2.04802"><ele>139.5</ele></trkpt>
    <trkpt lat="48.63059" lon="2.04868"><ele>140.5</ele></trkpt>
    <trkpt lat="48.63122" lon="2.05033"><ele>143.5</ele></trkpt>
    <trkpt lat="48.63134" lon="2.05084"><ele>144.2</ele></trkpt>
    <trkpt lat="48.63151" lon="2.05464"><ele>155.3</ele></trkpt>
    <trkpt lat="48.63167" lon="2.05541"><ele>159.3</ele></trkpt>
    <trkpt lat="48.63182" lon="2.05557"><ele>160.6</ele></trkpt>
    <trkpt lat="48.63199" lon="2.05564"><ele>161.9</ele></trkpt>
    <trkpt lat="48.63287" lon="2.05541"><ele>167.6</ele></trkpt>
    <trkpt lat="48.63322" lon="2.0555"><ele>169.6</ele></trkpt>
    <trkpt lat="48.63338" lon="2.05563"><ele>170.7</ele></trkpt>
    <trkpt lat="48.6338" lon="2.05613"><ele>174.6</ele></trkpt>
    <trkpt lat="48.6351" lon="2.05802"><ele>185.6</ele></trkpt>
    <trkpt lat="48.63765" lon="2.06185"><ele>174.5</ele></trkpt>
    <trkpt lat="48.6367" lon="2.0625"><ele>168.3</ele></trkpt>
    <trkpt lat="48.62966" lon="2.06664"><ele>148.4</ele></trkpt>
    <trkpt lat="48.6295" lon="2.06676"><ele>148.2</ele></trkpt>
    <trkpt lat="48.6294" lon="2.06694"><ele>148.1</ele></trkpt>
    <trkpt lat="48.62952" lon="2.07701"><ele>137.7</ele></trkpt>
    <trkpt lat="48.62952" lon="2.08027"><ele>132.4</ele></trkpt>
    <trkpt lat="48.62948" lon="2.08107"><ele>131.6</ele></trkpt>
    <trkpt lat="48.62956" lon="2.08158"><ele>131.0</ele></trkpt>
    <trkpt lat="48.62963" lon="2.08838"><ele>126.6</ele></trkpt>
    <trkpt lat="48.62961" lon="2.09301"><ele>124.4</ele></trkpt>
    <trkpt lat="48.62947" lon="2.0938"><ele>123.6</ele></trkpt>
    <trkpt lat="48.62843" lon="2.09786"><ele>115.7</ele></trkpt>
    <trkpt lat="48.62761" lon="2.09929"><ele>113.6</ele></trkpt>
    <trkpt lat="48.62757" lon="2.09955"><ele>113.4</ele></trkpt>
    <trkpt lat="48.62758" lon="2.10091"><ele>112.4</ele></trkpt>
    <trkpt lat="48.62771" lon="2.10253"><ele>112.4</ele></trkpt>
    <trkpt lat="48.62758" lon="2.10332"><ele>112.2</ele></trkpt>
    <trkpt lat="48.6248" lon="2.11625"><ele>92.5</ele></trkpt>
    <trkpt lat="48.62465" lon="2.11674"><ele>92.4</ele></trkpt>
    <trkpt lat="48.62453" lon="2.11692"><ele>92.3</ele></trkpt>
    <trkpt lat="48.6245" lon="2.11746"><ele>92.3</ele></trkpt>
    <trkpt lat="48.62432" lon="2.11851"><ele>92.2</ele></trkpt>
    <trkpt lat="48.62386" lon="2.12057"><ele>94.7</ele></trkpt>
    <trkpt lat="48.62365" lon="2.12189"><ele>98.6</ele></trkpt>
    <trkpt lat="48.62373" lon="2.12213"><ele>99.6</ele></trkpt>
    <trkpt lat="48.62407" lon="2.12276"><ele>103.0</ele></trkpt>
    <trkpt lat="48.62399" lon="2.1241"><ele>109.0</ele></trkpt>
    <trkpt lat="48.62415" lon="2.12487"><ele>112.1</ele></trkpt>
    <trkpt lat="48.62429" lon="2.12495"><ele>113.0</ele></trkpt>
    <trkpt lat="48.62478" lon="2.12465"><ele>115.9</ele></trkpt>
    <trkpt lat="48.62494" lon="2.12471"><ele>117.0</ele></trkpt>
    <trkpt lat="48.62582" lon="2.12565"><ele>123.1</ele></trkpt>
    <trkpt lat="48.62606" lon="2.12606"><ele>125.0</ele></trkpt>
    <trkpt lat="48.62621" lon="2.12621"><ele>126.0</ele></trkpt>
    <trkpt lat="48.63" lon="2.12869"><ele>138.4</ele></trkpt>
    <trkpt lat="48.63036" lon="2.12876"><ele>139.9</ele></trkpt>
    <trkpt lat="48.63212" lon="2.12827"><ele>147.1</ele></trkpt>
    <trkpt lat="48.63374" lon="2.12818"><ele>156.8</ele></trkpt>
    <trkpt lat="48.63468" lon="2.12738"><ele>163.2</ele></trkpt>
    <trkpt lat="48.63581" lon="2.12604"><ele>166.6</ele></trkpt>
    <trkpt lat="48.63859" lon="2.12352"><ele>168.4</ele></trkpt>
    <trkpt lat="48.63926" lon="2.12315"><ele>168.8</ele></trkpt>
    <trkpt lat="48.64066" lon="2.12263"><ele>169.7</ele></trkpt>
    <trkpt lat="48.64084" lon="2.1226"><ele>169.7</ele></trkpt>
    <trkpt lat="48.64098" lon="2.1227"><ele>169.6</ele></trkpt>
    <trkpt lat="48.641" lon="2.12297"><ele>169.5</ele></trkpt>
    <trkpt lat="48.64094" lon="2.1235"><ele>169.2</ele></trkpt>
    <trkpt lat="48.64101" lon="2.12486"><ele>168.3</ele></trkpt>
    <trkpt lat="48.64099" lon="2.1254"><ele>168.3</ele></trkpt>
    <trkpt lat="48.6407" lon="2.12753"><ele>169.2</ele></trkpt>
    <trkpt lat="48.64069" lon="2.12808"><ele>169.2</ele></trkpt>
    <trkpt lat="48.64077" lon="2.12888"><ele>169.1</ele></trkpt>
    <trkpt lat="48.64109" lon="2.12985"><ele>169.4</ele></trkpt>
    <trkpt lat="48.64117" lon="2.13038"><ele>169.7</ele></trkpt>
    <trkpt lat="48.64118" lon="2.13147"><ele>170.4</ele></trkpt>
    <trkpt lat="48.64128" lon="2.13309"><ele>171.4</ele></trkpt>
    <trkpt lat="48.64146" lon="2.1347"><ele>172.3</ele></trkpt>
    <trkpt lat="48.64606" lon="2.15097"><ele>171.8</ele></trkpt>
    <trkpt lat="48.64639" lon="2.15223"><ele>170.9</ele></trkpt>
    <trkpt lat="48.64647" lon="2.1527"><ele>170.5</ele></trkpt>
    <trkpt lat="48.64766" lon="2.15335"><ele>168.8</ele></trkpt>
    <trkpt lat="48.64768" lon="2.15358"><ele>168.4</ele></trkpt>
    <trkpt lat="48.64752" lon="2.15407"><ele>167.4</ele></trkpt>
    <trkpt lat="48.64718" lon="2.15469"><ele>165.7</ele></trkpt>
    <trkpt lat="48.64681" lon="2.15594"><ele>162.9</ele></trkpt>
    <trkpt lat="48.6467" lon="2.15613"><ele>162.4</ele></trkpt>
    <trkpt lat="48.64598" lon="2.15623"><ele>160.7</ele></trkpt>
    <trkpt lat="48.64582" lon="2.15634"><ele>160.5</ele></trkpt>
    <trkpt lat="48.64572" lon="2.15656"><ele>160.6</ele></trkpt>
    <trkpt lat="48.64547" lon="2.15786"><ele>162.3</ele></trkpt>
    <trkpt lat="48.6452" lon="2.15972"><ele>164.3</ele></trkpt>
    <trkpt lat="48.64446" lon="2.1622"><ele>168.9</ele></trkpt>
    <trkpt lat="48.6444" lon="2.16273"><ele>169.5</ele></trkpt>
    <trkpt lat="48.64418" lon="2.17389"><ele>167.9</ele></trkpt>
    <trkpt lat="48.64397" lon="2.17549"><ele>167.2</ele></trkpt>
    <trkpt lat="48.64315" lon="2.18051"><ele>167.3</ele></trkpt>
    <trkpt lat="48.643" lon="2.18158"><ele>167.8</ele></trkpt>
    <trkpt lat="48.64296" lon="2.18239"><ele>168.2</ele></trkpt>
    <trkpt lat="48.64302" lon="2.18374"><ele>168.7</ele></trkpt>
    <trkpt lat="48.64328" lon="2.18589"><ele>168.1</ele></trkpt>
    <trkpt lat="48.6433" lon="2.1867"><ele>167.2</ele></trkpt>
    <trkpt lat="48.64317" lon="2.18747"><ele>166.2</ele></trkpt>
    <trkpt lat="48.64341" lon="2.18784"><ele>165.4</ele></trkpt>
    <trkpt lat="48.64359" lon="2.18861"><ele>164.1</ele></trkpt>
    <trkpt lat="48.64412" lon="2.19372"><ele>146.3</ele></trkpt>
    <trkpt lat="48.64429" lon="2.19419"><ele>143.7</ele></trkpt>
    <trkpt lat="48.64455" lon="2.19457"><ele>140.9</ele></trkpt>
    <trkpt lat="48.64513" lon="2.19521"><ele>135.0</ele></trkpt>
    <trkpt lat="48.64529" lon="2.19532"><ele>133.5</ele></trkpt>
    <trkpt lat="48.64582" lon="2.19544"><ele>128.9</ele></trkpt>
    <trkpt lat="48.64597" lon="2.19559"><ele>127.4</ele></trkpt>
    <trkpt lat="48.64612" lon="2.19608"><ele>124.5</ele></trkpt>
    <trkpt lat="48.64614" lon="2.19662"><ele>121.9</ele></trkpt>
    <trkpt lat="48.64534" lon="2.19965"><ele>112.6</ele></trkpt>
    <trkpt lat="48.64532" lon="2.20019"><ele>111.6</ele></trkpt>
    <trkpt lat="48.6455" lon="2.20152"><ele>109.9</ele></trkpt>
    <trkpt lat="48.64575" lon="2.20283"><ele>108.3</ele></trkpt>
    <trkpt lat="48.64605" lon="2.20634"><ele>103.1</ele></trkpt>
    <trkpt lat="48.64605" lon="2.20715"><ele>101.9</ele></trkpt>
    <trkpt lat="48.646" lon="2.20769"><ele>101.1</ele></trkpt>
    <trkpt lat="48.64564" lon="2.20923"><ele>99.0</ele></trkpt>
    <trkpt lat="48.64562" lon="2.2095"><ele>98.7</ele></trkpt>
    <trkpt lat="48.64565" lon="2.21031"><ele>97.8</ele></trkpt>
    <trkpt lat="48.64595" lon="2.21355"><ele>95.0</ele></trkpt>
    <trkpt lat="48.64605" lon="2.21517"><ele>92.6</ele></trkpt>
    <trkpt lat="48.64588" lon="2.21843"><ele>89.9</ele></trkpt>
    <trkpt lat="48.64616" lon="2.21912"><ele>89.5</ele></trkpt>
    <trkpt lat="48.64651" lon="2.22037"><ele>89.6</ele></trkpt>
    <trkpt lat="48.64662" lon="2.22059"><ele>89.6</ele></trkpt>
    <trkpt lat="48.64644" lon="2.22136"><ele>89.6</ele></trkpt>
    <trkpt lat="48.64626" lon="2.22183"><ele>89.7</ele></trkpt>
    <trkpt lat="48.64528" lon="2.22342"><ele>91.5</ele></trkpt>
    <trkpt lat="48.64461" lon="2.22534"><ele>94.0</ele></trkpt>
    <trkpt lat="48.64338" lon="2.22768"><ele>98.4</ele></trkpt>
    <trkpt lat="48.64396" lon="2.22902"><ele>102.1</ele></trkpt>
    <trkpt lat="48.64395" lon="2.22955"><ele>103.1</ele></trkpt>
    <trkpt lat="48.64377" lon="2.23088"><ele>106.4</ele></trkpt>
    <trkpt lat="48.6438" lon="2.2317"><ele>109.2</ele></trkpt>
    <trkpt lat="48.64388" lon="2.23194"><ele>110.1</ele></trkpt>
    <trkpt lat="48.64467" lon="2.23341"><ele>116.2</ele></trkpt>
    <trkpt lat="48.64481" lon="2.23357"><ele>117.1</ele></trkpt>
    <trkpt lat="48.64499" lon="2.2336"><ele>118.2</ele></trkpt>
    <trkpt lat="48.64516" lon="2.23353"><ele>119.3</ele></trkpt>
    <trkpt lat="48.64526" lon="2.23331"><ele>120.4</ele></trkpt>
    <trkpt lat="48.64531" lon="2.23305"><ele>121.5</ele></trkpt>
    <trkpt lat="48.64527" lon="2.23251"><ele>123.7</ele></trkpt>
    <trkpt lat="48.64513" lon="2.23235"><ele>124.8</ele></trkpt>
    <trkpt lat="48.64461" lon="2.2322"><ele>128.3</ele></trkpt>
    <trkpt lat="48.64452" lon="2.23198"><ele>129.5</ele></trkpt>
    <trkpt lat="48.64452" lon="2.23171"><ele>130.7</ele></trkpt>
    <trkpt lat="48.64465" lon="2.23157"><ele>132.0</ele></trkpt>
    <trkpt lat="48.64482" lon="2.23161"><ele>133.2</ele></trkpt>
    <trkpt lat="48.64547" lon="2.23209"><ele>138.2</ele></trkpt>
    <trkpt lat="48.64557" lon="2.23231"><ele>139.4</ele></trkpt>
    <trkpt lat="48.64559" lon="2.23367"><ele>144.3</ele></trkpt>
    <trkpt lat="48.64513" lon="2.23481"><ele>148.3</ele></trkpt>
    <trkpt lat="48.64513" lon="2.23508"><ele>149.0</ele></trkpt>
    <trkpt lat="48.64517" lon="2.23534"><ele>149.5</ele></trkpt>
    <trkpt lat="48.64533" lon="2.23548"><ele>150.1</ele></trkpt>
    <trkpt lat="48.646" lon="2.23585"><ele>152.0</ele></trkpt>
    <trkpt lat="48.64575" lon="2.23741"><ele>154.1</ele></trkpt>
    <trkpt lat="48.64502" lon="2.23896"><ele>154.6</ele></trkpt>
    <trkpt lat="48.64478" lon="2.24027"><ele>154.0</ele></trkpt>
    <trkpt lat="48.64466" lon="2.24107"><ele>154.0</ele></trkpt>
    <trkpt lat="48.64473" lon="2.24487"><ele>154.0</ele></trkpt>
    <trkpt lat="48.64441" lon="2.24699"><ele>154.0</ele></trkpt>
    <trkpt lat="48.64417" lon="2.24771"><ele>154.4</ele></trkpt>
    <trkpt lat="48.64415" lon="2.24825"><ele>154.6</ele></trkpt>
    <trkpt lat="48.64434" lon="2.24902"><ele>154.9</ele></trkpt>
    <trkpt lat="48.64439" lon="2.24983"><ele>155.0</ele></trkpt>
    <trkpt lat="48.64447" lon="2.25035"><ele>155.0</ele></trkpt>
    <trkpt lat="48.64457" lon="2.25056"><ele>155.1</ele></trkpt>
    <trkpt lat="48.64478" lon="2.25132"><ele>155.4</ele></trkpt>
    <trkpt lat="48.6451" lon="2.25316"><ele>156.2</ele></trkpt>
    <trkpt lat="48.64513" lon="2.25697"><ele>156.7</ele></trkpt>
    <trkpt lat="48.64518" lon="2.25805"><ele>156.4</ele></trkpt>
    <trkpt lat="48.64636" lon="2.26172"><ele>150.7</ele></trkpt>
    <trkpt lat="48.64674" lon="2.26352"><ele>143.2</ele></trkpt>
    <trkpt lat="48.64701" lon="2.26453"><ele>137.8</ele></trkpt>
    <trkpt lat="48.64735" lon="2.26548"><ele>131.9</ele></trkpt>
    <trkpt lat="48.64842" lon="2.26798"><ele>115.3</ele></trkpt>
    <trkpt lat="48.64864" lon="2.26902"><ele>109.8</ele></trkpt>
    <trkpt lat="48.64865" lon="2.27174"><ele>98.7</ele></trkpt>
    <trkpt lat="48.64859" lon="2.27282"><ele>95.4</ele></trkpt>
    <trkpt lat="48.64844" lon="2.27361"><ele>93.2</ele></trkpt>
    <trkpt lat="48.6482" lon="2.27433"><ele>91.2</ele></trkpt>
    <trkpt lat="48.64793" lon="2.27469"><ele>90.1</ele></trkpt>
    <trkpt lat="48.64761" lon="2.27491"><ele>89.2</ele></trkpt>
    <trkpt lat="48.64751" lon="2.27514"><ele>88.8</ele></trkpt>
    <trkpt lat="48.64738" lon="2.27592"><ele>87.6</ele></trkpt>
    <trkpt lat="48.64727" lon="2.27614"><ele>87.1</ele></trkpt>
    <trkpt lat="48.64483" lon="2.28014"><ele>79.0</ele></trkpt>
    <trkpt lat="48.64453" lon="2.28081"><ele>78.1</ele></trkpt>
    <trkpt lat="48.64428" lon="2.28153"><ele>77.0</ele></trkpt>
    <trkpt lat="48.64427" lon="2.2818"><ele>76.7</ele></trkpt>
    <trkpt lat="48.64433" lon="2.28205"><ele>76.4</ele></trkpt>
    <trkpt lat="48.64433" lon="2.28369"><ele>74.5</ele></trkpt>
    <trkpt lat="48.64423" lon="2.28449"><ele>73.6</ele></trkpt>
    <trkpt lat="48.64385" lon="2.28602"><ele>70.9</ele></trkpt>
    <trkpt lat="48.64351" lon="2.28813"><ele>66.5</ele></trkpt>
    <trkpt lat="48.64337" lon="2.2892"><ele>64.6</ele></trkpt>
    <trkpt lat="48.64331" lon="2.29028"><ele>62.4</ele></trkpt>
    <trkpt lat="48.64263" lon="2.29188"><ele>58.0</ele></trkpt>
    <trkpt lat="48.64259" lon="2.29213"><ele>57.3</ele></trkpt>
    <trkpt lat="48.64263" lon="2.29295"><ele>55.4</ele></trkpt>
    <trkpt lat="48.64268" lon="2.29319"><ele>54.8</ele></trkpt>
    <trkpt lat="48.64282" lon="2.29336"><ele>54.3</ele></trkpt>
    <trkpt lat="48.64293" lon="2.29386"><ele>53.3</ele></trkpt>
    <trkpt lat="48.64326" lon="2.29409"><ele>52.5</ele></trkpt>
    <trkpt lat="48.64339" lon="2.29427"><ele>52.1</ele></trkpt>
    <trkpt lat="48.64349" lon="2.29477"><ele>51.3</ele></trkpt>
    <trkpt lat="48.64363" lon="2.29494"><ele>50.8</ele></trkpt>
    <trkpt lat="48.64382" lon="2.2954"><ele>49.7</ele></trkpt>
    <trkpt lat="48.64439" lon="2.29769"><ele>46.8</ele></trkpt>
    <trkpt lat="48.6445" lon="2.29986"><ele>46.2</ele></trkpt>
    <trkpt lat="48.64453" lon="2.30013"><ele>46.4</ele></trkpt>
    <trkpt lat="48.64462" lon="2.30032"><ele>46.6</ele></trkpt>
    <trkpt lat="48.6448" lon="2.30034"><ele>46.7</ele></trkpt>
    <trkpt lat="48.6453" lon="2.30064"><ele>47.3</ele></trkpt>
    <trkpt lat="48.64738" lon="2.30226"><ele>49.6</ele></trkpt>
    <trkpt lat="48.64768" lon="2.30257"><ele>50.1</ele></trkpt>
    <trkpt lat="48.6482" lon="2.30332"><ele>51.8</ele></trkpt>
    <trkpt lat="48.65078" lon="2.30711"><ele>59.3</ele></trkpt>
    <trkpt lat="48.65403" lon="2.31293"><ele>58.2</ele></trkpt>
    <trkpt lat="48.65407" lon="2.31346"><ele>57.2</ele></trkpt>
    <trkpt lat="48.65415" lon="2.31368"><ele>56.7</ele></trkpt>
    <trkpt lat="48.65433" lon="2.31373"><ele>56.2</ele></trkpt>
    <trkpt lat="48.65448" lon="2.31387"><ele>55.7</ele></trkpt>
    <trkpt lat="48.65688" lon="2.31792"><ele>50.4</ele></trkpt>
    <trkpt lat="48.6578" lon="2.31878"><ele>50.8</ele></trkpt>
    <trkpt lat="48.65908" lon="2.31975"><ele>53.9</ele></trkpt>
    <trkpt lat="48.66096" lon="2.32071"><ele>59.1</ele></trkpt>
    <trkpt lat="48.66185" lon="2.32091"><ele>60.0</ele></trkpt>
    <trkpt lat="48.66382" lon="2.32095"><ele>60.4</ele></trkpt>
    <trkpt lat="48.66472" lon="2.32103"><ele>59.4</ele></trkpt>
    <trkpt lat="48.66573" lon="2.32215"><ele>57.1</ele></trkpt>
    <trkpt lat="48.66627" lon="2.32286"><ele>56.2</ele></trkpt>
    <trkpt lat="48.66633" lon="2.32339"><ele>55.9</ele></trkpt>
    <trkpt lat="48.6663" lon="2.32447"><ele>55.1</ele></trkpt>
    <trkpt lat="48.66639" lon="2.3247"><ele>55.0</ele></trkpt>
    <trkpt lat="48.66684" lon="2.32514"><ele>54.6</ele></trkpt>
    <trkpt lat="48.66697" lon="2.32533"><ele>54.5</ele></trkpt>
    <trkpt lat="48.66702" lon="2.32559"><ele>54.3</ele></trkpt>
    <trkpt lat="48.6668" lon="2.32602"><ele>54.0</ele></trkpt>
    <trkpt lat="48.6664" lon="2.32657"><ele>53.2</ele></trkpt>
    <trkpt lat="48.66632" lon="2.32681"><ele>52.9</ele></trkpt>
    <trkpt lat="48.66623" lon="2.32734"><ele>52.2</ele></trkpt>
    <trkpt lat="48.66604" lon="2.3295"><ele>51.2</ele></trkpt>
    <trkpt lat="48.66598" lon="2.33113"><ele>50.4</ele></trkpt>
    <trkpt lat="48.66625" lon="2.33326"><ele>50.6</ele></trkpt>
    <trkpt lat="48.66625" lon="2.33489"><ele>52.0</ele></trkpt>
    <trkpt lat="48.66571" lon="2.33748"><ele>51.7</ele></trkpt>
    <trkpt lat="48.66565" lon="2.33829"><ele>51.4</ele></trkpt>
    <trkpt lat="48.66579" lon="2.33991"><ele>51.6</ele></trkpt>
    <trkpt lat="48.66581" lon="2.34073"><ele>51.4</ele></trkpt>
    <trkpt lat="48.66579" lon="2.34182"><ele>50.5</ele></trkpt>
    <trkpt lat="48.66566" lon="2.34289"><ele>49.5</ele></trkpt>
    <trkpt lat="48.66568" lon="2.34316"><ele>49.3</ele></trkpt>
    <trkpt lat="48.66587" lon="2.3442"><ele>49.4</ele></trkpt>
    <trkpt lat="48.66586" lon="2.34474"><ele>49.6</ele></trkpt>
    <trkpt lat="48.66571" lon="2.3458"><ele>50.5</ele></trkpt>
    <trkpt lat="48.66527" lon="2.34759"><ele>53.0</ele></trkpt>
    <trkpt lat="48.66418" lon="2.35103"><ele>61.1</ele></trkpt>
    <trkpt lat="48.66407" lon="2.35208"><ele>61.9</ele></trkpt>
    <trkpt lat="48.66466" lon="2.3531"><ele>62.1</ele></trkpt>
    <trkpt lat="48.66528" lon="2.35363"><ele>61.5</ele></trkpt>
    <trkpt lat="48.666" lon="2.35367"><ele>60.5</ele></trkpt>
    <trkpt lat="48.66706" lon="2.35398"><ele>57.7</ele></trkpt>
    <trkpt lat="48.66875" lon="2.3549"><ele>54.2</ele></trkpt>
    <trkpt lat="48.66928" lon="2.35508"><ele>54.0</ele></trkpt>
    <trkpt lat="48.66964" lon="2.35568"><ele>53.1</ele></trkpt>
    <trkpt lat="48.66985" lon="2.35612"><ele>52.4</ele></trkpt>
    <trkpt lat="48.66989" lon="2.35637"><ele>52.1</ele></trkpt>
    <trkpt lat="48.67028" lon="2.35693"><ele>51.1</ele></trkpt>
    <trkpt lat="48.67187" lon="2.3582"><ele>48.0</ele></trkpt>
    <trkpt lat="48.67255" lon="2.35907"><ele>46.9</ele></trkpt>
    <trkpt lat="48.67291" lon="2.35968"><ele>46.2</ele></trkpt>
    <trkpt lat="48.67311" lon="2.36014"><ele>46.0</ele></trkpt>
    <trkpt lat="48.67332" lon="2.36089"><ele>46.1</ele></trkpt>
    <trkpt lat="48.67356" lon="2.36276"><ele>45.5</ele></trkpt>
    <trkpt lat="48.67366" lon="2.36466"><ele>45.2</ele></trkpt>
    <trkpt lat="48.67374" lon="2.3649"><ele>45.2</ele></trkpt>
    <trkpt lat="48.67616" lon="2.36927"><ele>40.7</ele></trkpt>
    <trkpt lat="48.67625" lon="2.36951"><ele>40.7</ele></trkpt>
    <trkpt lat="48.67696" lon="2.37073"><ele>41.0</ele></trkpt>
    <trkpt lat="48.67749" lon="2.37183"><ele>40.9</ele></trkpt>
    <trkpt lat="48.67869" lon="2.37386"><ele>39.5</ele></trkpt>
    <trkpt lat="48.67935" lon="2.37515"><ele>39.5</ele></trkpt>
    <trkpt lat="48.67941" lon="2.37539"><ele>39.5</ele></trkpt>
    <trkpt lat="48.68025" lon="2.37679"><ele>38.7</ele></trkpt>
    <trkpt lat="48.68126" lon="2.37871"><ele>37.0</ele></trkpt>
    <trkpt lat="48.68126" lon="2.3789"><ele>37.0</ele></trkpt>
    <trkpt lat="48.68001" lon="2.38047"><ele>36.5</ele></trkpt>
    <trkpt lat="48.6702" lon="2.39198"><ele>35.4</ele></trkpt>
    <trkpt lat="48.66961" lon="2.3926"><ele>35.1</ele></trkpt>
    <trkpt lat="48.66912" lon="2.39293"><ele>35.1</ele></trkpt>
    <trkpt lat="48.66895" lon="2.39298"><ele>35.2</ele></trkpt>
    <trkpt lat="48.66858" lon="2.3939"><ele>34.9</ele></trkpt>
    <trkpt lat="48.66275" lon="2.40073"><ele>33.0</ele></trkpt>
    <trkpt lat="48.65979" lon="2.40429"><ele>38.7</ele></trkpt>
    <trkpt lat="48.65926" lon="2.40502"><ele>40.4</ele></trkpt>
    <trkpt lat="48.65932" lon="2.4069"><ele>42.4</ele></trkpt>
    <trkpt lat="48.6593" lon="2.4074"><ele>43.0</ele></trkpt>
    <trkpt lat="48.65828" lon="2.40965"><ele>46.0</ele></trkpt>
    <trkpt lat="48.65779" lon="2.4111"><ele>44.4</ele></trkpt>
    <trkpt lat="48.65782" lon="2.41136"><ele>44.1</ele></trkpt>
    <trkpt lat="48.65885" lon="2.41289"><ele>42.4</ele></trkpt>
    <trkpt lat="48.65899" lon="2.41303"><ele>42.2</ele></trkpt>
    <trkpt lat="48.65945" lon="2.41386"><ele>41.0</ele></trkpt>
    <trkpt lat="48.65973" lon="2.41416"><ele>40.3</ele></trkpt>
    <trkpt lat="48.66168" lon="2.41697"><ele>38.2</ele></trkpt>
    <trkpt lat="48.66197" lon="2.41729"><ele>38.9</ele></trkpt>
    <trkpt lat="48.66332" lon="2.41804"><ele>43.4</ele></trkpt>
    <trkpt lat="48.66375" lon="2.41853"><ele>46.1</ele></trkpt>
    <trkpt lat="48.66439" lon="2.41948"><ele>50.9</ele></trkpt>
    <trkpt lat="48.66447" lon="2.42"><ele>52.7</ele></trkpt>
    <trkpt lat="48.66433" lon="2.42079"><ele>55.2</ele></trkpt>
    <trkpt lat="48.66316" lon="2.4232"><ele>62.0</ele></trkpt>
    <trkpt lat="48.66287" lon="2.42418"><ele>64.5</ele></trkpt>
    <trkpt lat="48.66241" lon="2.42502"><ele>67.3</ele></trkpt>
    <trkpt lat="48.66202" lon="2.42594"><ele>70.3</ele></trkpt>
    <trkpt lat="48.66233" lon="2.42655"><ele>72.6</ele></trkpt>
    <trkpt lat="48.66282" lon="2.428"><ele>77.7</ele></trkpt>
    <trkpt lat="48.66304" lon="2.42843"><ele>79.4</ele></trkpt>
    <trkpt lat="48.66551" lon="2.432"><ele>93.5</ele></trkpt>
    <trkpt lat="48.66755" lon="2.43507"><ele>96.7</ele></trkpt>
    <trkpt lat="48.6681" lon="2.43579"><ele>96.9</ele></trkpt>
    <trkpt lat="48.66823" lon="2.43583"><ele>97.0</ele></trkpt>
    <trkpt lat="48.66864" lon="2.4353"><ele>96.8</ele></trkpt>
    <trkpt lat="48.66877" lon="2.43521"><ele>96.7</ele></trkpt>
    <trkpt lat="48.66911" lon="2.43584"><ele>96.4</ele></trkpt>
    <trkpt lat="48.66917" lon="2.43609"><ele>96.3</ele></trkpt>
    <trkpt lat="48.66919" lon="2.43691"><ele>96.1</ele></trkpt>
    <trkpt lat="48.66932" lon="2.43769"><ele>96.1</ele></trkpt>
    <trkpt lat="48.67145" lon="2.44101"><ele>98.7</ele></trkpt>
    <trkpt lat="48.6715" lon="2.44151"><ele>98.8</ele></trkpt>
    <trkpt lat="48.67095" lon="2.44221"><ele>98.9</ele></trkpt>
    <trkpt lat="48.66866" lon="2.44484"><ele>97.3</ele></trkpt>
    <trkpt lat="48.66777" lon="2.44495"><ele>95.9</ele></trkpt>
    <trkpt lat="48.6622" lon="2.44513"><ele>97.8</ele></trkpt>
    <trkpt lat="48.66206" lon="2.4452"><ele>98.2</ele></trkpt>
    <trkpt lat="48.66199" lon="2.44541"><ele>98.6</ele></trkpt>
    <trkpt lat="48.66161" lon="2.45929"><ele>94.7</ele></trkpt>
    <trkpt lat="48.66157" lon="2.46337"><ele>96.3</ele></trkpt>
    <trkpt lat="48.66165" lon="2.4639"><ele>96.4</ele></trkpt>
    <trkpt lat="48.66269" lon="2.46796"><ele>96.4</ele></trkpt>
    <trkpt lat="48.66347" lon="2.4713"><ele>95.1</ele></trkpt>
    <trkpt lat="48.66343" lon="2.47151"><ele>95.0</ele></trkpt>
    <trkpt lat="48.66284" lon="2.47214"><ele>95.0</ele></trkpt>
    <trkpt lat="48.65678" lon="2.478"><ele>93.3</ele></trkpt>
    <trkpt lat="48.65619" lon="2.47863"><ele>93.4</ele></trkpt>
    <trkpt lat="48.65609" lon="2.47881"><ele>93.3</ele></trkpt>
    <trkpt lat="48.65685" lon="2.48245"><ele>91.4</ele></trkpt>
    <trkpt lat="48.65784" lon="2.48682"><ele>90.7</ele></trkpt>
    <trkpt lat="48.65793" lon="2.48698"><ele>90.8</ele></trkpt>
    <trkpt lat="48.66061" lon="2.48425"><ele>91.7</ele></trkpt>
    <trkpt lat="48.66134" lon="2.48344"><ele>92.6</ele></trkpt>
    <trkpt lat="48.66149" lon="2.48332"><ele>92.8</ele></trkpt>
    <trkpt lat="48.66184" lon="2.4833"><ele>93.0</ele></trkpt>
    <trkpt lat="48.66444" lon="2.48436"><ele>92.9</ele></trkpt>
    <trkpt lat="48.66741" lon="2.48546"><ele>93.3</ele></trkpt>
    <trkpt lat="48.67134" lon="2.48622"><ele>93.6</ele></trkpt>
    <trkpt lat="48.67923" lon="2.48705"><ele>94.4</ele></trkpt>
    <trkpt lat="48.68304" lon="2.4895"><ele>90.7</ele></trkpt>
    <trkpt lat="48.68317" lon="2.48966"><ele>90.5</ele></trkpt>
    <trkpt lat="48.68321" lon="2.49019"><ele>90.0</ele></trkpt>
    <trkpt lat="48.68329" lon="2.49043"><ele>89.8</ele></trkpt>
    <trkpt lat="48.68343" lon="2.49059"><ele>89.6</ele></trkpt>
    <trkpt lat="48.68395" lon="2.49054"><ele>89.2</ele></trkpt>
    <trkpt lat="48.68459" lon="2.49103"><ele>88.8</ele></trkpt>
    <trkpt lat="48.68521" lon="2.49159"><ele>89.1</ele></trkpt>
    <trkpt lat="48.6852" lon="2.49179"><ele>89.4</ele></trkpt>
    <trkpt lat="48.6847" lon="2.4929"><ele>90.2</ele></trkpt>
    <trkpt lat="48.68545" lon="2.49508"><ele>89.6</ele></trkpt>
    <trkpt lat="48.68554" lon="2.49556"><ele>89.3</ele></trkpt>
    <trkpt lat="48.68568" lon="2.49568"><ele>89.1</ele></trkpt>
    <trkpt lat="48.68604" lon="2.49662"><ele>88.6</ele></trkpt>
    <trkpt lat="48.68813" lon="2.50235"><ele>84.3</ele></trkpt>
    <trkpt lat="48.68853" lon="2.50357"><ele>84.3</ele></trkpt>
    <trkpt lat="48.68833" lon="2.50431"><ele>84.6</ele></trkpt>
    <trkpt lat="48.68799" lon="2.50527"><ele>85.1</ele></trkpt>
    <trkpt lat="48.6871" lon="2.50825"><ele>87.3</ele></trkpt>
    <trkpt lat="48.68623" lon="2.51124"><ele>89.2</ele></trkpt>
    <trkpt lat="48.68632" lon="2.51139"><ele>88.9</ele></trkpt>
    <trkpt lat="48.68765" lon="2.51223"><ele>86.4</ele></trkpt>
    <trkpt lat="48.6886" lon="2.51299"><ele>83.7</ele></trkpt>
    <trkpt lat="48.69051" lon="2.5138"><ele>74.8</ele></trkpt>
    <trkpt lat="48.69139" lon="2.51398"><ele>70.9</ele></trkpt>
    <trkpt lat="48.69249" lon="2.51489"><ele>67.8</ele></trkpt>
    <trkpt lat="48.69285" lon="2.51495"><ele>67.0</ele></trkpt>
    <trkpt lat="48.69371" lon="2.51532"><ele>65.0</ele></trkpt>
    <trkpt lat="48.69382" lon="2.51583"><ele>64.3</ele></trkpt>
    <trkpt lat="48.69416" lon="2.51679"><ele>62.7</ele></trkpt>
    <trkpt lat="48.69447" lon="2.51746"><ele>61.3</ele></trkpt>
    <trkpt lat="48.69505" lon="2.51849"><ele>59.9</ele></trkpt>
    <trkpt lat="48.69522" lon="2.51853"><ele>59.6</ele></trkpt>
    <trkpt lat="48.69574" lon="2.51778"><ele>58.2</ele></trkpt>
    <trkpt lat="48.69604" lon="2.51713"><ele>57.0</ele></trkpt>
    <trkpt lat="48.69616" lon="2.51728"><ele>56.6</ele></trkpt>
    <trkpt lat="48.69695" lon="2.51876"><ele>55.1</ele></trkpt>
    <trkpt lat="48.69737" lon="2.51926"><ele>54.9</ele></trkpt>
    <trkpt lat="48.69773" lon="2.51983"><ele>55.1</ele></trkpt>
    <trkpt lat="48.69789" lon="2.52032"><ele>55.6</ele></trkpt>
    <trkpt lat="48.69796" lon="2.52085"><ele>56.2</ele></trkpt>
    <trkpt lat="48.69797" lon="2.52194"><ele>57.0</ele></trkpt>
    <trkpt lat="48.69788" lon="2.52246"><ele>57.2</ele></trkpt>
    <trkpt lat="48.69761" lon="2.52318"><ele>57.4</ele></trkpt>
    <trkpt lat="48.69592" lon="2.52553"><ele>54.8</ele></trkpt>
    <trkpt lat="48.69521" lon="2.52562"><ele>52.8</ele></trkpt>
    <trkpt lat="48.69161" lon="2.52557"><ele>46.2</ele></trkpt>
    <trkpt lat="48.69107" lon="2.52549"><ele>46.5</ele></trkpt>
    <trkpt lat="48.69093" lon="2.52536"><ele>46.8</ele></trkpt>
    <trkpt lat="48.6908" lon="2.52545"><ele>47.2</ele></trkpt>
    <trkpt lat="48.69089" lon="2.5259"><ele>48.1</ele></trkpt>
    <trkpt lat="48.69091" lon="2.52944"><ele>55.0</ele></trkpt>
    <trkpt lat="48.69098" lon="2.52967"><ele>55.5</ele></trkpt>
    <trkpt lat="48.692" lon="2.53119"><ele>59.6</ele></trkpt>
    <trkpt lat="48.69205" lon="2.53145"><ele>60.1</ele></trkpt>
    <trkpt lat="48.69208" lon="2.53472"><ele>65.8</ele></trkpt>
    <trkpt lat="48.69213" lon="2.53497"><ele>66.4</ele></trkpt>
    <trkpt lat="48.69367" lon="2.53568"><ele>72.8</ele></trkpt>
    <trkpt lat="48.69507" lon="2.5362"><ele>78.6</ele></trkpt>
    <trkpt lat="48.69668" lon="2.53631"><ele>82.2</ele></trkpt>
    <trkpt lat="48.69721" lon="2.5365"><ele>83.1</ele></trkpt>
    <trkpt lat="48.69733" lon="2.53669"><ele>83.4</ele></trkpt>
    <trkpt lat="48.69773" lon="2.53759"><ele>84.3</ele></trkpt>
    <trkpt lat="48.69901" lon="2.53988"><ele>86.8</ele></trkpt>
    <trkpt lat="48.69927" lon="2.54026"><ele>87.2</ele></trkpt>
    <trkpt lat="48.7003" lon="2.54131"><ele>89.2</ele></trkpt>
    <trkpt lat="48.69999" lon="2.54197"><ele>90.2</ele></trkpt>
    <trkpt lat="48.69993" lon="2.54221"><ele>90.5</ele></trkpt>
    <trkpt lat="48.70069" lon="2.54373"><ele>92.0</ele></trkpt>
    <trkpt lat="48.70167" lon="2.54492"><ele>91.8</ele></trkpt>
    <trkpt lat="48.70201" lon="2.54554"><ele>91.6</ele></trkpt>
    <trkpt lat="48.70259" lon="2.54509"><ele>91.4</ele></trkpt>
    <trkpt lat="48.7027" lon="2.54519"><ele>91.5</ele></trkpt>
    <trkpt lat="48.70274" lon="2.546"><ele>91.6</ele></trkpt>
    <trkpt lat="48.70312" lon="2.54838"><ele>92.6</ele></trkpt>
    <trkpt lat="48.70339" lon="2.5494"><ele>93.2</ele></trkpt>
    <trkpt lat="48.70391" lon="2.55051"><ele>94.0</ele></trkpt>
    <trkpt lat="48.70583" lon="2.55337"><ele>94.8</ele></trkpt>
    <trkpt lat="48.70744" lon="2.55555"><ele>94.8</ele></trkpt>
    <trkpt lat="48.70816" lon="2.55637"><ele>94.5</ele></trkpt>
    <trkpt lat="48.70907" lon="2.55723"><ele>94.1</ele></trkpt>
    <trkpt lat="48.71006" lon="2.55788"><ele>93.4</ele></trkpt>
    <trkpt lat="48.71016" lon="2.55807"><ele>93.3</ele></trkpt>
    <trkpt lat="48.71032" lon="2.5581"><ele>93.3</ele></trkpt>
    <trkpt lat="48.71099" lon="2.55851"><ele>93.2</ele></trkpt>
    <trkpt lat="48.71242" lon="2.55965"><ele>94.2</ele></trkpt>
    <trkpt lat="48.71465" lon="2.56194"><ele>99.4</ele></trkpt>
    <trkpt lat="48.71498" lon="2.56216"><ele>98.8</ele></trkpt>
    <trkpt lat="48.71585" lon="2.56251"><ele>96.4</ele></trkpt>
    <trkpt lat="48.71864" lon="2.5644"><ele>95.5</ele></trkpt>
    <trkpt lat="48.71905" lon="2.56492"><ele>94.9</ele></trkpt>
    <trkpt lat="48.71908" lon="2.56518"><ele>94.7</ele></trkpt>
    <trkpt lat="48.7192" lon="2.56533"><ele>94.4</ele></trkpt>
    <trkpt lat="48.71937" lon="2.56537"><ele>94.1</ele></trkpt>
    <trkpt lat="48.71949" lon="2.56556"><ele>93.8</ele></trkpt>
    <trkpt lat="48.7198" lon="2.56623"><ele>92.7</ele></trkpt>
    <trkpt lat="48.72117" lon="2.56754"><ele>80.9</ele></trkpt>
    <trkpt lat="48.72149" lon="2.56776"><ele>77.8</ele></trkpt>
    <trkpt lat="48.72192" lon="2.56824"><ele>73.2</ele></trkpt>
    <trkpt lat="48.72278" lon="2.56864"><ele>67.8</ele></trkpt>
    <trkpt lat="48.72311" lon="2.56886"><ele>66.5</ele></trkpt>
    <trkpt lat="48.72396" lon="2.56928"><ele>65.5</ele></trkpt>
    <trkpt lat="48.72572" lon="2.57065"><ele>74.4</ele></trkpt>
    <trkpt lat="48.7263" lon="2.57129"><ele>79.5</ele></trkpt>
    <trkpt lat="48.72664" lon="2.57115"><ele>80.3</ele></trkpt>
    <trkpt lat="48.73003" lon="2.57045"><ele>92.3</ele></trkpt>
    <trkpt lat="48.73018" lon="2.57032"><ele>92.8</ele></trkpt>
    <trkpt lat="48.7303" lon="2.57012"><ele>93.2</ele></trkpt>
    <trkpt lat="48.73076" lon="2.56806"><ele>94.0</ele></trkpt>
    <trkpt lat="48.7309" lon="2.56789"><ele>93.7</ele></trkpt>
    <trkpt lat="48.73106" lon="2.56791"><ele>93.6</ele></trkpt>
    <trkpt lat="48.73116" lon="2.56809"><ele>93.4</ele></trkpt>
    <trkpt lat="48.73166" lon="2.56734"><ele>92.5</ele></trkpt>
    <trkpt lat="48.7321" lon="2.56688"><ele>92.0</ele></trkpt>
    <trkpt lat="48.73401" lon="2.56534"><ele>90.6</ele></trkpt>
    <trkpt lat="48.73522" lon="2.56487"><ele>90.8</ele></trkpt>
    <trkpt lat="48.73701" lon="2.56517"><ele>92.5</ele></trkpt>
    <trkpt lat="48.73808" lon="2.56517"><ele>94.7</ele></trkpt>
    <trkpt lat="48.73839" lon="2.56494"><ele>95.1</ele></trkpt>
    <trkpt lat="48.73834" lon="2.56363"><ele>95.6</ele></trkpt>
    <trkpt lat="48.73839" lon="2.56309"><ele>96.0</ele></trkpt>
    <trkpt lat="48.73851" lon="2.56258"><ele>96.4</ele></trkpt>
    <trkpt lat="48.73892" lon="2.56208"><ele>96.6</ele></trkpt>
    <trkpt lat="48.7394" lon="2.56173"><ele>96.9</ele></trkpt>
    <trkpt lat="48.73993" lon="2.56157"><ele>97.0</ele></trkpt>
    <trkpt lat="48.74083" lon="2.56149"><ele>97.4</ele></trkpt>
    <trkpt lat="48.74099" lon="2.56158"><ele>97.6</ele></trkpt>
    <trkpt lat="48.74111" lon="2.56143"><ele>97.6</ele></trkpt>
    <trkpt lat="48.74165" lon="2.56135"><ele>97.3</ele></trkpt>
    <trkpt lat="48.74198" lon="2.56113"><ele>97.1</ele></trkpt>
    <trkpt lat="48.74212" lon="2.56098"><ele>97.0</ele></trkpt>
    <trkpt lat="48.74223" lon="2.56077"><ele>97.1</ele></trkpt>
    <trkpt lat="48.74242" lon="2.56031"><ele>97.2</ele></trkpt>
    <trkpt lat="48.74245" lon="2.5584"><ele>97.2</ele></trkpt>
    <trkpt lat="48.74257" lon="2.55761"><ele>97.5</ele></trkpt>
    <trkpt lat="48.74262" lon="2.5568"><ele>97.5</ele></trkpt>
    <trkpt lat="48.74274" lon="2.55661"><ele>97.3</ele></trkpt>
    <trkpt lat="48.74326" lon="2.55657"><ele>96.7</ele></trkpt>
    <trkpt lat="48.74427" lon="2.55711"><ele>96.6</ele></trkpt>
    <trkpt lat="48.74463" lon="2.5571"><ele>96.6</ele></trkpt>
    <trkpt lat="48.74498" lon="2.55698"><ele>96.8</ele></trkpt>
    <trkpt lat="48.74534" lon="2.55694"><ele>97.1</ele></trkpt>
    <trkpt lat="48.74624" lon="2.557"><ele>98.1</ele></trkpt>
    <trkpt lat="48.74639" lon="2.55708"><ele>98.1</ele></trkpt>
    <trkpt lat="48.74675" lon="2.55701"><ele>98.4</ele></trkpt>
    <trkpt lat="48.74818" lon="2.55704"><ele>99.5</ele></trkpt>
    <trkpt lat="48.7552" lon="2.5573"><ele>103.0</ele></trkpt>
    <trkpt lat="48.75536" lon="2.55724"><ele>103.0</ele></trkpt>
    <trkpt lat="48.75579" lon="2.55675"><ele>102.9</ele></trkpt>
    <trkpt lat="48.75848" lon="2.55358"><ele>101.5</ele></trkpt>
    <trkpt lat="48.76048" lon="2.55239"><ele>101.1</ele></trkpt>
    <trkpt lat="48.76058" lon="2.55222"><ele>101.0</ele></trkpt>
    <trkpt lat="48.76102" lon="2.55044"><ele>101.0</ele></trkpt>
    <trkpt lat="48.76121" lon="2.54885"><ele>101.5</ele></trkpt>
    <trkpt lat="48.76147" lon="2.5456"><ele>101.7</ele></trkpt>
    <trkpt lat="48.76232" lon="2.53918"><ele>100.6</ele></trkpt>
    <trkpt lat="48.76305" lon="2.53733"><ele>98.4</ele></trkpt>
    <trkpt lat="48.7633" lon="2.5366"><ele>97.7</ele></trkpt>
    <trkpt lat="48.76357" lon="2.53627"><ele>97.1</ele></trkpt>
    <trkpt lat="48.76377" lon="2.53584"><ele>96.6</ele></trkpt>
    <trkpt lat="48.76405" lon="2.53549"><ele>96.3</ele></trkpt>
    <trkpt lat="48.76527" lon="2.53433"><ele>96.2</ele></trkpt>
    <trkpt lat="48.76569" lon="2.53383"><ele>96.1</ele></trkpt>
    <trkpt lat="48.76666" lon="2.53222"><ele>97.6</ele></trkpt>
    <trkpt lat="48.76682" lon="2.5321"><ele>98.0</ele></trkpt>
    <trkpt lat="48.76692" lon="2.53158"><ele>99.0</ele></trkpt>
    <trkpt lat="48.76709" lon="2.5311"><ele>98.9</ele></trkpt>
    <trkpt lat="48.76761" lon="2.53"><ele>99.6</ele></trkpt>
    <trkpt lat="48.76806" lon="2.52881"><ele>100.2</ele></trkpt>
    <trkpt lat="48.76819" lon="2.52863"><ele>100.3</ele></trkpt>
    <trkpt lat="48.76853" lon="2.52846"><ele>100.4</ele></trkpt>
    <trkpt lat="48.76864" lon="2.5283"><ele>100.3</ele></trkpt>
    <trkpt lat="48.77013" lon="2.52426"><ele>98.6</ele></trkpt>
    <trkpt lat="48.77049" lon="2.52243"><ele>95.9</ele></trkpt>
    <trkpt lat="48.77083" lon="2.52235"><ele>95.1</ele></trkpt>
    <trkpt lat="48.7709" lon="2.52157"><ele>93.4</ele></trkpt>
    <trkpt lat="48.77129" lon="2.52101"><ele>90.1</ele></trkpt>
    <trkpt lat="48.77201" lon="2.51979"><ele>82.5</ele></trkpt>
    <trkpt lat="48.77383" lon="2.51715"><ele>63.0</ele></trkpt>
    <trkpt lat="48.77563" lon="2.5149"><ele>46.2</ele></trkpt>
    <trkpt lat="48.77655" lon="2.51403"><ele>39.3</ele></trkpt>
    <trkpt lat="48.77773" lon="2.51235"><ele>36.9</ele></trkpt>
    <trkpt lat="48.77806" lon="2.51173"><ele>37.2</ele></trkpt>
    <trkpt lat="48.77932" lon="2.51189"><ele>38.4</ele></trkpt>
    <trkpt lat="48.78074" lon="2.51218"><ele>39.5</ele></trkpt>
    <trkpt lat="48.78092" lon="2.51223"><ele>39.6</ele></trkpt>
    <trkpt lat="48.78107" lon="2.51236"><ele>39.7</ele></trkpt>
    <trkpt lat="48.78137" lon="2.51267"><ele>39.7</ele></trkpt>
    <trkpt lat="48.78329" lon="2.51515"><ele>38.2</ele></trkpt>
    <trkpt lat="48.78364" lon="2.51525"><ele>38.4</ele></trkpt>
    <trkpt lat="48.78379" lon="2.51537"><ele>38.6</ele></trkpt>
    <trkpt lat="48.78431" lon="2.51648"><ele>39.2</ele></trkpt>
    <trkpt lat="48.78747" lon="2.52054"><ele>38.3</ele></trkpt>
    <trkpt lat="48.7901" lon="2.52229"><ele>38.8</ele></trkpt>
    <trkpt lat="48.79026" lon="2.52236"><ele>39.3</ele></trkpt>
    <trkpt lat="48.7904" lon="2.52217"><ele>40.0</ele></trkpt>
    <trkpt lat="48.7909" lon="2.52104"><ele>37.4</ele></trkpt>
    <trkpt lat="48.79102" lon="2.52087"><ele>36.8</ele></trkpt>
    <trkpt lat="48.79119" lon="2.52097"><ele>36.3</ele></trkpt>
    <trkpt lat="48.79136" lon="2.52098"><ele>36.0</ele></trkpt>
    <trkpt lat="48.79173" lon="2.52042"><ele>35.5</ele></trkpt>
    <trkpt lat="48.7919" lon="2.52045"><ele>35.4</ele></trkpt>
    <trkpt lat="48.792" lon="2.52066"><ele>35.4</ele></trkpt>
    <trkpt lat="48.79195" lon="2.5212"><ele>35.3</ele></trkpt>
    <trkpt lat="48.79201" lon="2.52144"><ele>35.2</ele></trkpt>
    <trkpt lat="48.79218" lon="2.52155"><ele>35.1</ele></trkpt>
    <trkpt lat="48.79304" lon="2.52184"><ele>35.1</ele></trkpt>
    <trkpt lat="48.79376" lon="2.5219"><ele>35.1</ele></trkpt>
    <trkpt lat="48.79393" lon="2.52186"><ele>35.0</ele></trkpt>
    <trkpt lat="48.79694" lon="2.52244"><ele>35.0</ele></trkpt>
    <trkpt lat="48.79872" lon="2.5221"><ele>35.1</ele></trkpt>
    <trkpt lat="48.79997" lon="2.52199"><ele>34.9</ele></trkpt>
    <trkpt lat="48.80157" lon="2.5223"><ele>34.7</ele></trkpt>
    <trkpt lat="48.80192" lon="2.52229"><ele>34.8</ele></trkpt>
    <trkpt lat="48.80246" lon="2.52224"><ele>34.9</ele></trkpt>
    <trkpt lat="48.8037" lon="2.52193"><ele>34.9</ele></trkpt>
    <trkpt lat="48.80423" lon="2.52175"><ele>35.0</ele></trkpt>
    <trkpt lat="48.8044" lon="2.52176"><ele>35.0</ele></trkpt>
    <trkpt lat="48.8045" lon="2.5216"><ele>35.0</ele></trkpt>
    <trkpt lat="48.80651" lon="2.51985"><ele>35.4</ele></trkpt>
    <trkpt lat="48.80748" lon="2.51864"><ele>35.3</ele></trkpt>
    <trkpt lat="48.80808" lon="2.51762"><ele>35.5</ele></trkpt>
    <trkpt lat="48.80845" lon="2.51669"><ele>35.8</ele></trkpt>
    <trkpt lat="48.80905" lon="2.51441"><ele>36.0</ele></trkpt>
    <trkpt lat="48.80921" lon="2.51308"><ele>36.1</ele></trkpt>
    <trkpt lat="48.80948" lon="2.50983"><ele>40.6</ele></trkpt>
    <trkpt lat="48.80963" lon="2.50978"><ele>41.5</ele></trkpt>
    <trkpt lat="48.81016" lon="2.50997"><ele>43.0</ele></trkpt>
  </trkseg></trk>
</gpx>
