<?xml version="1.0" encoding="UTF-8"?>
<gpx version="1.1" creator="Club Cycliste USO" xmlns="http://www.topografix.com/GPX/1/1">
  <metadata><name>Villeneuve-le-Comte – 99 km</name><desc>98.9 km, D+ 427 m. Départ et arrivée : pont de Champigny.</desc></metadata>
  <trk><name>Villeneuve-le-Comte – 99 km</name><trkseg>
    <trkpt lat="48.81032" lon="2.51002"><ele>42.8</ele></trkpt>
    <trkpt lat="48.80962" lon="2.50978"><ele>41.5</ele></trkpt>
    <trkpt lat="48.80948" lon="2.50985"><ele>40.6</ele></trkpt>
    <trkpt lat="48.80909" lon="2.51417"><ele>36.0</ele></trkpt>
    <trkpt lat="48.80853" lon="2.51646"><ele>35.8</ele></trkpt>
    <trkpt lat="48.80807" lon="2.51764"><ele>35.5</ele></trkpt>
    <trkpt lat="48.80747" lon="2.51865"><ele>35.3</ele></trkpt>
    <trkpt lat="48.80664" lon="2.51971"><ele>35.4</ele></trkpt>
    <trkpt lat="48.80464" lon="2.52147"><ele>35.1</ele></trkpt>
    <trkpt lat="48.80439" lon="2.52176"><ele>35.0</ele></trkpt>
    <trkpt lat="48.80421" lon="2.52175"><ele>35.0</ele></trkpt>
    <trkpt lat="48.80369" lon="2.52194"><ele>34.9</ele></trkpt>
    <trkpt lat="48.80227" lon="2.52227"><ele>34.9</ele></trkpt>
    <trkpt lat="48.80156" lon="2.52229"><ele>34.7</ele></trkpt>
    <trkpt lat="48.79995" lon="2.52199"><ele>34.9</ele></trkpt>
    <trkpt lat="48.79888" lon="2.52207"><ele>35.1</ele></trkpt>
    <trkpt lat="48.79693" lon="2.52244"><ele>35.0</ele></trkpt>
    <trkpt lat="48.79392" lon="2.52185"><ele>35.0</ele></trkpt>
    <trkpt lat="48.79375" lon="2.5219"><ele>35.1</ele></trkpt>
    <trkpt lat="48.79303" lon="2.52184"><ele>35.1</ele></trkpt>
    <trkpt lat="48.79216" lon="2.52154"><ele>35.2</ele></trkpt>
    <trkpt lat="48.792" lon="2.52143"><ele>35.2</ele></trkpt>
    <trkpt lat="48.79195" lon="2.52118"><ele>35.3</ele></trkpt>
    <trkpt lat="48.792" lon="2.52064"><ele>35.4</ele></trkpt>
    <trkpt lat="48.79189" lon="2.52044"><ele>35.4</ele></trkpt>
    <trkpt lat="48.79172" lon="2.52043"><ele>35.5</ele></trkpt>
    <trkpt lat="48.79149" lon="2.52084"><ele>35.8</ele></trkpt>
    <trkpt lat="48.79135" lon="2.52099"><ele>36.1</ele></trkpt>
    <trkpt lat="48.79101" lon="2.52086"><ele>36.7</ele></trkpt>
    <trkpt lat="48.79085" lon="2.52092"><ele>37.5</ele></trkpt>
    <trkpt lat="48.79027" lon="2.5223"><ele>39.6</ele></trkpt>
    <trkpt lat="48.79016" lon="2.52239"><ele>39.1</ele></trkpt>
    <trkpt lat="48.78739" lon="2.52043"><ele>38.3</ele></trkpt>
    <trkpt lat="48.78437" lon="2.51655"><ele>39.2</ele></trkpt>
    <trkpt lat="48.78424" lon="2.51636"><ele>39.2</ele></trkpt>
    <trkpt lat="48.78383" lon="2.51547"><ele>38.7</ele></trkpt>
    <trkpt lat="48.7837" lon="2.51529"><ele>38.5</ele></trkpt>
    <trkpt lat="48.78335" lon="2.51517"><ele>38.3</ele></trkpt>
    <trkpt lat="48.7832" lon="2.51504"><ele>38.2</ele></trkpt>
    <trkpt lat="48.78142" lon="2.51274"><ele>39.7</ele></trkpt>
    <trkpt lat="48.78097" lon="2.51228"><ele>39.5</ele></trkpt>
    <trkpt lat="48.7808" lon="2.5122"><ele>39.4</ele></trkpt>
    <trkpt lat="48.77492" lon="2.51101"><ele>39.1</ele></trkpt>
    <trkpt lat="48.77476" lon="2.51095"><ele>39.2</ele></trkpt>
    <trkpt lat="48.77467" lon="2.51076"><ele>39.2</ele></trkpt>
    <trkpt lat="48.77455" lon="2.51091"><ele>39.3</ele></trkpt>
    <trkpt lat="48.77438" lon="2.51091"><ele>39.3</ele></trkpt>
    <trkpt lat="48.77314" lon="2.51065"><ele>39.4</ele></trkpt>
    <trkpt lat="48.77162" lon="2.50919"><ele>38.8</ele></trkpt>
    <trkpt lat="48.77049" lon="2.50837"><ele>38.4</ele></trkpt>
    <trkpt lat="48.77014" lon="2.50825"><ele>38.9</ele></trkpt>
    <trkpt lat="48.76906" lon="2.50819"><ele>40.8</ele></trkpt>
    <trkpt lat="48.76816" lon="2.50831"><ele>42.1</ele></trkpt>
    <trkpt lat="48.76729" lon="2.5086"><ele>43.0</ele></trkpt>
    <trkpt lat="48.76612" lon="2.50918"><ele>44.2</ele></trkpt>
    <trkpt lat="48.76432" lon="2.51223"><ele>48.6</ele></trkpt>
    <trkpt lat="48.76419" lon="2.51243"><ele>49.1</ele></trkpt>
    <trkpt lat="48.76405" lon="2.51252"><ele>49.6</ele></trkpt>
    <trkpt lat="48.76409" lon="2.51275"><ele>50.2</ele></trkpt>
    <trkpt lat="48.76341" lon="2.51671"><ele>58.1</ele></trkpt>
    <trkpt lat="48.76296" lon="2.51878"><ele>64.2</ele></trkpt>
    <trkpt lat="48.76248" lon="2.52022"><ele>71.4</ele></trkpt>
    <trkpt lat="48.76269" lon="2.52155"><ele>77.4</ele></trkpt>
    <trkpt lat="48.76286" lon="2.52232"><ele>81.3</ele></trkpt>
    <trkpt lat="48.76346" lon="2.52369"><ele>88.9</ele></trkpt>
    <trkpt lat="48.76405" lon="2.52538"><ele>96.0</ele></trkpt>
    <trkpt lat="48.76415" lon="2.52555"><ele>96.5</ele></trkpt>
    <trkpt lat="48.7643" lon="2.52551"><ele>96.9</ele></trkpt>
    <trkpt lat="48.76414" lon="2.52627"><ele>97.4</ele></trkpt>
    <trkpt lat="48.76401" lon="2.52872"><ele>97.8</ele></trkpt>
    <trkpt lat="48.76366" lon="2.53055"><ele>97.4</ele></trkpt>
    <trkpt lat="48.76313" lon="2.53396"><ele>97.3</ele></trkpt>
    <trkpt lat="48.76298" lon="2.53527"><ele>97.8</ele></trkpt>
    <trkpt lat="48.76301" lon="2.53548"><ele>97.7</ele></trkpt>
    <trkpt lat="48.76336" lon="2.53605"><ele>97.6</ele></trkpt>
    <trkpt lat="48.76333" lon="2.5363"><ele>97.6</ele></trkpt>
    <trkpt lat="48.76306" lon="2.537"><ele>98.1</ele></trkpt>
    <trkpt lat="48.76293" lon="2.53718"><ele>98.4</ele></trkpt>
    <trkpt lat="48.76282" lon="2.5377"><ele>99.0</ele></trkpt>
    <trkpt lat="48.76229" lon="2.53912"><ele>100.5</ele></trkpt>
    <trkpt lat="48.76141" lon="2.54581"><ele>102.3</ele></trkpt>
    <trkpt lat="48.76119" lon="2.54823"><ele>102.2</ele></trkpt>
    <trkpt lat="48.76104" lon="2.54869"><ele>101.8</ele></trkpt>
    <trkpt lat="48.76112" lon="2.54892"><ele>101.6</ele></trkpt>
    <trkpt lat="48.75955" lon="2.54952"><ele>100.8</ele></trkpt>
    <trkpt lat="48.75938" lon="2.54952"><ele>100.7</ele></trkpt>
    <trkpt lat="48.75799" lon="2.55009"><ele>100.2</ele></trkpt>
    <trkpt lat="48.75798" lon="2.55031"><ele>100.2</ele></trkpt>
    <trkpt lat="48.75845" lon="2.55323"><ele>101.1</ele></trkpt>
    <trkpt lat="48.75848" lon="2.55348"><ele>101.3</ele></trkpt>
    <trkpt lat="48.75838" lon="2.55368"><ele>101.4</ele></trkpt>
    <trkpt lat="48.75541" lon="2.55721"><ele>103.0</ele></trkpt>
    <trkpt lat="48.75526" lon="2.55733"><ele>103.0</ele></trkpt>
    <trkpt lat="48.74699" lon="2.55699"><ele>98.6</ele></trkpt>
    <trkpt lat="48.74663" lon="2.55696"><ele>98.3</ele></trkpt>
    <trkpt lat="48.7463" lon="2.55684"><ele>98.0</ele></trkpt>
    <trkpt lat="48.74615" lon="2.55693"><ele>97.9</ele></trkpt>
    <trkpt lat="48.74579" lon="2.55693"><ele>97.6</ele></trkpt>
    <trkpt lat="48.74526" lon="2.55683"><ele>97.0</ele></trkpt>
    <trkpt lat="48.74473" lon="2.55698"><ele>96.7</ele></trkpt>
    <trkpt lat="48.7442" lon="2.55701"><ele>96.6</ele></trkpt>
    <trkpt lat="48.74355" lon="2.55656"><ele>96.6</ele></trkpt>
    <trkpt lat="48.74322" lon="2.55647"><ele>96.4</ele></trkpt>
    <trkpt lat="48.74306" lon="2.55609"><ele>96.2</ele></trkpt>
    <trkpt lat="48.7429" lon="2.55601"><ele>96.2</ele></trkpt>
    <trkpt lat="48.74276" lon="2.55616"><ele>96.4</ele></trkpt>
    <trkpt lat="48.7427" lon="2.55664"><ele>97.0</ele></trkpt>
    <trkpt lat="48.74261" lon="2.55688"><ele>97.1</ele></trkpt>
    <trkpt lat="48.74256" lon="2.55769"><ele>97.3</ele></trkpt>
    <trkpt lat="48.74244" lon="2.5582"><ele>97.4</ele></trkpt>
    <trkpt lat="48.74241" lon="2.56011"><ele>97.2</ele></trkpt>
    <trkpt lat="48.74229" lon="2.56062"><ele>97.2</ele></trkpt>
    <trkpt lat="48.74207" lon="2.56104"><ele>97.2</ele></trkpt>
    <trkpt lat="48.74175" lon="2.5613"><ele>97.3</ele></trkpt>
    <trkpt lat="48.74158" lon="2.56137"><ele>97.4</ele></trkpt>
    <trkpt lat="48.74122" lon="2.56142"><ele>97.3</ele></trkpt>
    <trkpt lat="48.74094" lon="2.56125"><ele>97.4</ele></trkpt>
    <trkpt lat="48.74083" lon="2.56143"><ele>97.2</ele></trkpt>
    <trkpt lat="48.73976" lon="2.56162"><ele>97.1</ele></trkpt>
    <trkpt lat="48.73924" lon="2.56183"><ele>96.9</ele></trkpt>
    <trkpt lat="48.73892" lon="2.56208"><ele>96.7</ele></trkpt>
    <trkpt lat="48.73852" lon="2.56256"><ele>96.4</ele></trkpt>
    <trkpt lat="48.73831" lon="2.5636"><ele>95.7</ele></trkpt>
    <trkpt lat="48.73836" lon="2.56441"><ele>95.3</ele></trkpt>
    <trkpt lat="48.73819" lon="2.56482"><ele>95.0</ele></trkpt>
    <trkpt lat="48.7382" lon="2.56505"><ele>94.8</ele></trkpt>
    <trkpt lat="48.73804" lon="2.56517"><ele>94.5</ele></trkpt>
    <trkpt lat="48.73697" lon="2.56514"><ele>92.6</ele></trkpt>
    <trkpt lat="48.73554" lon="2.56487"><ele>90.9</ele></trkpt>
    <trkpt lat="48.7354" lon="2.56471"><ele>90.7</ele></trkpt>
    <trkpt lat="48.73535" lon="2.56446"><ele>90.6</ele></trkpt>
    <trkpt lat="48.73521" lon="2.56434"><ele>90.5</ele></trkpt>
    <trkpt lat="48.73507" lon="2.56449"><ele>90.4</ele></trkpt>
    <trkpt lat="48.73486" lon="2.56491"><ele>90.5</ele></trkpt>
    <trkpt lat="48.73469" lon="2.56502"><ele>90.5</ele></trkpt>
    <trkpt lat="48.73416" lon="2.56517"><ele>90.6</ele></trkpt>
    <trkpt lat="48.73383" lon="2.56538"><ele>90.6</ele></trkpt>
    <trkpt lat="48.73208" lon="2.56678"><ele>92.0</ele></trkpt>
    <trkpt lat="48.73122" lon="2.56775"><ele>93.2</ele></trkpt>
    <trkpt lat="48.73107" lon="2.56772"><ele>93.7</ele></trkpt>
    <trkpt lat="48.7308" lon="2.56799"><ele>94.0</ele></trkpt>
    <trkpt lat="48.73032" lon="2.57004"><ele>93.3</ele></trkpt>
    <trkpt lat="48.73007" lon="2.57041"><ele>92.4</ele></trkpt>
    <trkpt lat="48.7299" lon="2.57049"><ele>91.8</ele></trkpt>
    <trkpt lat="48.72673" lon="2.57113"><ele>80.5</ele></trkpt>
    <trkpt lat="48.72639" lon="2.57129"><ele>79.8</ele></trkpt>
    <trkpt lat="48.72622" lon="2.57128"><ele>79.3</ele></trkpt>
    <trkpt lat="48.72566" lon="2.57061"><ele>73.8</ele></trkpt>
    <trkpt lat="48.72406" lon="2.56936"><ele>65.6</ele></trkpt>
    <trkpt lat="48.7222" lon="2.56834"><ele>71.1</ele></trkpt>
    <trkpt lat="48.72109" lon="2.56746"><ele>81.8</ele></trkpt>
    <trkpt lat="48.71987" lon="2.56631"><ele>92.5</ele></trkpt>
    <trkpt lat="48.71955" lon="2.56565"><ele>93.6</ele></trkpt>
    <trkpt lat="48.71929" lon="2.56529"><ele>94.3</ele></trkpt>
    <trkpt lat="48.71922" lon="2.56506"><ele>94.6</ele></trkpt>
    <trkpt lat="48.71908" lon="2.56498"><ele>94.9</ele></trkpt>
    <trkpt lat="48.71883" lon="2.5646"><ele>95.3</ele></trkpt>
    <trkpt lat="48.71852" lon="2.5643"><ele>95.7</ele></trkpt>
    <trkpt lat="48.71589" lon="2.56255"><ele>96.4</ele></trkpt>
    <trkpt lat="48.71502" lon="2.56218"><ele>98.6</ele></trkpt>
    <trkpt lat="48.71469" lon="2.56197"><ele>99.4</ele></trkpt>
    <trkpt lat="48.71246" lon="2.55968"><ele>94.3</ele></trkpt>
    <trkpt lat="48.71037" lon="2.55808"><ele>93.3</ele></trkpt>
    <trkpt lat="48.7103" lon="2.55786"><ele>93.3</ele></trkpt>
    <trkpt lat="48.71013" lon="2.55791"><ele>93.4</ele></trkpt>
    <trkpt lat="48.70882" lon="2.55701"><ele>94.2</ele></trkpt>
    <trkpt lat="48.70749" lon="2.55562"><ele>94.8</ele></trkpt>
    <trkpt lat="48.70549" lon="2.55288"><ele>94.8</ele></trkpt>
    <trkpt lat="48.70384" lon="2.55037"><ele>93.9</ele></trkpt>
    <trkpt lat="48.70343" lon="2.54948"><ele>93.3</ele></trkpt>
    <trkpt lat="48.70315" lon="2.54848"><ele>92.6</ele></trkpt>
    <trkpt lat="48.70276" lon="2.5461"><ele>91.6</ele></trkpt>
    <trkpt lat="48.70265" lon="2.54503"><ele>91.4</ele></trkpt>
    <trkpt lat="48.7025" lon="2.54508"><ele>91.4</ele></trkpt>
    <trkpt lat="48.70222" lon="2.54541"><ele>91.5</ele></trkpt>
    <trkpt lat="48.70076" lon="2.54743"><ele>93.1</ele></trkpt>
    <trkpt lat="48.69919" lon="2.54926"><ele>93.3</ele></trkpt>
    <trkpt lat="48.69725" lon="2.5521"><ele>93.3</ele></trkpt>
    <trkpt lat="48.69602" lon="2.55444"><ele>92.9</ele></trkpt>
    <trkpt lat="48.69539" lon="2.55541"><ele>92.1</ele></trkpt>
    <trkpt lat="48.69393" lon="2.55699"><ele>87.1</ele></trkpt>
    <trkpt lat="48.69322" lon="2.55784"><ele>85.0</ele></trkpt>
    <trkpt lat="48.69291" lon="2.55789"><ele>85.0</ele></trkpt>
    <trkpt lat="48.68974" lon="2.55691"><ele>90.3</ele></trkpt>
    <trkpt lat="48.68938" lon="2.55687"><ele>90.4</ele></trkpt>
    <trkpt lat="48.68803" lon="2.5576"><ele>91.1</ele></trkpt>
    <trkpt lat="48.68687" lon="2.55836"><ele>90.8</ele></trkpt>
    <trkpt lat="48.68608" lon="2.55901"><ele>90.1</ele></trkpt>
    <trkpt lat="48.68631" lon="2.56059"><ele>89.8</ele></trkpt>
    <trkpt lat="48.68639" lon="2.5614"><ele>89.4</ele></trkpt>
    <trkpt lat="48.68649" lon="2.56276"><ele>89.0</ele></trkpt>
    <trkpt lat="48.6865" lon="2.5638"><ele>88.6</ele></trkpt>
    <trkpt lat="48.68524" lon="2.56367"><ele>88.0</ele></trkpt>
    <trkpt lat="48.68417" lon="2.56375"><ele>87.3</ele></trkpt>
    <trkpt lat="48.68408" lon="2.56385"><ele>87.1</ele></trkpt>
    <trkpt lat="48.68411" lon="2.56412"><ele>87.0</ele></trkpt>
    <trkpt lat="48.68388" lon="2.56599"><ele>87.1</ele></trkpt>
    <trkpt lat="48.68339" lon="2.56775"><ele>87.4</ele></trkpt>
    <trkpt lat="48.6832" lon="2.56821"><ele>87.4</ele></trkpt>
    <trkpt lat="48.68271" lon="2.56901"><ele>87.0</ele></trkpt>
    <trkpt lat="48.68256" lon="2.56915"><ele>86.8</ele></trkpt>
    <trkpt lat="48.68239" lon="2.5692"><ele>86.6</ele></trkpt>
    <trkpt lat="48.68223" lon="2.56913"><ele>86.4</ele></trkpt>
    <trkpt lat="48.68168" lon="2.57021"><ele>85.8</ele></trkpt>
    <trkpt lat="48.68156" lon="2.57041"><ele>85.7</ele></trkpt>
    <trkpt lat="48.68141" lon="2.57055"><ele>85.6</ele></trkpt>
    <trkpt lat="48.68123" lon="2.5706"><ele>85.5</ele></trkpt>
    <trkpt lat="48.6807" lon="2.57045"><ele>84.9</ele></trkpt>
    <trkpt lat="48.68055" lon="2.57056"><ele>84.5</ele></trkpt>
    <trkpt lat="48.67994" lon="2.5719"><ele>81.1</ele></trkpt>
    <trkpt lat="48.67982" lon="2.57208"><ele>80.4</ele></trkpt>
    <trkpt lat="48.67972" lon="2.57193"><ele>79.6</ele></trkpt>
    <trkpt lat="48.67937" lon="2.57039"><ele>74.3</ele></trkpt>
    <trkpt lat="48.67925" lon="2.56932"><ele>70.6</ele></trkpt>
    <trkpt lat="48.67914" lon="2.5688"><ele>68.8</ele></trkpt>
    <trkpt lat="48.67905" lon="2.56857"><ele>67.9</ele></trkpt>
    <trkpt lat="48.67879" lon="2.56819"><ele>66.1</ele></trkpt>
    <trkpt lat="48.67885" lon="2.5674"><ele>63.5</ele></trkpt>
    <trkpt lat="48.67892" lon="2.56495"><ele>57.9</ele></trkpt>
    <trkpt lat="48.679" lon="2.56442"><ele>57.2</ele></trkpt>
    <trkpt lat="48.67916" lon="2.56394"><ele>56.9</ele></trkpt>
    <trkpt lat="48.67919" lon="2.56369"><ele>56.8</ele></trkpt>
    <trkpt lat="48.67915" lon="2.56288"><ele>56.8</ele></trkpt>
    <trkpt lat="48.67918" lon="2.56261"><ele>56.8</ele></trkpt>
    <trkpt lat="48.67906" lon="2.56155"><ele>56.4</ele></trkpt>
    <trkpt lat="48.6786" lon="2.56038"><ele>55.5</ele></trkpt>
    <trkpt lat="48.67849" lon="2.55987"><ele>55.1</ele></trkpt>
    <trkpt lat="48.67579" lon="2.55595"><ele>48.4</ele></trkpt>
    <trkpt lat="48.67546" lon="2.55574"><ele>48.3</ele></trkpt>
    <trkpt lat="48.67276" lon="2.55572"><ele>51.1</ele></trkpt>
    <trkpt lat="48.67264" lon="2.55555"><ele>51.4</ele></trkpt>
    <trkpt lat="48.67234" lon="2.55566"><ele>51.7</ele></trkpt>
    <trkpt lat="48.67072" lon="2.55571"><ele>54.0</ele></trkpt>
    <trkpt lat="48.67054" lon="2.55569"><ele>54.1</ele></trkpt>
    <trkpt lat="48.6704" lon="2.55556"><ele>54.2</ele></trkpt>
    <trkpt lat="48.67025" lon="2.55552"><ele>54.2</ele></trkpt>
    <trkpt lat="48.67025" lon="2.55576"><ele>54.2</ele></trkpt>
    <trkpt lat="48.67031" lon="2.556"><ele>54.3</ele></trkpt>
    <trkpt lat="48.67085" lon="2.5571"><ele>57.1</ele></trkpt>
    <trkpt lat="48.67126" lon="2.5583"><ele>60.9</ele></trkpt>
    <trkpt lat="48.67118" lon="2.5585"><ele>61.8</ele></trkpt>
    <trkpt lat="48.67053" lon="2.55895"><ele>65.0</ele></trkpt>
    <trkpt lat="48.66985" lon="2.55933"><ele>67.9</ele></trkpt>
    <trkpt lat="48.66969" lon="2.55931"><ele>68.7</ele></trkpt>
    <trkpt lat="48.66954" lon="2.55916"><ele>69.5</ele></trkpt>
    <trkpt lat="48.66936" lon="2.55913"><ele>70.4</ele></trkpt>
    <trkpt lat="48.66901" lon="2.55925"><ele>72.3</ele></trkpt>
    <trkpt lat="48.66883" lon="2.55924"><ele>73.4</ele></trkpt>
    <trkpt lat="48.66833" lon="2.55951"><ele>76.5</ele></trkpt>
    <trkpt lat="48.66798" lon="2.55944"><ele>78.5</ele></trkpt>
    <trkpt lat="48.66804" lon="2.55891"><ele>80.4</ele></trkpt>
    <trkpt lat="48.66801" lon="2.55866"><ele>81.2</ele></trkpt>
    <trkpt lat="48.66768" lon="2.55848"><ele>82.6</ele></trkpt>
    <trkpt lat="48.66714" lon="2.55836"><ele>84.3</ele></trkpt>
    <trkpt lat="48.66687" lon="2.55804"><ele>85.3</ele></trkpt>
    <trkpt lat="48.66608" lon="2.55741"><ele>86.7</ele></trkpt>
    <trkpt lat="48.66635" lon="2.55898"><ele>86.6</ele></trkpt>
    <trkpt lat="48.66637" lon="2.55925"><ele>86.6</ele></trkpt>
    <trkpt lat="48.66628" lon="2.55977"><ele>86.4</ele></trkpt>
    <trkpt lat="48.6653" lon="2.56173"><ele>86.1</ele></trkpt>
    <trkpt lat="48.66466" lon="2.56337"><ele>85.9</ele></trkpt>
    <trkpt lat="48.66452" lon="2.56347"><ele>85.9</ele></trkpt>
    <trkpt lat="48.66417" lon="2.56345"><ele>85.8</ele></trkpt>
    <trkpt lat="48.6641" lon="2.56365"><ele>85.8</ele></trkpt>
    <trkpt lat="48.66392" lon="2.56553"><ele>86.0</ele></trkpt>
    <trkpt lat="48.66326" lon="2.56747"><ele>85.2</ele></trkpt>
    <trkpt lat="48.6628" lon="2.56982"><ele>86.2</ele></trkpt>
    <trkpt lat="48.66266" lon="2.57088"><ele>86.1</ele></trkpt>
    <trkpt lat="48.66272" lon="2.57224"><ele>86.8</ele></trkpt>
    <trkpt lat="48.6627" lon="2.57305"><ele>87.4</ele></trkpt>
    <trkpt lat="48.66208" lon="2.57561"><ele>88.3</ele></trkpt>
    <trkpt lat="48.66182" lon="2.58049"><ele>87.8</ele></trkpt>
    <trkpt lat="48.66157" lon="2.58236"><ele>87.6</ele></trkpt>
    <trkpt lat="48.66148" lon="2.58256"><ele>87.5</ele></trkpt>
    <trkpt lat="48.66153" lon="2.5828"><ele>87.4</ele></trkpt>
    <trkpt lat="48.66149" lon="2.58334"><ele>87.2</ele></trkpt>
    <trkpt lat="48.66095" lon="2.58593"><ele>86.4</ele></trkpt>
    <trkpt lat="48.66057" lon="2.58803"><ele>87.2</ele></trkpt>
    <trkpt lat="48.65997" lon="2.5906"><ele>87.9</ele></trkpt>
    <trkpt lat="48.6599" lon="2.59113"><ele>87.7</ele></trkpt>
    <trkpt lat="48.65989" lon="2.59194"><ele>87.4</ele></trkpt>
    <trkpt lat="48.66007" lon="2.5952"><ele>87.8</ele></trkpt>
    <trkpt lat="48.66008" lon="2.59602"><ele>87.9</ele></trkpt>
    <trkpt lat="48.66001" lon="2.5971"><ele>87.7</ele></trkpt>
    <trkpt lat="48.65959" lon="2.60113"><ele>83.1</ele></trkpt>
    <trkpt lat="48.6594" lon="2.60246"><ele>81.5</ele></trkpt>
    <trkpt lat="48.6585" lon="2.60573"><ele>86.7</ele></trkpt>
    <trkpt lat="48.65789" lon="2.60858"><ele>83.0</ele></trkpt>
    <trkpt lat="48.65763" lon="2.61072"><ele>76.1</ele></trkpt>
    <trkpt lat="48.65723" lon="2.61503"><ele>66.2</ele></trkpt>
    <trkpt lat="48.65723" lon="2.61583"><ele>67.3</ele></trkpt>
    <trkpt lat="48.65699" lon="2.61622"><ele>68.2</ele></trkpt>
    <trkpt lat="48.6569" lon="2.61646"><ele>69.0</ele></trkpt>
    <trkpt lat="48.65658" lon="2.61772"><ele>73.8</ele></trkpt>
    <trkpt lat="48.65567" lon="2.62069"><ele>71.8</ele></trkpt>
    <trkpt lat="48.65544" lon="2.62172"><ele>70.9</ele></trkpt>
    <trkpt lat="48.65523" lon="2.6236"><ele>71.4</ele></trkpt>
    <trkpt lat="48.65512" lon="2.62411"><ele>72.0</ele></trkpt>
    <trkpt lat="48.65494" lon="2.62459"><ele>72.8</ele></trkpt>
    <trkpt lat="48.65441" lon="2.62531"><ele>74.9</ele></trkpt>
    <trkpt lat="48.65241" lon="2.62713"><ele>72.2</ele></trkpt>
    <trkpt lat="48.65164" lon="2.62826"><ele>73.2</ele></trkpt>
    <trkpt lat="48.65122" lon="2.62947"><ele>75.3</ele></trkpt>
    <trkpt lat="48.65097" lon="2.62984"><ele>76.4</ele></trkpt>
    <trkpt lat="48.65081" lon="2.62994"><ele>77.0</ele></trkpt>
    <trkpt lat="48.6501" lon="2.63006"><ele>79.9</ele></trkpt>
    <trkpt lat="48.64998" lon="2.63026"><ele>80.4</ele></trkpt>
    <trkpt lat="48.65001" lon="2.63047"><ele>80.5</ele></trkpt>
    <trkpt lat="48.65015" lon="2.63064"><ele>80.2</ele></trkpt>
    <trkpt lat="48.65067" lon="2.63085"><ele>78.7</ele></trkpt>
    <trkpt lat="48.65127" lon="2.63145"><ele>78.6</ele></trkpt>
    <trkpt lat="48.65203" lon="2.6326"><ele>86.4</ele></trkpt>
    <trkpt lat="48.65279" lon="2.63332"><ele>90.3</ele></trkpt>
    <trkpt lat="48.65289" lon="2.6335"><ele>90.6</ele></trkpt>
    <trkpt lat="48.65274" lon="2.63429"><ele>91.3</ele></trkpt>
    <trkpt lat="48.65279" lon="2.63481"><ele>91.4</ele></trkpt>
    <trkpt lat="48.65248" lon="2.63546"><ele>91.3</ele></trkpt>
    <trkpt lat="48.65244" lon="2.6357"><ele>91.2</ele></trkpt>
    <trkpt lat="48.65296" lon="2.63643"><ele>91.4</ele></trkpt>
    <trkpt lat="48.65369" lon="2.63764"><ele>91.9</ele></trkpt>
    <trkpt lat="48.65368" lon="2.63785"><ele>92.0</ele></trkpt>
    <trkpt lat="48.65306" lon="2.63919"><ele>91.9</ele></trkpt>
    <trkpt lat="48.65153" lon="2.64221"><ele>91.9</ele></trkpt>
    <trkpt lat="48.65094" lon="2.6442"><ele>92.5</ele></trkpt>
    <trkpt lat="48.65012" lon="2.64663"><ele>93.4</ele></trkpt>
    <trkpt lat="48.64993" lon="2.64739"><ele>93.7</ele></trkpt>
    <trkpt lat="48.64958" lon="2.64978"><ele>94.6</ele></trkpt>
    <trkpt lat="48.64935" lon="2.65193"><ele>95.3</ele></trkpt>
    <trkpt lat="48.6492" lon="2.65382"><ele>95.9</ele></trkpt>
    <trkpt lat="48.64912" lon="2.65435"><ele>95.9</ele></trkpt>
    <trkpt lat="48.64894" lon="2.65512"><ele>95.9</ele></trkpt>
    <trkpt lat="48.64811" lon="2.65813"><ele>95.1</ele></trkpt>
    <trkpt lat="48.64802" lon="2.65866"><ele>94.8</ele></trkpt>
    <trkpt lat="48.64798" lon="2.66002"><ele>93.7</ele></trkpt>
    <trkpt lat="48.6479" lon="2.6611"><ele>92.4</ele></trkpt>
    <trkpt lat="48.64779" lon="2.66162"><ele>91.9</ele></trkpt>
    <trkpt lat="48.64726" lon="2.66334"><ele>90.2</ele></trkpt>
    <trkpt lat="48.64722" lon="2.66361"><ele>90.0</ele></trkpt>
    <trkpt lat="48.64713" lon="2.66441"><ele>89.5</ele></trkpt>
    <trkpt lat="48.64708" lon="2.66931"><ele>91.0</ele></trkpt>
    <trkpt lat="48.64807" lon="2.67762"><ele>91.4</ele></trkpt>
    <trkpt lat="48.64814" lon="2.67785"><ele>91.2</ele></trkpt>
    <trkpt lat="48.64828" lon="2.678"><ele>91.0</ele></trkpt>
    <trkpt lat="48.64862" lon="2.67818"><ele>90.5</ele></trkpt>
    <trkpt lat="48.64902" lon="2.67873"><ele>89.6</ele></trkpt>
    <trkpt lat="48.64928" lon="2.67973"><ele>88.3</ele></trkpt>
    <trkpt lat="48.6495" lon="2.68161"><ele>86.4</ele></trkpt>
    <trkpt lat="48.64946" lon="2.6827"><ele>85.4</ele></trkpt>
    <trkpt lat="48.64949" lon="2.68324"><ele>84.6</ele></trkpt>
    <trkpt lat="48.65009" lon="2.68608"><ele>77.4</ele></trkpt>
    <trkpt lat="48.65006" lon="2.68771"><ele>71.5</ele></trkpt>
    <trkpt lat="48.65011" lon="2.68853"><ele>69.7</ele></trkpt>
    <trkpt lat="48.65019" lon="2.68876"><ele>69.2</ele></trkpt>
    <trkpt lat="48.65094" lon="2.68949"><ele>67.0</ele></trkpt>
    <trkpt lat="48.65146" lon="2.69059"><ele>64.8</ele></trkpt>
    <trkpt lat="48.65207" lon="2.69286"><ele>63.2</ele></trkpt>
    <trkpt lat="48.65301" lon="2.69668"><ele>62.7</ele></trkpt>
    <trkpt lat="48.65349" lon="2.69784"><ele>63.3</ele></trkpt>
    <trkpt lat="48.65374" lon="2.69816"><ele>63.3</ele></trkpt>
    <trkpt lat="48.65406" lon="2.69912"><ele>62.6</ele></trkpt>
    <trkpt lat="48.6549" lon="2.69961"><ele>62.5</ele></trkpt>
    <trkpt lat="48.65559" lon="2.69989"><ele>62.9</ele></trkpt>
    <trkpt lat="48.65568" lon="2.70009"><ele>63.1</ele></trkpt>
    <trkpt lat="48.65569" lon="2.70037"><ele>63.5</ele></trkpt>
    <trkpt lat="48.65562" lon="2.70061"><ele>64.0</ele></trkpt>
    <trkpt lat="48.65451" lon="2.70309"><ele>73.5</ele></trkpt>
    <trkpt lat="48.65443" lon="2.70333"><ele>74.2</ele></trkpt>
    <trkpt lat="48.65443" lon="2.70359"><ele>75.1</ele></trkpt>
    <trkpt lat="48.65457" lon="2.70375"><ele>76.0</ele></trkpt>
    <trkpt lat="48.65508" lon="2.70352"><ele>78.9</ele></trkpt>
    <trkpt lat="48.65523" lon="2.70336"><ele>79.8</ele></trkpt>
    <trkpt lat="48.65561" lon="2.70245"><ele>83.1</ele></trkpt>
    <trkpt lat="48.65575" lon="2.70228"><ele>83.8</ele></trkpt>
    <trkpt lat="48.65593" lon="2.70229"><ele>84.5</ele></trkpt>
    <trkpt lat="48.65638" lon="2.70313"><ele>86.9</ele></trkpt>
    <trkpt lat="48.6565" lon="2.70364"><ele>87.8</ele></trkpt>
    <trkpt lat="48.65659" lon="2.70445"><ele>89.5</ele></trkpt>
    <trkpt lat="48.65732" lon="2.71116"><ele>95.5</ele></trkpt>
    <trkpt lat="48.65787" lon="2.71317"><ele>94.9</ele></trkpt>
    <trkpt lat="48.65784" lon="2.7148"><ele>93.8</ele></trkpt>
    <trkpt lat="48.65795" lon="2.71587"><ele>93.2</ele></trkpt>
    <trkpt lat="48.65816" lon="2.71662"><ele>92.7</ele></trkpt>
    <trkpt lat="48.65891" lon="2.71848"><ele>91.9</ele></trkpt>
    <trkpt lat="48.65915" lon="2.71921"><ele>91.6</ele></trkpt>
    <trkpt lat="48.65931" lon="2.71999"><ele>91.4</ele></trkpt>
    <trkpt lat="48.65927" lon="2.7205"><ele>91.4</ele></trkpt>
    <trkpt lat="48.65934" lon="2.72075"><ele>91.6</ele></trkpt>
    <trkpt lat="48.65956" lon="2.72117"><ele>92.3</ele></trkpt>
    <trkpt lat="48.65998" lon="2.72168"><ele>93.8</ele></trkpt>
    <trkpt lat="48.66396" lon="2.7276"><ele>98.8</ele></trkpt>
    <trkpt lat="48.66449" lon="2.72834"><ele>101.2</ele></trkpt>
    <trkpt lat="48.66618" lon="2.73036"><ele>107.4</ele></trkpt>
    <trkpt lat="48.66684" lon="2.73129"><ele>107.3</ele></trkpt>
    <trkpt lat="48.66732" lon="2.7321"><ele>106.2</ele></trkpt>
    <trkpt lat="48.66844" lon="2.73423"><ele>100.3</ele></trkpt>
    <trkpt lat="48.66916" lon="2.73544"><ele>100.1</ele></trkpt>
    <trkpt lat="48.67404" lon="2.74269"><ele>100.2</ele></trkpt>
    <trkpt lat="48.67516" lon="2.74446"><ele>99.5</ele></trkpt>
    <trkpt lat="48.67583" lon="2.74574"><ele>99.6</ele></trkpt>
    <trkpt lat="48.67598" lon="2.74587"><ele>99.6</ele></trkpt>
    <trkpt lat="48.67667" lon="2.74618"><ele>99.9</ele></trkpt>
    <trkpt lat="48.67695" lon="2.74652"><ele>100.2</ele></trkpt>
    <trkpt lat="48.67711" lon="2.74651"><ele>100.4</ele></trkpt>
    <trkpt lat="48.67745" lon="2.74633"><ele>100.7</ele></trkpt>
    <trkpt lat="48.67775" lon="2.74603"><ele>100.9</ele></trkpt>
    <trkpt lat="48.67906" lon="2.74379"><ele>100.9</ele></trkpt>
    <trkpt lat="48.67921" lon="2.74364"><ele>100.9</ele></trkpt>
    <trkpt lat="48.68316" lon="2.74041"><ele>102.1</ele></trkpt>
    <trkpt lat="48.68349" lon="2.74019"><ele>102.1</ele></trkpt>
    <trkpt lat="48.68384" lon="2.74009"><ele>102.1</ele></trkpt>
    <trkpt lat="48.69463" lon="2.73998"><ele>100.5</ele></trkpt>
    <trkpt lat="48.69479" lon="2.74009"><ele>100.3</ele></trkpt>
    <trkpt lat="48.69738" lon="2.74303"><ele>97.8</ele></trkpt>
    <trkpt lat="48.69744" lon="2.74324"><ele>97.8</ele></trkpt>
    <trkpt lat="48.69661" lon="2.7477"><ele>98.2</ele></trkpt>
    <trkpt lat="48.69659" lon="2.74824"><ele>98.1</ele></trkpt>
    <trkpt lat="48.69662" lon="2.7485"><ele>98.1</ele></trkpt>
    <trkpt lat="48.69774" lon="2.75454"><ele>92.6</ele></trkpt>
    <trkpt lat="48.69937" lon="2.75845"><ele>86.0</ele></trkpt>
    <trkpt lat="48.69952" lon="2.75923"><ele>85.7</ele></trkpt>
    <trkpt lat="48.69956" lon="2.76005"><ele>85.9</ele></trkpt>
    <trkpt lat="48.69951" lon="2.76058"><ele>86.3</ele></trkpt>
    <trkpt lat="48.69839" lon="2.76802"><ele>98.2</ele></trkpt>
    <trkpt lat="48.69846" lon="2.76854"><ele>99.4</ele></trkpt>
    <trkpt lat="48.69875" lon="2.76954"><ele>101.7</ele></trkpt>
    <trkpt lat="48.69875" lon="2.77008"><ele>102.7</ele></trkpt>
    <trkpt lat="48.69851" lon="2.77111"><ele>104.2</ele></trkpt>
    <trkpt lat="48.69804" lon="2.77194"><ele>105.2</ele></trkpt>
    <trkpt lat="48.69805" lon="2.77215"><ele>105.4</ele></trkpt>
    <trkpt lat="48.6989" lon="2.77391"><ele>106.4</ele></trkpt>
    <trkpt lat="48.70025" lon="2.77571"><ele>106.7</ele></trkpt>
    <trkpt lat="48.70092" lon="2.77698"><ele>106.3</ele></trkpt>
    <trkpt lat="48.70149" lon="2.77766"><ele>105.7</ele></trkpt>
    <trkpt lat="48.70227" lon="2.77834"><ele>105.0</ele></trkpt>
    <trkpt lat="48.70239" lon="2.77853"><ele>104.8</ele></trkpt>
    <trkpt lat="48.70637" lon="2.78762"><ele>103.8</ele></trkpt>
    <trkpt lat="48.70739" lon="2.79049"><ele>104.2</ele></trkpt>
    <trkpt lat="48.70793" lon="2.79222"><ele>104.3</ele></trkpt>
    <trkpt lat="48.71011" lon="2.80175"><ele>107.0</ele></trkpt>
    <trkpt lat="48.71071" lon="2.80402"><ele>109.4</ele></trkpt>
    <trkpt lat="48.71095" lon="2.80617"><ele>111.7</ele></trkpt>
    <trkpt lat="48.71091" lon="2.8067"><ele>112.4</ele></trkpt>
    <trkpt lat="48.71074" lon="2.80719"><ele>113.2</ele></trkpt>
    <trkpt lat="48.7108" lon="2.80741"><ele>113.5</ele></trkpt>
    <trkpt lat="48.71145" lon="2.80835"><ele>115.0</ele></trkpt>
    <trkpt lat="48.71148" lon="2.80861"><ele>115.2</ele></trkpt>
    <trkpt lat="48.71116" lon="2.80988"><ele>115.9</ele></trkpt>
    <trkpt lat="48.71118" lon="2.81013"><ele>115.8</ele></trkpt>
    <trkpt lat="48.71145" lon="2.81046"><ele>115.4</ele></trkpt>
    <trkpt lat="48.71578" lon="2.8123"><ele>114.2</ele></trkpt>
    <trkpt lat="48.71972" lon="2.81285"><ele>117.0</ele></trkpt>
    <trkpt lat="48.72235" lon="2.81378"><ele>111.5</ele></trkpt>
    <trkpt lat="48.7227" lon="2.81374"><ele>110.3</ele></trkpt>
    <trkpt lat="48.7239" lon="2.81314"><ele>108.9</ele></trkpt>
    <trkpt lat="48.72461" lon="2.81297"><ele>108.2</ele></trkpt>
    <trkpt lat="48.72532" lon="2.81291"><ele>108.4</ele></trkpt>
    <trkpt lat="48.7264" lon="2.81309"><ele>110.1</ele></trkpt>
    <trkpt lat="48.72675" lon="2.81321"><ele>110.8</ele></trkpt>
    <trkpt lat="48.72691" lon="2.81333"><ele>111.2</ele></trkpt>
    <trkpt lat="48.72701" lon="2.81353"><ele>111.5</ele></trkpt>
    <trkpt lat="48.72716" lon="2.81363"><ele>111.9</ele></trkpt>
    <trkpt lat="48.72734" lon="2.81356"><ele>112.3</ele></trkpt>
    <trkpt lat="48.72751" lon="2.81361"><ele>112.8</ele></trkpt>
    <trkpt lat="48.72818" lon="2.81403"><ele>114.8</ele></trkpt>
    <trkpt lat="48.72826" lon="2.81426"><ele>115.3</ele></trkpt>
    <trkpt lat="48.72827" lon="2.81452"><ele>115.8</ele></trkpt>
    <trkpt lat="48.72841" lon="2.81468"><ele>116.2</ele></trkpt>
    <trkpt lat="48.72872" lon="2.81445"><ele>117.0</ele></trkpt>
    <trkpt lat="48.7289" lon="2.81448"><ele>117.4</ele></trkpt>
    <trkpt lat="48.73082" lon="2.81595"><ele>117.1</ele></trkpt>
    <trkpt lat="48.73116" lon="2.81613"><ele>116.7</ele></trkpt>
    <trkpt lat="48.73521" lon="2.81743"><ele>112.6</ele></trkpt>
    <trkpt lat="48.74056" lon="2.81646"><ele>112.5</ele></trkpt>
    <trkpt lat="48.74326" lon="2.81639"><ele>113.0</ele></trkpt>
    <trkpt lat="48.74359" lon="2.81658"><ele>113.0</ele></trkpt>
    <trkpt lat="48.74422" lon="2.81711"><ele>112.7</ele></trkpt>
    <trkpt lat="48.74456" lon="2.81725"><ele>112.4</ele></trkpt>
    <trkpt lat="48.74974" lon="2.81625"><ele>121.0</ele></trkpt>
    <trkpt lat="48.75027" lon="2.8163"><ele>122.7</ele></trkpt>
    <trkpt lat="48.76163" lon="2.82154"><ele>128.0</ele></trkpt>
    <trkpt lat="48.76177" lon="2.82169"><ele>128.1</ele></trkpt>
    <trkpt lat="48.76247" lon="2.82294"><ele>128.8</ele></trkpt>
    <trkpt lat="48.76571" lon="2.82879"><ele>127.9</ele></trkpt>
    <trkpt lat="48.76783" lon="2.83132"><ele>122.0</ele></trkpt>
    <trkpt lat="48.77099" lon="2.82942"><ele>119.2</ele></trkpt>
    <trkpt lat="48.77114" lon="2.82927"><ele>119.3</ele></trkpt>
    <trkpt lat="48.77177" lon="2.82833"><ele>119.7</ele></trkpt>
    <trkpt lat="48.77193" lon="2.82829"><ele>119.6</ele></trkpt>
    <trkpt lat="48.77194" lon="2.82806"><ele>119.6</ele></trkpt>
    <trkpt lat="48.77302" lon="2.82661"><ele>120.7</ele></trkpt>
    <trkpt lat="48.77332" lon="2.82633"><ele>120.8</ele></trkpt>
    <trkpt lat="48.77366" lon="2.82616"><ele>120.8</ele></trkpt>
    <trkpt lat="48.7812" lon="2.82535"><ele>114.1</ele></trkpt>
    <trkpt lat="48.78569" lon="2.82495"><ele>120.3</ele></trkpt>
    <trkpt lat="48.79219" lon="2.82283"><ele>129.4</ele></trkpt>
    <trkpt lat="48.79326" lon="2.82256"><ele>131.9</ele></trkpt>
    <trkpt lat="48.79361" lon="2.82267"><ele>132.4</ele></trkpt>
    <trkpt lat="48.80207" lon="2.82638"><ele>138.6</ele></trkpt>
    <trkpt lat="48.81178" lon="2.82925"><ele>130.6</ele></trkpt>
    <trkpt lat="48.81196" lon="2.82925"><ele>130.2</ele></trkpt>
    <trkpt lat="48.8121" lon="2.82934"><ele>129.7</ele></trkpt>
    <trkpt lat="48.81352" lon="2.82953"><ele>126.7</ele></trkpt>
    <trkpt lat="48.81459" lon="2.8299"><ele>125.8</ele></trkpt>
    <trkpt lat="48.81451" lon="2.82977"><ele>125.8</ele></trkpt>
    <trkpt lat="48.81489" lon="2.82854"><ele>126.2</ele></trkpt>
    <trkpt lat="48.81501" lon="2.82834"><ele>126.3</ele></trkpt>
    <trkpt lat="48.81565" lon="2.82784"><ele>126.6</ele></trkpt>
    <trkpt lat="48.81574" lon="2.82762"><ele>126.6</ele></trkpt>
    <trkpt lat="48.81727" lon="2.82062"><ele>125.8</ele></trkpt>
    <trkpt lat="48.81748" lon="2.82018"><ele>125.6</ele></trkpt>
    <trkpt lat="48.81798" lon="2.8194"><ele>125.4</ele></trkpt>
    <trkpt lat="48.81841" lon="2.8189"><ele>125.6</ele></trkpt>
    <trkpt lat="48.81875" lon="2.81884"><ele>125.7</ele></trkpt>
    <trkpt lat="48.8189" lon="2.81868"><ele>125.6</ele></trkpt>
    <trkpt lat="48.81894" lon="2.81843"><ele>125.6</ele></trkpt>
    <trkpt lat="48.8189" lon="2.81817"><ele>125.5</ele></trkpt>
    <trkpt lat="48.81876" lon="2.81799"><ele>125.4</ele></trkpt>
    <trkpt lat="48.81859" lon="2.81795"><ele>125.3</ele></trkpt>
    <trkpt lat="48.81845" lon="2.81777"><ele>125.2</ele></trkpt>
    <trkpt lat="48.81835" lon="2.81755"><ele>125.1</ele></trkpt>
    <trkpt lat="48.81805" lon="2.81656"><ele>124.9</ele></trkpt>
    <trkpt lat="48.81796" lon="2.81603"><ele>124.7</ele></trkpt>
    <trkpt lat="48.81777" lon="2.81414"><ele>124.1</ele></trkpt>
    <trkpt lat="48.81762" lon="2.81307"><ele>123.7</ele></trkpt>
    <trkpt lat="48.81706" lon="2.81019"><ele>122.5</ele></trkpt>
    <trkpt lat="48.81655" lon="2.80786"><ele>121.5</ele></trkpt>
    <trkpt lat="48.81622" lon="2.80517"><ele>120.9</ele></trkpt>
    <trkpt lat="48.81602" lon="2.80384"><ele>121.2</ele></trkpt>
    <trkpt lat="48.81594" lon="2.80248"><ele>121.7</ele></trkpt>
    <trkpt lat="48.81599" lon="2.79948"><ele>122.2</ele></trkpt>
    <trkpt lat="48.81605" lon="2.79894"><ele>122.1</ele></trkpt>
    <trkpt lat="48.81645" lon="2.79656"><ele>121.3</ele></trkpt>
    <trkpt lat="48.81649" lon="2.79602"><ele>121.2</ele></trkpt>
    <trkpt lat="48.81645" lon="2.79576"><ele>121.1</ele></trkpt>
    <trkpt lat="48.81553" lon="2.79249"><ele>120.5</ele></trkpt>
    <trkpt lat="48.81503" lon="2.79136"><ele>119.7</ele></trkpt>
    <trkpt lat="48.81478" lon="2.79097"><ele>119.5</ele></trkpt>
    <trkpt lat="48.81433" lon="2.79053"><ele>119.2</ele></trkpt>
    <trkpt lat="48.81397" lon="2.79043"><ele>119.0</ele></trkpt>
    <trkpt lat="48.81361" lon="2.79039"><ele>118.9</ele></trkpt>
    <trkpt lat="48.81254" lon="2.79049"><ele>118.9</ele></trkpt>
    <trkpt lat="48.81184" lon="2.79026"><ele>119.0</ele></trkpt>
    <trkpt lat="48.81152" lon="2.79"><ele>119.2</ele></trkpt>
    <trkpt lat="48.81101" lon="2.78924"><ele>119.7</ele></trkpt>
    <trkpt lat="48.81081" lon="2.78879"><ele>120.1</ele></trkpt>
    <trkpt lat="48.81066" lon="2.78829"><ele>120.4</ele></trkpt>
    <trkpt lat="48.81057" lon="2.78777"><ele>120.8</ele></trkpt>
    <trkpt lat="48.81049" lon="2.78586"><ele>122.1</ele></trkpt>
    <trkpt lat="48.81033" lon="2.78452"><ele>123.0</ele></trkpt>
    <trkpt lat="48.81005" lon="2.78351"><ele>123.8</ele></trkpt>
    <trkpt lat="48.80959" lon="2.78234"><ele>124.5</ele></trkpt>
    <trkpt lat="48.80838" lon="2.77749"><ele>126.5</ele></trkpt>
    <trkpt lat="48.8066" lon="2.76803"><ele>128.6</ele></trkpt>
    <trkpt lat="48.80632" lon="2.75985"><ele>126.8</ele></trkpt>
    <trkpt lat="48.80628" lon="2.75904"><ele>126.0</ele></trkpt>
    <trkpt lat="48.80617" lon="2.75851"><ele>125.8</ele></trkpt>
    <trkpt lat="48.80353" lon="2.74954"><ele>121.6</ele></trkpt>
    <trkpt lat="48.80291" lon="2.74727"><ele>121.2</ele></trkpt>
    <trkpt lat="48.79955" lon="2.73373"><ele>121.7</ele></trkpt>
    <trkpt lat="48.79739" lon="2.72805"><ele>121.6</ele></trkpt>
    <trkpt lat="48.79604" lon="2.72419"><ele>118.5</ele></trkpt>
    <trkpt lat="48.79592" lon="2.72368"><ele>118.1</ele></trkpt>
    <trkpt lat="48.79603" lon="2.71604"><ele>116.4</ele></trkpt>
    <trkpt lat="48.79616" lon="2.71442"><ele>116.2</ele></trkpt>
    <trkpt lat="48.79626" lon="2.71421"><ele>115.9</ele></trkpt>
    <trkpt lat="48.7963" lon="2.71395"><ele>115.8</ele></trkpt>
    <trkpt lat="48.7961" lon="2.71351"><ele>115.9</ele></trkpt>
    <trkpt lat="48.79608" lon="2.71324"><ele>116.2</ele></trkpt>
    <trkpt lat="48.79621" lon="2.70669"><ele>116.0</ele></trkpt>
    <trkpt lat="48.7962" lon="2.70641"><ele>115.9</ele></trkpt>
    <trkpt lat="48.79604" lon="2.70535"><ele>114.9</ele></trkpt>
    <trkpt lat="48.7959" lon="2.70522"><ele>114.7</ele></trkpt>
    <trkpt lat="48.79555" lon="2.7052"><ele>114.5</ele></trkpt>
    <trkpt lat="48.7954" lon="2.70506"><ele>114.6</ele></trkpt>
    <trkpt lat="48.7953" lon="2.70483"><ele>114.6</ele></trkpt>
    <trkpt lat="48.79135" lon="2.69197"><ele>115.3</ele></trkpt>
    <trkpt lat="48.79" lon="2.6878"><ele>114.5</ele></trkpt>
    <trkpt lat="48.78996" lon="2.68757"><ele>115.5</ele></trkpt>
    <trkpt lat="48.78982" lon="2.68765"><ele>116.4</ele></trkpt>
    <trkpt lat="48.78965" lon="2.68764"><ele>117.4</ele></trkpt>
    <trkpt lat="48.78948" lon="2.68755"><ele>118.3</ele></trkpt>
    <trkpt lat="48.78669" lon="2.68566"><ele>118.4</ele></trkpt>
    <trkpt lat="48.78399" lon="2.68414"><ele>117.3</ele></trkpt>
    <trkpt lat="48.78285" lon="2.68331"><ele>117.0</ele></trkpt>
    <trkpt lat="48.78064" lon="2.68148"><ele>116.3</ele></trkpt>
    <trkpt lat="48.77901" lon="2.68035"><ele>115.3</ele></trkpt>
    <trkpt lat="48.77896" lon="2.68014"><ele>115.1</ele></trkpt>
    <trkpt lat="48.77881" lon="2.68002"><ele>114.9</ele></trkpt>
    <trkpt lat="48.77868" lon="2.68013"><ele>114.7</ele></trkpt>
    <trkpt lat="48.77606" lon="2.67834"><ele>112.4</ele></trkpt>
    <trkpt lat="48.77586" lon="2.67796"><ele>111.7</ele></trkpt>
    <trkpt lat="48.7757" lon="2.67806"><ele>111.4</ele></trkpt>
    <trkpt lat="48.77553" lon="2.67797"><ele>111.1</ele></trkpt>
    <trkpt lat="48.77324" lon="2.6764"><ele>109.4</ele></trkpt>
    <trkpt lat="48.7731" lon="2.67628"><ele>109.3</ele></trkpt>
    <trkpt lat="48.773" lon="2.67609"><ele>109.1</ele></trkpt>
    <trkpt lat="48.77285" lon="2.67615"><ele>109.0</ele></trkpt>
    <trkpt lat="48.77204" lon="2.67558"><ele>108.6</ele></trkpt>
    <trkpt lat="48.76931" lon="2.67124"><ele>108.0</ele></trkpt>
    <trkpt lat="48.7693" lon="2.67101"><ele>108.0</ele></trkpt>
    <trkpt lat="48.7692" lon="2.67081"><ele>107.9</ele></trkpt>
    <trkpt lat="48.76904" lon="2.67082"><ele>107.9</ele></trkpt>
    <trkpt lat="48.76778" lon="2.66887"><ele>107.6</ele></trkpt>
    <trkpt lat="48.76778" lon="2.66861"><ele>107.5</ele></trkpt>
    <trkpt lat="48.76765" lon="2.66845"><ele>107.5</ele></trkpt>
    <trkpt lat="48.7675" lon="2.66841"><ele>107.4</ele></trkpt>
    <trkpt lat="48.7674" lon="2.66818"><ele>107.3</ele></trkpt>
    <trkpt lat="48.76722" lon="2.66741"><ele>107.1</ele></trkpt>
    <trkpt lat="48.76692" lon="2.66642"><ele>106.8</ele></trkpt>
    <trkpt lat="48.76662" lon="2.66573"><ele>106.6</ele></trkpt>
    <trkpt lat="48.76638" lon="2.66534"><ele>106.4</ele></trkpt>
    <trkpt lat="48.76606" lon="2.66507"><ele>106.2</ele></trkpt>
    <trkpt lat="48.76571" lon="2.66498"><ele>106.0</ele></trkpt>
    <trkpt lat="48.76411" lon="2.66532"><ele>104.9</ele></trkpt>
    <trkpt lat="48.76358" lon="2.66526"><ele>104.9</ele></trkpt>
    <trkpt lat="48.7634" lon="2.6652"><ele>104.8</ele></trkpt>
    <trkpt lat="48.76329" lon="2.66504"><ele>104.8</ele></trkpt>
    <trkpt lat="48.76296" lon="2.66507"><ele>104.7</ele></trkpt>
    <trkpt lat="48.76262" lon="2.66493"><ele>104.7</ele></trkpt>
    <trkpt lat="48.76219" lon="2.66442"><ele>104.8</ele></trkpt>
    <trkpt lat="48.76114" lon="2.66295"><ele>105.3</ele></trkpt>
    <trkpt lat="48.76096" lon="2.66256"><ele>105.1</ele></trkpt>
    <trkpt lat="48.76081" lon="2.66253"><ele>104.4</ele></trkpt>
    <trkpt lat="48.75919" lon="2.66037"><ele>103.1</ele></trkpt>
    <trkpt lat="48.75796" lon="2.65838"><ele>102.1</ele></trkpt>
    <trkpt lat="48.75652" lon="2.65559"><ele>101.7</ele></trkpt>
    <trkpt lat="48.75513" lon="2.65309"><ele>102.5</ele></trkpt>
    <trkpt lat="48.754" lon="2.64937"><ele>104.6</ele></trkpt>
    <trkpt lat="48.75353" lon="2.64731"><ele>105.4</ele></trkpt>
    <trkpt lat="48.75323" lon="2.64663"><ele>105.9</ele></trkpt>
    <trkpt lat="48.75283" lon="2.64609"><ele>106.5</ele></trkpt>
    <trkpt lat="48.75252" lon="2.64542"><ele>107.1</ele></trkpt>
    <trkpt lat="48.75236" lon="2.64493"><ele>107.5</ele></trkpt>
    <trkpt lat="48.75208" lon="2.64364"><ele>108.0</ele></trkpt>
    <trkpt lat="48.75143" lon="2.64169"><ele>108.6</ele></trkpt>
    <trkpt lat="48.75109" lon="2.64105"><ele>108.6</ele></trkpt>
    <trkpt lat="48.75047" lon="2.64052"><ele>108.0</ele></trkpt>
    <trkpt lat="48.75043" lon="2.64029"><ele>107.8</ele></trkpt>
    <trkpt lat="48.75027" lon="2.64029"><ele>107.5</ele></trkpt>
    <trkpt lat="48.74989" lon="2.63971"><ele>106.6</ele></trkpt>
    <trkpt lat="48.74874" lon="2.63841"><ele>104.3</ele></trkpt>
    <trkpt lat="48.74834" lon="2.63785"><ele>103.2</ele></trkpt>
    <trkpt lat="48.74776" lon="2.63683"><ele>101.3</ele></trkpt>
    <trkpt lat="48.74772" lon="2.63657"><ele>100.7</ele></trkpt>
    <trkpt lat="48.74774" lon="2.6363"><ele>100.0</ele></trkpt>
    <trkpt lat="48.74794" lon="2.63585"><ele>98.7</ele></trkpt>
    <trkpt lat="48.74873" lon="2.63521"><ele>95.6</ele></trkpt>
    <trkpt lat="48.74958" lon="2.63477"><ele>94.4</ele></trkpt>
    <trkpt lat="48.74971" lon="2.63459"><ele>94.1</ele></trkpt>
    <trkpt lat="48.74997" lon="2.63388"><ele>93.2</ele></trkpt>
    <trkpt lat="48.75017" lon="2.63284"><ele>92.7</ele></trkpt>
    <trkpt lat="48.75016" lon="2.63257"><ele>92.6</ele></trkpt>
    <trkpt lat="48.7501" lon="2.63232"><ele>92.4</ele></trkpt>
    <trkpt lat="48.74954" lon="2.63125"><ele>91.7</ele></trkpt>
    <trkpt lat="48.74929" lon="2.63053"><ele>91.5</ele></trkpt>
    <trkpt lat="48.74913" lon="2.62975"><ele>91.3</ele></trkpt>
    <trkpt lat="48.7488" lon="2.62707"><ele>91.0</ele></trkpt>
    <trkpt lat="48.74825" lon="2.62568"><ele>91.2</ele></trkpt>
    <trkpt lat="48.74822" lon="2.62542"><ele>91.3</ele></trkpt>
    <trkpt lat="48.74826" lon="2.62518"><ele>91.6</ele></trkpt>
    <trkpt lat="48.74811" lon="2.6251"><ele>91.9</ele></trkpt>
    <trkpt lat="48.74799" lon="2.62491"><ele>92.3</ele></trkpt>
    <trkpt lat="48.74792" lon="2.62466"><ele>92.6</ele></trkpt>
    <trkpt lat="48.74786" lon="2.62358"><ele>93.9</ele></trkpt>
    <trkpt lat="48.7478" lon="2.62332"><ele>94.2</ele></trkpt>
    <trkpt lat="48.74701" lon="2.62184"><ele>95.6</ele></trkpt>
    <trkpt lat="48.74678" lon="2.62111"><ele>96.1</ele></trkpt>
    <trkpt lat="48.74682" lon="2.62057"><ele>96.4</ele></trkpt>
    <trkpt lat="48.74707" lon="2.61986"><ele>96.9</ele></trkpt>
    <trkpt lat="48.74753" lon="2.61901"><ele>97.6</ele></trkpt>
    <trkpt lat="48.74779" lon="2.61877"><ele>97.9</ele></trkpt>
    <trkpt lat="48.74777" lon="2.61855"><ele>98.1</ele></trkpt>
    <trkpt lat="48.74787" lon="2.61832"><ele>98.1</ele></trkpt>
    <trkpt lat="48.7485" lon="2.617"><ele>98.2</ele></trkpt>
    <trkpt lat="48.74866" lon="2.61694"><ele>98.2</ele></trkpt>
    <trkpt lat="48.74871" lon="2.6167"><ele>98.1</ele></trkpt>
    <trkpt lat="48.74856" lon="2.61659"><ele>98.1</ele></trkpt>
    <trkpt lat="48.74841" lon="2.61659"><ele>98.1</ele></trkpt>
    <trkpt lat="48.74752" lon="2.61567"><ele>97.9</ele></trkpt>
    <trkpt lat="48.74717" lon="2.6155"><ele>97.7</ele></trkpt>
    <trkpt lat="48.74703" lon="2.61558"><ele>97.7</ele></trkpt>
    <trkpt lat="48.74689" lon="2.61546"><ele>97.6</ele></trkpt>
    <trkpt lat="48.74671" lon="2.61542"><ele>97.5</ele></trkpt>
    <trkpt lat="48.7454" lon="2.61452"><ele>97.4</ele></trkpt>
    <trkpt lat="48.74529" lon="2.61431"><ele>97.4</ele></trkpt>
    <trkpt lat="48.74516" lon="2.61381"><ele>97.4</ele></trkpt>
    <trkpt lat="48.74502" lon="2.61365"><ele>97.4</ele></trkpt>
    <trkpt lat="48.74469" lon="2.61346"><ele>97.5</ele></trkpt>
    <trkpt lat="48.74457" lon="2.61325"><ele>97.6</ele></trkpt>
    <trkpt lat="48.74457" lon="2.61304"><ele>97.6</ele></trkpt>
    <trkpt lat="48.74429" lon="2.61244"><ele>98.0</ele></trkpt>
    <trkpt lat="48.74427" lon="2.61224"><ele>98.2</ele></trkpt>
    <trkpt lat="48.74398" lon="2.61196"><ele>98.5</ele></trkpt>
    <trkpt lat="48.74372" lon="2.61159"><ele>98.7</ele></trkpt>
    <trkpt lat="48.74146" lon="2.60889"><ele>98.6</ele></trkpt>
    <trkpt lat="48.74133" lon="2.6087"><ele>98.4</ele></trkpt>
    <trkpt lat="48.74129" lon="2.60847"><ele>98.2</ele></trkpt>
    <trkpt lat="48.74112" lon="2.60847"><ele>98.0</ele></trkpt>
    <trkpt lat="48.74054" lon="2.60785"><ele>97.1</ele></trkpt>
    <trkpt lat="48.73935" lon="2.60723"><ele>95.4</ele></trkpt>
    <trkpt lat="48.73733" lon="2.60606"><ele>92.8</ele></trkpt>
    <trkpt lat="48.73708" lon="2.60572"><ele>92.3</ele></trkpt>
    <trkpt lat="48.73693" lon="2.60581"><ele>92.1</ele></trkpt>
    <trkpt lat="48.73641" lon="2.6056"><ele>91.6</ele></trkpt>
    <trkpt lat="48.7324" lon="2.60319"><ele>91.4</ele></trkpt>
    <trkpt lat="48.73205" lon="2.60315"><ele>91.6</ele></trkpt>
    <trkpt lat="48.73154" lon="2.60287"><ele>91.8</ele></trkpt>
    <trkpt lat="48.73021" lon="2.60205"><ele>91.9</ele></trkpt>
    <trkpt lat="48.7299" lon="2.60177"><ele>91.8</ele></trkpt>
    <trkpt lat="48.72981" lon="2.60154"><ele>91.7</ele></trkpt>
    <trkpt lat="48.72949" lon="2.60131"><ele>91.5</ele></trkpt>
    <trkpt lat="48.72804" lon="2.59926"><ele>90.0</ele></trkpt>
    <trkpt lat="48.72609" lon="2.59686"><ele>87.6</ele></trkpt>
    <trkpt lat="48.7249" lon="2.59481"><ele>85.8</ele></trkpt>
    <trkpt lat="48.72328" lon="2.58935"><ele>85.5</ele></trkpt>
    <trkpt lat="48.72317" lon="2.58913"><ele>85.5</ele></trkpt>
    <trkpt lat="48.72315" lon="2.58889"><ele>85.5</ele></trkpt>
    <trkpt lat="48.72337" lon="2.58785"><ele>85.5</ele></trkpt>
    <trkpt lat="48.7235" lon="2.58678"><ele>85.4</ele></trkpt>
    <trkpt lat="48.72387" lon="2.58496"><ele>85.2</ele></trkpt>
    <trkpt lat="48.72459" lon="2.58307"><ele>84.7</ele></trkpt>
    <trkpt lat="48.72514" lon="2.58136"><ele>83.1</ele></trkpt>
    <trkpt lat="48.72552" lon="2.57926"><ele>81.2</ele></trkpt>
    <trkpt lat="48.72571" lon="2.5785"><ele>81.3</ele></trkpt>
    <trkpt lat="48.72594" lon="2.57815"><ele>81.8</ele></trkpt>
    <trkpt lat="48.72661" lon="2.57777"><ele>83.1</ele></trkpt>
    <trkpt lat="48.7282" lon="2.57729"><ele>87.7</ele></trkpt>
    <trkpt lat="48.72837" lon="2.57726"><ele>88.9</ele></trkpt>
    <trkpt lat="48.72853" lon="2.57737"><ele>89.8</ele></trkpt>
    <trkpt lat="48.7287" lon="2.57738"><ele>90.3</ele></trkpt>
    <trkpt lat="48.72898" lon="2.57706"><ele>90.2</ele></trkpt>
    <trkpt lat="48.72961" lon="2.57655"><ele>90.0</ele></trkpt>
    <trkpt lat="48.72995" lon="2.57593"><ele>90.8</ele></trkpt>
    <trkpt lat="48.73038" lon="2.57384"><ele>92.2</ele></trkpt>
    <trkpt lat="48.73068" lon="2.572"><ele>93.0</ele></trkpt>
    <trkpt lat="48.73088" lon="2.57067"><ele>93.1</ele></trkpt>
    <trkpt lat="48.73114" lon="2.56825"><ele>93.2</ele></trkpt>
    <trkpt lat="48.73145" lon="2.56763"><ele>92.9</ele></trkpt>
    <trkpt lat="48.73217" lon="2.56682"><ele>92.0</ele></trkpt>
    <trkpt lat="48.73392" lon="2.56541"><ele>90.6</ele></trkpt>
    <trkpt lat="48.73512" lon="2.56487"><ele>90.8</ele></trkpt>
    <trkpt lat="48.73527" lon="2.56481"><ele>90.9</ele></trkpt>
    <trkpt lat="48.73687" lon="2.56512"><ele>92.4</ele></trkpt>
    <trkpt lat="48.73795" lon="2.5652"><ele>94.4</ele></trkpt>
    <trkpt lat="48.73812" lon="2.56514"><ele>94.8</ele></trkpt>
    <trkpt lat="48.73825" lon="2.56497"><ele>95.0</ele></trkpt>
    <trkpt lat="48.73841" lon="2.56494"><ele>95.1</ele></trkpt>
    <trkpt lat="48.73843" lon="2.5647"><ele>95.2</ele></trkpt>
    <trkpt lat="48.73835" lon="2.5645"><ele>95.3</ele></trkpt>
    <trkpt lat="48.73831" lon="2.56396"><ele>95.5</ele></trkpt>
    <trkpt lat="48.73833" lon="2.56342"><ele>95.7</ele></trkpt>
    <trkpt lat="48.7385" lon="2.56264"><ele>96.2</ele></trkpt>
    <trkpt lat="48.73887" lon="2.56213"><ele>96.6</ele></trkpt>
    <trkpt lat="48.73918" lon="2.56186"><ele>96.8</ele></trkpt>
    <trkpt lat="48.73988" lon="2.56158"><ele>97.0</ele></trkpt>
    <trkpt lat="48.74077" lon="2.56144"><ele>97.3</ele></trkpt>
    <trkpt lat="48.7409" lon="2.56155"><ele>97.4</ele></trkpt>
    <trkpt lat="48.74106" lon="2.56157"><ele>97.4</ele></trkpt>
    <trkpt lat="48.74118" lon="2.56142"><ele>97.4</ele></trkpt>
    <trkpt lat="48.74171" lon="2.56132"><ele>97.3</ele></trkpt>
    <trkpt lat="48.74203" lon="2.56107"><ele>97.2</ele></trkpt>
    <trkpt lat="48.74217" lon="2.56089"><ele>97.1</ele></trkpt>
    <trkpt lat="48.74246" lon="2.56022"><ele>97.2</ele></trkpt>
    <trkpt lat="48.74241" lon="2.5586"><ele>97.4</ele></trkpt>
    <trkpt lat="48.74258" lon="2.55754"><ele>97.5</ele></trkpt>
    <trkpt lat="48.74264" lon="2.55674"><ele>97.5</ele></trkpt>
    <trkpt lat="48.74277" lon="2.55668"><ele>97.5</ele></trkpt>
    <trkpt lat="48.74293" lon="2.55677"><ele>97.3</ele></trkpt>
    <trkpt lat="48.7431" lon="2.55671"><ele>97.1</ele></trkpt>
    <trkpt lat="48.74323" lon="2.55656"><ele>96.9</ele></trkpt>
    <trkpt lat="48.74423" lon="2.55718"><ele>96.6</ele></trkpt>
    <trkpt lat="48.74441" lon="2.55722"><ele>96.6</ele></trkpt>
    <trkpt lat="48.74459" lon="2.55721"><ele>96.6</ele></trkpt>
    <trkpt lat="48.74528" lon="2.55696"><ele>97.1</ele></trkpt>
    <trkpt lat="48.74582" lon="2.55707"><ele>97.7</ele></trkpt>
    <trkpt lat="48.74618" lon="2.55706"><ele>98.0</ele></trkpt>
    <trkpt lat="48.74634" lon="2.55718"><ele>98.0</ele></trkpt>
    <trkpt lat="48.74679" lon="2.55697"><ele>98.4</ele></trkpt>
    <trkpt lat="48.75524" lon="2.55733"><ele>103.0</ele></trkpt>
    <trkpt lat="48.7554" lon="2.55723"><ele>103.0</ele></trkpt>
    <trkpt lat="48.75564" lon="2.55735"><ele>103.1</ele></trkpt>
    <trkpt lat="48.75582" lon="2.55736"><ele>103.1</ele></trkpt>
    <trkpt lat="48.75906" lon="2.55749"><ele>101.0</ele></trkpt>
    <trkpt lat="48.75919" lon="2.55763"><ele>100.8</ele></trkpt>
    <trkpt lat="48.75929" lon="2.55719"><ele>100.3</ele></trkpt>
    <trkpt lat="48.75987" lon="2.55581"><ele>99.3</ele></trkpt>
    <trkpt lat="48.76059" lon="2.55216"><ele>101.0</ele></trkpt>
    <trkpt lat="48.76098" lon="2.55063"><ele>101.0</ele></trkpt>
    <trkpt lat="48.76114" lon="2.54929"><ele>101.1</ele></trkpt>
    <trkpt lat="48.76121" lon="2.54909"><ele>101.3</ele></trkpt>
    <trkpt lat="48.76118" lon="2.54887"><ele>101.5</ele></trkpt>
    <trkpt lat="48.7612" lon="2.5486"><ele>101.7</ele></trkpt>
    <trkpt lat="48.76148" lon="2.54563"><ele>102.0</ele></trkpt>
    <trkpt lat="48.76232" lon="2.5392"><ele>100.6</ele></trkpt>
    <trkpt lat="48.76294" lon="2.53754"><ele>98.7</ele></trkpt>
    <trkpt lat="48.76305" lon="2.53737"><ele>98.4</ele></trkpt>
    <trkpt lat="48.76309" lon="2.53713"><ele>98.1</ele></trkpt>
    <trkpt lat="48.76328" lon="2.53667"><ele>97.8</ele></trkpt>
    <trkpt lat="48.76354" lon="2.53632"><ele>97.2</ele></trkpt>
    <trkpt lat="48.76374" lon="2.5359"><ele>96.6</ele></trkpt>
    <trkpt lat="48.76401" lon="2.53554"><ele>96.3</ele></trkpt>
    <trkpt lat="48.76538" lon="2.53422"><ele>96.3</ele></trkpt>
    <trkpt lat="48.76591" lon="2.53358"><ele>96.1</ele></trkpt>
    <trkpt lat="48.76663" lon="2.53236"><ele>97.5</ele></trkpt>
    <trkpt lat="48.76691" lon="2.53204"><ele>98.6</ele></trkpt>
    <trkpt lat="48.76691" lon="2.53178"><ele>99.1</ele></trkpt>
    <trkpt lat="48.76698" lon="2.53154"><ele>99.0</ele></trkpt>
    <trkpt lat="48.76777" lon="2.52972"><ele>99.9</ele></trkpt>
    <trkpt lat="48.76803" lon="2.529"><ele>100.2</ele></trkpt>
    <trkpt lat="48.76825" lon="2.5286"><ele>100.4</ele></trkpt>
    <trkpt lat="48.76859" lon="2.52846"><ele>100.4</ele></trkpt>
    <trkpt lat="48.76863" lon="2.52825"><ele>100.3</ele></trkpt>
    <trkpt lat="48.77014" lon="2.52421"><ele>98.5</ele></trkpt>
    <trkpt lat="48.7705" lon="2.52242"><ele>95.8</ele></trkpt>
    <trkpt lat="48.77085" lon="2.52232"><ele>95.0</ele></trkpt>
    <trkpt lat="48.7709" lon="2.52156"><ele>93.4</ele></trkpt>
    <trkpt lat="48.77118" lon="2.52121"><ele>91.3</ele></trkpt>
    <trkpt lat="48.77201" lon="2.51979"><ele>82.5</ele></trkpt>
    <trkpt lat="48.77383" lon="2.51714"><ele>63.0</ele></trkpt>
    <trkpt lat="48.77535" lon="2.51522"><ele>49.0</ele></trkpt>
    <trkpt lat="48.77655" lon="2.51402"><ele>39.2</ele></trkpt>
    <trkpt lat="48.77773" lon="2.51234"><ele>36.9</ele></trkpt>
    <trkpt lat="48.77797" lon="2.51193"><ele>37.1</ele></trkpt>
    <trkpt lat="48.77805" lon="2.51169"><ele>37.2</ele></trkpt>
    <trkpt lat="48.78071" lon="2.51218"><ele>39.5</ele></trkpt>
    <trkpt lat="48.78105" lon="2.51234"><ele>39.7</ele></trkpt>
    <trkpt lat="48.78135" lon="2.51265"><ele>39.7</ele></trkpt>
    <trkpt lat="48.78327" lon="2.51512"><ele>38.1</ele></trkpt>
    <trkpt lat="48.78378" lon="2.51536"><ele>38.5</ele></trkpt>
    <trkpt lat="48.7843" lon="2.51646"><ele>39.2</ele></trkpt>
    <trkpt lat="48.78746" lon="2.52052"><ele>38.3</ele></trkpt>
    <trkpt lat="48.79024" lon="2.52243"><ele>39.5</ele></trkpt>
    <trkpt lat="48.79087" lon="2.52111"><ele>37.7</ele></trkpt>
    <trkpt lat="48.79094" lon="2.52086"><ele>36.9</ele></trkpt>
    <trkpt lat="48.79125" lon="2.52099"><ele>36.2</ele></trkpt>
    <trkpt lat="48.79142" lon="2.52094"><ele>36.0</ele></trkpt>
    <trkpt lat="48.79164" lon="2.52051"><ele>35.6</ele></trkpt>
    <trkpt lat="48.79179" lon="2.52041"><ele>35.5</ele></trkpt>
    <trkpt lat="48.79196" lon="2.5205"><ele>35.4</ele></trkpt>
    <trkpt lat="48.79199" lon="2.52076"><ele>35.3</ele></trkpt>
    <trkpt lat="48.79196" lon="2.5213"><ele>35.2</ele></trkpt>
    <trkpt lat="48.79207" lon="2.5215"><ele>35.2</ele></trkpt>
    <trkpt lat="48.79311" lon="2.52185"><ele>35.1</ele></trkpt>
    <trkpt lat="48.794" lon="2.52188"><ele>35.0</ele></trkpt>
    <trkpt lat="48.79701" lon="2.52245"><ele>34.9</ele></trkpt>
    <trkpt lat="48.79878" lon="2.52208"><ele>35.1</ele></trkpt>
    <trkpt lat="48.79986" lon="2.52199"><ele>35.0</ele></trkpt>
    <trkpt lat="48.80164" lon="2.52231"><ele>34.7</ele></trkpt>
    <trkpt lat="48.80235" lon="2.52226"><ele>34.9</ele></trkpt>
    <trkpt lat="48.80377" lon="2.52192"><ele>34.9</ele></trkpt>
    <trkpt lat="48.80429" lon="2.52173"><ele>35.0</ele></trkpt>
    <trkpt lat="48.80446" lon="2.52174"><ele>35.0</ele></trkpt>
    <trkpt lat="48.80456" lon="2.52154"><ele>35.1</ele></trkpt>
    <trkpt lat="48.80656" lon="2.51979"><ele>35.4</ele></trkpt>
    <trkpt lat="48.8074" lon="2.51875"><ele>35.3</ele></trkpt>
    <trkpt lat="48.80801" lon="2.51776"><ele>35.5</ele></trkpt>
    <trkpt lat="48.8084" lon="2.51683"><ele>35.8</ele></trkpt>
    <trkpt lat="48.80856" lon="2.51635"><ele>35.8</ele></trkpt>
    <trkpt lat="48.8086" lon="2.51609"><ele>35.8</ele></trkpt>
    <trkpt lat="48.80901" lon="2.51457"><ele>36.0</ele></trkpt>
    <trkpt lat="48.80922" lon="2.51297"><ele>36.1</ele></trkpt>
    <trkpt lat="48.80947" lon="2.51"><ele>40.1</ele></trkpt>
    <trkpt lat="48.80953" lon="2.50977"><ele>40.8</ele></trkpt>
    <trkpt lat="48.81022" lon="2.50999"><ele>43.0</ele></trkpt>
  </trkseg></trk>
</gpx>
